{"type":"Feature","properties":{"GID_2":"VEN.8.1_1","GID_0":"VEN","country":"Venezuela","GID_1":"VEN.8_1","province":"Cojedes","NL_NAME_1":"NA","county":"Anzoátegui","VARNAME_2":"NA","NL_NAME_2":"NA","TYPE_2":"Municipio","ENGTYPE_2":"Municipality","CC_2":"NA","HASC_2":"NA","name":"Anzoátegui.county"},
"geometry":{"type": "MultiPolygon","coordinates": [[[[-68.6852,9.5883,119.0304],[-68.6851,9.5943,122.9049],[-68.6954,9.6127,125.3885],[-68.6954,9.628,129.0081],[-68.6986,9.6348,138.3368],[-68.7124,9.6461,135.7816],[-68.7442,9.6541,145.2805],[-68.7547,9.6611,157.7881],[-68.7787,9.6957,218.3619],[-68.799,9.7194,328.8748],[-68.7922,9.7214,394.6996],[-68.7814,9.7284,489.4305],[-68.7696,9.7428,362.8055],[-68.7376,9.812,551.2437],[-68.7254,9.8491,595.7347],[-68.7181,9.8849,580.3292],[-68.7179,9.8983,806.8502],[-68.7222,9.9117,911.6737],[-68.7533,9.9042,616.9631],[-68.7887,9.9,635.1779],[-68.8289,9.9022,595.0727],[-68.8495,9.9073,616.1607],[-68.858,9.9109,518.6663],[-68.872,9.9124,548.3994],[-68.8873,9.9101,429.9932],[-68.9111,9.8966,267.4028],[-68.9219,9.8949,276.6019],[-68.925,9.8731,375.2193],[-68.9334,9.8506,326.6515],[-68.9388,9.8241,278.2922],[-68.9437,9.8109,268.8208],[-68.9505,9.8041,290.0705],[-68.9709,9.7949,211.2804],[-68.9749,9.7913,214.922],[-68.9522,9.7666,440.2187],[-68.9448,9.7553,467.0323],[-68.9412,9.7345,255.4341],[-68.9145,9.6915,175.1037],[-68.9072,9.675,176.2842],[-68.9013,9.6518,143.8992],[-68.8912,9.6223,134.8925],[-68.8837,9.5714,125.728],[-68.8843,9.5432,121.5804],[-68.8874,9.529,119.5444],[-68.8895,9.5057,117.6257],[-68.8859,9.4825,114.1404],[-68.6921,9.4788,104.0285],[-68.6835,9.497,105.8643],[-68.6831,9.5032,108.1245],[-68.6976,9.5354,113.6476],[-68.7237,9.5531,109.2525],[-68.7286,9.5647,110.8716],[-68.7284,9.5731,116.5164],[-68.7259,9.5772,121.9052],[-68.6978,9.5813,115.231],[-68.6893,9.5849,118.6675],[-68.6852,9.5883,119.0304]]]]}}