{"type":"Feature","properties":{"GID_2":"VEN.16.9_1","GID_0":"VEN","country":"Venezuela","GID_1":"VEN.16_1","province":"Miranda","NL_NAME_1":"NA","county":"ElHatillo","VARNAME_2":"NA","NL_NAME_2":"NA","TYPE_2":"Municipio","ENGTYPE_2":"Municipality","CC_2":"NA","HASC_2":"NA","name":"El_Hatillo.county"},
"geometry":{"type": "MultiPolygon","coordinates": [[[[-66.7256,10.3817,783.332],[-66.7104,10.3839,670.5298],[-66.7061,10.3868,558.6142],[-66.698,10.3986,548.563],[-66.6956,10.404,652.2373],[-66.6964,10.4078,732.2325],[-66.723,10.4168,726.3425],[-66.7534,10.4429,1102.012],[-66.7674,10.4619,1036.0145],[-66.779,10.463,926.8135],[-66.8,10.4614,877.3793],[-66.8059,10.4595,834.4437],[-66.812,10.4556,878.6192],[-66.8203,10.441,1075.2476],[-66.8305,10.427,1151.4539],[-66.8275,10.4112,1156.2987],[-66.8215,10.4033,1048.7449],[-66.8179,10.3907,938.611],[-66.8156,10.3883,1051.5471],[-66.7877,10.3857,1055.4385],[-66.7682,10.3821,769.4432],[-66.7256,10.3817,783.332]]]]}}