{"type":"Feature","properties":{"featurecla":"River","scalerank":7,"rivernum":432,"dissolve":"432River","name":"Apure","name_alt":null,"note":null,"min_zoom":6.0,"strokeweig":0.2,"name_en":"Apure","min_label":7.0},
"geometry":{"type": "LineString","coordinates": [[-72.231982421874989,7.66742584843162,577.4338],[-72.224047851562489,7.6579776062441169,548.0312],[-72.213916015624989,7.65326569218162,685.2747],[-72.202734374999991,7.65009186405662,581.6306],[-72.191943359374989,7.64508698124412,467.7952],[-72.183764648437489,7.6367373718691169,458.8423],[-72.168261718749989,7.6052432312441169,595.9385],[-72.162451171874991,7.5991397156191169,717.7142],[-72.156176757812489,7.5953311218691084,422.2039],[-72.149023437499991,7.5932803406191169,532.9424],[-72.13251953125,7.5906924499941084,428.6243],[-72.115576171874991,7.5855654968691084,398.9277],[-72.101416015624991,7.57855866093162,392.3135],[-72.089453124999991,7.57050202030662,495.2931],[-72.05341796875,7.55255768436912,295.6166],[-72.048022460937489,7.54852936405662,294.285],[-72.043310546874991,7.54352448124412,287.2943],[-72.033618164062489,7.52924225468162,296.1353],[-72.015673828124989,7.5149111999941169,297.4175],[-72.00830078125,7.51056549686912,339.6351],[-72.000170898437489,7.5081729187441084,365.0775],[-71.991748046874989,7.50787994999412,312.051],[-71.920825195312489,7.5145205749941084,226.0239],[-71.9052734375,7.51337311405662,219.8703],[-71.844409179687489,7.49347565311912,201.25]]}}