{"type":"Feature","properties":{"featurecla":"River","scalerank":7,"rivernum":432,"dissolve":"432River","name":"Apure1","name_alt":null,"note":null,"min_zoom":6.0,"strokeweig":0.2,"name_en":"Apure","min_label":7.0},
"geometry":{"type": "LineString","coordinates": [[-72.176220703125,7.8867373718691169,1388.4812],[-72.205004882812489,7.85468170780662,1203.8263],[-72.22802734375,7.82184479374412,915.4539],[-72.2373046875,7.80145905155662,785.3538],[-72.243505859374991,7.7799014343691084,788.3053],[-72.248461914062489,7.73932526249412,915.1122],[-72.245166015624989,7.6985049499941169,630.2505],[-72.242919921875,7.69013092655662,674.5261],[-72.231982421874989,7.66742584843162,577.4338]]}}