{"type": "Feature","bbox": [-72.4879,7.3206,-71.348,8.6654],"geometry": {"type": "MultiPolygon","coordinates": [[[[-72.2865,7.47,1845.9585],[-72.2481,7.4618,1377.5057],[-72.1896,7.4314,2119.2153],[-72.1649,7.4178,1304.7286],[-72.1123,7.3785,702.9813],[-72.0651,7.3493,556.7368],[-72.0184,7.3296,542.152],[-71.9752,7.3206,394.7082],[-71.947,7.3253,328.0351],[-71.9026,7.3443,249.4109],[-71.8877,7.3529,230.5708],[-71.8596,7.3851,214.6089],[-71.8428,7.4018,210.9826],[-71.8231,7.4293,207.7342],[-71.8049,7.4365,202.8494],[-71.8112,7.4396,204.1658],[-71.8189,7.4534,205.357],[-71.8267,7.4611,214.4304],[-71.8469,7.4708,207.2369],[-71.8561,7.4718,207.5029],[-71.8677,7.4776,205.5],[-71.8678,7.4811,210.9048],[-71.8615,7.4886,208.3014],[-71.8483,7.4951,204.0401],[-71.8262,7.5013,202.2268],[-71.8095,7.5022,199.0208],[-71.7893,7.5009,197.8602],[-71.7764,7.4977,196.6697],[-71.7619,7.4909,195.1823],[-71.7374,7.4897,191.4607],[-71.6952,7.4963,186.9628],[-71.6583,7.4863,189.011],[-71.5911,7.4725,181.4884],[-71.529,7.4658,168.9939],[-71.4963,7.4605,167.3054],[-71.454,7.4653,168.4082],[-71.4234,7.4633,165.6439],[-71.3995,7.4502,160.3464],[-71.3837,7.4512,162.9437],[-71.3684,7.4551,163.2965],[-71.356,7.4598,164.6646],[-71.348,7.4698,157.9091],[-71.3493,7.4809,159.1301],[-71.3546,7.4888,158.841],[-71.3665,7.4918,160.1335],[-71.3816,7.4911,164.0232],[-71.3941,7.4926,160.4227],[-71.4025,7.4982,162.7569],[-71.4055,7.5041,162.3644],[-71.4083,7.5242,162.2562],[-71.4138,7.5404,164.0079],[-71.4163,7.542,164.2422],[-71.419,7.5415,164.735],[-71.4276,7.5317,165.1508],[-71.4345,7.5296,165.0492],[-71.4389,7.5335,164.7548],[-71.4422,7.5406,166.9742],[-71.4467,7.5591,168.5178],[-71.4497,7.563,167.0096],[-71.4547,7.5655,169.1993],[-71.4708,7.5676,170.2242],[-71.4805,7.5741,171.4398],[-71.4865,7.5808,172.0561],[-71.507,7.5871,175.1176],[-71.5098,7.592,202.3082],[-71.5096,7.5982,251.78],[-71.499,7.6238,175.7104],[-71.4976,7.6319,177.5603],[-71.5073,7.6502,181.4258],[-71.5141,7.6711,184.2374],[-71.5181,7.7014,312.0593],[-71.519,7.7706,716.6582],[-71.5177,7.8617,1530.1962],[-71.519,7.8967,1320.3362],[-71.5251,7.915,1804.8936],[-71.5525,7.942,1070.8602],[-71.5614,7.9576,1598.6493],[-71.5667,7.9876,2166.6631],[-71.5713,7.9898,2348.8799],[-71.5808,7.9879,2222.0349],[-71.6257,7.9738,1483.5089],[-71.6377,7.9718,1344.4],[-71.6567,7.975,1394.6044],[-71.6693,7.9832,1666.2972],[-71.6778,7.9941,1471.0057],[-71.6914,8.0242,1398.436],[-71.7416,8.069,1713.415],[-71.7556,8.0871,1578.4365],[-71.7689,8.1085,1788.344],[-71.7804,8.1216,2335.8125],[-71.7946,8.1313,2379.6787],[-71.8723,8.1525,2659.9033],[-71.8904,8.1653,3152.2078],[-71.8985,8.1774,2995.1648],[-71.9015,8.1924,3140.8882],[-71.9,8.2073,3173.8779],[-71.8927,8.2204,3223.8901],[-71.8472,8.2681,2442.0264],[-71.8354,8.2862,2476.7727],[-71.8273,8.3037,2340.7012],[-71.8227,8.3227,1871.3168],[-71.8201,8.3573,1268.1361],[-71.805,8.3836,1377.8157],[-71.8003,8.397,891.4062],[-71.7979,8.4127,584.749],[-71.792,8.4342,415.6555],[-71.7726,8.4565,401.8283],[-71.7644,8.4756,346.3602],[-71.7628,8.492,310.1043],[-71.768,8.5114,248.7393],[-71.7744,8.5274,185.9542],[-71.7907,8.5598,72.1217],[-71.8011,8.5764,59.7662],[-71.8174,8.5961,46.2742],[-71.8277,8.6053,41.2047],[-71.8497,8.6122,32.9101],[-71.9244,8.617,15.4721],[-71.9549,8.6268,13.3062],[-71.9705,8.6356,13.221],[-71.9827,8.6591,10.5058],[-71.9909,8.665,9.641],[-71.9966,8.6654,10.7567],[-72.0016,8.6638,12.1938],[-72.004,8.6595,10.3612],[-71.9961,8.6285,10.3972],[-71.9975,8.5868,13.6976],[-72.0034,8.5743,20.3314],[-72.0176,8.5694,20.2484],[-72.0425,8.5662,21.23],[-72.1255,8.5642,25.5005],[-72.1968,8.5566,28.1345],[-72.2236,8.556,25.9562],[-72.2395,8.559,27.188],[-72.2725,8.5694,27.2688],[-72.2893,8.5694,29.2271],[-72.3149,8.5652,29.181],[-72.3324,8.5587,29.87],[-72.3473,8.5505,39.2478],[-72.3625,8.5396,34.1347],[-72.3741,8.5251,38.0649],[-72.3779,8.513,40.7288],[-72.3751,8.4806,38.5195],[-72.3761,8.4696,41.8652],[-72.3825,8.4607,39.6924],[-72.4098,8.4359,45.4143],[-72.4264,8.3877,49.7097],[-72.4271,8.3821,48.8575],[-72.423,8.3827,50.4668],[-72.4166,8.3808,48.0],[-72.4088,8.3744,48.91],[-72.4089,8.3708,49.1631],[-72.4165,8.3672,47.5035],[-72.4157,8.364,47.069],[-72.4115,8.3635,49.8641],[-72.4066,8.3663,47.2536],[-72.4036,8.364,49.0706],[-72.4083,8.3601,49.7297],[-72.4046,8.3607,48.8741],[-72.4028,8.3557,48.223],[-72.4,8.3605,51.0305],[-72.3934,8.3582,51.5464],[-72.3923,8.3548,50.2498],[-72.3941,8.3504,50.1304],[-72.3889,8.3482,53.5178],[-72.3892,8.3441,51.1835],[-72.3956,8.3434,52.2781],[-72.3931,8.3385,52.9739],[-72.3955,8.3315,54.0437],[-72.3923,8.3286,54.185],[-72.3926,8.3273,55.2681],[-72.3955,8.3271,53.2988],[-72.3959,8.3253,53.477],[-72.393,8.3203,54.2532],[-72.3895,8.3202,56.9917],[-72.3857,8.3163,56.5968],[-72.3821,8.3159,55.6978],[-72.3825,8.3118,55.2873],[-72.381,8.3099,58.3425],[-72.3832,8.3055,56.8545],[-72.3811,8.306,65.3809],[-72.3808,8.3046,58.2508],[-72.387,8.3035,66.0796],[-72.3849,8.3015,63.2031],[-72.3872,8.2992,69.5636],[-72.3864,8.296,67.0355],[-72.3841,8.2944,61.7214],[-72.3883,8.2924,62.7515],[-72.3881,8.2909,59.7692],[-72.3852,8.2902,61.3041],[-72.389,8.2897,58.9054],[-72.39,8.2868,59.9913],[-72.3884,8.2869,59.9913],[-72.389,8.285,59.4155],[-72.3871,8.2826,66.7143],[-72.3891,8.2795,59.8382],[-72.3856,8.2779,61.845],[-72.3896,8.269,66.6741],[-72.3908,8.2596,66.747],[-72.394,8.2589,63.6725],[-72.3914,8.255,63.9178],[-72.3945,8.2521,64.6636],[-72.3928,8.2516,64.0413],[-72.3918,8.2534,63.5397],[-72.3871,8.2527,64.8631],[-72.3885,8.2505,65.2887],[-72.3869,8.2464,65.59],[-72.3816,8.2464,66.8808],[-72.3874,8.2416,66.7342],[-72.3827,8.2343,69.7683],[-72.3844,8.2315,68.323],[-72.3787,8.221,70.6041],[-72.3807,8.2187,70.5411],[-72.3757,8.2147,73.2195],[-72.3775,8.2085,72.8016],[-72.3741,8.2027,73.9662],[-72.3724,8.2036,73.4853],[-72.3726,8.201,76.4733],[-72.37,8.2007,73.2733],[-72.375,8.1949,76.1842],[-72.3696,8.1957,76.3203],[-72.3683,8.1921,77.341],[-72.3706,8.1919,76.9236],[-72.3707,8.1904,83.2312],[-72.3634,8.1913,78.0942],[-72.3674,8.1851,78.1828],[-72.3656,8.1843,79.971],[-72.3657,8.1821,80.2214],[-72.3634,8.1818,82.0335],[-72.3603,8.1713,83.4497],[-72.3554,8.1657,87.7577],[-72.3567,8.1632,89.2161],[-72.3554,8.1544,89.5816],[-72.3577,8.1539,89.4115],[-72.3582,8.1511,92.069],[-72.3601,8.153,91.1148],[-72.3608,8.1508,91.1586],[-72.3658,8.15,96.5076],[-72.3657,8.1457,102.56],[-72.3677,8.1427,107.0686],[-72.3673,8.1399,103.1713],[-72.3628,8.1406,100.2506],[-72.3667,8.1363,110.4547],[-72.3644,8.1339,112.8454],[-72.3628,8.1342,111.2169],[-72.3642,8.1294,122.7181],[-72.3617,8.1274,118.0068],[-72.3622,8.1255,122.2331],[-72.3608,8.1254,123.9727],[-72.3614,8.1238,123.9727],[-72.3598,8.1232,121.122],[-72.359,8.1202,151.0966],[-72.3625,8.1198,127.8163],[-72.3637,8.1211,135.03],[-72.3639,8.1191,130.0174],[-72.3674,8.1193,137.0627],[-72.3696,8.1172,158.101],[-72.37,8.1138,151.3288],[-72.3726,8.1138,160.3854],[-72.3714,8.1125,147.9191],[-72.3731,8.1122,160.7853],[-72.3749,8.1074,192.552],[-72.3721,8.1039,161.5295],[-72.3703,8.0936,214.6874],[-72.3579,8.0887,393.1729],[-72.3508,8.0802,505.0187],[-72.352,8.0725,489.7555],[-72.3478,8.0585,768.1642],[-72.3485,8.0457,931.8503],[-72.3465,8.0369,1264.6036],[-72.35,8.0326,1385.0273],[-72.3536,8.0311,1365.864],[-72.3552,8.0266,1488.4756],[-72.3484,8.0199,1485.4133],[-72.3473,8.0162,1530.5275],[-72.3498,8.0066,1660.5045],[-72.349,8.0037,1670.6713],[-72.3505,8.0033,1658.3698],[-72.3625,8.0099,1046.4696],[-72.366,8.0176,847.75],[-72.3682,8.0196,800.2994],[-72.3715,8.0197,816.8707],[-72.3775,8.0249,635.4714],[-72.3785,8.0298,577.3265],[-72.3837,8.034,486.8991],[-72.3903,8.0349,423.4523],[-72.3945,8.032,357.9169],[-72.3975,8.0328,316.9493],[-72.3983,8.0316,333.0138],[-72.4034,8.0346,271.1385],[-72.4155,8.0336,199.2973],[-72.4173,8.0314,240.0788],[-72.4141,8.021,208.6461],[-72.4166,8.021,210.1722],[-72.4176,8.0182,233.7389],[-72.4201,8.0171,262.8964],[-72.4191,8.0118,218.3815],[-72.4231,8.0087,254.7428],[-72.4222,8.0029,238.896],[-72.4193,8.0014,225.0841],[-72.4204,7.9957,228.0225],[-72.4229,7.9951,232.8248],[-72.4276,7.9894,236.8167],[-72.4307,7.9898,243.3271],[-72.4329,7.9925,246.0844],[-72.4389,7.9919,270.299],[-72.4411,7.9862,277.5901],[-72.4443,7.9842,322.9332],[-72.4413,7.9801,259.8788],[-72.4418,7.976,256.5369],[-72.4492,7.9715,292.9358],[-72.4474,7.9686,254.5209],[-72.4602,7.9667,271.6912],[-72.4619,7.964,261.3548],[-72.4756,7.9601,286.2826],[-72.476,7.9557,264.4421],[-72.4839,7.9509,306.0813],[-72.4833,7.9481,273.7949],[-72.4879,7.9443,274.0081],[-72.4864,7.9407,266.1226],[-72.4878,7.9374,269.1448],[-72.484,7.9343,268.0626],[-72.4849,7.9311,269.3257],[-72.4811,7.9295,272.6339],[-72.4799,7.9265,273.7889],[-72.4765,7.9306,277.0258],[-72.4748,7.9281,278.3817],[-72.4776,7.9236,282.0821],[-72.4745,7.9234,283.8038],[-72.4738,7.9249,279.2062],[-72.4669,7.9225,285.2769],[-72.4678,7.9187,288.8087],[-72.4648,7.919,285.2956],[-72.4619,7.9137,293.3178],[-72.4583,7.9117,295.6887],[-72.4587,7.9089,299.8995],[-72.463,7.9083,303.9786],[-72.4614,7.9032,303.6823],[-72.4594,7.9018,305.012],[-72.46,7.8983,307.4231],[-72.458,7.8967,311.5854],[-72.46,7.8948,310.5637],[-72.4584,7.8935,314.3525],[-72.4592,7.8913,318.8246],[-72.4572,7.8903,317.2942],[-72.4593,7.8866,324.4573],[-72.4563,7.8856,322.4168],[-72.4582,7.8816,330.0223],[-72.4551,7.8806,329.8832],[-72.4548,7.8784,332.6335],[-72.4524,7.8774,331.7867],[-72.452,7.8733,339.2172],[-72.4483,7.8708,341.8414],[-72.4506,7.8672,351.5155],[-72.4446,7.858,357.4122],[-72.4494,7.8394,381.1554],[-72.4479,7.8365,389.4926],[-72.4499,7.8322,390.1718],[-72.4475,7.8283,402.2964],[-72.45,7.8271,397.5014],[-72.4492,7.823,404.8289],[-72.4522,7.8189,415.4856],[-72.4512,7.8161,415.0357],[-72.4537,7.8148,418.7538],[-72.4563,7.8074,434.2285],[-72.4587,7.8066,439.1416],[-72.4613,7.8008,447.158],[-72.4639,7.8007,448.2553],[-72.4672,7.7943,463.5137],[-72.4671,7.7888,473.5895],[-72.4691,7.7853,482.981],[-72.4671,7.7785,498.2474],[-72.4695,7.7716,511.1735],[-72.469,7.7682,524.7924],[-72.4707,7.7661,520.1112],[-72.47,7.7635,552.3131],[-72.4733,7.7581,538.2485],[-72.4729,7.749,557.1833],[-72.4712,7.747,588.1558],[-72.4725,7.7439,581.8191],[-72.471,7.7411,607.5875],[-72.4704,7.729,682.9662],[-72.4719,7.7186,634.4104],[-72.4704,7.7166,675.7934],[-72.4699,7.7043,674.2369],[-72.4738,7.6976,724.9258],[-72.4728,7.69,758.8427],[-72.4746,7.6797,849.4785],[-72.4723,7.6738,892.217],[-72.473,7.6721,802.2966],[-72.4712,7.6704,882.4949],[-72.4734,7.6674,818.5689],[-72.4729,7.6608,878.5054],[-72.4747,7.6564,973.8775],[-72.4722,7.6517,1062.4048],[-72.4734,7.6486,1017.1028],[-72.4762,7.6473,929.9922],[-72.4729,7.6413,989.6475],[-72.4755,7.6317,1024.5493],[-72.4689,7.6178,1083.4988],[-72.4667,7.6089,1106.9698],[-72.4677,7.6075,1114.4867],[-72.4648,7.6021,1139.0614],[-72.4658,7.5992,1148.9587],[-72.4636,7.5961,1311.517],[-72.4654,7.5928,1216.5387],[-72.4626,7.5886,1295.801],[-72.4596,7.5871,1240.2944],[-72.4573,7.5815,1339.1517],[-72.4556,7.5809,1316.9495],[-72.4565,7.5785,1420.0544],[-72.4535,7.5744,1344.0396],[-72.4543,7.5719,1360.5319],[-72.4528,7.5702,1347.8967],[-72.4518,7.5586,1487.7101],[-72.4551,7.5523,1486.7596],[-72.456,7.544,1665.9678],[-72.4584,7.5423,1523.6875],[-72.4599,7.5371,1701.972],[-72.464,7.5359,1675.4568],[-72.4671,7.5323,1617.7739],[-72.4662,7.529,1688.1777],[-72.4704,7.5252,1696.9365],[-72.4715,7.5227,1628.8311],[-72.4705,7.5204,1758.9578],[-72.4734,7.5182,1645.9646],[-72.4715,7.5118,1725.2142],[-72.4737,7.5055,1731.3169],[-72.4727,7.4954,1875.0182],[-72.4743,7.4896,1921.2037],[-72.4733,7.4867,1847.0593],[-72.4687,7.4833,1876.012],[-72.4618,7.4826,1920.3679],[-72.4595,7.4809,1933.9062],[-72.4537,7.4683,2037.5739],[-72.4479,7.4633,2111.0996],[-72.4441,7.4535,2181.6873],[-72.4442,7.4476,2213.5222],[-72.4414,7.4367,2311.0132],[-72.3816,7.4641,2621.6123],[-72.3384,7.4712,2366.0415],[-72.3151,7.4722,2990.0337],[-72.2865,7.47,1845.9585]]]]}
,"properties": {"GID_1": "VEN.21_1","GID_0": "VEN","country": "Venezuela","province": "Táchira","VARNAME_1": "NA","NL_NAME_1": "NA","TYPE_1": "Estado","ENGTYPE_1": "State","CC_1": "NA","HASC_1": "NA","ISO_1": "NA","name": "Táchira.province","area_km2": 10827.412,"hist_schema_id": "Elevation0-9000","hist_area_km2": {"0": 23.436,"25": 519.149,"50": 716.109,"75": 381.706,"100": 146.755,"125": 75.736,"150": 74.408,"175": 502.973,"200": 409.733,"225": 236.72,"250": 147.924,"275": 163.963,"300": 204.345,"325": 173.904,"350": 158.672,"375": 146.089,"400": 135.415,"425": 124.638,"450": 114.005,"475": 102.656,"500": 96.077,"525": 93.917,"550": 92.802,"575": 86.941,"600": 89.67,"625": 93.074,"650": 106.117,"675": 104.901,"700": 102.232,"725": 104.524,"750": 105.68,"775": 106.897,"800": 107.549,"825": 109.274,"850": 106.018,"875": 109.506,"900": 109.99,"925": 106.503,"950": 104.884,"975": 102.489,"1000": 99.336,"1025": 99.902,"1050": 98.242,"1075": 94.292,"1100": 114.807,"1125": 102.649,"1150": 97.626,"1175": 97.289,"1200": 96.26,"1225": 94.222,"1250": 88.109,"1275": 84.999,"1300": 83.738,"1325": 81.951,"1350": 78.149,"1375": 77.307,"1400": 76.025,"1425": 71.972,"1450": 69.997,"1475": 69.472,"1500": 68.211,"1525": 67.307,"1550": 66.425,"1575": 64.136,"1600": 63.023,"1625": 61.215,"1650": 59.494,"1675": 57.898,"1700": 56.952,"1725": 54.979,"1750": 52.227,"1775": 51.114,"1800": 50.673,"1825": 51.03,"1850": 49.202,"1875": 48.929,"1900": 47.271,"1925": 46.556,"1950": 43.533,"1975": 43.365,"2000": 41.664,"2025": 42.482,"2050": 41.181,"2075": 39.899,"2100": 40.044,"2125": 38.721,"2150": 38.071,"2175": 38.218,"2200": 38.492,"2225": 36.959,"2250": 37.883,"2275": 37.63,"2300": 36.223,"2325": 36.475,"2350": 35.677,"2375": 34.06,"2400": 34.122,"2425": 33.22,"2450": 32.107,"2475": 31.854,"2500": 31.603,"2525": 28.537,"2550": 27.991,"2575": 26.185,"2600": 25.534,"2625": 23.833,"2650": 22.763,"2675": 20.2,"2700": 19.339,"2725": 18.353,"2750": 16.883,"2775": 16.358,"2800": 16.169,"2825": 14.867,"2850": 13.984,"2875": 13.879,"2900": 13.165,"2925": 13.039,"2950": 11.254,"2975": 11.485,"3000": 10.938,"3025": 12.388,"3050": 11.359,"3075": 10.036,"3100": 10.561,"3125": 9.805,"3150": 9.784,"3175": 8.482,"3200": 8.44,"3225": 8.125,"3250": 8.608,"3275": 8.062,"3300": 8.103,"3325": 7.201,"3350": 7.557,"3375": 6.298,"3400": 7.012,"3425": 6.529,"3450": 6.025,"3475": 6.445,"3500": 6.529,"3525": 5.773,"3550": 5.437,"3575": 5.563,"3600": 5.018,"3625": 4.22,"3650": 3.233,"3675": 3.254,"3700": 2.645,"3725": 2.288,"3750": 1.994,"3775": 0.987,"3800": 0.483,"3825": 0.399,"3850": 0.126}}}