{"type":"Feature","properties":{"ISO3166-1-Alpha-3":"VEN","country":"Venezuela","fill":"#000","id":"28","name":"Táchira"},
"geometry":{"type": "Polygon","coordinates": [[[-71.89248,8.17172,2879.7329],[-71.8971,8.17547,3057.0164],[-71.89829,8.1788,2993.1743],[-71.89897,8.18299,2902.385],[-71.89889,8.18686,2943.8994],[-71.89605,8.20353,2960.658],[-71.88992,8.22534,3289.2417],[-71.88646,8.23211,3163.6184],[-71.86083,8.2626,2973.2612],[-71.84806,8.28601,2925.1848],[-71.84279,8.29262,2692.3809],[-71.82788,8.30014,2292.6802],[-71.82199,8.30572,2287.0264],[-71.81853,8.31037,2276.8962],[-71.81078,8.33923,1790.3925],[-71.82964,8.39541,888.0406],[-71.77796,8.45943,304.4957],[-71.77225,8.46897,272.9548],[-71.77107,8.48093,222.7127],[-71.77471,8.4993,251.8771],[-71.77548,8.50108,210.7312],[-71.77688,8.50356,228.508],[-71.79471,8.52576,118.5358],[-71.79693,8.53041,111.4712],[-71.79876,8.53553,98.6301],[-71.80119,8.56542,63.4935],[-71.80267,8.57069,59.3066],[-71.80525,8.5762,55.9389],[-71.80946,8.58123,52.5373],[-71.81714,8.58705,47.0676],[-71.82313,8.5903,44.7248],[-71.94493,8.61141,17.5793],[-71.99384,8.53212,23.8785],[-71.99963,8.52653,27.8792],[-72.00224,8.52483,26.6061],[-72.00705,8.5225,28.6603],[-72.02418,8.50837,31.9665],[-72.03469,8.49341,38.2182],[-72.04219,8.48682,40.4478],[-72.04859,8.48326,41.4027],[-72.05467,8.48279,42.0519],[-72.07361,8.48357,41.7867],[-72.07965,8.48284,41.2494],[-72.08575,8.48067,41.0953],[-72.092,8.47765,41.235],[-72.11583,8.46323,43.5018],[-72.12983,8.4568,43.5681],[-72.13513,8.45587,43.654],[-72.16562,8.45912,41.062],[-72.17272,8.45804,40.5595],[-72.17644,8.45437,40.0138],[-72.17882,8.45088,41.0603],[-72.17967,8.44344,42.9021],[-72.22636,8.40148,48.0443],[-72.23533,8.39944,48.7752],[-72.24248,8.39913,49.8673],[-72.24326,8.40512,50.0975],[-72.24073,8.42987,48.3561],[-72.24546,8.46563,38.6444],[-72.25011,8.48186,38.8261],[-72.25194,8.49318,35.9325],[-72.25189,8.51979,30.1845],[-72.25318,8.52731,30.0787],[-72.25737,8.537,31.0519],[-72.26287,8.5416,30.2253],[-72.27129,8.54361,29.8174],[-72.27695,8.54284,28.998],[-72.28119,8.54168,28.82],[-72.30152,8.53072,30.6663],[-72.31408,8.52235,32.5404],[-72.33328,8.50302,36.9393],[-72.33922,8.49829,37.588],[-72.34196,8.4955,41.6956],[-72.3448,8.49178,44.7267],[-72.34674,8.48721,39.7386],[-72.3479,8.46943,38.7528],[-72.34899,8.46377,40.4227],[-72.35064,8.45858,42.0],[-72.35297,8.45401,35.5],[-72.36909,8.43228,43.0617],[-72.37348,8.43251,43.7091],[-72.38131,8.4391,53.0221],[-72.3849,8.43832,49.8665],[-72.38811,8.43545,43.3896],[-72.39718,8.42365,44.0345],[-72.39955,8.41915,43.9302],[-72.40105,8.41403,45.1929],[-72.40141,8.40807,42.6214],[-72.40328,8.39737,46.4904],[-72.40994,8.38897,47.5723],[-72.41561,8.38269,55.7932],[-72.41508,8.38241,55.7932],[-72.40325,8.3705,46.3271],[-72.39354,8.35538,49.6462],[-72.38677,8.33861,52.7324],[-72.38397,8.32179,57.4691],[-72.38584,8.30551,56.9354],[-72.39478,8.2728,61.2315],[-72.39596,8.2566,63.9922],[-72.39054,8.23433,68.1751],[-72.35726,8.17214,82.9627],[-72.33576,8.1039,505.5156],[-72.33385,8.06548,694.809],[-72.35008,8.04259,918.365],[-72.36723,8.04269,792.595],[-72.38832,8.04618,443.634],[-72.40707,8.04377,222.3827],[-72.4171,8.02576,209.8195],[-72.42185,8.00623,246.2979],[-72.43012,7.99052,239.6376],[-72.4419,7.97714,269.8596],[-72.45674,7.96494,256.5379],[-72.46743,7.95967,263.2254],[-72.4788,7.95554,271.6978],[-72.48779,7.94918,364.8663],[-72.4912,7.9375,274.2385],[-72.48666,7.92872,276.1371],[-72.46568,7.90458,312.1237],[-72.45865,7.89352,314.3525],[-72.45446,7.87616,336.0312],[-72.45177,7.8328,392.2046],[-72.45415,7.81523,418.7538],[-72.47415,7.75415,546.0337],[-72.48335,7.64935,1201.9929],[-72.4804,7.62894,1221.2124],[-72.46681,7.58987,1393.286],[-72.4634,7.57075,1766.8378],[-72.46738,7.54874,1951.5099],[-72.47591,7.52864,1741.5066],[-72.48201,7.50802,1909.3904],[-72.4787,7.48445,2068.3545],[-72.45131,7.44022,2413.6409],[-72.41462,7.41381,3039.4197],[-72.39581,7.40749,3394.4314],[-72.39578,7.40751,3394.4314],[-72.35,7.43071,2699.1213],[-72.33364,7.44179,2653.5229],[-72.32465,7.44647,2930.8911],[-72.31971,7.44841,2692.0728],[-72.31098,7.44918,2365.6355],[-72.29938,7.44887,2326.5259],[-72.24372,7.43993,1816.4751],[-72.22652,7.44055,2403.3342],[-72.18853,7.4498,1585.2363],[-72.16812,7.44404,1773.323],[-72.15897,7.43699,1479.9559],[-72.14766,7.42102,1018.5355],[-72.1443,7.41753,978.0977],[-72.13611,7.41177,1186.5638],[-72.09448,7.39084,1321.3555],[-72.07787,7.37965,1093.4358],[-72.0688,7.375,753.5624],[-72.02332,7.36423,344.7635],[-72.01087,7.36338,322.7449],[-71.99028,7.36547,302.0783],[-71.97656,7.36942,289.2757],[-71.96658,7.3743,299.415],[-71.92452,7.40138,246.6791],[-71.91444,7.40572,238.851],[-71.89217,7.41061,226.0105],[-71.88705,7.41239,224.5827],[-71.88116,7.41603,221.1974],[-71.87501,7.42149,214.8276],[-71.85858,7.44528,210.5406],[-71.83964,7.49068,206.2438],[-71.84155,7.49476,201.0],[-71.8438,7.49959,207.3989],[-71.84711,7.50931,206.9085],[-71.84773,7.51528,204.8721],[-71.84713,7.52094,206.2046],[-71.84582,7.52613,205.8783],[-71.84398,7.53039,205.4348],[-71.83791,7.53321,205.0994],[-71.82672,7.53592,203.3982],[-71.80086,7.53825,205.3257],[-71.7867,7.53716,199.1831],[-71.77517,7.53871,195.3147],[-71.76732,7.54282,196.5352],[-71.75716,7.54646,194.6616],[-71.692,7.54933,187.4837],[-71.66756,7.54747,184.7674],[-71.62526,7.53429,181.7728],[-71.55173,7.52466,174.2056],[-71.50909,7.51427,172.6766],[-71.50183,7.51357,171.8491],[-71.46754,7.51489,166.5616],[-71.45654,7.51357,167.1672],[-71.44566,7.51101,174.8404],[-71.3829,7.48975,160.2401],[-71.36068,7.48618,158.4171],[-71.35125,7.48595,158.4096],[-71.34373,7.48657,158.5784],[-71.3343,7.48874,157.7856],[-71.32611,7.49231,158.6154],[-71.31978,7.49642,155.3691],[-71.31761,7.49959,160.8686],[-71.31758,7.50238,168.0383],[-71.32083,7.50706,166.3694],[-71.32828,7.51148,159.405],[-71.35375,7.51435,164.9855],[-71.36644,7.51791,171.4032],[-71.37796,7.52404,165.5677],[-71.40119,7.54251,162.7011],[-71.40566,7.5515,165.4764],[-71.41052,7.55804,166.3699],[-71.4246,7.56657,166.7514],[-71.42884,7.57641,167.2532],[-71.43465,7.5861,168.54],[-71.45587,7.59985,171.0961],[-71.46367,7.60636,176.5837],[-71.46933,7.61271,171.5053],[-71.47444,7.61724,174.7737],[-71.47961,7.62003,186.0513],[-71.48594,7.62452,196.3357],[-71.4909,7.62979,187.9372],[-71.48356,7.66617,181.4837],[-71.48356,7.68449,188.2005],[-71.49121,7.71266,288.6979],[-71.49648,7.7247,340.5366],[-71.50075,7.72989,341.6518],[-71.50367,7.73253,378.715],[-71.50726,7.73524,364.5806],[-71.52465,7.74578,402.5953],[-71.52832,7.74896,576.7732],[-71.53147,7.75271,688.8972],[-71.53279,7.75829,819.8621],[-71.53186,7.76565,864.5106],[-71.51519,7.79815,937.6089],[-71.50754,7.81833,696.7221],[-71.50609,7.82996,725.7242],[-71.50739,7.88482,1544.8228],[-71.51214,7.91236,1949.1189],[-71.52033,7.92494,1702.0149],[-71.52224,7.9299,1731.5338],[-71.51969,7.94401,1276.5568],[-71.49995,7.96993,1581.833],[-71.4978,7.98453,948.4002],[-71.49827,7.98925,985.7949],[-71.50772,8.0054,1221.2246],[-71.58885,8.05729,2225.832],[-71.61503,8.05891,2156.2588],[-71.62247,8.05853,2019.618],[-71.63637,8.06065,1718.4634],[-71.6434,8.05953,1828.5447],[-71.65386,8.05636,1810.9049],[-71.6603,8.05628,1780.6816],[-71.66957,8.06065,1476.5586],[-71.68076,8.06116,1241.5732],[-71.6873,8.05977,1196.5745],[-71.69167,8.0562,1480.311],[-71.69513,8.05271,1492.8669],[-71.69898,8.04969,1518.1104],[-71.70355,8.04752,1448.0729],[-71.71135,8.04907,1326.2242],[-71.72091,8.05403,1503.8463],[-71.74463,8.07491,1688.0642],[-71.75313,8.08467,1632.713],[-71.79621,8.15172,2587.6003],[-71.80039,8.15583,2580.5117],[-71.82132,8.17048,2961.7668],[-71.83142,8.17532,2657.3401],[-71.85093,8.17756,3077.2932],[-71.89248,8.17172,2879.7329]]]}}