{"type": "Feature","bbox": [-64.4836,8.7634,-63.3705,10.0724],"geometry": {"type": "MultiPolygon","coordinates": [[[[-64.4153,8.9512,299.6456],[-64.3328,8.7634,247.8604],[-64.3062,8.8337,277.1738],[-64.2996,8.8453,278.6531],[-64.2868,8.8538,282.4409],[-64.2662,8.8598,281.1765],[-64.2227,8.8614,269.1317],[-64.1867,8.87,264.7291],[-64.1607,8.8717,259.9991],[-64.146,8.8698,247.0647],[-64.1363,8.8663,261.5352],[-64.1256,8.8595,253.5995],[-64.1206,8.8628,250.1308],[-64.1096,8.8808,229.7166],[-64.1065,8.8827,235.4382],[-64.0882,8.8748,217.6112],[-64.0737,8.8706,216.9675],[-64.0212,8.8653,217.4692],[-63.9701,8.8553,195.5988],[-63.9629,8.8553,192.3044],[-63.9193,8.8652,200.994],[-63.9088,8.8642,201.166],[-63.8682,8.8533,182.2961],[-63.8177,8.8471,156.6642],[-63.8009,8.8472,157.5536],[-63.7638,8.8523,157.0069],[-63.7562,8.8505,159.9511],[-63.7327,8.8381,151.1494],[-63.721,8.8361,148.1368],[-63.6993,8.8368,161.3308],[-63.684,8.8349,148.0382],[-63.6522,8.8247,160.5045],[-63.605,8.8147,166.3365],[-63.569,8.8007,160.319],[-63.5413,8.7867,145.3799],[-63.4745,8.8373,111.6763],[-63.4232,8.8813,134.635],[-63.3954,8.9073,130.4924],[-63.3705,8.9264,125.955],[-63.4011,8.9985,98.2949],[-63.4229,9.0181,97.302],[-63.4456,9.0271,117.2707],[-63.4696,9.0419,112.1675],[-63.4979,9.0709,132.0259],[-63.517,9.0817,131.233],[-63.5348,9.0959,141.4211],[-63.5592,9.1037,129.7732],[-63.5682,9.1149,138.7083],[-63.5782,9.1215,150.38],[-63.5873,9.1231,141.8894],[-63.5949,9.1267,146.0631],[-63.6,9.1315,132.8262],[-63.6027,9.1379,140.5759],[-63.6028,9.1551,146.4865],[-63.6045,9.1621,154.8938],[-63.6139,9.1723,150.9282],[-63.6257,9.1746,168.726],[-63.6376,9.1745,152.6054],[-63.6516,9.1777,166.6609],[-63.6774,9.1897,188.031],[-63.6964,9.2009,200.5513],[-63.7111,9.2051,178.522],[-63.7214,9.2075,172.1488],[-63.7663,9.2109,202.3817],[-63.7887,9.2111,202.5619],[-63.8056,9.2093,198.9011],[-63.889,9.1909,224.2715],[-63.9027,9.1903,228.6264],[-63.9145,9.1919,222.2036],[-63.9231,9.1975,213.3125],[-63.9284,9.2053,207.9398],[-63.9317,9.2253,191.7175],[-63.94,9.2411,185.029],[-63.9688,9.2679,213.8736],[-63.9757,9.2759,215.4769],[-63.9804,9.2847,219.9829],[-63.9861,9.3029,235.8056],[-63.9858,9.3152,251.522],[-63.9773,9.3721,305.6315],[-63.9768,9.3989,321.6406],[-63.9724,9.4127,276.1194],[-63.9589,9.4305,316.7624],[-63.9393,9.4493,304.9418],[-63.8789,9.5047,279.1963],[-63.8339,9.5435,208.6684],[-63.9487,9.6897,274.4122],[-63.9518,9.6986,283.0396],[-63.9543,9.7132,223.4506],[-63.9544,9.7517,292.7459],[-63.949,9.7765,332.2557],[-63.946,9.8064,561.7692],[-63.942,9.817,454.2789],[-63.9293,9.8306,363.5679],[-63.9266,9.8374,459.904],[-63.9266,9.8463,619.0372],[-63.932,9.8548,450.3605],[-63.9554,9.877,378.5181],[-63.9721,9.8836,543.8703],[-63.975,9.8863,584.1519],[-63.9783,9.897,769.4951],[-63.9814,9.8999,764.8143],[-63.9856,9.9008,690.9449],[-64.0103,9.8961,642.931],[-64.029,9.8995,554.9983],[-64.0437,9.9153,700.3162],[-64.0514,9.9283,869.9126],[-64.0564,9.9426,565.5073],[-64.0583,9.9622,636.6514],[-64.0578,9.9828,906.6024],[-64.0565,9.9901,684.6345],[-64.0497,10.0025,1076.1023],[-64.0437,10.0064,994.975],[-64.0301,10.0108,1072.396],[-63.9934,10.0135,1291.3539],[-63.9839,10.017,1640.6658],[-63.963,10.0354,1582.3335],[-63.9434,10.0724,1910.7931],[-63.9846,10.0639,1701.9701],[-64.0413,10.0583,1345.6787],[-64.0805,10.0383,1415.5452],[-64.1344,10.0244,2061.5122],[-64.1369,10.0123,1497.0146],[-64.1529,9.9706,1304.7096],[-64.1699,9.9525,939.6861],[-64.1748,9.9435,766.5096],[-64.1697,9.9343,824.8721],[-64.1568,9.9175,985.6735],[-64.1523,9.9049,804.3866],[-64.1563,9.8976,671.2163],[-64.1727,9.8774,731.317],[-64.1916,9.8363,421.4599],[-64.2002,9.8231,392.4172],[-64.2166,9.8014,280.0474],[-64.2368,9.7837,279.5327],[-64.269,9.7442,226.5475],[-64.2872,9.7275,227.0584],[-64.3039,9.7051,255.4018],[-64.3267,9.6793,247.457],[-64.3527,9.6568,227.5496],[-64.4007,9.6075,196.2874],[-64.4239,9.5759,198.5705],[-64.4594,9.5119,216.4638],[-64.4716,9.495,191.4767],[-64.4836,9.4887,187.4227],[-64.457,9.4932,201.6844],[-64.4487,9.4927,206.5604],[-64.4336,9.4845,208.7576],[-64.4193,9.4815,225.0684],[-64.4014,9.4835,222.199],[-64.3895,9.4828,226.2379],[-64.366,9.4734,237.876],[-64.3584,9.4684,249.7404],[-64.3507,9.4623,264.3703],[-64.347,9.4537,261.4526],[-64.3462,9.4441,254.8988],[-64.3498,9.4222,252.5654],[-64.3483,9.4049,241.1457],[-64.3485,9.3894,234.1546],[-64.3504,9.3777,231.1697],[-64.3617,9.3599,212.6217],[-64.3759,9.3465,199.6126],[-64.3854,9.335,203.1508],[-64.3893,9.3269,206.7333],[-64.3963,9.2714,262.4283],[-64.3909,9.2241,289.415],[-64.3778,9.1803,275.2917],[-64.3771,9.1616,273.1851],[-64.3796,9.1149,262.7964],[-64.3834,9.0905,257.0667],[-64.3806,9.0739,270.9649],[-64.3764,9.066,262.3925],[-64.3645,9.0501,278.2561],[-64.3575,9.0336,287.8686],[-64.3578,9.025,288.4099],[-64.3618,9.0166,298.8152],[-64.3923,8.9757,308.5032],[-64.4153,8.9512,299.6456]]]]}
,"properties": {"GID_2": "VEN.2.8_1","GID_0": "VEN","country": "Venezuela","GID_1": "VEN.2_1","province": "Anzoátegui","NL_NAME_1": "NA","county": "Freites","VARNAME_2": "NA","NL_NAME_2": "NA","TYPE_2": "Municipio","ENGTYPE_2": "Municipality","CC_2": "NA","HASC_2": "NA","name": "Freites.county","area_km2": 7608.125,"hist_schema_id": "Elevation0-9000","hist_area_km2": {"75": 1.634,"100": 89.429,"125": 152.409,"150": 452.995,"175": 700.26,"200": 805.082,"225": 867.464,"250": 1037.764,"275": 944.334,"300": 671.036,"325": 485.8,"350": 382.352,"375": 270.553,"400": 190.874,"425": 123.469,"450": 51.2,"475": 34.082,"500": 21.121,"525": 15.02,"550": 15.729,"575": 16.398,"600": 15.666,"625": 16.271,"650": 15.394,"675": 14.224,"700": 12.261,"725": 10.109,"750": 7.644,"775": 7.456,"800": 6.934,"825": 6.098,"850": 5.033,"875": 4.803,"900": 5.075,"925": 5.827,"950": 4.678,"975": 5.179,"1000": 4.845,"1025": 4.239,"1050": 3.884,"1075": 3.968,"1100": 3.842,"1125": 3.759,"1150": 3.779,"1175": 4.072,"1200": 4.385,"1225": 4.072,"1250": 4.155,"1275": 4.322,"1300": 4.468,"1325": 4.364,"1350": 3.946,"1375": 3.591,"1400": 3.32,"1425": 3.09,"1450": 3.236,"1475": 3.111,"1500": 3.111,"1525": 3.111,"1550": 3.153,"1575": 2.798,"1600": 3.027,"1625": 3.194,"1650": 3.445,"1675": 3.173,"1700": 3.403,"1725": 2.798,"1750": 2.777,"1775": 3.006,"1800": 2.464,"1825": 2.192,"1850": 2.255,"1875": 2.338,"1900": 2.192,"1925": 2.38,"1950": 2.088,"1975": 1.441,"2000": 1.086,"2025": 0.752,"2050": 0.856,"2075": 0.48,"2100": 0.167,"2125": 0.125,"2150": 0.125,"2175": 0.084}}}