{"type": "Feature","bbox": [-68.3452,10.1091,-68.0736,10.4669],"geometry": {"type": "MultiPolygon","coordinates": [[[[-68.3439,10.4019,341.5045],[-68.3452,10.3876,229.7155],[-68.3406,10.3668,667.8157],[-68.3139,10.3224,483.256],[-68.3122,10.3114,723.8124],[-68.3167,10.2954,946.1904],[-68.2958,10.2931,440.5409],[-68.2837,10.2945,303.809],[-68.2693,10.3002,361.025],[-68.2229,10.2967,1188.674],[-68.1692,10.298,960.0554],[-68.1754,10.2846,779.1005],[-68.1887,10.2713,1012.2335],[-68.1947,10.2591,745.5082],[-68.1966,10.2505,739.7132],[-68.2063,10.2351,970.517],[-68.2112,10.1979,1113.7961],[-68.2136,10.1944,1080.7383],[-68.222,10.1903,821.3123],[-68.2453,10.1822,676.439],[-68.2396,10.1788,686.1727],[-68.2367,10.1736,693.5637],[-68.241,10.1588,740.4827],[-68.2421,10.143,815.0318],[-68.2481,10.1251,1098.6335],[-68.2502,10.1136,902.8822],[-68.2244,10.1167,863.8253],[-68.1898,10.1339,738.5643],[-68.1689,10.1353,803.4472],[-68.1595,10.1328,781.6343],[-68.1533,10.1243,702.6069],[-68.1526,10.1092,580.8286],[-68.1431,10.1091,529.3666],[-68.1382,10.1105,487.0754],[-68.1362,10.1145,490.5834],[-68.1288,10.1548,722.295],[-68.1194,10.1719,567.8567],[-68.1026,10.1933,864.4705],[-68.0953,10.2055,823.9852],[-68.0922,10.2157,685.5157],[-68.0922,10.2278,743.2795],[-68.0852,10.274,1163.6383],[-68.0746,10.2936,667.3745],[-68.0736,10.3028,432.1194],[-68.0798,10.3328,921.3525],[-68.0899,10.3449,389.2728],[-68.0951,10.3573,128.5746],[-68.1215,10.3492,1006.7296],[-68.1512,10.3505,728.7114],[-68.1581,10.3536,810.5367],[-68.2101,10.4001,373.6841],[-68.2381,10.4324,196.5514],[-68.2439,10.4408,546.6378],[-68.2463,10.4495,478.0605],[-68.2504,10.4549,376.5342],[-68.2696,10.4648,34.58],[-68.2764,10.4669,25.367],[-68.2806,10.4643,29.3673],[-68.2886,10.4525,256.4687],[-68.2969,10.4355,365.7159],[-68.3041,10.4281,380.7838],[-68.3222,10.4174,296.8864],[-68.3439,10.4019,341.5045]]]]}
,"properties": {"GID_2": "VEN.7.1_1","GID_0": "VEN","country": "Venezuela","GID_1": "VEN.7_1","province": "Carabobo","NL_NAME_1": "NA","county": "Bejuma","VARNAME_2": "NA","NL_NAME_2": "NA","TYPE_2": "Municipio","ENGTYPE_2": "Municipality","CC_2": "NA","HASC_2": "NA","name": "Bejuma.county","area_km2": 542.9914,"hist_schema_id": "Elevation0-9000","hist_area_km2": {"25": 0.4587,"50": 0.6255,"75": 0.6881,"100": 0.5838,"125": 0.8549,"150": 0.7715,"175": 1.2512,"200": 1.9811,"225": 4.1707,"250": 9.5303,"275": 20.6261,"300": 18.1036,"325": 11.7418,"350": 12.43,"375": 12.4095,"400": 12.9097,"425": 12.4093,"450": 10.9704,"475": 11.3667,"500": 9.3441,"525": 9.9286,"550": 8.406,"575": 8.9694,"600": 8.6569,"625": 9.2208,"650": 14.7723,"675": 19.7804,"700": 17.9437,"725": 16.6285,"750": 14.0622,"775": 14.1248,"800": 13.4364,"825": 13.2488,"850": 12.7269,"875": 12.5392,"900": 11.7254,"925": 12.1844,"950": 10.6402,"975": 10.6822,"1000": 10.1397,"1025": 9.5555,"1050": 8.2201,"1075": 7.1144,"1100": 8.2204,"1125": 6.6137,"1150": 7.177,"1175": 7.2812,"1200": 6.0712,"1225": 6.6553,"1250": 6.8638,"1275": 6.1546,"1300": 6.4674,"1325": 6.6969,"1350": 5.9458,"1375": 5.4659,"1400": 4.6941,"1425": 4.6732,"1450": 4.5689,"1475": 3.8595,"1500": 4.2351,"1525": 3.2754,"1550": 2.6704,"1575": 2.0236,"1600": 1.7732,"1625": 1.2725,"1650": 0.9596,"1675": 0.5215,"1700": 0.3755,"1725": 0.3755,"1750": 0.1669}}}