{"type":"Feature","properties":{"featurecla":"River","scalerank":8,"rivernum":853,"dissolve":"853River","name":"Ventuari1","name_alt":null,"note":null,"min_zoom":7.0,"strokeweig":0.2,"name_en":"Ventuari","min_label":8.0},
"geometry":{"type": "LineString","coordinates": [[-64.92529296875,4.5237979187441084,574.7969],[-65.022070312499991,4.5354190124941169,506.3272],[-65.052099609374991,4.5449404968691169,336.0078],[-65.071337890624989,4.56134674686912,291.0443],[-65.079833984375,4.58283112186912,292.7026],[-65.0849609375,4.6070498718691084,295.9049],[-65.126025390624989,4.6982608093691169,297.6483],[-65.142260742187489,4.71369049686912,337.3031],[-65.162841796875,4.7207217468691169,310.6372],[-65.235400390624989,4.7252139343691084,305.0737],[-65.258642578124991,4.7313174499941084,281.3399],[-65.324072265624991,4.7606143249941084,264.8588],[-65.337890625,4.7716006531191084,283.043],[-65.348071289062489,4.7859072937441169,260.6297],[-65.354589843749991,4.80487702030662,268.7305],[-65.354589843749991,4.82086823124412,261.7574],[-65.348193359374989,4.8294619812441084,266.9951],[-65.340258789062489,4.83685944218162,277.7979],[-65.335620117187489,4.8493838562441169,281.2295],[-65.341162109374991,4.87689850468162,279.7235],[-65.41748046875,4.98371002811912,241.3688],[-65.432080078125,4.99652741093162,268.4766],[-65.448095703124991,5.0059756531191084,261.8866],[-65.464453124999991,5.00739166874412,270.8721],[-65.496997070312489,4.9988955749941084,239.6322],[-65.513110351562489,5.00409577030662,218.2585],[-65.521411132812489,5.01129791874412,228.0274],[-65.525439453124989,5.01410553593162,211.5546],[-65.587988281249991,5.0407901062441169,179.4908],[-65.613574218749989,5.0460147156191084,187.7411],[-65.669042968749991,5.04999420780662,168.4173],[-65.69296875,5.0489444031191084,140.9978],[-65.731689453125,5.0421084656191084,133.7946],[-65.799902343749991,5.05695221561912,136.9832],[-65.823095703124991,5.06537506718162,135.1881],[-65.835620117187489,5.07733795780662,138.6598],[-65.85595703125,5.08222077030662,133.2047],[-65.942065429687489,5.0669131531191169,134.0978],[-65.973388671875,5.06537506718162,133.1152],[-66.013598632812489,5.07831452030662,129.8166],[-66.03369140625,5.08209869999412,124.8258],[-66.123950195312489,5.0799502624941084,125.6605],[-66.155566406249989,5.08637116093162,130.3027],[-66.173583984375,5.09210846561912,127.0109],[-66.201220703124989,5.1065615906191084,107.6221],[-66.211108398437489,5.1103701843691169,117.1451],[-66.221777343749991,5.11188385624412,109.3274],[-66.226855468749989,5.11163971561912,120.3828],[-66.229345703124991,5.11066315311912,127.1194],[-66.23974609375,5.1028018249941169,113.4471],[-66.242846679687489,5.10114166874412,118.5154],[-66.24658203125,5.10028717655662,111.6794],[-66.252734374999989,5.09979889530662,123.4373],[-66.26328125,5.0972842468691084,160.7481],[-66.269140624999991,5.09198639530662,125.362],[-66.272387695312489,5.08405182499412,123.9197],[-66.275317382812489,5.07367584843162,122.5558],[-66.284521484374991,5.0708194031191169,129.3562],[-66.294140625,5.0714053406191084,134.442],[-66.303808593749991,5.07306549686912,113.5227],[-66.313574218749991,5.07343170780662,124.2493],[-66.323095703124991,5.07147858280662,118.7054],[-66.329443359374991,5.0678897156191169,115.2408],[-66.376513671874989,5.01093170780662,108.6292],[-66.383398437499991,4.9931826843691169,120.3389],[-66.377539062499991,4.97284577030662,120.5211],[-66.3609375,4.95844147343162,113.7361],[-66.349853515625,4.94403717655662,106.4296],[-66.360107421875,4.92365143436912,117.9717],[-66.370532226562489,4.9138369812441169,119.9059],[-66.379077148437489,4.9034365906191084,128.4987],[-66.382666015624991,4.8917178406191084,120.6447],[-66.378222656249989,4.87787506718162,104.5],[-66.364501953125,4.86237213749412,116.2383],[-66.358837890625,4.8541201843691084,123.6141],[-66.35703125,4.84381744999412,119.2009],[-66.361425781249991,4.83454010624412,119.6832],[-66.378027343749991,4.81830475468162,120.4777],[-66.380664062499989,4.81024811405662,122.5003],[-66.375537109374989,4.80341217655662,105.185],[-66.366259765624989,4.8011416687441084,105.6936],[-66.347265624999991,4.80072662968162,119.7965],[-66.317675781249989,4.7925967468691084,139.864],[-66.309985351562489,4.7885928406191169,124.6007],[-66.300830078124989,4.7790713562441169,117.8147],[-66.29453125,4.76691315311912,130.3828],[-66.292089843749991,4.7536807312441169,116.441],[-66.294360351562489,4.74066803593162,106.4262],[-66.30341796875,4.7230166687441084,102.1539],[-66.302001953125,4.71625397343162,101.9729],[-66.291259765625,4.7099795593691169,103.1191],[-66.266040039062489,4.69953034061912,112.241],[-66.25751953125,4.69061920780662,104.3564],[-66.259863281249991,4.6783389343691084,102.9143],[-66.264746093749991,4.67377350468162,100.7985],[-66.276953124999991,4.66693756718162,110.8315],[-66.282470703125,4.66229889530662,101.4102],[-66.286791992187489,4.6550479187441169,101.1834],[-66.287207031249991,4.64874909061912,100.5],[-66.285009765624991,4.63397858280662,116.1914],[-66.286303710937489,4.6251162781191084,115.273],[-66.291357421874991,4.6080264343691084,114.1117],[-66.292236328125,4.59906647343162,108.7838],[-66.290625,4.59125397343162,100.5685],[-66.281420898437489,4.57001373905662,108.0443],[-66.278247070312489,4.55182526249412,114.6516],[-66.27783203125,4.5305361999941169,99.2391],[-66.27998046875,4.5093936218691084,99.6469],[-66.284472656249989,4.49152252811912,114.0775],[-66.286230468749991,4.4515322937441084,115.3104],[-66.274462890624989,4.4131045593691169,113.4598],[-66.268603515624989,4.37665436405662,106.256],[-66.288037109375,4.34271881718162,103.8819],[-66.359423828124989,4.28546784061912,99.2628],[-66.468603515624991,4.23126862186912,108.3625]]}}