{"type":"Feature","properties":{"featurecla":"River","scalerank":8,"rivernum":942,"dissolve":"942River","name":"Casiquiare","name_alt":null,"note":null,"min_zoom":7.0,"strokeweig":0.2,"name_en":"Casiquiare","min_label":8.0},
"geometry":{"type": "LineString","coordinates": [[-67.1279296875,2.0122256531191169,97.0067],[-67.045751953124991,2.0405459656191169,90.9962],[-67.034106445312489,2.04169342655662,94.5183],[-67.00244140625,2.05194733280662,91.6975],[-66.97998046875,2.0522647156191169,94.447],[-66.974047851562489,2.04840729374412,82.8034],[-66.965185546874991,2.03827545780662,85.0944],[-66.952880859375,2.01715729374412,83.3266],[-66.9443359375,1.9970889343691169,80.0],[-66.931494140624991,1.98212311405662,91.6776],[-66.90625,1.976190496869108,113.9442],[-66.8857421875,1.97882721561912,89.2306],[-66.820556640625,1.9973330749941169,81.6042],[-66.798999023437489,1.999383856244108,95.6108],[-66.735522460937489,1.9973330749941169,94.0095],[-66.719482421875,1.98798248905662,95.2846],[-66.677197265625,1.92902252811912,98.6869],[-66.635009765625,1.90973541874412,101.5287],[-66.595263671874989,1.91376373905662,86.1778],[-66.562182617187489,1.93891022343162,102.1641],[-66.5400390625,1.983026434369108,99.7607],[-66.531201171875,2.04865143436912,104.003],[-66.522314453124991,2.0581240906191169,104.1425],[-66.47509765625,2.0561709656191169,108.6345],[-66.455517578125,2.0637393249941169,109.0298],[-66.437597656249991,2.086053778119108,111.18],[-66.431201171874989,2.10553619999412,101.1617],[-66.429125976562489,2.129510809369108,96.1872],[-66.431982421874991,2.15326569218162,97.1097],[-66.46240234375,2.214960028119108,95.3637],[-66.473974609374991,2.2168154968691169,90.415],[-66.487548828125,2.21588776249412,89.4156],[-66.498388671874991,2.21637604374412,92.5355],[-66.520751953125,2.22846100468162,92.9796],[-66.532519531249989,2.23688385624412,100.2114],[-66.5400390625,2.24433014530662,95.1395],[-66.538037109375,2.250116278119108,98.3037],[-66.533203125,2.2592959656191169,106.829],[-66.532641601562489,2.26788971561912,106.4781],[-66.543139648437489,2.27167389530662,107.3517],[-66.563159179687489,2.27399323124412,96.7729],[-66.577319335937489,2.281854559369108,92.9334],[-66.583789062499989,2.2964053406191169,96.1276],[-66.580981445312489,2.31879303593162,93.1326],[-66.566088867187489,2.33392975468162,101.235],[-66.521484375,2.341913153119108,103.1159],[-66.512060546874991,2.3567080749941169,99.0648],[-66.506518554687489,2.38300202030662,107.1058],[-66.492138671875,2.38666412968162,103.7726],[-66.451269531249991,2.37409088749412,102.7969],[-66.4296875,2.377557684369108,90.9434],[-66.41953125,2.38959381718162,101.4762],[-66.416552734374989,2.4084658874941169,98.3183],[-66.41650390625,2.43244049686912,90.4176],[-66.424169921874991,2.450555731244108,104.9458],[-66.460253906249989,2.47675202030662,106.4837],[-66.471728515624989,2.4975772156191169,109.0362],[-66.463964843749991,2.529901434369108,111.9277],[-66.433935546874991,2.55231354374412,116.6162],[-66.312792968749989,2.589715887494108,114.6431],[-66.268798828125,2.5937686218691169,117.2368],[-66.260498046875,2.5969424499941169,119.4024],[-66.254443359374989,2.6111026062441169,108.7274],[-66.248291015625,2.6142764343691169,112.9593],[-66.225634765624989,2.61115143436912,111.7168],[-66.216064453125,2.61249420780662,113.3691],[-66.204199218749991,2.62042877811912,114.233],[-66.198657226562489,2.63043854374412,107.8255],[-66.196875,2.641473699994108,106.2422],[-66.193457031249991,2.65058014530662,115.0178],[-66.18310546875,2.65460846561912,104.2443],[-66.175097656249989,2.651971746869108,110.5313],[-66.171240234374991,2.644891668744108,115.4158],[-66.1701171875,2.634881903119108,115.8603],[-66.1701171875,2.62384674686912,112.9945],[-66.166015625,2.618280340619108,112.3079],[-66.156591796874991,2.6176944031191169,112.2163],[-66.139013671874991,2.62042877811912,110.0974],[-66.127880859375,2.62604401249412,114.0667],[-66.130126953125,2.638788153119108,113.8237],[-66.142138671874989,2.66205475468162,113.4461],[-66.1421875,2.670526434369108,113.1357],[-66.140380859375,2.6760440124941169,114.0644],[-66.135986328125,2.67951080936912,115.0802],[-66.128466796874989,2.6819033874941169,99.8367],[-66.137988281249989,2.69928619999412,114.3933],[-66.140429687499989,2.71503327030662,116.1383],[-66.135180664062489,2.72797272343162,114.9417],[-66.121679687499991,2.73712799686912,116.3231],[-66.0953125,2.73261139530662,116.0751],[-66.070727539062489,2.751336981244108,109.4638],[-66.047705078124991,2.77667877811912,117.6083],[-66.026123046875,2.7917666687441169,156.5747],[-66.002050781249991,2.78876373905662,116.9997],[-65.98193359375,2.7761416687441169,110.8805],[-65.959765624999989,2.766229559369108,125.6029],[-65.929858398437489,2.77130768436912,135.3301],[-65.915283203125,2.77924225468162,174.1516],[-65.897509765624989,2.791864324994108,120.4767],[-65.88232421875,2.80805084843162,134.9174],[-65.875244140625,2.826532293744108,117.4306],[-65.886767578124989,2.85162994999412,127.0302],[-65.8916015625,2.8752627624941169,122.7016],[-65.8984375,2.88287994999412,121.513],[-65.907470703125,2.885370184369108,113.6616],[-65.916845703124991,2.88117096561912,120.3342],[-65.950366210937489,2.95001862186912,126.6556],[-65.950610351562489,2.9665713562441169,147.3979],[-65.9453125,2.98932526249412,127.7252],[-65.934863281249989,3.00958893436912,152.5588],[-65.907641601562489,3.02558014530662,142.0147],[-65.892871093749989,3.04242584843162,121.4597],[-65.880419921874989,3.06171295780662,114.0308],[-65.871826171875,3.08820221561912,129.2572],[-65.86376953125,3.09076569218162,143.27],[-65.854589843749991,3.09039948124412,140.9461],[-65.847949218749989,3.09345123905662,121.7134],[-65.844824218749991,3.103387762494108,120.6823],[-65.838134765625,3.150506903119108,125.2351]]}}