{"type":"Feature","properties":{"featurecla":"River","scalerank":8,"rivernum":853,"dissolve":"853River","name":"Ventuari2","name_alt":null,"note":null,"min_zoom":7.0,"strokeweig":0.25,"name_en":"Ventuari","min_label":8.0},
"geometry":{"type": "LineString","coordinates": [[-66.468603515624991,4.23126862186912,108.3625],[-66.498388671874991,4.21698639530662,106.931],[-66.524707031249989,4.19965241093162,111.8838],[-66.570166015624991,4.15692780155662,94.5],[-66.597827148437489,4.1396670593691169,115.7231],[-66.658300781249991,4.11713287968162,103.2766],[-66.690039062499991,4.10956452030662,108.1023],[-66.721484374999989,4.1060733093691084,106.7765],[-66.768017578125,4.1070498718691084,107.9771],[-66.784277343749991,4.10297272343162,92.0],[-66.822558593749989,4.0843447937441084,100.0777],[-66.929638671875,4.05438873905662,107.5533],[-66.957763671875,4.03864166874412,100.823],[-67.05927734375,3.958368231244108,108.5395]]}}