{"type":"Feature","properties":{"featurecla":"River","scalerank":8,"rivernum":853,"dissolve":"853River","name":"Ventuari","name_alt":null,"note":null,"min_zoom":7.0,"strokeweig":0.15,"name_en":"Ventuari","min_label":8.0},
"geometry":{"type": "LineString","coordinates": [[-64.701025390624991,4.3795108093691084,586.7797],[-64.711035156249991,4.40558502811912,648.7275],[-64.730224609375,4.4345889343691169,590.9551],[-64.753100585937489,4.4610537781191084,582.6895],[-64.774267578124991,4.47968170780662,569.2589],[-64.792578124999991,4.4897647156191169,571.8399],[-64.92529296875,4.5237979187441084,574.7969]]}}