{"type":"Feature","properties":{"GID_1":"VEN.18_1","GID_0":"VEN","country":"Venezuela","province":"NuevaEsparta","VARNAME_1":"NA","NL_NAME_1":"NA","TYPE_1":"Estado","ENGTYPE_1":"State","CC_1":"NA","HASC_1":"NA","ISO_1":"VE-O","name":"Nueva_Esparta.province"},
"geometry":{"type": "MultiPolygon","coordinates": [[[[-63.9915,10.8165,0.0],[-63.9946,10.8171,0.0],[-63.9885,10.8074,3.2369],[-63.9876,10.7924,1.0947],[-63.9893,10.791,0.6916],[-63.9924,10.7921,0.0],[-63.9921,10.7901,2.1317],[-64.0001,10.7821,0.0],[-64.0001,10.7799,0.0],[-63.9951,10.779,1.7463],[-63.991,10.7751,0.0],[-63.9771,10.7704,0.0],[-63.9688,10.7715,0.0],[-63.9671,10.7699,0.0],[-63.959,10.7696,1.746],[-63.9529,10.7635,0.0],[-63.9518,10.7635,0.0],[-63.9518,10.7671,1.4562],[-63.9485,10.7663,1.5276],[-63.9446,10.7624,0.1935],[-63.9415,10.7543,0.0],[-63.944,10.7537,0.3897],[-63.9468,10.7568,0.1079],[-63.9557,10.7551,0.0],[-63.9601,10.759,0.0],[-63.9585,10.7554,0.0],[-63.9493,10.7535,0.5092],[-63.9449,10.7496,0.0748],[-63.9388,10.7496,0.3289],[-63.9362,10.7474,0.197],[-63.9318,10.7465,1.0723],[-63.9293,10.741,0.51],[-63.9232,10.7396,0.5355],[-63.9182,10.7362,0.7534],[-63.9149,10.7374,0.0061],[-63.9093,10.7365,0.0],[-63.9043,10.739,11.05],[-63.8993,10.7385,0.0],[-63.8924,10.7407,2.6099],[-63.8887,10.7543,4.2931],[-63.8887,10.7607,6.8313],[-63.8871,10.7612,0.0],[-63.8879,10.7646,0.0],[-63.8904,10.7638,5.0153],[-63.8915,10.7649,5.0153],[-63.8957,10.7749,0.0],[-63.9021,10.7818,1.4692],[-63.9051,10.7907,0.0],[-63.9096,10.7946,1.5176],[-63.9162,10.7965,10.7848],[-63.9196,10.7993,0.0],[-63.9251,10.7982,7.2718],[-63.9435,10.801,0.492],[-63.9562,10.8043,0.0],[-63.9582,10.8062,0.0],[-63.9624,10.806,0.1241],[-63.9679,10.8112,0.0],[-63.9743,10.8135,0.1142],[-63.984,10.8115,0.1607],[-63.9915,10.8165,0.0]]],
[[[-63.8046,10.9815,2.6599],[-63.8032,10.9888,1.6044],[-63.801,10.9904,0.0],[-63.8021,10.9915,4.5167],[-63.7979,10.9976,6.1258],[-63.7962,10.9965,0.0],[-63.7965,10.9982,0.523],[-63.7938,10.9993,2.7554],[-63.7896,10.9937,0.0],[-63.786,10.996,6.7634],[-63.781,10.994,4.1855],[-63.7771,10.9965,9.9145],[-63.7765,10.9987,0.0],[-63.7776,11.0004,0.0],[-63.7851,11.0015,2.6221],[-63.7868,11.0049,0.2672],[-63.7901,11.0049,0.9432],[-63.7926,11.0071,0.633],[-63.7929,11.009,4.1379],[-63.7874,11.011,1.4665],[-63.7793,11.0007,0.0315],[-63.7843,11.0093,0.0286],[-63.811,11.0468,7.048],[-63.8218,11.0671,0.0],[-63.8376,11.1043,0.0],[-63.844,11.1132,0.0],[-63.8446,11.116,6.5148],[-63.8426,11.1174,0.0],[-63.8446,11.1232,9.367],[-63.8413,11.1257,2.7276],[-63.8399,11.1251,0.0],[-63.8404,11.1271,0.0],[-63.8488,11.1326,0.5964],[-63.871,11.1554,0.0],[-63.8721,11.1604,3.5469],[-63.8771,11.1665,0.0],[-63.8751,11.1688,0.0],[-63.8779,11.1693,0.0],[-63.8804,11.1735,5.6766],[-63.8804,11.176,9.533],[-63.8782,11.1782,0.0],[-63.8804,11.1801,0.0],[-63.8818,11.1776,0.0],[-63.8893,11.1732,0.0],[-63.8885,11.169,0.0],[-63.8915,11.1679,0.0],[-63.8899,11.166,0.0],[-63.8918,11.1629,4.5419],[-63.8913,11.1582,4.4434],[-63.8932,11.1565,8.155],[-63.906,11.1546,13.9133],[-63.9054,11.1504,23.9509],[-63.9074,11.1471,0.0],[-63.9074,11.1429,1.813],[-63.9132,11.1399,7.4887],[-63.9132,11.136,2.11],[-63.9188,11.1346,0.0],[-63.921,11.1318,0.0],[-63.9204,11.1296,2.7019],[-63.9229,11.1299,0.0],[-63.9235,11.1262,0.0],[-63.9293,11.1246,2.815],[-63.9326,11.1274,0.0],[-63.9343,11.1246,0.0],[-63.9338,11.1185,1.1958],[-63.936,11.1174,0.0],[-63.9421,11.1182,0.0],[-63.9499,11.1121,0.0],[-63.9551,11.1135,0.0],[-63.9576,11.1115,6.9207],[-63.9649,11.1129,0.0],[-63.9671,11.1118,2.7253],[-63.9701,11.114,0.0],[-63.9688,11.1107,0.0],[-63.9776,11.111,0.0],[-63.9801,11.1054,19.8222],[-63.9821,11.1046,5.6295],[-63.9829,11.0985,0.0],[-63.9813,11.0951,0.0],[-63.9776,11.0951,0.0],[-63.9762,11.0935,0.7304],[-63.9765,11.0904,0.0],[-63.9799,11.0857,0.0],[-63.9735,11.0857,1.9635],[-63.9721,11.0818,4.9105],[-63.9785,11.0746,1.8292],[-63.9871,11.0701,4.9384],[-63.9999,11.0676,9.2978],[-64.0007,11.0696,0.0],[-64.0068,11.0676,0.0],[-64.0115,11.0688,0.0],[-64.0135,11.0654,0.0],[-64.0129,11.0604,16.2872],[-64.0149,11.0588,0.0],[-64.0137,11.0543,0.0],[-64.0157,11.0507,0.0],[-64.0137,11.0313,0.0],[-64.0179,11.0279,0.0],[-64.0229,11.0196,0.0],[-64.0237,11.0107,0.0],[-64.0215,11.0099,4.8034],[-64.0212,11.0007,1.1801],[-64.0282,10.9937,2.5627],[-64.0321,10.9935,0.0],[-64.0335,10.9899,0.2009],[-64.0424,10.9857,0.0],[-64.0585,10.9826,0.212],[-64.0843,10.9832,-0.25],[-64.109,10.9879,0.1235],[-64.1274,10.9932,0.6564],[-64.141,10.999,0.4161],[-64.1451,11.0037,0.0],[-64.1537,11.0068,1.2069],[-64.1854,11.0307,0.0],[-64.206,11.0515,1.9104],[-64.2054,11.0554,14.9439],[-64.2026,11.0571,0.0],[-64.194,11.0693,0.0],[-64.1954,11.0721,0.0],[-64.194,11.0735,0.0],[-64.1943,11.084,0.0],[-64.1974,11.0832,0.0],[-64.1982,11.0851,0.0],[-64.2162,11.0863,0.0],[-64.2251,11.0785,4.5554],[-64.2288,11.0776,0.0],[-64.2318,11.079,0.0],[-64.2382,11.0768,0.0],[-64.2382,11.0751,5.9467],[-64.2446,11.0735,1.675],[-64.2476,11.0676,5.1542],[-64.2496,11.0682,0.0],[-64.2543,11.066,1.3109],[-64.2626,11.0671,0.0],[-64.2685,11.0624,0.0],[-64.2774,11.0629,1.8541],[-64.296,11.069,5.0417],[-64.3004,11.064,0.5393],[-64.3124,11.0635,2.6601],[-64.314,11.0615,0.0],[-64.3135,11.0576,10.5583],[-64.3157,11.0568,6.0802],[-64.3276,11.0574,2.1033],[-64.331,11.0554,10.7482],[-64.3351,11.056,5.6472],[-64.3451,11.049,0.0],[-64.3512,11.049,0.5874],[-64.3604,11.0538,0.0],[-64.3621,11.0507,0.0],[-64.3682,11.0504,0.0],[-64.3693,11.0474,1.9579],[-64.3763,11.0468,2.2947],[-64.3793,11.0443,17.4267],[-64.3838,11.044,0.0],[-64.384,11.0401,0.0],[-64.3807,11.0363,0.0],[-64.3835,11.0299,0.0],[-64.3776,11.0301,0.0],[-64.3751,11.0271,4.6162],[-64.3754,11.0215,7.352],[-64.3826,11.0088,0.0],[-64.3821,10.9999,1.4426],[-64.3854,10.9979,2.9346],[-64.3874,10.9985,2.5098],[-64.3899,10.9949,3.4978],[-64.3915,10.9951,3.4978],[-64.4029,10.9863,1.1066],[-64.4057,10.9824,2.1867],[-64.4051,10.9782,1.0699],[-64.4076,10.9738,0.5511],[-64.4051,10.9735,0.3549],[-64.4037,10.9779,1.2381],[-64.3968,10.9707,1.4427],[-64.3921,10.9685,0.0],[-64.3904,10.9693,7.0067],[-64.389,10.9676,0.0],[-64.384,10.9682,0.0],[-64.3821,10.9657,0.0],[-64.3704,10.9649,6.0768],[-64.3679,10.9638,10.0459],[-64.3668,10.961,0.0],[-64.364,10.9632,1.6968],[-64.3557,10.9621,5.0275],[-64.3526,10.9593,7.8971],[-64.3443,10.9587,1.128],[-64.339,10.956,0.8347],[-64.3357,10.9593,6.0283],[-64.3251,10.9565,0.0],[-64.3121,10.9571,3.8223],[-64.3063,10.9529,0.8999],[-64.3021,10.9526,1.5742],[-64.3018,10.9499,0.0926],[-64.299,10.9476,0.545],[-64.2971,10.9496,5.0639],[-64.2982,10.9474,0.545],[-64.2949,10.9449,0.3037],[-64.2776,10.9499,0.9948],[-64.2701,10.9462,1.4365],[-64.2663,10.9487,4.5469],[-64.2654,10.9465,0.256],[-64.2507,10.9415,0.1716],[-64.2487,10.9424,2.2609],[-64.2454,10.9399,1.2413],[-64.2401,10.9393,2.288],[-64.2374,10.9415,2.8177],[-64.2312,10.9421,4.6469],[-64.2276,10.9404,0.0],[-64.2215,10.9404,0.0],[-64.2113,10.9346,0.0],[-64.2076,10.934,1.057],[-64.2043,10.9396,2.6682],[-64.1963,10.9387,0.0],[-64.1937,10.9401,0.0],[-64.1913,10.9449,0.9651],[-64.1837,10.949,0.0],[-64.1787,10.9579,2.1347],[-64.1796,10.9651,0.4261],[-64.1738,10.9688,0.0],[-64.1732,10.9743,0.8513],[-64.171,10.9735,0.0],[-64.1679,10.9762,0.6332],[-64.1699,10.9712,0.0],[-64.1696,10.9651,0.6467],[-64.1654,10.9624,0.0],[-64.1649,10.9671,1.1923],[-64.1599,10.9665,0.2128],[-64.1632,10.9607,0.0507],[-64.1604,10.9599,0.0],[-64.1599,10.9568,0.0],[-64.1562,10.9563,0.0],[-64.156,10.9585,0.0],[-64.1537,10.9587,0.0],[-64.1354,10.946,0.0257],[-64.1293,10.9365,0.0],[-64.1196,10.9271,0.4073],[-64.1179,10.9229,0.0],[-64.1165,10.926,1.9787],[-64.1124,10.9265,0.0],[-64.1101,10.9249,0.0],[-64.1068,10.9271,2.7827],[-64.1074,10.9254,0.711],[-64.1113,10.9226,1.6128],[-64.1165,10.9226,0.0],[-64.111,10.9068,0.0],[-64.1113,10.8988,0.0],[-64.1087,10.901,0.1374],[-64.1051,10.8974,0.1092],[-64.1004,10.9007,1.8141],[-64.099,10.8996,1.6471],[-64.1004,10.8976,0.0],[-64.0963,10.899,2.0983],[-64.0974,10.8957,0.0],[-64.096,10.8949,0.0],[-64.0938,10.8954,0.0],[-64.0926,10.8985,0.0],[-64.0882,10.896,0.7299],[-64.0804,10.8954,0.0],[-64.076,10.8965,0.0],[-64.0754,10.8982,0.5071],[-64.0618,10.8899,2.0784],[-64.0557,10.8813,0.0],[-64.0543,10.8757,2.2847],[-64.0549,10.8693,0.0],[-64.0646,10.8651,3.8154],[-64.0643,10.861,0.9149],[-64.0599,10.861,0.0],[-64.054,10.8635,0.0],[-64.0504,10.8626,0.0],[-64.049,10.866,0.0579],[-64.0368,10.8687,0.0],[-64.0346,10.8715,0.0554],[-64.029,10.874,4.085],[-64.0143,10.8721,2.4367],[-64.0001,10.8796,3.7029],[-63.9929,10.8896,4.5139],[-63.9901,10.891,0.0],[-63.9899,10.8932,0.166],[-63.9857,10.8932,0.0],[-63.9793,10.8979,1.6247],[-63.9746,10.8968,0.0],[-63.971,10.8993,1.5413],[-63.9621,10.8965,0.0],[-63.9443,10.9018,0.6738],[-63.9443,10.9032,2.0645],[-63.9507,10.9054,2.8768],[-63.9432,10.9099,0.7423],[-63.9437,10.9121,0.2971],[-63.9471,10.9132,0.9468],[-63.9474,10.9182,0.0],[-63.9487,10.9196,0.2494],[-63.9554,10.919,0.4969],[-63.9574,10.9207,0.0],[-63.9526,10.9238,0.6261],[-63.9543,10.9268,4.9914],[-63.9529,10.9307,2.6436],[-63.9415,10.9268,0.0],[-63.9374,10.9276,2.0421],[-63.936,10.9246,0.8533],[-63.9218,10.9246,3.1064],[-63.921,10.9235,2.4883],[-63.9279,10.9179,0.5941],[-63.9207,10.9168,4.0912],[-63.9193,10.914,1.1272],[-63.9137,10.9146,0.0],[-63.9099,10.9174,1.82],[-63.9076,10.9171,3.0909],[-63.9046,10.9132,0.0],[-63.9024,10.9135,0.0],[-63.9021,10.9124,2.501],[-63.9085,10.9096,0.0],[-63.9118,10.9043,1.3395],[-63.9165,10.9032,0.4642],[-63.9204,10.9054,0.0719],[-63.9224,10.904,2.5085],[-63.9293,10.9068,6.114],[-63.9332,10.9115,2.8048],[-63.9368,10.9115,1.8352],[-63.9418,10.9068,0.0],[-63.934,10.9004,0.0],[-63.934,10.8965,1.9485],[-63.9382,10.8949,0.0],[-63.9343,10.8949,0.1252],[-63.9285,10.891,0.1501],[-63.9251,10.891,0.2763],[-63.9246,10.8926,2.8913],[-63.9182,10.8915,2.2391],[-63.9135,10.8868,0.0],[-63.9071,10.8879,2.959],[-63.9049,10.8832,0.0],[-63.9012,10.8846,3.3655],[-63.896,10.8835,0.0],[-63.8913,10.886,0.8714],[-63.8874,10.8904,0.0],[-63.8893,10.9085,0.5544],[-63.8846,10.9335,0.9903],[-63.8826,10.9365,1.9859],[-63.8763,10.9399,0.2122],[-63.8726,10.9446,2.7529],[-63.8607,10.9446,0.0],[-63.8574,10.9487,0.915],[-63.8532,10.951,3.7512],[-63.8512,10.951,2.834],[-63.8507,10.9487,0.0],[-63.8474,10.9499,0.4393],[-63.8457,10.9535,3.184],[-63.8357,10.9587,0.0],[-63.8307,10.9585,0.3401],[-63.8282,10.9551,0.0],[-63.829,10.9521,0.0],[-63.8249,10.9513,0.8993],[-63.8232,10.9457,7.2895],[-63.8179,10.9474,22.8528],[-63.8168,10.9438,0.0],[-63.8154,10.944,0.0],[-63.8193,10.9693,2.2679],[-63.8171,10.9718,0.0],[-63.8176,10.9754,0.0],[-63.8157,10.9724,0.0],[-63.8174,10.9796,0.0],[-63.8115,10.9815,0.6779],[-63.8076,10.9796,5.1738],[-63.8046,10.9815,2.6599]]],
[[[-64.184,10.8318,3.0472],[-64.196,10.8326,0.0],[-64.2001,10.8285,1.3304],[-64.2063,10.8287,32.5562],[-64.2115,10.8312,0.0],[-64.2132,10.8263,0.7056],[-64.2168,10.8254,3.7882],[-64.2254,10.8185,0.0],[-64.2257,10.8168,0.0],[-64.2196,10.8107,3.916],[-64.2179,10.8043,1.0126],[-64.2154,10.8029,0.0],[-64.2151,10.799,0.0],[-64.2082,10.8004,0.0],[-64.1937,10.7987,0.0],[-64.191,10.8021,3.0469],[-64.1832,10.7999,0.0],[-64.1801,10.8018,1.1316],[-64.1682,10.8024,0.0],[-64.1676,10.8046,0.6732],[-64.1513,10.806,1.1929],[-64.1496,10.8132,0.9218],[-64.144,10.8149,0.0],[-64.1401,10.8226,0.0],[-64.1418,10.8251,0.0],[-64.1476,10.8268,0.7422],[-64.1485,10.829,0.0],[-64.159,10.8301,0.4674],[-64.1626,10.829,0.0],[-64.164,10.8249,0.3833],[-64.166,10.8249,0.4195],[-64.1743,10.8296,9.7207],[-64.184,10.8318,3.0472]]],
[[[-64.1554,10.8376,5.0328],[-64.156,10.839,2.2112],[-64.1576,10.8382,1.3512],[-64.1588,10.8365,3.6899],[-64.1579,10.834,0.99],[-64.1546,10.8351,0.6582],[-64.1554,10.8376,5.0328]]],
[[[-63.941,10.9007,0.0],[-63.9424,10.9018,0.2585],[-63.944,10.9001,0.2903],[-63.9493,10.8999,0.5187],[-63.951,10.8979,0.0],[-63.9476,10.8976,1.343],[-63.9454,10.8938,0.0],[-63.9407,10.894,0.0],[-63.9412,10.8971,1.182],[-63.9374,10.8982,0.0],[-63.941,10.9007,0.0]]],
[[[-63.7382,11.2026,0.0],[-63.7404,11.2037,0.0],[-63.7432,11.2026,0.0],[-63.7432,11.1987,0.0],[-63.734,11.1918,0.0],[-63.7329,11.1882,0.0],[-63.7287,11.1868,0.0],[-63.7279,11.191,0.0],[-63.729,11.191,0.0],[-63.7299,11.1951,0.0],[-63.7324,11.1976,0.0],[-63.7351,11.1979,0.0],[-63.7382,11.2026,0.0]]],
[[[-63.7518,11.211,0.0],[-63.7554,11.2115,0.0],[-63.7551,11.204,2.9564],[-63.7521,11.2032,0.0],[-63.7504,11.1999,0.0],[-63.7485,11.1993,1.8593],[-63.7476,11.2032,0.0],[-63.7518,11.211,0.0]]],
[[[-63.7313,11.2146,0.0],[-63.7326,11.214,0.0],[-63.7276,11.2085,0.0],[-63.7249,11.2085,0.0],[-63.7249,11.2138,0.0],[-63.7313,11.2146,0.0]]],
[[[-63.7679,11.219,0.0],[-63.7693,11.2165,0.0],[-63.764,11.2107,0.0],[-63.7651,11.2179,0.0],[-63.7665,11.2171,1.3581],[-63.7679,11.219,0.0]]]]}}