{"type": "Feature","id": "48","bbox": [-64.40856,10.73371,-63.78767,11.17914],"geometry": {"type": "MultiPolygon","coordinates": [[[[-63.90917,10.73554,0.0],[-63.89464,10.75458,12.5308],[-63.90364,10.77729,9.0046],[-63.92833,10.79084,15.1377],[-63.95665,10.79995,2.6811],[-63.97655,10.80923,0.4544],[-63.98827,10.80671,1.2868],[-63.99889,10.79926,0.0],[-64.00536,10.7884,0.0],[-64.00451,10.7757,0.0],[-63.99645,10.76846,0.0],[-63.98278,10.76435,0.0],[-63.95613,10.76203,0.0],[-63.95678,10.74413,0.0],[-63.93554,10.73371,0.0],[-63.90917,10.73554,0.0]]],
[[[-64.1903,10.82811,36.5234],[-64.20344,10.8273,20.9481],[-64.21825,10.82103,12.5734],[-64.22094,10.80646,0.0],[-64.20181,10.79706,0.0],[-64.17479,10.79922,0.0],[-64.15587,10.81196,19.5913],[-64.15954,10.8249,2.264],[-64.16861,10.82795,0.0],[-64.17219,10.82681,20.4398],[-64.1903,10.82811,36.5234]]],
[[[-63.79345,11.00113,10.2971],[-63.82575,11.06,85.4236],[-63.82901,11.07779,22.6606],[-63.84358,11.11489,0.0],[-63.84683,11.1354,0.0],[-63.85285,11.14484,0.0],[-63.86547,11.1516,0.0],[-63.87743,11.1612,8.3968],[-63.88097,11.17914,0.0],[-63.89611,11.16804,0.0],[-63.92097,11.13764,0.0],[-63.93562,11.12515,0.0],[-63.94506,11.12238,0.0],[-63.96809,11.12108,0.0],[-63.97655,11.11831,0.0],[-63.98583,11.10928,0.0],[-63.98717,11.10224,0.0],[-63.98672,11.09455,0.0],[-63.99083,11.08356,0.0],[-63.99694,11.07673,0.0],[-64.01134,11.06525,1.9951],[-64.01757,11.05622,0.0],[-64.01574,11.0257,7.9902],[-64.01757,11.01529,19.6205],[-64.03197,10.996,0.0],[-64.04906,10.99071,0.0],[-64.08983,10.99482,0.0],[-64.11071,11.00019,0.0],[-64.14753,11.02359,0.0],[-64.18163,11.03408,0.0],[-64.1883,11.04633,0.0],[-64.18936,11.06102,0.0],[-64.18883,11.07364,0.0],[-64.19831,11.08763,0.0],[-64.22008,11.09154,0.0],[-64.24446,11.08812,0.0],[-64.27139,11.07697,0.0],[-64.29186,11.08393,0.0],[-64.30211,11.08047,0.0],[-64.31477,11.06953,0.0],[-64.32262,11.06574,0.0],[-64.33349,11.06367,0.0],[-64.35607,11.0642,0.0],[-64.37059,11.06249,0.0],[-64.37833,11.05353,0.0],[-64.3806,11.03238,4.692],[-64.38394,11.01984,0.0],[-64.40856,10.96747,0.0],[-64.38903,10.96605,0.0],[-64.34716,10.9538,0.0],[-64.338,10.95295,0.0],[-64.31237,10.9538,0.0],[-64.30663,10.95213,0.8999],[-64.3026,10.94969,0.0926],[-64.29752,10.94741,0.545],[-64.22435,10.93936,0.0],[-64.20295,10.9444,7.7353],[-64.17585,10.96747,0.0],[-64.16112,10.95596,0.0],[-64.13785,10.94359,0.0],[-64.11636,10.92862,1.8735],[-64.0961,10.89094,0.0],[-64.07421,10.89094,0.0],[-64.05687,10.88711,1.0277],[-64.05972,10.85761,0.0],[-64.04263,10.86848,0.3122],[-63.97655,10.8911,0.0],[-63.95564,10.89435,0.0],[-63.89806,10.88496,11.8513],[-63.87169,10.9374,0.0],[-63.84996,10.95751,8.0307],[-63.84683,10.96377,14.8943],[-63.84293,10.96776,25.009],[-63.83422,10.96442,8.9729],[-63.81957,10.9538,0.0],[-63.82006,10.96039,0.0],[-63.81908,10.97394,4.6018],[-63.81957,10.98054,6.0574],[-63.78767,10.97378,0.0],[-63.79345,11.00113,10.2971]]]]}
,"properties": {"ISO3166-1-Alpha-3": "VEN","country": "Venezuela","fill": "#F0F","name": "Nueva Esparta","area_km2": 1111.6279,"hist_schema_id": "Elevation0-9000","hist_area_km2": {"0": 391.588,"25": 278.8157,"50": 124.2949,"75": 64.9313,"100": 42.9955,"125": 31.2162,"150": 27.1786,"175": 21.1643,"200": 19.1873,"225": 15.7329,"250": 13.4437,"275": 12.5695,"300": 9.8019,"325": 9.2609,"350": 7.5543,"375": 6.4721,"400": 5.2443,"425": 4.8697,"450": 3.9124,"475": 3.7668,"500": 2.7679,"525": 2.5598,"550": 1.7274,"575": 1.8522,"600": 1.4568,"625": 1.2279,"650": 1.0822,"675": 0.9574,"700": 0.9782,"725": 0.5203,"750": 0.5411,"775": 0.4787,"800": 0.4371,"825": 0.5203,"850": 0.3538,"875": 0.1249,"900": 0.0416}}}