{"type":"Feature","properties":{"GID_2":"VEN.1.5_1","GID_0":"VEN","country":"Venezuela","GID_1":"VEN.1_1","province":"Amazonas","NL_NAME_1":"NA","county":"Manapiare","VARNAME_2":"NA","NL_NAME_2":"NA","TYPE_2":"Municipio","ENGTYPE_2":"Municipality","CC_2":"NA","HASC_2":"NA","name":"Manapiare.county"},
"geometry":{"type": "MultiPolygon","coordinates": [[[[-64.6386,4.1647,1178.5566],[-64.6378,4.1878,1054.313],[-64.6387,4.2005,1430.8126],[-64.6417,4.2127,1277.9426],[-64.6402,4.2216,1333.0012],[-64.6317,4.2348,953.3281],[-64.615,4.2495,718.9107],[-64.6109,4.2514,762.0205],[-64.5918,4.2482,738.6313],[-64.567,4.2367,707.7164],[-64.5366,4.227,748.3451],[-64.5322,4.2383,793.665],[-64.5264,4.2643,833.2998],[-64.5244,4.2844,744.8954],[-64.5257,4.3245,965.1945],[-64.5296,4.3625,759.4934],[-64.5365,4.3933,923.1981],[-64.5383,4.4401,1026.9835],[-64.5484,4.4706,1150.1287],[-64.5523,4.5139,1006.5552],[-64.5602,4.5564,1142.0701],[-64.5672,4.5673,1134.5558],[-64.5795,4.5745,1044.7455],[-64.5944,4.579,1230.0933],[-64.629,4.5834,712.3185],[-64.6829,4.5858,589.2523],[-64.7009,4.5888,662.4229],[-64.7298,4.5984,620.8932],[-64.7532,4.6089,747.4596],[-64.7697,4.62,1006.3613],[-64.788,4.6414,489.7258],[-64.8157,4.6855,589.4147],[-64.8467,4.7437,416.4319],[-64.8692,4.7789,426.162],[-64.8846,4.7983,435.9045],[-64.9,4.8225,448.823],[-64.919,4.8641,884.3379],[-64.9366,4.9108,899.8129],[-64.9643,4.967,661.1373],[-64.9758,4.9947,757.7945],[-64.9846,5.0222,688.3862],[-64.9945,5.0883,531.9228],[-65.0115,5.1503,570.7401],[-65.0284,5.1951,622.9846],[-65.0524,5.2451,1155.76],[-65.0631,5.2725,1219.7155],[-65.0681,5.2973,1005.8264],[-65.0688,5.3159,745.2991],[-65.0662,5.3282,730.6117],[-65.0594,5.3356,731.8394],[-65.0385,5.3433,645.1119],[-65.0208,5.3448,573.8547],[-64.9975,5.3429,393.3738],[-64.9766,5.339,502.099],[-64.9594,5.3394,381.2718],[-64.9465,5.3446,345.0351],[-64.9377,5.3531,350.491],[-64.9108,5.3945,372.9198],[-64.8992,5.4184,345.5212],[-64.8942,5.4342,339.6652],[-64.8957,5.4479,401.0866],[-64.8995,5.456,559.1504],[-64.924,5.4707,376.6129],[-64.9379,5.4823,443.8015],[-64.9509,5.505,480.6078],[-64.9678,5.5291,398.2103],[-64.977,5.5471,465.7312],[-64.993,5.5668,519.9204],[-65.0102,5.607,1090.562],[-65.0218,5.6269,958.2802],[-65.0242,5.6368,899.2128],[-65.0212,5.652,809.4301],[-65.0162,5.661,815.2036],[-65.0009,5.6742,639.9172],[-64.9793,5.699,677.8828],[-64.9764,5.7072,650.7231],[-64.9767,5.7151,582.5742],[-64.9792,5.7227,689.5392],[-64.9857,5.7324,644.6606],[-64.9931,5.7381,714.9067],[-65.005,5.7426,684.8951],[-65.0141,5.7442,737.4268],[-65.0346,5.7428,688.2841],[-65.127,5.7438,1094.0521],[-65.171,5.7422,1194.2208],[-65.2077,5.7517,1548.2664],[-65.2164,5.7522,1654.2922],[-65.2277,5.7505,1678.8242],[-65.2381,5.746,1596.2913],[-65.2474,5.7396,1474.8948],[-65.2812,5.6985,1000.7861],[-65.286,5.6866,1223.819],[-65.2947,5.676,1207.0981],[-65.3011,5.6723,1151.1428],[-65.3125,5.6695,827.351],[-65.3209,5.6713,795.9928],[-65.3469,5.6797,1585.7477],[-65.3549,5.6857,1556.259],[-65.3621,5.6939,1629.2738],[-65.3681,5.704,1801.9404],[-65.3822,5.7446,1287.3484],[-65.4,5.7821,774.3457],[-65.4089,5.8158,725.5753],[-65.4103,5.8486,693.9464],[-65.4186,5.9125,1192.9692],[-65.4189,5.9311,1150.1188],[-65.4095,5.9637,959.2288],[-65.3858,6.0249,1155.0676],[-65.3825,6.0537,1124.7976],[-65.3866,6.0871,910.9932],[-65.3912,6.1023,996.1039],[-65.402,6.1148,1069.1221],[-65.4167,6.1224,1240.351],[-65.4296,6.1255,1034.2786],[-65.4444,6.1248,866.9155],[-65.4558,6.1233,610.0704],[-65.4775,6.117,410.2226],[-65.4957,6.1157,582.0581],[-65.5024,6.1159,519.5765],[-65.5213,6.1268,469.8286],[-65.5308,6.1268,469.6362],[-65.5403,6.1245,463.5919],[-65.6714,6.0817,361.7668],[-65.6921,6.0662,378.7775],[-65.7148,6.0443,368.4127],[-65.7386,6.0309,496.4725],[-65.802,6.01,726.3278],[-65.8186,6.0001,694.9375],[-65.8334,5.9881,763.4852],[-65.8452,5.9709,1080.8459],[-65.8503,5.9568,723.2161],[-65.8695,5.9179,917.5121],[-65.8779,5.9056,953.014],[-65.8941,5.8871,986.0175],[-65.9392,5.8448,1013.158],[-65.9718,5.8105,1270.7372],[-66.0143,5.7699,1639.4224],[-66.0452,5.7357,1984.057],[-66.0619,5.7265,1881.8109],[-66.0752,5.7255,1587.4928],[-66.1044,5.7282,1613.9253],[-66.1856,5.7428,1965.8955],[-66.2219,5.7536,1674.906],[-66.2737,5.7771,446.7121],[-66.2906,5.762,190.7435],[-66.3475,5.6936,169.7415],[-66.3789,5.6594,363.2812],[-66.3931,5.6224,1126.2297],[-66.4045,5.5739,1027.6133],[-66.4273,5.5169,736.7252],[-66.4387,5.4714,967.168],[-66.4843,5.4315,854.5219],[-66.547,5.4087,403.6535],[-66.604,5.3973,740.1406],[-66.6752,5.3802,743.6873],[-66.7465,5.3488,954.5666],[-66.8462,5.3004,793.3664],[-66.9003,5.2463,910.2578],[-66.9174,5.1978,904.5251],[-66.9231,5.1693,950.4553],[-66.9602,5.1323,668.5559],[-67.0143,5.0553,712.4625],[-66.9887,5.0297,802.869],[-66.9146,5.0069,1082.6637],[-66.8348,4.9727,1560.5854],[-66.7579,4.9642,966.6763],[-66.6866,4.9129,927.0453],[-66.6325,4.8929,623.4128],[-66.5584,4.8587,436.5429],[-66.5185,4.8958,470.3329],[-66.4957,4.8815,829.2363],[-66.4815,4.8587,375.5253],[-66.4758,4.8189,548.8284],[-66.4045,4.702,110.632],[-66.3589,4.571,159.1548],[-66.2279,4.5026,123.0831],[-66.1538,4.3943,136.5161],[-66.1025,4.3544,144.6877],[-65.9999,4.1891,224.256],[-65.9429,4.1379,359.9961],[-65.829,4.1265,485.7181],[-65.7264,4.1549,468.9481],[-65.6466,4.1549,572.6837],[-65.5896,4.1322,502.3572],[-65.5611,4.1549,580.6144],[-65.5554,4.3031,1037.2781],[-65.5212,4.4,1129.0032],[-65.4699,4.4,1003.7404],[-65.413,4.3886,1418.3459],[-65.3503,4.3373,1107.4294],[-65.3047,4.2518,1336.0045],[-65.2933,4.172,1042.457],[-65.2591,4.1094,1150.6494],[-65.1508,4.0695,1298.2192],[-65.0653,4.041,1165.9978],[-64.9343,4.0353,1051.5035],[-64.8089,4.0581,1291.5481],[-64.7169,4.0887,1386.291],[-64.723,4.1049,1432.9613],[-64.7322,4.1201,1319.4944],[-64.7533,4.1368,1454.7875],[-64.7836,4.1526,1571.1213],[-64.8105,4.1746,1540.1594],[-64.8219,4.2118,1523.5968],[-64.825,4.244,1392.1448],[-64.8177,4.2651,1393.871],[-64.7969,4.2857,1372.1896],[-64.7805,4.2865,1390.2969],[-64.6914,4.2446,1396.1008],[-64.6586,4.2115,1249.6095],[-64.6386,4.1647,1178.5566]]]]}}