{"type": "Feature","bbox": [-64.4076,10.861,-63.9783,11.0863],"geometry": {"type": "MultiPolygon","coordinates": [[[[-64.0265,10.9951,2.545],[-64.0312,10.994,0.0],[-64.0335,10.9899,0.2009],[-64.0449,10.9849,0.0579],[-64.0715,10.9821,0.0],[-64.1038,10.9865,0.0689],[-64.1349,10.996,1.3743],[-64.141,10.999,0.4161],[-64.1451,11.0037,0.0],[-64.1521,11.0057,0.0],[-64.1674,11.0162,0.0],[-64.1854,11.0307,0.0],[-64.206,11.0515,1.9104],[-64.2054,11.0554,14.9439],[-64.2026,11.0571,0.0],[-64.194,11.0693,0.0],[-64.1954,11.0721,0.0],[-64.194,11.0735,0.0],[-64.1943,11.084,0.0],[-64.1974,11.0832,0.0],[-64.1982,11.0851,0.0],[-64.2162,11.0863,0.0],[-64.2251,11.0785,4.5554],[-64.2288,11.0776,0.0],[-64.2318,11.079,0.0],[-64.2382,11.0768,0.0],[-64.2382,11.0751,5.9467],[-64.2446,11.0735,1.675],[-64.2476,11.0676,5.1542],[-64.2496,11.0682,0.0],[-64.2543,11.066,1.3109],[-64.2626,11.0671,0.0],[-64.2685,11.0624,0.0],[-64.2774,11.0629,1.8541],[-64.296,11.069,5.0417],[-64.3004,11.064,0.5393],[-64.3124,11.0635,2.6601],[-64.314,11.0615,0.0],[-64.3135,11.0576,10.5583],[-64.3157,11.0568,6.0802],[-64.3276,11.0574,2.1033],[-64.331,11.0554,10.7482],[-64.3351,11.056,5.6472],[-64.3451,11.049,0.0],[-64.3512,11.049,0.5874],[-64.3604,11.0538,0.0],[-64.3621,11.0507,0.0],[-64.3682,11.0504,0.0],[-64.3693,11.0474,1.9579],[-64.3763,11.0468,2.2947],[-64.3793,11.0443,17.4267],[-64.3838,11.044,0.0],[-64.384,11.0401,0.0],[-64.3807,11.0363,0.0],[-64.3835,11.0299,0.0],[-64.3776,11.0301,0.0],[-64.3751,11.0271,4.6162],[-64.3754,11.0215,7.352],[-64.3826,11.0088,0.0],[-64.3821,10.9999,1.4426],[-64.3854,10.9979,2.9346],[-64.3874,10.9985,2.5098],[-64.3899,10.9949,3.4978],[-64.3915,10.9951,3.4978],[-64.4029,10.9863,1.1066],[-64.4057,10.9824,2.1867],[-64.4051,10.9782,1.0699],[-64.4076,10.9738,0.5511],[-64.4051,10.9735,0.3549],[-64.4037,10.9779,1.2381],[-64.3968,10.9707,1.4427],[-64.3921,10.9685,0.0],[-64.3904,10.9693,7.0067],[-64.389,10.9676,0.0],[-64.384,10.9682,0.0],[-64.3821,10.9657,0.0],[-64.3704,10.9649,6.0768],[-64.3679,10.9638,10.0459],[-64.3668,10.961,0.0],[-64.364,10.9632,1.6968],[-64.3557,10.9621,5.0275],[-64.3526,10.9593,7.8971],[-64.3443,10.9587,1.128],[-64.339,10.956,0.8347],[-64.3357,10.9593,6.0283],[-64.3251,10.9565,0.0],[-64.3121,10.9571,3.8223],[-64.3063,10.9529,0.8999],[-64.3021,10.9526,1.5742],[-64.3018,10.9499,0.0926],[-64.299,10.9476,0.545],[-64.2971,10.9496,5.0639],[-64.2982,10.9474,0.545],[-64.2949,10.9449,0.3037],[-64.2776,10.9499,0.9948],[-64.2701,10.9462,1.4365],[-64.2663,10.9487,4.5469],[-64.2654,10.9465,0.256],[-64.2507,10.9415,0.1716],[-64.2487,10.9424,2.2609],[-64.2454,10.9399,1.2413],[-64.2401,10.9393,2.288],[-64.2374,10.9415,2.8177],[-64.2312,10.9421,4.6469],[-64.2276,10.9404,0.0],[-64.2215,10.9404,0.0],[-64.2113,10.9346,0.0],[-64.2076,10.934,1.057],[-64.2043,10.9396,2.6682],[-64.1963,10.9387,0.0],[-64.1937,10.9401,0.0],[-64.1913,10.9449,0.9651],[-64.1837,10.949,0.0],[-64.1787,10.9579,2.1347],[-64.1796,10.9651,0.4261],[-64.1738,10.9688,0.0],[-64.1732,10.9743,0.8513],[-64.171,10.9735,0.0],[-64.1679,10.9762,0.6332],[-64.1699,10.9712,0.0],[-64.1696,10.9651,0.6467],[-64.1654,10.9624,0.0],[-64.1649,10.9671,1.1923],[-64.1599,10.9665,0.2128],[-64.1632,10.9607,0.0507],[-64.1604,10.9599,0.0],[-64.1599,10.9568,0.0],[-64.1562,10.9563,0.0],[-64.156,10.9585,0.0],[-64.1537,10.9587,0.0],[-64.1354,10.946,0.0257],[-64.1293,10.9365,0.0],[-64.1196,10.9271,0.4073],[-64.1179,10.9229,0.0],[-64.1165,10.926,1.9787],[-64.1124,10.9265,0.0],[-64.1101,10.9249,0.0],[-64.1068,10.9271,2.7827],[-64.1074,10.9254,0.711],[-64.1113,10.9226,1.6128],[-64.1165,10.9226,0.0],[-64.111,10.9068,0.0],[-64.1113,10.8988,0.0],[-64.1087,10.901,0.1374],[-64.1051,10.8974,0.1092],[-64.1004,10.9007,1.8141],[-64.099,10.8996,1.6471],[-64.1004,10.8976,0.0],[-64.0963,10.899,2.0983],[-64.0974,10.8957,0.0],[-64.096,10.8949,0.0],[-64.0938,10.8954,0.0],[-64.0926,10.8985,0.0],[-64.0882,10.896,0.7299],[-64.0804,10.8954,0.0],[-64.076,10.8965,0.0],[-64.0754,10.8982,0.5071],[-64.0618,10.8899,2.0784],[-64.0557,10.8813,0.0],[-64.0543,10.8757,2.2847],[-64.0549,10.8693,0.0],[-64.0646,10.8651,3.8154],[-64.0643,10.861,0.9149],[-64.0599,10.861,0.0],[-64.054,10.8635,0.0],[-64.0504,10.8626,0.0],[-64.049,10.866,0.0579],[-64.0368,10.8687,0.0],[-64.0346,10.8715,0.0554],[-64.029,10.874,4.085],[-64.0143,10.8721,2.4367],[-64.0001,10.8796,3.7029],[-63.9929,10.8896,4.5139],[-63.9901,10.891,0.0],[-63.9899,10.8932,0.166],[-63.9857,10.8932,0.0],[-63.9854,10.8946,1.5936],[-63.9783,10.8979,0.0],[-64.0265,10.9951,2.545]]]]}
,"properties": {"GID_2": "VEN.18.10_1","GID_0": "VEN","country": "Venezuela","GID_1": "VEN.18_1","province": "NuevaEsparta","NL_NAME_1": "NA","county": "PeninsuladeMacanao","VARNAME_2": "NA","NL_NAME_2": "NA","TYPE_2": "Municipio","ENGTYPE_2": "Municipality","CC_2": "NA","HASC_2": "NA","name": "Peninsulade_Macanao.county","area_km2": 465.9852,"hist_schema_id": "Elevation0-9000","hist_area_km2": {"0": 158.9015,"25": 129.7598,"50": 54.9469,"75": 31.2815,"100": 19.6053,"125": 13.4238,"150": 10.9055,"175": 8.1792,"200": 6.8056,"225": 5.5361,"250": 4.0792,"275": 4.0376,"300": 2.7681,"325": 2.7472,"350": 2.0604,"375": 1.8939,"400": 1.3736,"425": 1.6234,"450": 1.1655,"475": 1.332,"500": 0.9782,"525": 0.7284,"550": 0.666,"575": 0.4579,"600": 0.2914,"625": 0.1665,"650": 0.1249,"675": 0.0832,"700": 0.0416,"725": 0.0208}}}