{"type":"Feature","properties":{"GID_2":"VEN.12.16_1","GID_0":"VEN","country":"Venezuela","GID_1":"VEN.12_1","province":"Falcón","NL_NAME_1":"NA","county":"PalmaSola","VARNAME_2":"NA","NL_NAME_2":"NA","TYPE_2":"Municipio","ENGTYPE_2":"Municipality","CC_2":"NA","HASC_2":"NA","name":"Palma_Sola.county"},
"geometry":{"type": "MultiPolygon","coordinates": [[[[-68.5689,10.6539,75.0553],[-68.5466,10.6446,51.1832],[-68.5063,10.635,36.0811],[-68.4805,10.7328,36.9868],[-68.4896,10.7349,43.1554],[-68.5296,10.7561,114.9317],[-68.5481,10.76,127.1986],[-68.5612,10.7603,148.4409],[-68.5984,10.7553,209.5237],[-68.5946,10.7211,124.5447],[-68.5929,10.6761,68.9464],[-68.5888,10.6671,66.2538],[-68.581,10.6599,74.9331],[-68.5689,10.6539,75.0553]]]]}}