{"type":"Feature","properties":{"GID_2":"VEN.20.9_1","GID_0":"VEN","country":"Venezuela","GID_1":"VEN.20_1","province":"Sucre","NL_NAME_1":"NA","county":"Libertador","VARNAME_2":"NA","NL_NAME_2":"NA","TYPE_2":"Municipio","ENGTYPE_2":"Municipality","CC_2":"NA","HASC_2":"NA","name":"Libertador.county"},
"geometry":{"type": "MultiPolygon","coordinates": [[[[-63.089,10.6115,464.8508],[-63.0984,10.5936,220.062],[-63.1039,10.5883,99.6678],[-63.1086,10.5769,50.4207],[-63.1074,10.5756,39.5732],[-63.1032,10.5716,25.2924],[-62.9613,10.4874,24.2206],[-62.9476,10.4841,24.9268],[-62.9395,10.4903,25.2083],[-62.9257,10.5081,5.247],[-62.9091,10.5232,0.0],[-62.8992,10.5301,28.7892],[-62.8665,10.54,24.1483],[-62.8649,10.5443,19.8569],[-62.8723,10.5492,1.6869],[-62.9012,10.5585,1.7029],[-62.9092,10.5643,5.7352],[-62.913,10.5712,10.8189],[-62.9127,10.5868,27.9566],[-62.9304,10.6014,66.0394],[-62.9374,10.6043,42.181],[-62.9612,10.6065,57.0849],[-62.9814,10.6132,122.2404],[-62.9898,10.6131,171.2128],[-63.003,10.612,245.3023],[-63.036,10.6004,470.8176],[-63.0666,10.5987,252.8261],[-63.081,10.6021,291.7734],[-63.086,10.6061,311.0423],[-63.089,10.6115,464.8508]]]]}}