{"type": "Feature","bbox": [-67.9365,10.1007,-67.8309,10.2191],"geometry": {"type": "MultiPolygon","coordinates": [[[[-67.8309,10.1298,411.5],[-67.8411,10.1666,411.5],[-67.8501,10.1721,411.5],[-67.8654,10.1893,424.513],[-67.8698,10.1966,428.6671],[-67.8741,10.2127,434.2533],[-67.873,10.2191,436.1167],[-67.8836,10.2131,435.8446],[-67.9177,10.1986,435.9293],[-67.9365,10.1947,442.0737],[-67.9308,10.1861,438.9981],[-67.9268,10.1731,433.7796],[-67.9187,10.1715,429.7469],[-67.9161,10.1647,428.6373],[-67.9068,10.1077,431.7853],[-67.8868,10.1007,421.5568],[-67.8748,10.1045,411.5],[-67.8309,10.1298,411.5]]]]}
,"properties": {"GID_2": "VEN.7.8_1","GID_0": "VEN","country": "Venezuela","GID_1": "VEN.7_1","province": "Carabobo","NL_NAME_1": "NA","county": "LosGuayos","VARNAME_2": "NA","NL_NAME_2": "NA","TYPE_2": "Municipio","ENGTYPE_2": "Municipality","CC_2": "NA","HASC_2": "NA","name": "Los_Guayos.county","area_km2": 84.39815,"hist_schema_id": "Elevation0-9000","hist_area_km2": {"400": 33.12216,"425": 48.35419,"450": 2.14952,"475": 0.54268,"500": 0.20873,"525": 0.02087}}}