{"type": "Feature","bbox": [-66.88,10.1867,-66.7624,10.3486],"geometry": {"type": "MultiPolygon","coordinates": [[[[-66.88,10.2621,543.7151],[-66.8764,10.2595,584.2837],[-66.8727,10.2512,436.1981],[-66.8727,10.234,383.8978],[-66.8693,10.224,324.4592],[-66.8627,10.2192,302.7717],[-66.8409,10.213,346.0489],[-66.8354,10.21,339.2086],[-66.8174,10.1891,234.3038],[-66.8119,10.1867,253.7428],[-66.8119,10.2056,253.8215],[-66.8019,10.2296,315.8373],[-66.79,10.2524,264.4852],[-66.7774,10.2675,300.7552],[-66.773,10.2682,272.4598],[-66.7692,10.2714,272.3737],[-66.7677,10.2782,286.2708],[-66.7624,10.2797,287.6681],[-66.7736,10.3074,396.5082],[-66.7871,10.3343,802.5848],[-66.7965,10.343,527.8563],[-66.8186,10.3486,750.3573],[-66.8483,10.337,1010.4636],[-66.8697,10.2888,544.5438],[-66.8718,10.2754,464.1058],[-66.88,10.2621,543.7151]]]]}
,"properties": {"GID_2": "VEN.16.8_1","GID_0": "VEN","country": "Venezuela","GID_1": "VEN.16_1","province": "Miranda","NL_NAME_1": "NA","county": "CristóbalRojas","VARNAME_2": "NA","NL_NAME_2": "NA","TYPE_2": "Municipio","ENGTYPE_2": "Municipality","CC_2": "NA","HASC_2": "NA","name": "Cristóbal_Rojas.county","area_km2": 135.082,"hist_schema_id": "Elevation0-9000","hist_area_km2": {"225": 0.2713,"250": 1.1685,"275": 5.8214,"300": 12.5395,"325": 17.359,"350": 14.0413,"375": 10.1394,"400": 7.6565,"425": 4.7773,"450": 4.2348,"475": 4.8189,"500": 5.841,"525": 6.0496,"550": 6.279,"575": 6.1121,"600": 5.2776,"625": 5.1524,"650": 4.2554,"675": 2.6282,"700": 2.065,"725": 1.7939,"750": 1.7939,"775": 1.4184,"800": 1.4184,"825": 0.8135,"850": 0.6466,"875": 0.3129,"900": 0.2086,"925": 0.0626,"950": 0.0417,"975": 0.0417,"1000": 0.0209,"1025": 0.0209}}}