{"type":"Feature","properties":{"GID_2":"VEN.21.16_1","GID_0":"VEN","country":"Venezuela","GID_1":"VEN.21_1","province":"Táchira","NL_NAME_1":"NA","county":"Libertador","VARNAME_2":"NA","NL_NAME_2":"NA","TYPE_2":"Municipio","ENGTYPE_2":"Municipality","CC_2":"NA","HASC_2":"NA","name":"Libertador.county"},
"geometry":{"type": "MultiPolygon","coordinates": [[[[-71.3516,7.4644,157.3971],[-71.348,7.4698,157.9091],[-71.3493,7.4809,159.1301],[-71.3546,7.4888,158.841],[-71.3665,7.4918,160.1335],[-71.3816,7.4911,164.0232],[-71.3941,7.4926,160.4227],[-71.4025,7.4982,162.7569],[-71.4055,7.5041,162.3644],[-71.4083,7.5242,162.2562],[-71.4138,7.5404,164.0079],[-71.4163,7.542,164.2422],[-71.419,7.5415,164.735],[-71.4276,7.5317,165.1508],[-71.4345,7.5296,165.0492],[-71.4389,7.5335,164.7548],[-71.4422,7.5406,166.9742],[-71.4467,7.5591,168.5178],[-71.4497,7.563,167.0096],[-71.4547,7.5655,169.1993],[-71.4708,7.5676,170.2242],[-71.4805,7.5741,171.4398],[-71.4865,7.5808,172.0561],[-71.507,7.5871,175.1176],[-71.5098,7.592,202.3082],[-71.5096,7.5982,251.78],[-71.499,7.6238,175.7104],[-71.4976,7.6319,177.5603],[-71.5073,7.6502,181.4258],[-71.5141,7.6711,184.2374],[-71.5168,7.6866,188.9043],[-71.5188,7.7185,470.0462],[-71.5188,7.7908,985.593],[-71.5388,7.7732,513.6069],[-71.5486,7.7491,470.8298],[-71.5579,7.7125,302.0],[-71.5746,7.7367,382.2562],[-71.6098,7.8035,331.5293],[-71.6136,7.8023,310.7294],[-71.6349,7.762,332.486],[-71.6485,7.7543,279.9979],[-71.6773,7.7495,236.2686],[-71.6989,7.748,430.3549],[-71.7148,7.7434,305.5179],[-71.7246,7.739,269.5065],[-71.7321,7.7333,277.0209],[-71.7394,7.7247,433.6966],[-71.7461,7.7136,569.7171],[-71.7636,7.6716,657.2784],[-71.7593,7.666,302.1265],[-71.7581,7.6564,207.5074],[-71.7596,7.644,199.3856],[-71.7634,7.6335,344.6541],[-71.7813,7.606,453.9046],[-71.7896,7.5899,316.0873],[-71.7926,7.577,198.758],[-71.7854,7.5668,197.106],[-71.7951,7.5588,210.6086],[-71.8008,7.5499,201.0696],[-71.8036,7.5317,199.6081],[-71.8127,7.5174,206.0037],[-71.8152,7.5085,198.7817],[-71.8114,7.5021,199.2453],[-71.7893,7.5009,197.8602],[-71.7764,7.4977,196.6697],[-71.7619,7.4909,195.1823],[-71.7374,7.4897,191.4607],[-71.6952,7.4963,186.9628],[-71.6583,7.4863,189.011],[-71.5911,7.4725,181.4884],[-71.529,7.4658,168.9939],[-71.4963,7.4605,167.3054],[-71.454,7.4653,168.4082],[-71.4234,7.4633,165.6439],[-71.3995,7.4502,160.3464],[-71.3837,7.4512,162.9437],[-71.3684,7.4551,163.2965],[-71.356,7.4598,164.6646],[-71.3516,7.4644,157.3971]]]]}}