{"type": "Feature","bbox": [-69.7696,9.7454,-69.4381,10.1942],"geometry": {"type": "MultiPolygon","coordinates": [[[[-69.4381,9.803,1303.0325],[-69.443,9.8034,1266.2585],[-69.4486,9.8107,1446.8406],[-69.4477,9.8334,1395.1372],[-69.4448,9.8403,1523.332],[-69.4444,9.8459,1653.5709],[-69.4467,9.8504,1750.4392],[-69.4591,9.8583,1787.8228],[-69.4693,9.8675,1400.8125],[-69.478,9.885,1084.2733],[-69.4814,9.8969,885.0908],[-69.4811,9.906,1072.4258],[-69.477,9.914,1131.5344],[-69.47,9.9211,1076.124],[-69.4681,9.9257,998.3546],[-69.4686,9.931,1003.8135],[-69.4864,9.9397,999.1876],[-69.4918,9.946,914.8631],[-69.5037,10.0189,673.6736],[-69.5075,10.025,668.2271],[-69.5164,10.0338,672.0103],[-69.5353,10.0491,653.3442],[-69.5651,10.0782,709.9514],[-69.567,10.0856,734.6279],[-69.5648,10.1462,754.8958],[-69.5659,10.1503,765.6854],[-69.5808,10.1628,867.2786],[-69.624,10.1886,867.4718],[-69.6305,10.1942,884.6849],[-69.6472,10.1864,885.5824],[-69.6668,10.171,1001.551],[-69.686,10.139,737.9695],[-69.7029,10.1243,710.5215],[-69.7095,10.1137,636.2532],[-69.723,10.08,634.0044],[-69.7299,10.0724,577.2246],[-69.7521,10.0628,589.939],[-69.7696,10.052,705.0677],[-69.7544,10.0439,618.0763],[-69.7512,10.0403,610.3046],[-69.7509,10.0292,651.5054],[-69.7484,10.0195,791.3834],[-69.7382,10.004,827.3343],[-69.7319,9.9878,883.6646],[-69.7307,9.9781,944.3792],[-69.7334,9.9703,864.7939],[-69.7471,9.9587,813.2708],[-69.7494,9.9526,858.0597],[-69.7475,9.945,886.8911],[-69.7416,9.9369,848.7715],[-69.7282,9.9245,845.93],[-69.7043,9.9073,716.9669],[-69.7014,9.8899,661.5512],[-69.7031,9.8724,658.6411],[-69.713,9.8416,790.2516],[-69.7019,9.8383,837.1587],[-69.6518,9.8301,870.1145],[-69.6383,9.8305,852.5228],[-69.6217,9.8337,901.275],[-69.6075,9.8416,898.9575],[-69.6009,9.8341,948.2674],[-69.5978,9.8255,1152.0624],[-69.6048,9.8022,1140.3353],[-69.6042,9.7898,1317.1853],[-69.5945,9.7762,1682.861],[-69.5868,9.755,1786.9833],[-69.5699,9.7461,1678.9073],[-69.5598,9.7454,1722.1772],[-69.5155,9.7571,1944.2473],[-69.5173,9.7628,1914.8804],[-69.5117,9.7667,1938.6201],[-69.4814,9.777,2097.3586],[-69.4556,9.7912,1669.4089],[-69.4381,9.803,1303.0325]]]]}
,"properties": {"GID_2": "VEN.14.4_1","GID_0": "VEN","country": "Venezuela","GID_1": "VEN.14_1","province": "Lara","NL_NAME_1": "NA","county": "Jiménez","VARNAME_2": "NA","NL_NAME_2": "NA","TYPE_2": "Municipio","ENGTYPE_2": "Municipality","CC_2": "NA","HASC_2": "NA","name": "Jiménez.county","area_km2": 989.2113,"hist_schema_id": "Elevation0-9000","hist_area_km2": {"525": 0.0418,"550": 2.1293,"575": 13.7367,"600": 36.4524,"625": 71.5326,"650": 106.1187,"675": 103.9089,"700": 75.3195,"725": 65.9805,"750": 58.7094,"775": 42.884,"800": 30.3576,"825": 24.6798,"850": 22.5502,"875": 19.6067,"900": 17.8319,"925": 16.5792,"950": 14.178,"975": 12.5707,"1000": 11.6735,"1025": 10.2546,"1050": 11.0067,"1075": 10.0884,"1100": 12.2611,"1125": 12.0523,"1150": 11.7811,"1175": 9.734,"1200": 8.6898,"1225": 7.5201,"1250": 7.9588,"1275": 7.6875,"1300": 6.3506,"1325": 5.745,"1350": 5.5571,"1375": 5.1811,"1400": 4.7634,"1425": 5.3066,"1450": 4.4918,"1475": 4.9097,"1500": 5.5992,"1525": 5.641,"1550": 5.7454,"1575": 5.453,"1600": 5.9127,"1625": 5.2858,"1650": 6.0798,"1675": 5.077,"1700": 4.7009,"1725": 5.0769,"1750": 4.8262,"1775": 4.2831,"1800": 4.1368,"1825": 3.6563,"1850": 3.7399,"1875": 3.3847,"1900": 2.6534,"1925": 2.2774,"1950": 2.0894,"1975": 1.5671,"2000": 1.1074,"2025": 0.9402,"2050": 0.6895,"2075": 0.5433,"2100": 0.2716,"2125": 0.1463,"2150": 0.1045,"2175": 0.0418}}}