{"type": "Feature","bbox": [-71.8401,7.9718,-71.5432,8.2711],"geometry": {"type": "MultiPolygon","coordinates": [[[[-71.6785,8.2711,2168.3945],[-71.7017,8.2601,2893.1917],[-71.7165,8.2375,2611.0234],[-71.7245,8.2342,2554.4268],[-71.7506,8.2391,2931.6577],[-71.7644,8.2449,2371.7681],[-71.7899,8.2279,3298.9614],[-71.8028,8.2157,3193.8647],[-71.8029,8.2096,3427.1589],[-71.8161,8.1756,2804.2795],[-71.8231,8.1625,3099.4163],[-71.8331,8.1494,2955.3491],[-71.8401,8.1435,2961.1597],[-71.7946,8.1313,2379.6787],[-71.7804,8.1216,2335.8125],[-71.7689,8.1085,1788.344],[-71.7556,8.0871,1578.4365],[-71.7416,8.069,1713.415],[-71.6914,8.0242,1398.436],[-71.6778,7.9941,1471.0057],[-71.6693,7.9832,1666.2972],[-71.6567,7.975,1394.6044],[-71.6377,7.9718,1344.4],[-71.6257,7.9738,1483.5089],[-71.5808,7.9879,2222.0349],[-71.5713,7.9898,2348.8799],[-71.5673,7.9879,2251.7351],[-71.5601,8.0213,2556.5071],[-71.5432,8.06,2790.6221],[-71.5437,8.0732,2757.512],[-71.5451,8.0745,2675.5222],[-71.5625,8.0751,2612.6709],[-71.5771,8.0794,2080.5239],[-71.5814,8.0843,1868.2507],[-71.5864,8.0945,1704.75],[-71.5933,8.1477,1799.3501],[-71.5896,8.1553,1864.6713],[-71.5792,8.161,2340.2695],[-71.5728,8.17,2351.2656],[-71.5705,8.1797,2335.5781],[-71.5709,8.1889,2230.4229],[-71.5771,8.2162,2400.8547],[-71.575,8.2253,2680.0352],[-71.5927,8.2442,2991.3989],[-71.6009,8.2504,2678.2996],[-71.6377,8.2554,2047.0171],[-71.6617,8.2625,2344.0088],[-71.6785,8.2711,2168.3945]]]]}
,"properties": {"GID_2": "VEN.15.9_1","GID_0": "VEN","country": "Venezuela","GID_1": "VEN.15_1","province": "Mérida","NL_NAME_1": "NA","county": "Guaraque","VARNAME_2": "NA","NL_NAME_2": "NA","TYPE_2": "Municipio","ENGTYPE_2": "Municipality","CC_2": "NA","HASC_2": "NA","name": "Guaraque.county","area_km2": 627.9309,"hist_schema_id": "Elevation0-9000","hist_area_km2": {"1125": 0.021,"1150": 0.8607,"1175": 1.0077,"1200": 1.0287,"1225": 1.3646,"1250": 1.5955,"1275": 1.9734,"1300": 2.4562,"1325": 2.7501,"1350": 3.7788,"1375": 4.4715,"1400": 5.2691,"1425": 6.3187,"1450": 7.5992,"1475": 7.956,"1500": 8.8166,"1525": 9.3202,"1550": 9.7608,"1575": 10.2855,"1600": 10.9151,"1625": 11.8804,"1650": 12.0274,"1675": 13.0348,"1700": 13.0767,"1725": 14.3359,"1750": 14.2519,"1775": 14.7137,"1800": 14.8604,"1825": 15.5741,"1850": 14.5873,"1875": 15.9097,"1900": 13.9577,"1925": 14.8181,"1950": 14.7133,"1975": 14.4193,"2000": 13.9996,"2025": 12.6982,"2050": 13.0759,"2075": 12.845,"2100": 12.2782,"2125": 12.0265,"2150": 12.4044,"2175": 11.8586,"2200": 11.7745,"2225": 10.4311,"2250": 10.0114,"2275": 8.7731,"2300": 9.4655,"2325": 9.1297,"2350": 8.1434,"2375": 7.7656,"2400": 7.9753,"2425": 7.3456,"2450": 7.1357,"2475": 6.7161,"2500": 6.4641,"2525": 5.7506,"2550": 5.7085,"2575": 5.3099,"2600": 5.3518,"2625": 5.3308,"2650": 5.0161,"2675": 4.6173,"2700": 4.3445,"2725": 4.7852,"2750": 4.2396,"2775": 4.1136,"2800": 4.3235,"2825": 4.0507,"2850": 3.589,"2875": 3.652,"2900": 3.631,"2925": 2.3716,"2950": 3.0643,"2975": 2.4766,"3000": 2.9383,"3025": 2.0988,"3050": 2.4766,"3075": 2.2667,"3100": 2.2457,"3125": 1.5741,"3150": 1.616,"3175": 1.4062,"3200": 1.3642,"3225": 1.0494,"3250": 0.6925,"3275": 0.5666,"3300": 0.6296,"3325": 0.4827,"3350": 0.5456,"3375": 0.5666,"3400": 0.4197,"3425": 0.5246,"3450": 0.3148,"3475": 0.2518,"3500": 0.1049,"3525": 0.042}}}