{"type": "Feature","bbox": [-63.9603,9.9997,-63.5875,10.2321],"geometry": {"type": "MultiPolygon","coordinates": [[[[-63.9603,10.0393,1621.6716],[-63.9468,10.045,1674.9539],[-63.9396,10.0452,1481.0045],[-63.9354,10.0425,1400.6853],[-63.9245,10.0288,885.6674],[-63.9098,10.018,1197.9675],[-63.901,10.0055,1083.2781],[-63.8934,9.9997,904.3962],[-63.8857,10.0011,838.0676],[-63.8698,10.0095,962.9457],[-63.8461,10.0134,884.8026],[-63.838,10.0124,787.8436],[-63.8144,10.002,749.8607],[-63.8046,10.0019,709.2459],[-63.7564,10.0194,664.4749],[-63.7368,10.0228,563.5095],[-63.7135,10.0086,447.1992],[-63.7063,10.0075,499.5576],[-63.6976,10.0109,333.4946],[-63.6601,10.0364,563.285],[-63.6411,10.0531,823.7864],[-63.634,10.0574,861.219],[-63.6262,10.0589,810.8456],[-63.6143,10.0746,561.6738],[-63.602,10.1185,802.5178],[-63.5949,10.1259,958.944],[-63.5943,10.129,1053.8424],[-63.6033,10.1322,994.8415],[-63.6248,10.1163,921.8479],[-63.6321,10.1162,759.0398],[-63.6342,10.1227,785.6376],[-63.6328,10.1299,959.1985],[-63.6122,10.1634,1098.4709],[-63.5999,10.1744,1455.0453],[-63.5875,10.197,2046.208],[-63.5994,10.2076,1684.342],[-63.603,10.2132,1689.5759],[-63.6057,10.2197,1611.8724],[-63.6074,10.2321,1095.4912],[-63.6596,10.2152,1541.6616],[-63.7336,10.2045,817.969],[-63.7502,10.2011,872.5823],[-63.7636,10.1963,969.7952],[-63.7772,10.185,1121.4141],[-63.8041,10.1423,1066.4517],[-63.8186,10.1247,1239.1183],[-63.8388,10.1043,1794.7791],[-63.8448,10.0997,1997.941],[-63.8626,10.0913,1940.1343],[-63.8821,10.0851,1918.6735],[-63.9434,10.0724,1910.7931],[-63.9502,10.0613,1850.5422],[-63.9603,10.0393,1621.6716]]]]}
,"properties": {"GID_2": "VEN.17.1_1","GID_0": "VEN","country": "Venezuela","GID_1": "VEN.17_1","province": "Monagas","NL_NAME_1": "NA","county": "Acosta","VARNAME_2": "NA","NL_NAME_2": "NA","TYPE_2": "Municipio","ENGTYPE_2": "Municipality","CC_2": "NA","HASC_2": "NA","name": "Acosta.county","area_km2": 563.1474,"hist_schema_id": "Elevation0-9000","hist_area_km2": {"275": 0.0209,"300": 0.3132,"325": 0.4802,"350": 0.8142,"375": 1.5659,"400": 1.7537,"425": 11.7731,"450": 10.583,"475": 9.3933,"500": 9.5395,"525": 9.957,"550": 10.6668,"575": 11.8983,"600": 12.9418,"625": 12.8584,"650": 13.7561,"675": 14.7789,"700": 15.5305,"725": 17.4508,"750": 17.6382,"775": 18.0348,"800": 16.4692,"825": 17.4294,"850": 15.8429,"875": 16.0933,"900": 14.8409,"925": 14.2354,"950": 12.5656,"975": 12.628,"1000": 11.5009,"1025": 11.5634,"1050": 10.1233,"1075": 9.4344,"1100": 8.7665,"1125": 8.5579,"1150": 8.7039,"1175": 8.6832,"1200": 7.4726,"1225": 8.558,"1250": 7.41,"1275": 7.0342,"1300": 7.7644,"1325": 7.2219,"1350": 7.2636,"1375": 7.3474,"1400": 7.4724,"1425": 7.2846,"1450": 7.0344,"1475": 8.0574,"1500": 7.2225,"1525": 6.0534,"1550": 4.9054,"1575": 4.8219,"1600": 4.2582,"1625": 5.3437,"1650": 4.6758,"1675": 5.4689,"1700": 4.7801,"1725": 4.8637,"1750": 4.5714,"1775": 3.8617,"1800": 3.7156,"1825": 2.9015,"1850": 2.1291,"1875": 1.1063,"1900": 1.0645,"1925": 0.6053,"1950": 0.6053,"1975": 0.501,"2000": 0.167,"2025": 0.2922,"2050": 0.1044,"2075": 0.0209}}}