{"type":"Feature","properties":{"GID_2":"VEN.7.15_1","GID_0":"VEN","country":"Venezuela","GID_1":"VEN.7_1","province":"Carabobo","NL_NAME_1":"NA","county":"Valencia","VARNAME_2":"NA","NL_NAME_2":"NA","TYPE_2":"Municipio","ENGTYPE_2":"Municipality","CC_2":"NA","HASC_2":"NA","name":"Valencia.county"},
"geometry":{"type": "MultiPolygon","coordinates": [[[[-67.9068,10.1077,431.7853],[-67.9109,10.1285,423.8854],[-67.9138,10.1565,428.3206],[-67.9187,10.1715,429.7469],[-67.9268,10.1731,433.7796],[-67.9308,10.1861,438.9981],[-67.936,10.1939,442.0737],[-67.957,10.1923,443.9018],[-67.9608,10.1985,449.3345],[-67.9624,10.2106,456.2262],[-67.9611,10.2177,454.2353],[-67.9509,10.2255,455.593],[-67.9531,10.2556,467.2758],[-68.0662,10.2618,1097.7401],[-68.0659,10.24,620.8795],[-68.0678,10.2285,542.3226],[-68.0635,10.1941,510.0],[-68.0604,10.1875,522.3248],[-68.0451,10.1844,541.9695],[-68.0437,10.1816,551.2166],[-68.0474,10.1589,541.5204],[-68.0468,10.1399,467.0837],[-68.0414,10.1121,448.4669],[-68.0508,10.1046,448.7816],[-68.0539,10.0981,444.7113],[-68.0513,10.0882,439.8842],[-68.0417,10.077,433.0377],[-68.0397,10.0422,438.2723],[-68.0366,10.0285,448.7605],[-68.0295,10.0223,455.8106],[-68.0193,10.0176,480.1902],[-68.0193,10.0096,701.6788],[-68.0134,9.9881,877.3718],[-68.0168,9.9839,879.574],[-68.026,9.9902,588.1439],[-68.0332,9.9911,565.4079],[-68.0392,9.9836,598.913],[-68.0545,9.9737,472.9919],[-68.0704,9.9681,520.413],[-68.0979,9.9524,538.8093],[-68.0932,9.9419,505.3248],[-68.0824,9.9306,461.8518],[-68.0681,9.9215,436.5491],[-68.0563,9.909,456.5992],[-68.0519,9.9016,505.1935],[-68.0405,9.8917,545.9821],[-68.0268,9.8915,522.6031],[-67.9982,9.9064,577.1982],[-67.9857,9.9164,622.6743],[-67.9701,9.9238,639.0861],[-67.9549,9.9246,550.0929],[-67.9469,9.9206,543.4229],[-67.9471,9.9098,541.9272],[-67.9519,9.9002,535.5988],[-67.9548,9.8888,651.8094],[-67.9514,9.877,534.3954],[-67.9313,9.8626,636.2545],[-67.9048,9.8573,634.5396],[-67.8847,9.8554,627.6421],[-67.8664,9.8562,813.4183],[-67.8464,9.8593,678.3695],[-67.8139,9.8584,758.6835],[-67.8025,9.855,834.5732],[-67.8084,9.8916,886.9211],[-67.8091,9.9016,1031.9039],[-67.8074,9.9143,881.966],[-67.799,9.9239,1021.3145],[-67.7885,9.9268,809.1672],[-67.7922,9.9365,824.0996],[-67.7976,9.9432,1035.9858],[-67.8277,9.9648,657.0597],[-67.8335,9.9721,718.2153],[-67.8334,9.9765,785.6646],[-67.8568,9.977,901.7596],[-67.867,9.9789,832.6755],[-67.8786,9.9838,849.1096],[-67.8884,9.9901,684.3875],[-67.9193,10.003,680.1235],[-67.9534,10.0066,756.1245],[-67.9602,10.013,608.5588],[-67.9624,10.0198,504.3947],[-67.963,10.0375,447.8275],[-67.9599,10.0462,442.9939],[-67.9538,10.0969,427.2183],[-67.95,10.1006,424.4966],[-67.9285,10.1062,423.0617],[-67.9158,10.1086,421.8954],[-67.9068,10.1077,431.7853]]]]}}