{"type": "Feature","bbox": [-67.7292,10.2571,-67.608,10.378],"geometry": {"type": "MultiPolygon","coordinates": [[[[-67.608,10.2792,450.3378],[-67.6113,10.3039,778.236],[-67.6108,10.322,1049.6985],[-67.6131,10.3312,948.2361],[-67.6549,10.3616,1735.3265],[-67.6934,10.3683,809.0125],[-67.7134,10.378,458.9189],[-67.7265,10.3741,368.524],[-67.7231,10.3607,636.1865],[-67.7093,10.3297,1317.0271],[-67.7088,10.3199,1040.4487],[-67.7161,10.309,783.1082],[-67.7202,10.293,449.9695],[-67.7263,10.2814,429.1827],[-67.7292,10.267,411.5],[-67.7059,10.2836,431.7987],[-67.6933,10.2876,435.8772],[-67.6843,10.2869,433.8452],[-67.6664,10.2835,462.6793],[-67.6644,10.2808,511.1996],[-67.6656,10.2757,508.5075],[-67.6693,10.271,412.4645],[-67.6675,10.263,540.193],[-67.6592,10.2596,427.9244],[-67.6301,10.2571,441.0092],[-67.6176,10.2681,447.8776],[-67.608,10.2792,450.3378]]]]}
,"properties": {"GID_2": "VEN.7.3_1","GID_0": "VEN","country": "Venezuela","GID_1": "VEN.7_1","province": "Carabobo","NL_NAME_1": "NA","county": "DiegoIbarra","VARNAME_2": "NA","NL_NAME_2": "NA","TYPE_2": "Municipio","ENGTYPE_2": "Municipality","CC_2": "NA","HASC_2": "NA","name": "Diego_Ibarra.county","area_km2": 114.22666,"hist_schema_id": "Elevation0-9000","hist_area_km2": {"275": 0.02086,"300": 0.02086,"325": 0.06257,"350": 0.14599,"375": 0.1877,"400": 0.31288,"425": 6.0082,"450": 20.54849,"475": 7.76009,"500": 5.13161,"525": 4.7144,"550": 4.15109,"575": 3.92161,"600": 3.77557,"625": 3.40013,"650": 3.50439,"675": 2.87856,"700": 3.52518,"725": 3.56689,"750": 2.69078,"775": 2.58647,"800": 2.7116,"825": 2.357,"850": 2.39872,"875": 1.96067,"900": 2.19012,"925": 1.56438,"950": 1.68951,"975": 1.60607,"1000": 1.48092,"1025": 1.37662,"1050": 1.25146,"1075": 1.18889,"1100": 1.0846,"1125": 0.70915,"1150": 1.10545,"1175": 1.06373,"1200": 0.87601,"1225": 0.79258,"1250": 0.64658,"1275": 0.62572,"1300": 0.70915,"1325": 0.70915,"1350": 0.77173,"1375": 0.60486,"1400": 0.52143,"1425": 0.50057,"1450": 0.39629,"1475": 0.56314,"1500": 0.25028,"1525": 0.20857,"1550": 0.20857,"1575": 0.20857,"1600": 0.27114,"1625": 0.16685,"1650": 0.12514,"1675": 0.10428,"1700": 0.146,"1725": 0.08343,"1750": 0.06257,"1775": 0.02086}}}