{"type":"Feature","properties":{"GID_2":"VEN.17.3_1","GID_0":"VEN","country":"Venezuela","GID_1":"VEN.17_1","province":"Monagas","NL_NAME_1":"NA","county":"Bolívar","VARNAME_2":"NA","NL_NAME_2":"NA","TYPE_2":"Municipio","ENGTYPE_2":"Municipality","CC_2":"NA","HASC_2":"NA","name":"Bolívar.county"},
"geometry":{"type": "MultiPolygon","coordinates": [[[[-63.2305,10.1498,519.351],[-63.2257,10.151,589.2221],[-63.2231,10.1494,538.2272],[-63.2217,10.1316,368.6796],[-63.2195,10.1277,453.8251],[-63.2111,10.1218,403.8098],[-63.2024,10.1208,298.575],[-63.1962,10.1177,392.4757],[-63.1815,10.1074,227.435],[-63.1708,10.0987,206.3694],[-63.1533,10.0782,113.5494],[-63.1511,10.0692,148.709],[-63.1626,10.0507,97.8076],[-63.1582,10.0426,72.0987],[-63.1478,10.0409,99.172],[-63.1297,10.0474,94.8047],[-63.1097,10.0636,28.5411],[-63.0989,10.0686,17.4293],[-63.0895,10.07,19.7752],[-63.0487,10.0657,12.8431],[-63.0399,10.0692,11.242],[-63.0344,10.0777,13.3528],[-63.0273,10.0995,22.3244],[-63.0193,10.1089,12.2526],[-62.9885,10.1315,8.0589],[-63.0119,10.1541,8.8977],[-63.0223,10.1595,26.6973],[-63.0251,10.1593,24.7406],[-63.0386,10.1725,8.1072],[-63.0458,10.2113,103.1017],[-63.0486,10.2201,88.3671],[-63.053,10.2253,142.3799],[-63.0598,10.2267,226.7054],[-63.0837,10.2207,3.7727],[-63.0905,10.2225,6.016],[-63.098,10.2275,4.17],[-63.1012,10.2332,4.4152],[-63.1244,10.236,2.6693],[-63.1278,10.2344,2.7769],[-63.136,10.2378,2.764],[-63.1498,10.2379,2.8197],[-63.1732,10.2332,3.2505],[-63.1954,10.2245,43.3434],[-63.1931,10.1991,197.7829],[-63.1966,10.1906,363.0376],[-63.2006,10.1845,490.2276],[-63.2153,10.1699,634.8574],[-63.2305,10.1498,519.351]]]]}}