{"type":"Feature","properties":{"GID_2":"VEN.9.2_1","GID_0":"VEN","country":"Venezuela","GID_1":"VEN.9_1","province":"DeltaAmacuro","NL_NAME_1":"NA","county":"Casacoima","VARNAME_2":"NA","NL_NAME_2":"NA","TYPE_2":"Municipio","ENGTYPE_2":"Municipality","CC_2":"NA","HASC_2":"NA","name":"Casacoima.county"},
"geometry":{"type": "MultiPolygon","coordinates": [[[[-62.4763,8.363,200.898],[-62.1584,8.1818,645.7933],[-61.6835,8.247,255.2655],[-61.667,8.2538,355.4058],[-61.6598,8.2551,396.6448],[-61.6307,8.2563,321.3921],[-61.6135,8.2547,349.8849],[-61.6433,8.5112,25.6861],[-61.6542,8.5166,18.7112],[-61.6575,8.5204,5.614],[-61.6587,8.5252,5.1995],[-61.6548,8.5279,20.8],[-61.6447,8.5264,4.9186],[-61.6451,8.5305,4.696],[-61.6527,8.539,12.7008],[-61.6794,8.5453,9.6407],[-61.6875,8.547,17.632],[-61.6944,8.5461,22.6121],[-61.6989,8.5428,52.8871],[-61.7066,8.5635,6.2026],[-61.705,8.5716,6.1528],[-61.6953,8.5746,6.4532],[-61.683,8.5727,3.1918],[-61.7555,8.6533,6.8843],[-61.8038,8.6549,8.3673],[-61.9044,8.6644,4.8489],[-61.969,8.6758,7.9437],[-62.0108,8.6872,3.0],[-62.0657,8.7064,15.0329],[-62.0949,8.6777,6.6995],[-62.0933,8.6627,5.5234],[-62.0995,8.652,2.5],[-62.1061,8.6449,9.3672],[-62.1333,8.6242,8.7087],[-62.1545,8.6048,3.0],[-62.1593,8.5979,3.0],[-62.1713,8.5618,4.1524],[-62.1788,8.5457,11.7941],[-62.189,8.5308,24.7649],[-62.2025,8.5165,30.155],[-62.2169,8.5068,25.0469],[-62.2334,8.5006,53.0892],[-62.277,8.488,40.6198],[-62.3088,8.4608,95.4482],[-62.3187,8.4603,86.974],[-62.3348,8.4508,120.8949],[-62.3521,8.4457,94.6276],[-62.4244,8.432,57.598],[-62.443,8.4271,70.3655],[-62.4666,8.4253,101.0746],[-62.4847,8.4217,41.3905],[-62.5289,8.3901,225.4352],[-62.4763,8.363,200.898]]]]}}