{"type":"Feature","properties":{"GID_2":"VEN.6.6_1","GID_0":"VEN","country":"Venezuela","GID_1":"VEN.6_1","province":"Bolívar","NL_NAME_1":"NA","county":"Heres","VARNAME_2":"NA","NL_NAME_2":"NA","TYPE_2":"Municipio","ENGTYPE_2":"Municipality","CC_2":"NA","HASC_2":"NA","name":"Heres.county"},
"geometry":{"type": "MultiPolygon","coordinates": [[[[-63.7707,8.0826,62.4475],[-63.7795,8.0789,57.7253],[-63.7845,8.0741,49.8456],[-63.7899,8.0659,63.6534],[-63.7954,8.0439,50.381],[-63.8022,8.0283,66.4411],[-63.8083,8.0203,96.3302],[-63.8293,7.9993,123.0508],[-63.8517,7.9617,68.8098],[-63.878,7.9382,35.6692],[-63.8995,7.9235,73.0205],[-63.9448,7.914,22.5851],[-63.9687,7.9042,64.1716],[-63.9782,7.9042,64.4254],[-64.0204,7.9154,58.4374],[-64.0425,7.9138,23.4465],[-64.0501,7.9148,35.2863],[-64.0697,7.9244,62.9667],[-64.0998,7.9363,32.0711],[-64.1136,7.9284,63.1353],[-64.1232,7.9264,49.1398],[-64.1745,7.9302,23.9138],[-64.1991,7.9279,24.3051],[-64.2057,7.9261,25.9282],[-64.21,7.9191,25.178],[-64.2108,7.9122,35.1527],[-64.2077,7.8787,105.7928],[-64.2088,7.8307,119.1931],[-64.2112,7.8144,143.099],[-64.2068,7.8038,125.0575],[-64.1988,7.7961,113.6426],[-64.1935,7.787,130.8713],[-64.1884,7.76,106.6849],[-64.1838,7.7501,91.865],[-64.1767,7.7422,80.7485],[-64.1564,7.7319,225.179],[-64.1376,7.7189,125.5705],[-64.1136,7.6989,136.0918],[-64.1068,7.6914,153.6655],[-64.101,7.6787,147.0766],[-64.0958,7.6528,129.175],[-64.0922,7.6468,114.2328],[-64.0617,7.6215,137.906],[-64.0505,7.6097,167.4411],[-64.0394,7.5699,165.5301],[-64.0242,7.5483,239.1636],[-64.0171,7.5424,301.5186],[-63.993899999999996,7.5379,99.3887],[-63.9769,7.5302,119.303],[-63.9408,7.4932,134.1622],[-63.9317,7.4814,140.3239],[-63.92,7.4555,97.716],[-63.9138,7.4568,101.9423],[-63.9014,7.4544,103.763],[-63.8733,7.4427,129.7128],[-63.8534,7.4302,194.4673],[-63.8428,7.4269,112.7815],[-63.8342,7.4273,109.8671],[-63.812,7.436,110.3361],[-63.7988,7.436,115.9855],[-63.7704,7.4291,110.3716],[-63.7552,7.427,123.0164],[-63.7451,7.4269,112.0813],[-63.7391,7.4296,112.194],[-63.7346,7.4362,118.4444],[-63.7333,7.4483,112.7464],[-63.7359,7.4595,173.2973],[-63.7481,7.4815,137.768],[-63.7515,7.4916,170.2794],[-63.7529,7.5175,154.2685],[-63.7581,7.5409,195.0842],[-63.7574,7.5539,179.939],[-63.7447,7.5681,174.496],[-62.9431,8.1051,118.6092],[-62.9708,8.2583,30.0311],[-62.9929,8.2537,72.6139],[-63.0264,8.2547,87.5972],[-63.0566,8.2645,94.1984],[-63.0624,8.265,85.2421],[-63.0939,8.2611,91.3758],[-63.1351,8.2624,105.3221],[-63.1433,8.2601,59.4775],[-63.1618,8.2511,96.4522],[-63.1861,8.2461,69.9876],[-63.1944,8.2404,90.271],[-63.2071,8.224,91.7631],[-63.2226,8.2129,112.22],[-63.2468,8.1866,122.2614],[-63.2654,8.1717,90.7463],[-63.2865,8.1643,96.4674],[-63.3079,8.1603,102.2276],[-63.3193,8.1607,97.8925],[-63.3411,8.1668,75.9342],[-63.3514,8.1647,42.9915],[-63.3601,8.1592,32.375],[-63.3705,8.1459,85.3762],[-63.3843,8.1321,54.6198],[-63.3924,8.1271,45.307],[-63.4021,8.1238,54.2814],[-63.4443,8.1175,40.1279],[-63.4524,8.1182,23.2856],[-63.4702,8.1238,28.7707],[-63.4856,8.1233,24.8834],[-63.5037,8.1192,36.7948],[-63.5245,8.1102,67.3065],[-63.5364,8.1074,63.4029],[-63.5753,8.1121,53.0568],[-63.5849,8.1123,57.6741],[-63.6023,8.109,83.119],[-63.626,8.1123,35.0587],[-63.6459,8.1133,18.3629],[-63.6636,8.1092,16.8226],[-63.6763,8.1104,13.0],[-63.693,8.1093,15.708],[-63.7068,8.1066,19.8555],[-63.7158,8.1028,27.6114],[-63.7465,8.0861,64.4799],[-63.7707,8.0826,62.4475]]]]}}