{"type": "Feature","bbox": [-66.681,8.9698,-65.984,9.6733],"geometry": {"type": "MultiPolygon","coordinates": [[[[-66.6607,9.1754,149.0304],[-66.6507,9.1732,158.2208],[-66.6132,9.1561,149.7049],[-66.5208,9.1356,155.3145],[-66.4687,9.1141,150.6112],[-66.3728,9.0902,155.0134],[-66.334,9.0644,147.4549],[-66.2549,8.9808,109.1325],[-66.2404,8.9698,121.5696],[-66.2134,9.0587,123.7446],[-66.1882,9.1071,151.8936],[-66.1482,9.1719,137.8926],[-66.1046,9.2103,138.3439],[-66.0955,9.2237,141.7055],[-66.0903,9.237,140.3049],[-66.0878,9.2597,141.6942],[-66.1049,9.2866,142.9342],[-66.1088,9.2957,145.7429],[-66.1091,9.3063,149.7422],[-66.1049,9.3286,153.834],[-66.0955,9.3521,155.5175],[-66.082,9.3785,131.8923],[-66.0778,9.3896,127.2589],[-66.0756,9.4043,121.8357],[-66.0758,9.4203,142.6868],[-66.0801,9.4397,124.8013],[-66.0874,9.4586,135.5],[-66.0693,9.4742,135.5],[-66.0576,9.49,135.5],[-66.0377,9.5229,143.765],[-66.0056,9.5856,158.8552],[-65.984,9.6179,157.3663],[-66.0002,9.6279,162.9581],[-66.0465,9.6658,181.4205],[-66.0596,9.6723,210.4688],[-66.0703,9.6733,251.1657],[-66.0883,9.6721,249.1369],[-66.1175,9.6657,260.2151],[-66.126,9.6598,226.3421],[-66.1288,9.6535,239.8416],[-66.1353,9.623,256.5905],[-66.1405,9.6177,264.9287],[-66.2266,9.6015,263.9308],[-66.3155,9.58,221.3863],[-66.343,9.5416,194.1916],[-66.3854,9.5195,189.3351],[-66.3948,9.511,186.6831],[-66.4035,9.4825,182.8029],[-66.4107,9.4378,180.4877],[-66.4165,9.4225,175.4492],[-66.4255,9.4076,180.7702],[-66.4492,9.3801,175.8047],[-66.4632,9.3706,171.3803],[-66.4799,9.3627,176.2878],[-66.5156,9.3349,165.0398],[-66.5275,9.3226,167.1965],[-66.5514,9.2785,149.0],[-66.56,9.2704,152.1906],[-66.5746,9.2622,151.5563],[-66.5888,9.2572,169.5278],[-66.6016,9.2481,162.0503],[-66.6078,9.2417,158.3516],[-66.6166,9.2363,155.7921],[-66.651,9.2255,151.6388],[-66.681,9.2217,143.7856],[-66.6748,9.21,152.4371],[-66.6607,9.1754,149.0304]]]]}
,"properties": {"GID_2": "VEN.13.2_1","GID_0": "VEN","country": "Venezuela","GID_1": "VEN.13_1","province": "Guárico","NL_NAME_1": "NA","county": "Chaguaramas","VARNAME_2": "NA","NL_NAME_2": "NA","TYPE_2": "Municipio","ENGTYPE_2": "Municipality","CC_2": "NA","HASC_2": "NA","name": "Chaguaramas.county","area_km2": 2655.776,"hist_schema_id": "Elevation0-9000","hist_area_km2": {"100": 3.057,"125": 339.127,"150": 744.124,"175": 835.29,"200": 437.534,"225": 214.043,"250": 76.015,"275": 6.564,"300": 0.021}}}