{"type":"Feature","properties":{"GID_2":"VEN.13.7_1","GID_0":"VEN","country":"Venezuela","GID_1":"VEN.13_1","province":"Guárico","NL_NAME_1":"NA","county":"Miranda","VARNAME_2":"NA","NL_NAME_2":"NA","TYPE_2":"Municipio","ENGTYPE_2":"Municipality","CC_2":"NA","HASC_2":"NA","name":"Miranda.county"},
"geometry":{"type": "MultiPolygon","coordinates": [[[[-66.7682,9.2593,151.7886],[-66.8983,9.2173,140.4255],[-66.9581,9.1923,167.0085],[-66.9823,9.1872,199.9041],[-67.008,9.1899,175.5602],[-67.0304,9.1962,196.8459],[-67.0473,9.1943,189.1302],[-67.0616,9.1885,169.5661],[-67.077,9.1792,168.5838],[-67.0877,9.17,162.288],[-67.1146,9.1372,144.4485],[-67.1257,9.128,140.4949],[-67.1429,9.1196,131.6848],[-67.1522,9.1199,134.8386],[-67.1587,9.1263,127.9703],[-67.1631,9.1346,135.5153],[-67.1683,9.1634,147.571],[-67.177,9.1804,147.7587],[-67.1819,9.1765,146.325],[-67.2143,9.1689,133.0507],[-67.2295,9.1624,125.3471],[-67.2579,9.1444,124.1976],[-67.2668,9.1437,121.809],[-67.2853,9.1509,114.493],[-67.2928,9.149,115.479],[-67.3083,9.1336,110.0867],[-67.3201,9.1331,106.6693],[-67.3276,9.1383,107.9951],[-67.3542,9.1653,102.2411],[-67.3657,9.1743,111.9188],[-67.3724,9.1767,103.131],[-67.3961,9.1767,101.0867],[-67.4185,9.1817,119.4323],[-67.4302,9.1871,125.159],[-67.4373,9.1885,130.5272],[-67.4525,9.1877,151.1855],[-67.4618,9.1826,152.5631],[-67.4778,9.1781,133.6645],[-67.5085,9.1762,119.927],[-67.863,9.1768,79.9347],[-67.8668,9.1411,85.8922],[-67.8651,9.1287,80.1596],[-67.856,9.1149,74.4261],[-67.8453,9.1029,73.2494],[-67.8401,9.0862,74.801],[-67.8434,9.0686,72.1286],[-67.8524,9.0503,70.7606],[-67.8655,9.0106,67.96],[-67.8782,8.9879,69.5831],[-67.9101,8.9497,68.0574],[-67.941,8.9215,67.9467],[-67.9686,8.8819,62.8742],[-67.9878,8.8414,66.2812],[-67.9916,8.8262,67.8248],[-67.9903,8.8043,67.0958],[-67.9931,8.7913,66.6269],[-68.0123,8.7769,63.5843],[-68.0206,8.7618,61.0965],[-68.0224,8.7507,61.9987],[-68.0245,8.7077,60.2924],[-68.0124,8.6894,63.9104],[-68.0081,8.6754,68.4073],[-68.0119,8.6414,54.4384],[-68.0076,8.6204,56.3539],[-68.0228,8.5906,53.876],[-68.0196,8.5711,53.5023],[-67.9991,8.5281,53.1255],[-67.9949,8.5123,53.025],[-67.9996,8.4868,68.988],[-68.0147,8.4601,56.9821],[-68.0248,8.4476,53.7901],[-68.0123,8.4275,52.0793],[-67.9924,8.4085,52.1089],[-67.9707,8.3939,53.0724],[-67.9236,8.3757,54.6728],[-67.8925,8.3776,52.1506],[-67.8808,8.37,50.82],[-67.8751,8.3448,54.8905],[-67.8622,8.3292,53.3481],[-67.8401,8.3101,49.9968],[-67.8367,8.3043,50.285],[-67.8352,8.2936,49.9172],[-67.8382,8.276,49.5286],[-67.8316,8.2681,52.7453],[-67.8115,8.2681,49.0842],[-67.7985,8.264,49.9776],[-67.7902,8.2524,48.9197],[-67.7909,8.2407,48.877],[-67.7694,8.246,48.7336],[-67.7409,8.2556,49.6869],[-67.6099,8.3052,54.4651],[-67.5329,8.3301,61.0892],[-67.5165,8.3329,60.117],[-67.4769,8.3327,57.1002],[-67.4524,8.3279,52.543],[-67.412,8.3156,61.0479],[-67.3899,8.3073,53.3056],[-67.356,8.2886,53.0743],[-67.3375,8.2805,52.1024],[-67.3174,8.2757,49.0362],[-67.2459,8.2857,53.9409],[-67.221,8.2815,54.3105],[-67.1976,8.2659,51.3924],[-67.157,8.2574,49.7323],[-67.0871,8.2193,47.6322],[-67.0437,8.1989,45.8015],[-67.0319,8.1945,43.1923],[-67.0057,8.197,39.9944],[-66.9979,8.179,40.7324],[-66.9737,8.1041,39.1781],[-66.9473,8.0524,43.9598],[-66.9398,8.0335,44.6267],[-66.9424,8.0004,42.3503],[-66.9421,7.9905,42.6477],[-66.939,7.984,38.2483],[-66.9332,7.9776,37.5174],[-66.7814,7.8714,34.2765],[-66.7655,7.8656,35.109],[-66.7664,7.875,35.0432],[-66.764,7.8966,35.0234],[-66.7557,7.9162,34.7449],[-66.7363,7.9473,40.5272],[-66.7314,7.9787,34.4328],[-66.731,8.0441,36.7378],[-66.736,8.0981,41.6268],[-66.7355,8.123,43.2162],[-66.7331,8.1387,44.8821],[-66.7271,8.1575,45.5441],[-66.6999,8.2038,49.5669],[-66.6945,8.2272,51.7634],[-66.6947,8.2546,55.6845],[-66.702,8.2835,60.8787],[-66.7096,8.3026,61.3139],[-66.7143,8.3269,63.4701],[-66.7087,8.3963,74.8475],[-66.7039,8.4294,84.0316],[-66.6897,8.4903,106.2412],[-66.6802,8.5207,109.6837],[-66.6533,8.6508,143.5265],[-66.6461,8.708,130.0533],[-66.6379,8.8033,134.3022],[-66.6381,8.8671,186.9782],[-66.6297,8.9093,161.4961],[-66.6251,9.0223,135.2772],[-66.6252,9.0469,137.3417],[-66.6271,9.0626,144.3405],[-66.6339,9.0964,147.7231],[-66.6475,9.142,147.5152],[-66.6748,9.21,152.4371],[-66.6907,9.2396,155.0947],[-66.6992,9.2505,143.7145],[-66.7124,9.2377,145.1885],[-66.7292,9.2354,144.1936],[-66.7393,9.2385,152.6315],[-66.7553,9.2481,146.9991],[-66.7682,9.2593,151.7886]]]]}}