{"type": "Feature","bbox": [-69.883,10.9446,-69.5486,11.2284],"geometry": {"type": "MultiPolygon","coordinates": [[[[-69.7928,10.9614,311.8031],[-69.7877,10.961,310.0005],[-69.7735,10.9548,263.601],[-69.7643,10.9481,327.6718],[-69.7542,10.9446,483.8487],[-69.7273,10.9467,431.3431],[-69.7027,10.9578,417.5528],[-69.695,10.9689,449.0966],[-69.6864,10.9715,474.7457],[-69.6323,10.9556,455.6791],[-69.5999,10.9534,441.9066],[-69.5732,10.9641,400.8841],[-69.5529,10.9649,385.8562],[-69.5497,10.9742,355.0667],[-69.5486,10.9836,374.7051],[-69.5576,11.0038,334.2383],[-69.5795,11.0335,335.5575],[-69.5984,11.064,392.4293],[-69.6041,11.071,350.9514],[-69.6122,11.0739,332.6526],[-69.6072,11.0866,332.5914],[-69.6053,11.1053,378.9551],[-69.6056,11.1372,507.3971],[-69.608,11.1463,631.8765],[-69.6092,11.1477,654.8575],[-69.6146,11.1483,668.5842],[-69.6536,11.146,1046.7556],[-69.6669,11.1487,1123.6824],[-69.6847,11.1598,1058.6892],[-69.6903,11.1634,1120.4827],[-69.6846,11.1738,1242.9852],[-69.6777,11.192,1325.4902],[-69.6783,11.2046,1227.4258],[-69.7025,11.1984,1060.2494],[-69.7274,11.2053,855.1211],[-69.7347,11.2267,518.5121],[-69.7383,11.2284,476.8012],[-69.7483,11.2269,389.952],[-69.7785,11.192,384.5407],[-69.7935,11.1914,560.3314],[-69.8039,11.1934,521.855],[-69.8769,11.1869,557.3719],[-69.883,11.1828,565.1052],[-69.8557,11.1734,883.1882],[-69.8405,11.1639,1233.8042],[-69.8244,11.1582,934.7657],[-69.8035,11.1411,934.1495],[-69.7931,11.1345,967.3352],[-69.7798,11.1288,1088.0481],[-69.7703,11.1183,1067.4321],[-69.7636,11.1136,1027.4521],[-69.7352,11.0994,749.163],[-69.7304,11.0956,645.8846],[-69.7124,11.0946,476.8709],[-69.7114,11.0965,496.7851],[-69.7019,11.0984,419.7839],[-69.681,11.0984,397.8784],[-69.6716,11.0927,346.5046],[-69.6687,11.0794,304.912],[-69.6649,11.076599999999999,303.737],[-69.6488,11.0737,296.6075],[-69.6412,11.069,306.5337],[-69.6469,11.0595,325.9924],[-69.6611,11.0472,280.3603],[-69.6611,11.0405,285.0186],[-69.6744,11.0263,447.8517],[-69.6791,11.0244,384.2786],[-69.6886,11.0301,329.7845],[-69.6991,11.0177,310.5591],[-69.7095,11.0149,280.7243],[-69.7219,11.0063,328.5665],[-69.7399,10.9978,378.9664],[-69.757,10.9845,421.5344],[-69.7807,10.9741,253.6548],[-69.7928,10.9614,311.8031]]]]}
,"properties": {"GID_2": "VEN.12.21_1","GID_0": "VEN","country": "Venezuela","GID_1": "VEN.12_1","province": "Falcón","NL_NAME_1": "NA","county": "Sucre","VARNAME_2": "NA","NL_NAME_2": "NA","TYPE_2": "Municipio","ENGTYPE_2": "Municipality","CC_2": "NA","HASC_2": "NA","name": "Sucre.county","area_km2": 426.0047,"hist_schema_id": "Elevation0-9000","hist_area_km2": {"250": 1.5816,"275": 4.2661,"300": 12.9645,"325": 24.2637,"350": 28.0097,"375": 30.6118,"400": 29.3642,"425": 27.0336,"450": 25.1814,"475": 21.2895,"500": 18.3755,"525": 14.0051,"550": 12.194,"575": 10.8203,"600": 8.9468,"625": 6.7199,"650": 5.8873,"675": 6.22,"700": 6.9479,"725": 6.3447,"750": 5.8662,"775": 5.4709,"800": 6.2197,"825": 5.3668,"850": 4.93,"875": 5.6789,"900": 5.2005,"925": 4.9716,"950": 4.7844,"975": 5.0132,"1000": 4.3268,"1025": 4.1603,"1050": 4.3892,"1075": 4.514,"1100": 4.7013,"1125": 6.0951,"1150": 5.8662,"1175": 6.2198,"1200": 5.8246,"1225": 5.0133,"1250": 4.3892,"1275": 3.4114,"1300": 3.1618,"1325": 2.2881,"1350": 1.8721,"1375": 1.6432,"1400": 1.7888,"1425": 0.9568,"1450": 0.7696,"1475": 0.0832}}}