{"type": "Feature","bbox": [-66.9671,10.366,-66.8619,10.4323],"geometry": {"type": "MultiPolygon","coordinates": [[[[-66.9671,10.408,1486.5417],[-66.9557,10.3908,1453.4686],[-66.9454,10.3713,1365.9194],[-66.933,10.3661,1311.9982],[-66.9287,10.366,1265.6874],[-66.926,10.368,1176.7405],[-66.9166,10.3867,1201.1951],[-66.9119,10.3907,1235.0525],[-66.9055,10.3903,1200.6038],[-66.8885,10.3832,1264.5865],[-66.8672,10.3801,876.2076],[-66.8619,10.3768,901.2332],[-66.863,10.3896,927.1428],[-66.874,10.3905,938.819],[-66.8772,10.3943,897.1328],[-66.8815,10.4226,1134.4629],[-66.8898,10.4323,1086.6764],[-66.9246,10.4241,914.9559],[-66.9671,10.408,1486.5417]]]]}
,"properties": {"GID_2": "VEN.16.13_1","GID_0": "VEN","country": "Venezuela","GID_1": "VEN.16_1","province": "Miranda","NL_NAME_1": "NA","county": "LosSalias","VARNAME_2": "NA","NL_NAME_2": "NA","TYPE_2": "Municipio","ENGTYPE_2": "Municipality","CC_2": "NA","HASC_2": "NA","name": "Los_Salias.county","area_km2": 44.35611,"hist_schema_id": "Elevation0-9000","hist_area_km2": {"775": 0.08342,"800": 0.18769,"825": 0.16684,"850": 0.35453,"875": 0.20855,"900": 0.27111,"925": 0.43793,"950": 0.75072,"975": 1.14694,"1000": 1.37632,"1025": 1.77255,"1050": 1.81426,"1075": 2.21048,"1100": 2.64842,"1125": 2.10621,"1150": 2.5233,"1175": 2.73185,"1200": 3.27407,"1225": 3.44089,"1250": 3.12812,"1275": 3.33666,"1300": 2.27308,"1325": 2.06454,"1350": 1.68917,"1375": 1.14697,"1400": 1.16781,"1425": 0.98013,"1450": 0.5422,"1475": 0.29196,"1500": 0.16683,"1525": 0.06256}}}