{"type":"Feature","properties":{"GID_2":"VEN.20.1_1","GID_0":"VEN","country":"Venezuela","GID_1":"VEN.20_1","province":"Sucre","NL_NAME_1":"NA","county":"AndrésEloyBlanco","VARNAME_2":"NA","NL_NAME_2":"NA","TYPE_2":"Municipio","ENGTYPE_2":"Municipality","CC_2":"NA","HASC_2":"NA","name":"Andrés_Eloy_Blanco.county"},
"geometry":{"type": "MultiPolygon","coordinates": [[[[-63.0983,10.2281,4.17],[-63.1011,10.2335,4.4152],[-63.0993,10.2405,5.8775],[-63.0861,10.2591,387.3257],[-63.0833,10.2676,327.4693],[-63.0824,10.2751,443.0659],[-63.0881,10.2907,90.8109],[-63.0948,10.2929,235.6891],[-63.1253,10.291,2.8445],[-63.1319,10.2945,2.7649],[-63.1404,10.3006,2.824],[-63.1451,10.3064,2.8547],[-63.1495,10.3122,3.3816],[-63.1563,10.3276,3.131],[-63.1613,10.333,2.9575],[-63.1716,10.3344,2.9677],[-63.187,10.3316,2.8714],[-63.1925,10.3373,3.1874],[-63.1957,10.3433,3.317],[-63.2102,10.3535,3.2799],[-63.2144,10.3585,5.8464],[-63.2148,10.3749,3.5156],[-63.2101,10.389,40.5095],[-63.2174,10.3803,3.3204],[-63.2229,10.3671,3.3281],[-63.2214,10.3779,4.0852],[-63.2231,10.3846,4.0125],[-63.2269,10.3902,8.4011],[-63.2358,10.3972,123.0118],[-63.2508,10.4062,208.9791],[-63.2756,10.4166,194.1278],[-63.3096,10.4343,254.0672],[-63.3319,10.4427,374.553],[-63.3426,10.4495,377.5364],[-63.348,10.4562,330.7805],[-63.3521,10.4629,353.8314],[-63.3723,10.5122,105.8158],[-63.373,10.5269,248.8983],[-63.3694,10.5324,417.0451],[-63.3611,10.5373,585.2853],[-63.361,10.5392,643.335],[-63.365,10.5473,613.4379],[-63.406,10.6021,184.7422],[-63.4069,10.6142,201.2926],[-63.4051,10.6301,301.0931],[-63.4079,10.6676,0.0],[-63.4096,10.6657,0.0],[-63.4135,10.6685,0.0],[-63.4129,10.666,0.0],[-63.4162,10.6626,0.0],[-63.4185,10.6649,0.0],[-63.4224,10.664,0.0],[-63.4226,10.6613,0.0],[-63.4257,10.6613,0.0],[-63.429,10.6637,2.7335],[-63.4299,10.6676,0.0],[-63.4376,10.6685,0.0],[-63.4374,10.6607,0.0],[-63.4332,10.6596,0.0],[-63.4332,10.6565,0.0],[-63.4371,10.6532,0.5355],[-63.4418,10.6526,1.0832],[-63.4451,10.6551,0.4833],[-63.4429,10.6576,0.0],[-63.444,10.6588,0.0],[-63.449,10.6449,15.7674],[-63.4498,10.6325,95.5379],[-63.4476,10.6059,106.619],[-63.4186,10.5271,123.323],[-63.3937,10.4782,122.94],[-63.3744,10.4494,460.9825],[-63.3644,10.4401,259.2032],[-63.333,10.4224,152.7734],[-63.3208,10.4105,16.3344],[-63.3094,10.3957,5.741],[-63.3347,10.3981,4.6556],[-63.3439,10.396,3.8887],[-63.3663,10.3868,5.2874],[-63.3933,10.38,11.1649],[-63.3998,10.3741,13.0685],[-63.4043,10.3656,19.0949],[-63.4107,10.3471,92.1571],[-63.4154,10.304,523.4591],[-63.3928,10.2939,454.3259],[-63.3577,10.2722,432.3205],[-63.3392,10.2645,507.433],[-63.3129,10.2562,658.0251],[-63.299,10.2486,500.1855],[-63.2726,10.2308,947.1743],[-63.2454,10.2201,576.307],[-63.2315,10.2173,429.2935],[-63.2104,10.2175,205.3127],[-63.182,10.2305,4.7829],[-63.1498,10.2379,2.8197],[-63.136,10.2378,2.764],[-63.1278,10.2344,2.7769],[-63.1244,10.236,2.6693],[-63.1012,10.2332,4.4152],[-63.0983,10.2281,4.17]]]]}}