{"type": "Feature","bbox": [-66.7104,10.4125,-66.5631,10.5686],"geometry": {"type": "MultiPolygon","coordinates": [[[[-66.5808,10.4259,590.4124],[-66.5761,10.4418,628.6121],[-66.5653,10.4592,360.2202],[-66.5631,10.4808,345.9448],[-66.5663,10.4943,405.0392],[-66.571,10.501,415.4579],[-66.59,10.5195,990.9236],[-66.5959,10.5312,1412.839],[-66.5977,10.5401,1768.7932],[-66.5964,10.5686,837.0955],[-66.6629,10.5634,1120.4078],[-66.6803,10.5604,1443.5935],[-66.6984,10.5546,1664.5415],[-66.6997,10.5408,2209.6519],[-66.7073,10.5254,1517.9041],[-66.7104,10.5094,1252.3751],[-66.6993,10.4918,832.91],[-66.6991,10.4798,591.1733],[-66.7024,10.466,859.1074],[-66.7025,10.4572,1050.9786],[-66.6878,10.4375,865.3073],[-66.6816,10.4125,867.7614],[-66.6701,10.4179,868.1909],[-66.6606,10.4203,959.7626],[-66.6257,10.4256,830.2417],[-66.5893,10.4245,636.1218],[-66.5808,10.4259,590.4124]]]]}
,"properties": {"GID_2": "VEN.16.17_1","GID_0": "VEN","country": "Venezuela","GID_1": "VEN.16_1","province": "Miranda","NL_NAME_1": "NA","county": "Plaza","VARNAME_2": "NA","NL_NAME_2": "NA","TYPE_2": "Municipio","ENGTYPE_2": "Municipality","CC_2": "NA","HASC_2": "NA","name": "Plaza.county","area_km2": 206.768,"hist_schema_id": "Elevation0-9000","hist_area_km2": {"300": 0.3545,"325": 3.9823,"350": 7.5265,"375": 7.2138,"400": 5.7752,"425": 4.837,"450": 4.691,"475": 4.7953,"500": 5.2123,"525": 5.8169,"550": 6.1297,"575": 6.4633,"600": 6.6718,"625": 6.4841,"650": 6.6509,"675": 6.3799,"700": 6.2131,"725": 5.6293,"750": 5.671,"775": 5.6918,"800": 5.3791,"825": 5.1914,"850": 4.3574,"875": 3.2524,"900": 3.1274,"925": 2.5644,"950": 2.0848,"975": 2.3349,"1000": 1.8137,"1025": 1.6677,"1050": 1.7719,"1075": 1.6885,"1100": 1.48,"1125": 1.209,"1150": 1.3549,"1175": 1.3341,"1200": 1.6468,"1225": 1.3549,"1250": 1.5008,"1275": 1.5842,"1300": 1.5842,"1325": 1.5842,"1350": 1.751,"1375": 1.8552,"1400": 1.605,"1425": 1.7926,"1450": 1.8343,"1475": 1.2924,"1500": 1.7718,"1525": 1.48,"1550": 1.4591,"1575": 1.7093,"1600": 1.3341,"1625": 1.5634,"1650": 1.48,"1675": 1.3966,"1700": 1.4591,"1725": 1.3758,"1750": 1.5633,"1775": 1.4383,"1800": 1.1465,"1825": 1.5008,"1850": 1.5425,"1875": 1.1464,"1900": 1.4174,"1925": 1.0631,"1950": 1.1256,"1975": 1.2507,"2000": 1.1256,"2025": 1.0839,"2050": 0.6045,"2075": 0.6462,"2100": 0.6045,"2125": 0.3752,"2150": 0.4586,"2175": 0.396,"2200": 0.2501,"2225": 0.271,"2250": 0.2084,"2275": 0.1251,"2300": 0.1668,"2325": 0.0417}}}