{"type":"Feature","properties":{"GID_2":"VEN.7.5_1","GID_0":"VEN","country":"Venezuela","GID_1":"VEN.7_1","province":"Carabobo","NL_NAME_1":"NA","county":"JuanJoséMora","VARNAME_2":"NA","NL_NAME_2":"NA","TYPE_2":"Municipio","ENGTYPE_2":"Municipality","CC_2":"NA","HASC_2":"NA","name":"Juan_José_Mora.county"},
"geometry":{"type": "MultiPolygon","coordinates": [[[[-68.0951,10.3573,128.5746],[-68.1053,10.3573,321.7774],[-68.0983,10.3706,119.1147],[-68.0926,10.4018,318.3928],[-68.0884,10.4387,433.2471],[-68.0708,10.477,8.2954],[-68.0679,10.4963,0.6037],[-68.0738,10.4985,0.391],[-68.0804,10.4924,0.8961],[-68.0876,10.4954,0.9574],[-68.094,10.4899,0.4237],[-68.0957,10.4907,0.0],[-68.0954,10.4888,0.4237],[-68.099,10.4851,1.0182],[-68.1062,10.4807,0.0],[-68.1085,10.4824,0.0],[-68.111,10.4815,1.0579],[-68.1149,10.4871,0.0],[-68.1182,10.486,0.0],[-68.1229,10.4901,0.0],[-68.1249,10.4885,0.0],[-68.1235,10.486,2.1735],[-68.1265,10.484,0.3118],[-68.1382,10.4882,0.7495],[-68.1479,10.4951,4.4086],[-68.1499,10.4976,0.0],[-68.1493,10.4999,0.0],[-68.1537,10.4996,1.6611],[-68.1546,10.5037,0.5535],[-68.1565,10.5035,0.0],[-68.1588,10.499,0.0],[-68.1643,10.5004,4.31],[-68.1754,10.5118,0.0],[-68.1768,10.5112,0.9257],[-68.184,10.5168,0.8586],[-68.1963,10.5299,1.2059],[-68.221,10.5585,0.0],[-68.2401,10.5835,3.117],[-68.2536,10.584,6.0107],[-68.2669,10.5816,11.0425],[-68.3076,10.5789,4.6912],[-68.3159,10.5759,6.4601],[-68.3326,10.545,4.9883],[-68.329,10.4794,23.0137],[-68.3345,10.452,87.5243],[-68.3405,10.4385,260.7791],[-68.3439,10.4019,341.5045],[-68.3222,10.4174,296.8864],[-68.3041,10.4281,380.7838],[-68.2969,10.4355,365.7159],[-68.2886,10.4525,256.4687],[-68.2806,10.4643,29.3673],[-68.2764,10.4669,25.367],[-68.2696,10.4648,34.58],[-68.2504,10.4549,376.5342],[-68.2463,10.4495,478.0605],[-68.2439,10.4408,546.6378],[-68.2381,10.4324,196.5514],[-68.2101,10.4001,373.6841],[-68.1581,10.3536,810.5367],[-68.1512,10.3505,728.7114],[-68.1215,10.3492,1006.7296],[-68.0951,10.3573,128.5746]]]]}}