{"type":"Feature","properties":{"GID_2":"VEN.7.7_1","GID_0":"VEN","country":"Venezuela","GID_1":"VEN.7_1","province":"Carabobo","NL_NAME_1":"NA","county":"Libertador","VARNAME_2":"NA","NL_NAME_2":"NA","TYPE_2":"Municipio","ENGTYPE_2":"Municipality","CC_2":"NA","HASC_2":"NA","name":"Libertador.county"},
"geometry":{"type": "MultiPolygon","coordinates": [[[[-68.1526,10.1092,580.8286],[-68.1583,10.0929,567.8262],[-68.1671,10.0824,574.7361],[-68.1915,10.0589,623.6802],[-68.1978,10.0506,652.543],[-68.1998,10.0401,686.6845],[-68.1947,10.0251,605.8997],[-68.178,10.0082,478.8391],[-68.1451,9.988,482.5391],[-68.1333,9.9791,485.7436],[-68.1029,9.9645,485.1466],[-68.0977,9.9526,538.8093],[-68.0704,9.9681,520.413],[-68.0545,9.9737,472.9919],[-68.0392,9.9836,598.913],[-68.0332,9.9911,565.4079],[-68.026,9.9902,588.1439],[-68.0168,9.9839,879.574],[-68.0134,9.9881,877.3718],[-68.0193,10.0096,701.6788],[-68.0193,10.0176,480.1902],[-68.0295,10.0223,455.8106],[-68.0366,10.0285,448.7605],[-68.0397,10.0422,438.2723],[-68.0417,10.077,433.0377],[-68.0513,10.0882,439.8842],[-68.0539,10.0981,444.7113],[-68.0508,10.1046,448.7816],[-68.0414,10.1121,448.4669],[-68.0468,10.1399,467.0837],[-68.0474,10.1589,541.5204],[-68.0437,10.1816,551.2166],[-68.0451,10.1844,541.9695],[-68.0604,10.1875,522.3248],[-68.0635,10.1941,510.0],[-68.0678,10.2285,542.3226],[-68.0659,10.24,620.8795],[-68.0665,10.275,1127.1663],[-68.0696,10.2835,923.7003],[-68.0738,10.284,921.9165],[-68.0811,10.282,955.7592],[-68.0852,10.274,1163.6383],[-68.0922,10.2278,743.2795],[-68.0922,10.2157,685.5157],[-68.0953,10.2055,823.9852],[-68.1026,10.1933,864.4705],[-68.1194,10.1719,567.8567],[-68.1288,10.1548,722.295],[-68.1362,10.1145,490.5834],[-68.1382,10.1105,487.0754],[-68.1409,10.1097,502.8894],[-68.1526,10.1092,580.8286]]]]}}