{"type": "Feature","bbox": [-68.6941,8.4476,-67.9949,9.238],"geometry": {"type": "MultiPolygon","coordinates": [[[[-68.0248,8.4476,53.7901],[-68.0147,8.4601,56.9821],[-67.9996,8.4868,68.988],[-67.9949,8.5123,53.025],[-67.9991,8.5281,53.1255],[-68.0196,8.5711,53.5023],[-68.0228,8.5906,53.876],[-68.0212,8.5953,55.7587],[-68.032,8.6071,54.0623],[-68.0402,8.6121,56.4962],[-68.0572,8.6337,53.9961],[-68.0661,8.6413,57.3072],[-68.0705,8.6506,54.3453],[-68.0765,8.6735,54.1508],[-68.0798,8.6903,55.1537],[-68.079,8.7057,55.7064],[-68.0705,8.7303,55.7289],[-68.067,8.7457,55.9552],[-68.0658,8.7633,56.3167],[-68.0691,8.7986,56.7006],[-68.0825,8.8298,57.359],[-68.0873,8.8629,58.4199],[-68.0866,8.8765,58.5053],[-68.0789,8.8956,74.8208],[-68.0774,8.9036,72.8519],[-68.0807,8.9132,63.6039],[-68.1095,8.933,73.975],[-68.1378,8.9487,84.5945],[-68.1474,8.9563,69.3461],[-68.1588,8.96,69.4328],[-68.1883,8.9637,71.8787],[-68.1978,8.9697,92.174],[-68.2027,8.9754,81.3983],[-68.2137,8.9994,68.8715],[-68.231,9.0286,103.227],[-68.2368,9.0463,69.5164],[-68.2422,9.0573,66.4497],[-68.2489,9.0635,66.9368],[-68.2624,9.0674,66.7449],[-68.3012,9.0729,65.5416],[-68.3124,9.0781,74.4265],[-68.329,9.0894,71.843],[-68.332,9.087,73.373],[-68.3624,9.0786,73.9373],[-68.3964,9.0841,65.8612],[-68.4307,9.0938,76.6574],[-68.4419,9.1002,67.2466],[-68.4506,9.1105,69.3068],[-68.4643,9.1149,69.9634],[-68.474,9.1213,71.4497],[-68.4961,9.1529,72.2114],[-68.5162,9.1669,73.6364],[-68.5532,9.2049,75.5858],[-68.5822,9.2293,78.8064],[-68.5853,9.238,81.8489],[-68.6047,9.2353,79.2976],[-68.6002,9.2228,78.6666],[-68.6005,9.1993,84.7574],[-68.6346,9.0034,69.1909],[-68.6352,8.9795,68.8438],[-68.631,8.9542,67.9711],[-68.6172,8.9136,67.1044],[-68.5979,8.8879,66.2726],[-68.5855,8.8777,65.8774],[-68.5697,8.8697,65.623],[-68.5358,8.8607,64.7175],[-68.523,8.8548,69.1425],[-68.5164,8.8457,65.1064],[-68.5163,8.8378,64.0002],[-68.5199,8.8246,64.0677],[-68.5289,8.8174,64.1876],[-68.6028,8.8055,65.6245],[-68.66,8.7994,78.4978],[-68.682,8.7956,71.1757],[-68.6919,8.7886,71.5638],[-68.6941,8.7762,69.0348],[-68.6889,8.7636,70.5889],[-68.6765,8.7514,74.7032],[-68.6439,8.731,69.0277],[-68.6181,8.7104,68.0822],[-68.5785,8.6562,67.4207],[-68.5637,8.6446,77.6948],[-68.5393,8.6311,67.2072],[-68.5131,8.6124,63.3706],[-68.495,8.5954,61.9305],[-68.4529,8.5468,61.9769],[-68.4284,8.5106,60.6767],[-68.3827,8.5448,67.1949],[-68.3627,8.5507,63.8579],[-68.3351,8.5573,62.2285],[-68.2921,8.5602,61.5672],[-68.2609,8.5591,57.7353],[-68.2272,8.5525,60.582],[-68.2052,8.5415,61.595],[-68.1948,8.5324,57.5349],[-68.1839,8.5293,65.2428],[-68.1703,8.532,60.5793],[-68.1596,8.5317,54.7073],[-68.1396,8.5271,54.8245],[-68.1191,8.5183,56.0009],[-68.101,8.5087,53.6638],[-68.0661,8.4812,53.383],[-68.0489,8.4738,52.7582],[-68.0342,8.4628,55.6538],[-68.0248,8.4476,53.7901]]]]}
,"properties": {"GID_2": "VEN.8.4_1","GID_0": "VEN","country": "Venezuela","GID_1": "VEN.8_1","province": "Cojedes","NL_NAME_1": "NA","county": "Girardot","VARNAME_2": "NA","NL_NAME_2": "NA","TYPE_2": "Municipio","ENGTYPE_2": "Municipality","CC_2": "NA","HASC_2": "NA","name": "Girardot.county","area_km2": 3490.121,"hist_schema_id": "Elevation0-9000","hist_area_km2": {"50": 1413.21,"75": 1946.989,"100": 34.95,"125": 22.074,"150": 15.225,"175": 12.921,"200": 11.392,"225": 10.91,"250": 8.544,"275": 5.549,"300": 3.351,"325": 1.969,"350": 1.361,"375": 0.963,"400": 0.586,"425": 0.126}}}