{"type": "Feature","bbox": [-69.234,9.754,-68.862,10.0706],"geometry": {"type": "MultiPolygon","coordinates": [[[[-68.9219,9.8949,276.6019],[-68.9218,9.8976,310.4773],[-68.9287,9.9027,262.5652],[-68.9301,9.9105,303.7935],[-68.9286,9.9259,321.6853],[-68.9193,9.9498,334.8923],[-68.9121,9.9608,377.4386],[-68.9015,9.9707,319.0824],[-68.8714,9.9864,520.4878],[-68.8642,9.9932,411.7224],[-68.862,10.0023,463.9866],[-68.8697,10.0133,297.3448],[-68.889,10.0257,422.1358],[-68.898,10.0343,604.8414],[-68.9173,10.0662,984.0544],[-68.931,10.0706,950.5139],[-68.9414,10.0684,719.783],[-68.9932,10.0389,272.4907],[-69.0065,10.0332,271.9477],[-69.0267,10.0276,283.7718],[-69.0385,10.021,274.7181],[-69.0454,10.0124,276.2397],[-69.0471,10.0033,274.9395],[-69.0498,9.9422,285.3654],[-69.0557,9.9359,313.3267],[-69.0621,9.9389,314.2132],[-69.0675,9.9456,403.6913],[-69.0821,9.9823,282.571],[-69.1008,10.0138,404.7223],[-69.1113,10.0082,304.919],[-69.1555,9.9747,697.7062],[-69.1679,9.9682,559.1636],[-69.1843,9.9627,436.9809],[-69.2336,9.9518,683.6044],[-69.234,9.9431,756.1884],[-69.2302,9.9363,706.6683],[-69.2185,9.9369,463.3289],[-69.211,9.9304,466.3483],[-69.2128,9.9166,428.8983],[-69.2175,9.9029,526.2842],[-69.2181,9.8875,548.0216],[-69.2165,9.8789,485.0396],[-69.204,9.86,410.834],[-69.2027,9.8475,479.007],[-69.2107,9.8331,439.4714],[-69.2193,9.8216,514.0043],[-69.2232,9.8111,513.7411],[-69.2216,9.8007,658.1218],[-69.2112,9.7857,570.5632],[-69.1973,9.7764,357.2495],[-69.1613,9.7632,251.2379],[-69.1061,9.7582,272.4539],[-69.093,9.754,286.7024],[-69.0655,9.7613,332.1582],[-69.0523,9.7609,404.6801],[-69.032,9.7632,344.7256],[-69.0083,9.7978,271.2173],[-69.0021,9.8017,268.4063],[-68.9871,9.8007,268.843],[-68.9749,9.7913,214.922],[-68.9709,9.7949,211.2804],[-68.9505,9.8041,290.0705],[-68.9437,9.8109,268.8208],[-68.9388,9.8241,278.2922],[-68.9334,9.8506,326.6515],[-68.925,9.8731,375.2193],[-68.9219,9.8949,276.6019]]]]}
,"properties": {"GID_2": "VEN.14.7_1","GID_0": "VEN","country": "Venezuela","GID_1": "VEN.14_1","province": "Lara","NL_NAME_1": "NA","county": "SimónPlanas","VARNAME_2": "NA","NL_NAME_2": "NA","TYPE_2": "Municipio","ENGTYPE_2": "Municipality","CC_2": "NA","HASC_2": "NA","name": "Simón_Planas.county","area_km2": 847.0507,"hist_schema_id": "Elevation0-9000","hist_area_km2": {"200": 4.6375,"225": 27.0088,"250": 111.178,"275": 167.0185,"300": 124.2183,"325": 108.1359,"350": 102.8083,"375": 64.8748,"400": 32.4988,"425": 21.4496,"450": 20.3837,"475": 17.6267,"500": 12.6143,"525": 9.9618,"550": 5.6388,"575": 4.0306,"600": 2.3181,"625": 1.8794,"650": 1.1692,"675": 1.0857,"700": 1.044,"725": 0.8143,"750": 0.7516,"775": 0.6054,"800": 0.5219,"825": 0.668,"850": 0.501,"875": 0.3758,"900": 0.4384,"925": 0.3549,"950": 0.1044,"975": 0.2088,"1000": 0.0626,"1025": 0.0418,"1050": 0.0209}}}