{"type": "Feature","bbox": [-68.6013,10.6224,-68.1968,10.8848],"geometry": {"type": "MultiPolygon","coordinates": [[[[-68.5952,10.8152,162.5107],[-68.5988,10.8006,291.2377],[-68.6013,10.781,502.8481],[-68.5984,10.7553,209.5237],[-68.5612,10.7603,148.4409],[-68.5481,10.76,127.1986],[-68.5296,10.7561,114.9317],[-68.4896,10.7349,43.1554],[-68.4805,10.7328,36.9868],[-68.5063,10.635,36.0811],[-68.468,10.6295,24.7465],[-68.4262,10.626,16.4111],[-68.2663,10.6224,0.0],[-68.279,10.6443,0.0],[-68.2915,10.671,2.2948],[-68.2946,10.6826,0.0],[-68.2971,10.6846,0.1596],[-68.3093,10.7212,0.0],[-68.3138,10.7299,0.0],[-68.3146,10.7351,0.0],[-68.3176,10.739,0.0],[-68.3171,10.7415,0.0],[-68.3215,10.7529,0.8679],[-68.3215,10.7588,0.1011],[-68.3243,10.7685,1.4307],[-68.3238,10.7813,0.0],[-68.319,10.7896,3.3311],[-68.3157,10.7918,0.0949],[-68.3138,10.7913,0.0],[-68.3129,10.7943,0.0],[-68.3112,10.7893,0.41],[-68.3085,10.7893,0.7932],[-68.3071,10.791,4.726],[-68.3046,10.7874,-0.0459],[-68.2962,10.7854,0.0],[-68.2954,10.7913,0.0],[-68.3007,10.794,1.6801],[-68.3015,10.7985,0.0976],[-68.2918,10.8024,1.4975],[-68.2904,10.8054,0.0],[-68.2946,10.806,0.551],[-68.2901,10.8076,0.0],[-68.2901,10.809,0.0],[-68.296,10.8088,0.0],[-68.299,10.8068,0.5708],[-68.3004,10.8104,1.5857],[-68.2982,10.8096,0.2469],[-68.2979,10.8113,0.269],[-68.3065,10.8124,0.3751],[-68.3074,10.8163,-0.0902],[-68.3046,10.8163,0.47],[-68.3021,10.8215,0.8505],[-68.3071,10.8276,0.0],[-68.3085,10.8254,0.6806],[-68.3065,10.8226,0.1415],[-68.3096,10.8229,0.2248],[-68.3118,10.8207,1.0687],[-68.3115,10.8185,0.0],[-68.3096,10.819,0.4131],[-68.3082,10.8165,0.0],[-68.3129,10.8121,0.0],[-68.3129,10.8101,0.6935],[-68.3074,10.8051,2.8079],[-68.3115,10.8018,1.7458],[-68.3115,10.7965,3.1794],[-68.3154,10.7949,1.4334],[-68.3215,10.8001,1.6161],[-68.3207,10.8029,0.9651],[-68.3246,10.8101,3.7089],[-68.3246,10.8199,1.4882],[-68.3215,10.8237,0.7193],[-68.3213,10.8213,0.0],[-68.3151,10.8165,0.0],[-68.3126,10.8188,0.0218],[-68.3135,10.8199,0.0218],[-68.3165,10.819,0.0],[-68.3171,10.8213,0.0],[-68.3146,10.8221,1.2872],[-68.3135,10.8263,0.7237],[-68.3104,10.8251,-0.1141],[-68.3129,10.8235,0.4062],[-68.309,10.824,0.6806],[-68.3082,10.8279,0.0391],[-68.311,10.8287,0.396],[-68.3104,10.8268,0.3254],[-68.3129,10.8279,0.7708],[-68.3165,10.8254,3.7734],[-68.3182,10.8279,1.2629],[-68.3151,10.8296,0.0],[-68.3171,10.8321,0.0],[-68.3226,10.8299,2.4174],[-68.3238,10.8315,0.6061],[-68.3254,10.8301,2.0263],[-68.3254,10.8324,2.0821],[-68.3268,10.8324,2.4053],[-68.3257,10.8235,1.1389],[-68.3296,10.8218,2.0159],[-68.3279,10.8287,0.2804],[-68.3304,10.8332,-1.0],[-68.3304,10.8365,1.677],[-68.3285,10.8363,1.677],[-68.3257,10.844,-1.0],[-68.3318,10.8501,1.5654],[-68.3329,10.8535,3.9886],[-68.3285,10.8571,3.4289],[-68.3313,10.8604,1.6515],[-68.3257,10.859,4.9551],[-68.3299,10.8532,2.2183],[-68.3296,10.8507,0.7426],[-68.3268,10.8493,-1.0],[-68.3274,10.8471,-0.75],[-68.3243,10.8463,0.5478],[-68.319,10.8413,0.1517],[-68.3201,10.8385,-0.3228],[-68.3257,10.8368,4.0747],[-68.326,10.8351,1.3997],[-68.329,10.8354,-0.3862],[-68.3288,10.8329,-1.0],[-68.3238,10.8329,0.0],[-68.3235,10.8357,1.9462],[-68.3204,10.8335,0.0],[-68.3157,10.8365,2.7402],[-68.3101,10.8304,0.0],[-68.306,10.8287,0.0],[-68.3043,10.8299,0.1869],[-68.3026,10.8249,0.0],[-68.2968,10.8218,0.0],[-68.2965,10.8235,0.4723],[-68.2929,10.8251,0.4157],[-68.2929,10.8299,0.2493],[-68.2954,10.8321,0.0],[-68.2996,10.8312,1.5323],[-68.2974,10.8354,0.0],[-68.2996,10.839,0.2887],[-68.3035,10.8399,0.6317],[-68.3015,10.8415,0.0],[-68.3121,10.839,2.1938],[-68.3068,10.844,0.0],[-68.3146,10.8426,1.3412],[-68.3126,10.846,0.1526],[-68.3215,10.8468,2.0966],[-68.3201,10.8493,0.0],[-68.3238,10.8504,1.6105],[-68.3254,10.8535,2.7015],[-68.3218,10.8529,0.0],[-68.3215,10.8554,0.6257],[-68.3199,10.8512,0.4326],[-68.316,10.8507,0.2003],[-68.3146,10.8529,0.3108],[-68.3163,10.8554,1.2627],[-68.314,10.8554,0.0],[-68.3124,10.854,0.6125],[-68.3132,10.8512,0.8269],[-68.3115,10.8485,0.0],[-68.3018,10.8449,0.3022],[-68.3093,10.8524,1.0506],[-68.3093,10.8543,0.7619],[-68.3032,10.8485,0.2596],[-68.3007,10.8485,0.0],[-68.2965,10.8424,0.64],[-68.2929,10.8415,0.0],[-68.2899,10.8421,0.0],[-68.2907,10.844,0.8765],[-68.2862,10.8446,0.4162],[-68.2857,10.8476,0.6435],[-68.2876,10.8482,0.3498],[-68.289,10.846,0.7728],[-68.2937,10.8446,1.996],[-68.3018,10.8507,1.5351],[-68.3029,10.8565,0.4297],[-68.2974,10.8585,-0.0733],[-68.2957,10.8615,0.4152],[-68.2913,10.8587,0.0],[-68.2832,10.8593,1.3339],[-68.2829,10.8579,0.6611],[-68.2812,10.859,10.5263],[-68.281,10.8576,1.1089],[-68.2771,10.8571,2.1933],[-68.2771,10.854,0.0],[-68.2754,10.8529,0.5011],[-68.2782,10.8526,0.2422],[-68.2765,10.851,0.9517],[-68.2793,10.8482,0.1521],[-68.2737,10.846,0.581],[-68.2724,10.8465,0.6855],[-68.2729,10.849,1.0542],[-68.2699,10.8496,0.5461],[-68.2646,10.8549,2.4924],[-68.2626,10.8518,0.0],[-68.259,10.8521,1.7637],[-68.2593,10.8504,0.0],[-68.2576,10.8501,0.0],[-68.2554,10.854,1.5644],[-68.2487,10.8554,0.0],[-68.249,10.8526,0.4231],[-68.2446,10.8507,0.8619],[-68.2412,10.8512,0.8085],[-68.2399,10.8493,0.7158],[-68.2418,10.853,1.0832],[-68.2476,10.8593,72.7792],[-68.2607,10.8663,136.8599],[-68.2729,10.8706,187.7555],[-68.2962,10.8746,181.1191],[-68.3316,10.8774,157.7927],[-68.3447,10.8841,61.1538],[-68.3497,10.8848,32.572],[-68.3646,10.8751,25.1339],[-68.3911,10.8633,157.2983],[-68.4438,10.8577,298.5949],[-68.4593,10.8592,396.8776],[-68.5053,10.8801,44.2325],[-68.5205,10.8831,63.8247],[-68.5342,10.8834,107.4547],[-68.5423,10.8786,132.2776],[-68.5629,10.8565,420.9763],[-68.5835,10.8411,412.7656],[-68.5901,10.8298,363.3839],[-68.5952,10.8152,162.5107]]],
[[[-68.2835,10.8138,0.0],[-68.2862,10.8129,0.5714],[-68.2849,10.8104,2.4539],[-68.2882,10.8096,0.4916],[-68.2835,10.8068,0.0],[-68.2776,10.8085,0.0],[-68.2779,10.8135,0.6115],[-68.2818,10.8126,0.7771],[-68.2835,10.8138,0.0]]],
[[[-68.2701,10.8474,0.0],[-68.2737,10.8449,0.5028],[-68.2763,10.8454,0.9098],[-68.2768,10.8401,0.9977],[-68.2865,10.8349,0.4923],[-68.2851,10.8287,1.188],[-68.2882,10.8254,0.5613],[-68.2862,10.8215,0.0],[-68.2846,10.8229,1.024],[-68.2835,10.8213,0.0],[-68.2821,10.8218,0.5181],[-68.2829,10.8243,0.963],[-68.2787,10.8279,1.0179],[-68.2799,10.8226,1.0442],[-68.276,10.8207,0.887],[-68.274,10.8229,0.0],[-68.2746,10.8268,0.9357],[-68.2701,10.8282,0.0],[-68.2676,10.8318,0.3555],[-68.2707,10.8287,0.0],[-68.2765,10.8276,0.4351],[-68.2746,10.8307,0.3046],[-68.2674,10.834,0.9914],[-68.2651,10.8318,0.0],[-68.2643,10.834,0.9384],[-68.2607,10.8351,0.7431],[-68.2624,10.836,0.8055],[-68.2674,10.8351,0.9914],[-68.2679,10.8365,0.7464],[-68.2715,10.8368,0.3415],[-68.2715,10.8324,0.536],[-68.2735,10.8329,0.9048],[-68.2726,10.8374,0.0],[-68.2757,10.8393,0.9977],[-68.274,10.8393,0.2338],[-68.2735,10.8415,1.6559],[-68.2718,10.8385,0.0],[-68.2671,10.8396,1.4609],[-68.2699,10.841,0.0],[-68.2701,10.8474,0.0]]],
[[[-68.2887,10.8404,1.2055],[-68.2913,10.841,0.0],[-68.2896,10.8382,1.5665],[-68.291,10.8396,0.9699],[-68.2929,10.8385,0.3671],[-68.2896,10.834,0.672],[-68.2862,10.8379,0.3643],[-68.2865,10.8407,0.0],[-68.2887,10.8404,1.2055]]],
[[[-68.2421,10.7293,2.483],[-68.2432,10.7301,2.483],[-68.2449,10.7282,0.0],[-68.2429,10.7282,0.0],[-68.2421,10.7293,2.483]]],
[[[-68.2321,10.7426,0.0],[-68.2351,10.7432,0.0],[-68.2363,10.7399,0.0],[-68.2349,10.7393,0.0],[-68.2349,10.7424,0.0],[-68.2321,10.7426,0.0]]],
[[[-68.1976,10.7804,0.7617],[-68.1968,10.7818,1.559],[-68.201,10.7782,0.0],[-68.1996,10.7782,0.0],[-68.1976,10.7804,0.7617]]],
[[[-68.2379,10.8315,1.8331],[-68.241,10.8318,0.1695],[-68.2404,10.8299,0.5353],[-68.2446,10.831,0.3908],[-68.2499,10.8271,0.3342],[-68.2493,10.8254,1.1306],[-68.2524,10.8265,0.2203],[-68.2549,10.824,0.4441],[-68.2538,10.8204,1.7564],[-68.2562,10.8232,0.1217],[-68.2596,10.8237,1.2038],[-68.2601,10.819,0.3933],[-68.2649,10.8157,1.9273],[-68.2668,10.8163,0.0],[-68.2671,10.8149,0.0],[-68.2599,10.8157,0.7098],[-68.2571,10.8179,0.4594],[-68.2529,10.8168,0.0],[-68.2526,10.8193,1.7564],[-68.2499,10.8213,0.5745],[-68.2457,10.819,0.0],[-68.2443,10.8226,0.6123],[-68.2474,10.8224,1.4119],[-68.2471,10.824,1.7656],[-68.2446,10.8237,0.6123],[-68.2443,10.8257,1.1532],[-68.2401,10.8282,2.077],[-68.2376,10.8271,0.3609],[-68.2371,10.829,3.1367],[-68.2346,10.829,1.0335],[-68.2379,10.8315,1.8331]]],
[[[-68.2262,10.8468,1.2398],[-68.2318,10.8449,0.3318],[-68.2329,10.8418,0.3853],[-68.2374,10.841,0.7033],[-68.2382,10.8346,0.0],[-68.2346,10.8351,0.0],[-68.2254,10.8407,0.0],[-68.226,10.8424,0.0],[-68.2288,10.8407,0.3087],[-68.2307,10.8424,0.9839],[-68.2301,10.844,0.6604],[-68.2243,10.8435,0.5768],[-68.2262,10.8468,1.2398]]],
[[[-68.2804,10.8468,0.3643],[-68.2812,10.8479,0.2053],[-68.2826,10.8449,0.6893],[-68.2835,10.8474,0.0],[-68.2851,10.8449,1.1015],[-68.284,10.8393,0.2109],[-68.2785,10.8424,0.0],[-68.2785,10.8454,0.0],[-68.2804,10.8468,0.3643]]],
[[[-68.2832,10.8571,0.9812],[-68.2829,10.8579,0.6611],[-68.2862,10.8565,0.7691],[-68.2832,10.8565,1.2348],[-68.2832,10.8571,0.9812]]]]}
,"properties": {"GID_2": "VEN.12.20_1","GID_0": "VEN","country": "Venezuela","GID_1": "VEN.12_1","province": "Falcón","NL_NAME_1": "NA","county": "Silva","VARNAME_2": "NA","NL_NAME_2": "NA","TYPE_2": "Municipio","ENGTYPE_2": "Municipality","CC_2": "NA","HASC_2": "NA","name": "Silva.county","area_km2": 715.7422,"hist_schema_id": "Elevation0-9000","hist_area_km2": {"0": 208.9187,"25": 225.9271,"50": 52.778,"75": 24.6366,"100": 24.1572,"125": 27.9679,"150": 28.3634,"175": 26.6145,"200": 20.2627,"225": 15.6393,"250": 14.2024,"275": 10.5998,"300": 7.5803,"325": 5.7062,"350": 4.894,"375": 4.2068,"400": 4.0402,"425": 2.9573,"450": 2.3534,"475": 2.3535,"500": 1.3746,"525": 0.2083}}}