{"type":"Feature","properties":{"GID_1":"VEN.22_1","GID_0":"VEN","country":"Venezuela","province":"Trujillo","VARNAME_1":"NA","NL_NAME_1":"NA","TYPE_1":"Estado","ENGTYPE_1":"State","CC_1":"NA","HASC_1":"NA","ISO_1":"VE-T","name":"Trujillo.province"},
"geometry":{"type": "MultiPolygon","coordinates": [[[[-70.713,9.0329,1894.5703],[-70.6943,9.0215,2090.7705],[-70.6787,9.0211,2541.0645],[-70.6646,9.0258,2256.5762],[-70.6428,9.0411,2212.4863],[-70.6303,9.0538,2576.8306],[-70.6176,9.0623,2850.2383],[-70.6094,9.0672,2963.4526],[-70.5999,9.0682,2897.3992],[-70.5903,9.0633,2918.8477],[-70.5845,9.0549,3209.8325],[-70.5737,9.0443,3544.6958],[-70.5641,9.0384,3456.8804],[-70.5565,9.0298,3441.8777],[-70.547,9.0083,3556.6086],[-70.5404,8.9988,3476.8418],[-70.4632,9.0579,2162.5088],[-70.4459,9.0654,2303.9231],[-70.4125,9.0649,2767.9629],[-70.3939,9.067,2726.4751],[-70.3632,9.0801,2553.8274],[-70.341,9.0824,1901.3566],[-70.3182,9.0778,2512.1201],[-70.2732,9.0814,1323.4564],[-70.2514,9.0905,787.3815],[-70.236,9.0855,534.3589],[-70.2121,9.0676,473.5965],[-70.1976,9.0468,496.5334],[-70.2031,9.072,666.4359],[-70.2032,9.0858,575.1633],[-70.1978,9.1031,827.7374],[-70.1863,9.1137,1070.9946],[-70.1291,9.1481,1327.5104],[-70.1183,9.164,1102.3212],[-70.1154,9.226,741.64],[-70.1052,9.2553,1089.5457],[-70.0843,9.2924,1307.5721],[-70.0798,9.3033,1381.6837],[-70.0817,9.3132,1517.1758],[-70.0911,9.3229,1748.062],[-70.1003,9.3293,1821.7531],[-70.1129,9.3455,1221.011],[-70.1086,9.3885,1873.1528],[-70.0954,9.4028,1903.929],[-70.0666,9.4257,1452.8936],[-70.0518,9.4396,1305.7278],[-70.0193,9.4758,2005.4871],[-70.0311,9.4851,2149.9277],[-70.044,9.4981,2074.0186],[-70.0663,9.526,2046.3289],[-70.0954,9.5543,2652.9014],[-70.1079,9.5705,3053.5754],[-70.112,9.5891,2871.4927],[-70.1117,9.6103,2859.6682],[-70.1028,9.6649,2604.4644],[-70.0949,9.6801,2522.7227],[-70.0786,9.6927,2443.3687],[-70.0552,9.6991,2337.2256],[-70.0028,9.7013,1455.0271],[-69.9934,9.7043,1809.2583],[-69.988,9.7121,2070.1702],[-69.9878,9.7212,2094.2134],[-69.9928,9.7357,2277.865],[-70.0022,9.748,2270.1833],[-70.0187,9.7627,1945.7849],[-70.0336,9.7694,1948.6387],[-70.0668,9.7803,1885.8987],[-70.0919,9.8027,1460.9218],[-70.1085,9.8094,1330.9879],[-70.1392,9.811,1167.4829],[-70.1544,9.8185,820.7366],[-70.1777,9.8439,503.8991],[-70.2041,9.8664,481.7022],[-70.2148,9.8688,499.8202],[-70.2228,9.8642,479.5138],[-70.2276,9.8523,487.1939],[-70.2337,9.826,505.4347],[-70.238,9.8214,513.0015],[-70.2458,9.8211,522.4526],[-70.2512,9.8232,574.998],[-70.2625,9.8356,679.9144],[-70.2778,9.8681,873.5964],[-70.2827,9.8746,918.8146],[-70.297,9.879,774.938],[-70.3204,9.8748,842.4757],[-70.3258,9.8751,932.1946],[-70.3327,9.8844,972.8935],[-70.3528,9.9229,831.3176],[-70.3635,9.923,913.2793],[-70.4106,9.9155,819.8458],[-70.4258,9.906,1015.931],[-70.4356,9.8977,772.8566],[-70.4497,9.8912,835.8896],[-70.4583,9.8914,893.1656],[-70.4924,9.9177,1088.1987],[-70.5217,9.9273,960.0598],[-70.5299,9.9356,1201.4476],[-70.5397,9.9579,1032.0162],[-70.5579,9.9776,858.5743],[-70.5635,9.9902,814.991],[-70.563,10.0095,830.6788],[-70.5642,10.0176,735.0226],[-70.5747,10.0261,737.9922],[-70.587,10.0323,666.9778],[-70.6002,10.0362,724.7252],[-70.6098,10.0364,762.4523],[-70.6173,10.0317,911.0927],[-70.6303,10.0148,975.9438],[-70.6577,9.9563,644.6635],[-70.6622,9.9364,657.3073],[-70.663,9.9096,658.0728],[-70.6613,9.8941,636.1863],[-70.6552,9.8688,705.1681],[-70.64,9.8321,605.6891],[-70.6329,9.8099,515.5142],[-70.6349,9.7959,484.1496],[-70.646,9.783,441.9602],[-70.6973,9.7619,701.1609],[-70.7163,9.7457,371.9001],[-70.736,9.7258,249.466],[-70.765,9.6908,29.7277],[-70.7867,9.6679,28.5474],[-70.8401,9.6136,26.7542],[-70.858,9.6015,26.8671],[-70.8761,9.5963,24.3882],[-70.9027,9.5928,18.0469],[-70.9454,9.599,12.5731],[-70.9764,9.5991,7.9686],[-70.9991,9.601,7.2978],[-71.0607,9.6131,1.2959],[-71.0599,9.6001,3.4952],[-71.0676,9.5765,0.6185],[-71.0704,9.5704,0.5691],[-71.0774,9.5632,0.3673],[-71.0799,9.5565,0.0],[-71.0854,9.5485,1.9191],[-71.0849,9.5249,0.0],[-71.0779,9.509,1.8406],[-71.0765,9.5018,1.1723],[-71.0774,9.4985,1.4059],[-71.0824,9.4946,1.2473],[-71.0907,9.494,0.0],[-71.0974,9.4896,0.0],[-71.096,9.4874,0.0],[-71.0899,9.4868,0.0],[-71.089,9.4901,0.0],[-71.0851,9.4888,0.7675],[-71.0818,9.4896,0.2861],[-71.0807,9.4915,1.4171],[-71.0779,9.4913,1.1245],[-71.0685,9.481,3.0501],[-71.0685,9.4674,1.5471],[-71.0704,9.4663,0.0],[-71.0679,9.4646,1.053],[-71.0676,9.4554,0.7517],[-71.0718,9.4074,0.0],[-71.0713,9.3857,2.3628],[-71.0682,9.3682,0.6197],[-71.0671,9.3676,0.0],[-71.0649,9.3701,0.0],[-71.0618,9.3693,0.2699],[-71.0574,9.3626,1.744],[-71.0576,9.3562,2.6701],[-71.0615,9.3582,0.0],[-71.0629,9.3568,0.0],[-71.0624,9.3532,1.03],[-71.0604,9.349,0.8428],[-71.0532,9.3474,0.3308],[-71.0521,9.3391,2.0917],[-71.0227,9.3509,6.9376],[-71.0133,9.352,4.5359],[-70.9941,9.3475,8.9816],[-70.9815,9.3499,12.1968],[-70.9739,9.3492,12.7215],[-70.952,9.3264,23.7756],[-70.9279,9.3133,30.0658],[-70.9198,9.3023,39.085],[-70.8899,9.1916,545.9291],[-70.887,9.1774,657.8624],[-70.8842,9.1415,1085.0121],[-70.882,9.1305,1646.4141],[-70.879,9.1249,1682.9475],[-70.872,9.1201,1696.5012],[-70.8458,9.1223,2321.0364],[-70.8305,9.1126,2599.3208],[-70.8173,9.1144,2666.4561],[-70.8036,9.1124,2962.1624],[-70.7817,9.0972,3711.7141],[-70.7697,9.094,3479.5261],[-70.752,9.0857,2930.6455],[-70.7416,9.0739,2173.6582],[-70.713,9.0329,1894.5703]]]]}}