{"type":"Feature","properties":{"ISO3166-1-Alpha-3":"VEN","country":"Venezuela","fill":"#00F","id":"29","name":"Trujillo"},
"geometry":{"type": "Polygon","coordinates": [[[-70.45469,9.89624,899.3256],[-70.47704,9.90989,690.3148],[-70.49815,9.9248,811.2472],[-70.51675,9.92852,1133.9509],[-70.53042,9.9397,1353.2173],[-70.54781,9.97322,891.4348],[-70.56145,9.98934,789.8416],[-70.56145,9.99929,929.8568],[-70.56269,10.01913,731.0497],[-70.56641,10.03032,857.9844],[-70.58008,10.03652,682.1533],[-70.59248,10.03652,692.9096],[-70.60863,10.03156,833.1253],[-70.62351,10.02285,1221.4968],[-70.63842,10.00301,853.6224],[-70.66201,9.95583,656.0117],[-70.66116,9.90451,601.8784],[-70.63633,9.83994,639.7914],[-70.63633,9.81183,500.0264],[-70.64129,9.79196,452.3362],[-70.65617,9.77708,513.0736],[-70.67441,9.76713,675.6026],[-70.68268,9.75388,836.8453],[-70.69493,9.74674,529.9996],[-70.70612,9.74636,500.7217],[-70.70992,9.74946,566.5356],[-70.71464,9.75426,488.3446],[-70.72046,9.76201,515.4484],[-70.72614,9.76511,556.6189],[-70.73335,9.76488,321.844],[-70.73769,9.7617,208.5414],[-70.7411,9.75767,178.2593],[-70.76154,9.71646,50.45],[-70.76214,9.71212,47.1399],[-70.76167,9.70941,44.8214],[-70.76004,9.70592,41.0145],[-70.75756,9.70197,34.3621],[-70.75617,9.69755,35.3427],[-70.75689,9.69243,31.693],[-70.76291,9.69042,33.4936],[-70.78314,9.68628,25.7067],[-70.78952,9.68272,26.4669],[-70.79405,9.67861,27.9643],[-70.81671,9.63882,28.1275],[-70.84223,9.60802,28.0137],[-70.85135,9.6022,28.8904],[-70.85962,9.59947,25.2479],[-70.86572,9.60009,25.2957],[-70.8721,9.60001,24.2805],[-70.88996,9.59823,20.3362],[-70.89577,9.59892,17.8603],[-70.90133,9.6004,17.3506],[-70.90613,9.60251,17.3056],[-70.91667,9.60593,15.0524],[-70.92251,9.60662,14.9448],[-70.9289,9.60624,13.8742],[-70.9498,9.60179,12.1899],[-70.9552,9.60164,11.6991],[-70.95897,9.60407,9.8757],[-70.96517,9.61135,8.879],[-70.97034,9.61375,8.4556],[-70.97755,9.61461,7.6072],[-71.0014,9.60949,5.6054],[-71.00623,9.60895,4.5976],[-71.01196,9.60934,4.621],[-71.04643,9.61662,0.139],[-71.06103,9.61732,1.8083],[-71.06235,9.6174,0.0],[-71.06245,9.6174,0.0],[-71.06627,9.602,0.0],[-71.06607,9.58954,0.0],[-71.08568,9.56342,0.0],[-71.09024,9.55541,0.0],[-71.09081,9.54409,0.0],[-71.08825,9.53417,0.0],[-71.08283,9.52131,0.4136],[-71.07925,9.50251,0.2994],[-71.07335,9.41901,0.0],[-71.05614,9.36359,7.7685],[-71.05651,9.34447,0.0],[-71.05867,9.33793,0.0],[-71.05858,9.33798,0.0],[-71.04809,9.34382,-0.4084],[-71.03318,9.3525,1.1183],[-71.01455,9.35501,3.1397],[-70.99967,9.35377,7.0506],[-70.98352,9.3525,11.8752],[-70.9736,9.35126,12.41],[-70.96365,9.34258,18.7927],[-70.9438,9.32398,28.6526],[-70.92765,9.31279,30.0658],[-70.91773,9.30287,40.4898],[-70.91151,9.28424,57.6626],[-70.89786,9.22714,239.3356],[-70.8929,9.20727,331.1248],[-70.8905,9.19068,530.881],[-70.88417,9.17492,664.8022],[-70.86306,9.139,1351.3328],[-70.85438,9.12869,1753.4436],[-70.81978,9.10627,2663.5825],[-70.8105,9.102,2899.5698],[-70.80534,9.10012,3339.4814],[-70.7996,9.09882,3341.1853],[-70.78906,9.0912,3698.6021],[-70.77663,9.06676,3002.3706],[-70.76707,9.06157,3017.219],[-70.76317,9.06079,2715.7207],[-70.74746,9.06343,2116.9336],[-70.73149,9.0535,1828.0442],[-70.72501,9.04436,1653.0869],[-70.72154,9.02736,1793.8843],[-70.71364,9.00772,2525.6221],[-70.70806,8.9978,2549.7769],[-70.70247,8.9916,2687.7617],[-70.69516,8.98506,2882.8037],[-70.68749,8.98428,3196.0068],[-70.67726,8.98586,3633.9448],[-70.64413,9.00036,3552.8013],[-70.61013,9.02922,3281.6167],[-70.60584,9.0317,3252.501],[-70.59618,9.03588,3393.5771],[-70.58553,9.03937,3577.6626],[-70.58003,9.04022,3706.874],[-70.57458,9.03782,3666.2664],[-70.57075,9.03519,3569.3848],[-70.56607,9.01671,3679.0176],[-70.55558,9.01284,3508.8931],[-70.55047,9.01191,3505.1528],[-70.54504,9.00981,3527.7056],[-70.54186,9.00532,3520.4561],[-70.54047,8.99857,3469.1675],[-70.54212,8.98622,3318.4033],[-70.54254,8.97018,3498.104],[-70.53468,8.95535,3367.0337],[-70.52424,8.96669,3419.8899],[-70.51246,8.98366,3241.4697],[-70.49608,8.99927,3291.9333],[-70.44373,9.0196,3283.2439],[-70.42673,9.02247,3308.1445],[-70.39771,9.02038,3055.5259],[-70.34839,9.01516,1905.3169],[-70.29418,9.01883,1272.855],[-70.27131,9.0234,1297.8391],[-70.26286,9.02278,1427.1217],[-70.2525,9.02061,1225.5137],[-70.23537,9.01449,928.7073],[-70.2139,9.00911,698.9399],[-70.18245,9.00787,348.8643],[-70.16737,9.01454,729.4357],[-70.15615,9.01805,593.8346],[-70.15029,9.01914,686.1288],[-70.12411,9.02007,667.0672],[-70.11827,9.0241,434.5932],[-70.11336,9.03154,441.8567],[-70.10644,9.06064,771.3541],[-70.10326,9.06978,968.3773],[-70.08807,9.08562,1234.301],[-70.07995,9.10038,1190.2448],[-70.06272,9.14365,760.1813],[-70.05936,9.23683,1288.2996],[-70.06536,9.25228,762.5009],[-70.08225,9.2415,680.5923],[-70.08716,9.23985,707.4207],[-70.09233,9.23923,738.7123],[-70.0974,9.24026,704.0073],[-70.10667,9.24437,975.0966],[-70.11207,9.24561,1104.4919],[-70.12349,9.24577,1468.1312],[-70.12871,9.24701,1414.0012],[-70.13328,9.24933,1702.2561],[-70.13636,9.25298,1900.4108],[-70.13783,9.25801,2309.5117],[-70.13584,9.26564,2318.5117],[-70.13111,9.27455,2181.0271],[-70.10603,9.30054,1958.2617],[-70.08616,9.33607,1989.5089],[-70.06934,9.35281,1667.3688],[-70.06458,9.35633,1564.5587],[-70.05466,9.37299,915.7158],[-70.03298,9.43033,1109.376],[-70.05861,9.48797,2188.1113],[-70.06215,9.49265,2186.6069],[-70.06737,9.49668,2145.4939],[-70.09993,9.50939,2920.3149],[-70.10928,9.51715,3229.7971],[-70.11716,9.54035,3178.6675],[-70.13398,9.59815,2843.1533],[-70.13468,9.60422,2628.6206],[-70.13481,9.61073,2681.6396],[-70.13352,9.61763,2750.8516],[-70.1308,9.62414,2465.0762],[-70.12406,9.63104,2422.6831],[-70.11894,9.63517,2549.0913],[-70.08468,9.65789,2452.064],[-70.08045,9.66179,2490.9841],[-70.07471,9.66605,2891.7827],[-70.06939,9.66807,2892.9194],[-70.06386,9.66783,2728.1465],[-70.04771,9.66388,2163.894],[-70.04213,9.66419,1916.1727],[-70.03724,9.66582,1826.3489],[-70.03283,9.66845,1629.6716],[-70.01735,9.68132,1475.5486],[-70.01443,9.68535,1568.6458],[-70.01306,9.69049,1493.1665],[-70.01585,9.69894,1474.7177],[-70.01869,9.70468,1510.2645],[-70.02172,9.70972,1697.4851],[-70.03401,9.72153,1794.3885],[-70.07215,9.74953,2619.0942],[-70.07716,9.75853,2355.4431],[-70.08256,9.76643,2058.4856],[-70.086,9.77,1887.5864],[-70.08988,9.77305,1840.0851],[-70.09414,9.77584,1725.8301],[-70.10132,9.77801,1655.1552],[-70.11062,9.77971,1641.3584],[-70.14742,9.78103,959.8327],[-70.15432,9.78235,881.1614],[-70.16075,9.78529,699.515],[-70.16757,9.79204,682.7626],[-70.19214,9.82602,526.9108],[-70.19512,9.82906,517.4973],[-70.19757,9.83209,510.6779],[-70.2094,9.8434,490.744],[-70.21333,9.84581,484.5601],[-70.2177,9.84666,493.1546],[-70.22307,9.84333,492.4783],[-70.2271,9.83984,494.6875],[-70.23051,9.8355,499.0278],[-70.24739,9.82674,533.3767],[-70.25731,9.83418,697.6975],[-70.26478,9.84658,702.7453],[-70.27966,9.87389,877.2404],[-70.31441,9.88134,752.5752],[-70.32932,9.88632,889.5626],[-70.33428,9.895,882.6559],[-70.3442,9.91859,930.6654],[-70.35164,9.92604,892.2178],[-70.36531,9.92728,786.8492],[-70.40254,9.92107,890.3986],[-70.41249,9.91611,898.0853],[-70.42988,9.90617,896.2662],[-70.44476,9.89624,774.0153],[-70.45469,9.89624,899.3256]]]}}