{"type": "Feature","bbox": [-72.6821,10.7789,-71.6318,11.1213],"geometry": {"type": "MultiPolygon","coordinates": [[[[-71.6335,10.8571,0.0],[-71.6346,10.8571,0.0],[-71.634,10.8549,0.0],[-71.6326,10.8554,0.0],[-71.6335,10.8571,0.0]]],
[[[-71.6318,10.866,0.0],[-71.634,10.8662,0.0],[-71.6346,10.8632,0.0],[-71.6321,10.8626,0.0],[-71.6318,10.866,0.0]]],
[[[-72.6756,10.8186,2115.478],[-72.6741,10.813,2110.7522],[-72.675,10.8063,2148.479],[-72.6821,10.7959,1884.4666],[-72.6779,10.7839,1497.9427],[-72.6804,10.7789,1527.8516],[-72.1595,10.7859,55.9739],[-71.8551,10.7975,69.8969],[-71.6785,10.8007,5.2334],[-71.6774,10.8032,0.6864],[-71.6921,10.8299,0.5917],[-71.7079,10.8635,5.403],[-71.709,10.8712,0.0],[-71.7135,10.8821,16.465],[-71.7149,10.8988,0.0],[-71.7185,10.9146,0.0],[-71.7162,10.9188,0.0],[-71.7204,10.9232,10.2054],[-71.7182,10.9282,0.0],[-71.7154,10.9299,0.0],[-71.7157,10.9335,1.2979],[-71.7124,10.9387,0.8615],[-71.7149,10.9407,0.4132],[-71.7207,10.9543,0.8742],[-71.7271,10.9632,0.3609],[-71.7304,10.9637,3.5288],[-71.7429,10.9751,11.7159],[-71.7549,10.991,6.392],[-71.7599,10.9932,0.0],[-71.7699,10.9912,7.4276],[-71.7746,10.9921,1.4629],[-71.7787,10.9949,9.2713],[-71.7804,11.0005,0.0],[-71.7922,11.0117,12.6298],[-71.7988,11.0142,5.9577],[-71.8098,11.0223,1.916],[-71.825,11.0284,16.8518],[-71.8405,11.0308,8.333],[-71.8463,11.0341,17.0177],[-71.8483,11.0378,18.1926],[-71.8475,11.0511,4.8967],[-71.8505,11.0625,17.05],[-71.8566,11.0699,17.6316],[-71.8902,11.0926,-0.2667],[-71.9059,11.1008,2.4448],[-71.9239,11.1034,1.5903],[-71.9469,11.1159,0.0095],[-71.964,11.1213,3.14],[-71.9695,11.1209,2.6047],[-71.973,11.1176,3.0923],[-71.9868,11.0913,4.1099],[-71.9892,11.0885,2.7253],[-71.9954,11.086,1.7333],[-72.0037,11.0865,1.7687],[-72.042,11.1098,8.6677],[-72.0464,11.1149,6.8261],[-72.0537,11.1182,37.9302],[-72.0631,11.1188,37.2379],[-72.0719,11.117,22.414],[-72.0928,11.106,14.7126],[-72.1066,11.1009,16.828],[-72.143,11.0914,14.3441],[-72.1533,11.0919,19.9703],[-72.1614,11.0942,17.4666],[-72.1821,11.1054,42.2627],[-72.1907,11.107,46.0991],[-72.2002,11.1042,61.3308],[-72.2078,11.0887,51.3325],[-72.212,11.085,36.1595],[-72.2191,11.0827,56.5607],[-72.2372,11.0888,89.7237],[-72.2523,11.0893,81.9155],[-72.2736,11.0992,235.3503],[-72.2902,11.102,372.7041],[-72.2994,11.1076,448.6322],[-72.324,11.1153,198.5313],[-72.332,11.1164,132.701],[-72.3399,11.1152,264.1618],[-72.3417,11.1128,332.6859],[-72.3416,11.0979,128.0641],[-72.3463,11.0941,184.2121],[-72.3522,11.0954,266.7372],[-72.3555,11.0984,279.47],[-72.3617,11.1117,351.8676],[-72.3669,11.1119,365.5314],[-72.4331,11.1012,440.2747],[-72.4842,11.0988,846.1235],[-72.4883,11.0941,735.0587],[-72.4899,11.0892,615.4462],[-72.498,11.0841,550.7373],[-72.4953,11.0805,564.8328],[-72.4905,11.0785,569.3826],[-72.4851,11.0618,974.8891],[-72.4814,11.0601,996.5565],[-72.4814,11.0587,1013.8585],[-72.4987,11.0405,967.0889],[-72.5049,11.0372,928.232],[-72.5071,11.0336,894.6514],[-72.5083,11.0224,1014.7824],[-72.5171,11.0188,997.907],[-72.5191,11.0133,1036.5636],[-72.5254,11.0116,955.6941],[-72.5251,11.0068,897.283],[-72.5181,11.001,895.1252],[-72.5228,10.9954,1024.7422],[-72.5259,10.996,1011.3669],[-72.5295,10.9932,1039.1316],[-72.5357,10.9848,1210.6085],[-72.5379,10.9793,1104.1737],[-72.5366,10.9745,1097.4916],[-72.5503,10.9507,1206.401],[-72.5534,10.9397,1357.1334],[-72.56,10.9336,1375.5509],[-72.5636,10.9269,1329.0325],[-72.571,10.9228,1381.4102],[-72.5759,10.9138,1493.6429],[-72.6029,10.8986,1644.4888],[-72.6061,10.8937,1608.1844],[-72.607,10.8873,1759.7477],[-72.6098,10.8862,1707.8285],[-72.6121,10.8822,1750.2615],[-72.6144,10.8855,1660.5811],[-72.6204,10.8866,1603.4459],[-72.6293,10.8841,1522.8386],[-72.6379,10.8847,1590.627],[-72.6474,10.8802,1496.361],[-72.6505,10.8632,1537.4629],[-72.6543,10.8576,1592.4519],[-72.6581,10.8556,1471.5891],[-72.6581,10.85,1374.5884],[-72.6634,10.8363,1863.3944],[-72.6616,10.8303,1945.0153],[-72.6676,10.8232,2124.3181],[-72.6744,10.8207,2153.7361],[-72.6756,10.8186,2115.478]]]]}
,"properties": {"GID_2": "VEN.25.13_1","GID_0": "VEN","country": "Venezuela","GID_1": "VEN.25_1","province": "Zulia","NL_NAME_1": "NA","county": "Mara","VARNAME_2": "NA","NL_NAME_2": "NA","TYPE_2": "Municipio","ENGTYPE_2": "Municipality","CC_2": "NA","HASC_2": "NA","name": "Mara.county","area_km2": 3114.194,"hist_schema_id": "Elevation0-9000","hist_area_km2": {"-50": 0.791,"-25": 0.916,"0": 476.062,"25": 700.896,"50": 517.096,"75": 198.865,"100": 101.118,"125": 63.682,"150": 49.024,"175": 41.216,"200": 34.658,"225": 35.678,"250": 33.014,"275": 34.138,"300": 31.744,"325": 29.454,"350": 31.431,"375": 33.595,"400": 30.827,"425": 28.476,"450": 28.33,"475": 29.433,"500": 31.225,"525": 34.056,"550": 31.35,"575": 33.058,"600": 32.601,"625": 31.54,"650": 26.773,"675": 22.027,"700": 18.051,"725": 18.238,"750": 17.968,"775": 17.364,"800": 16.115,"825": 16.157,"850": 15.428,"875": 15.157,"900": 15.116,"925": 14.2,"950": 12.576,"975": 11.639,"1000": 10.577,"1025": 10.244,"1050": 9.953,"1075": 9.765,"1100": 9.182,"1125": 9.62,"1150": 9.266,"1175": 8.371,"1200": 7.704,"1225": 7.371,"1250": 6.476,"1275": 5.81,"1300": 5.518,"1325": 4.248,"1350": 3.353,"1375": 3.019,"1400": 3.04,"1425": 2.686,"1450": 2.499,"1475": 2.353,"1500": 2.186,"1525": 1.874,"1550": 1.687,"1575": 1.374,"1600": 1.354,"1625": 1.104,"1650": 1.041,"1675": 0.979,"1700": 0.958,"1725": 0.791,"1750": 0.562,"1775": 0.625,"1800": 0.562,"1825": 0.541,"1850": 0.541,"1875": 0.666,"1900": 0.521,"1925": 0.479,"1950": 0.666,"1975": 0.375,"2000": 0.375,"2025": 0.417,"2050": 0.646,"2075": 0.292,"2100": 0.604,"2125": 0.562,"2150": 0.25}}}