{"type":"Feature","properties":{"GID_1":"VEN.12_1","GID_0":"VEN","country":"Venezuela","province":"Falcón","VARNAME_1":"NA","NL_NAME_1":"NA","TYPE_1":"Estado","ENGTYPE_1":"State","CC_1":"NA","HASC_1":"NA","ISO_1":"NA","name":"Falcón.province"},
"geometry":{"type": "MultiPolygon","coordinates": [[[[-68.5934,10.7032,88.4967],[-68.5929,10.6761,68.9464],[-68.5888,10.6671,66.2538],[-68.581,10.6599,74.9331],[-68.5678,10.6534,64.8031],[-68.5466,10.6446,51.1832],[-68.5272,10.6394,42.041],[-68.4895,10.6321,26.5025],[-68.4262,10.626,16.4111],[-68.2663,10.6224,0.0],[-68.279,10.6443,0.0],[-68.2915,10.671,2.2948],[-68.2946,10.6826,0.0],[-68.2971,10.6846,0.1596],[-68.3093,10.7212,0.0],[-68.3138,10.7299,0.0],[-68.3146,10.7351,0.0],[-68.3176,10.739,0.0],[-68.3171,10.7415,0.0],[-68.3215,10.7529,0.8679],[-68.3215,10.7588,0.1011],[-68.3243,10.7685,1.4307],[-68.3238,10.7813,0.0],[-68.319,10.7896,3.3311],[-68.3157,10.7918,0.0949],[-68.3138,10.7913,0.0],[-68.3129,10.7943,0.0],[-68.3112,10.7893,0.41],[-68.3085,10.7893,0.7932],[-68.3071,10.791,4.726],[-68.3046,10.7874,-0.0459],[-68.2962,10.7854,0.0],[-68.2954,10.7913,0.0],[-68.3007,10.794,1.6801],[-68.3015,10.7985,0.0976],[-68.2918,10.8024,1.4975],[-68.2904,10.8054,0.0],[-68.2946,10.806,0.551],[-68.2901,10.8076,0.0],[-68.2901,10.809,0.0],[-68.296,10.8088,0.0],[-68.299,10.8068,0.5708],[-68.3004,10.8104,1.5857],[-68.2982,10.8096,0.2469],[-68.2979,10.8113,0.269],[-68.3065,10.8124,0.3751],[-68.3074,10.8163,-0.0902],[-68.3046,10.8163,0.47],[-68.3021,10.8215,0.8505],[-68.3071,10.8276,0.0],[-68.3085,10.8254,0.6806],[-68.3065,10.8226,0.1415],[-68.3096,10.8229,0.2248],[-68.3118,10.8207,1.0687],[-68.3115,10.8185,0.0],[-68.3096,10.819,0.4131],[-68.3082,10.8165,0.0],[-68.3129,10.8121,0.0],[-68.3129,10.8101,0.6935],[-68.3074,10.8051,2.8079],[-68.3115,10.8018,1.7458],[-68.3115,10.7965,3.1794],[-68.3154,10.7949,1.4334],[-68.3215,10.8001,1.6161],[-68.3207,10.8029,0.9651],[-68.3246,10.8101,3.7089],[-68.3246,10.8199,1.4882],[-68.3215,10.8237,0.7193],[-68.3213,10.8213,0.0],[-68.3151,10.8165,0.0],[-68.3126,10.8188,0.0218],[-68.3135,10.8199,0.0218],[-68.3165,10.819,0.0],[-68.3171,10.8213,0.0],[-68.3146,10.8221,1.2872],[-68.3135,10.8263,0.7237],[-68.3104,10.8251,-0.1141],[-68.3129,10.8235,0.4062],[-68.309,10.824,0.6806],[-68.3082,10.8279,0.0391],[-68.311,10.8287,0.396],[-68.3104,10.8268,0.3254],[-68.3129,10.8279,0.7708],[-68.3165,10.8254,3.7734],[-68.3182,10.8279,1.2629],[-68.3151,10.8296,0.0],[-68.3171,10.8321,0.0],[-68.3226,10.8299,2.4174],[-68.3238,10.8315,0.6061],[-68.3254,10.8301,2.0263],[-68.3254,10.8324,2.0821],[-68.3268,10.8324,2.4053],[-68.3257,10.8235,1.1389],[-68.3296,10.8218,2.0159],[-68.3279,10.8287,0.2804],[-68.3304,10.8332,-1.0],[-68.3304,10.8365,1.677],[-68.3285,10.8363,1.677],[-68.3257,10.844,-1.0],[-68.3318,10.8501,1.5654],[-68.3329,10.8535,3.9886],[-68.3285,10.8571,3.4289],[-68.3313,10.8604,1.6515],[-68.3257,10.859,4.9551],[-68.3299,10.8532,2.2183],[-68.3296,10.8507,0.7426],[-68.3268,10.8493,-1.0],[-68.3274,10.8471,-0.75],[-68.3243,10.8463,0.5478],[-68.319,10.8413,0.1517],[-68.3201,10.8385,-0.3228],[-68.3257,10.8368,4.0747],[-68.326,10.8351,1.3997],[-68.329,10.8354,-0.3862],[-68.3288,10.8329,-1.0],[-68.3238,10.8329,0.0],[-68.3235,10.8357,1.9462],[-68.3204,10.8335,0.0],[-68.3157,10.8365,2.7402],[-68.3101,10.8304,0.0],[-68.306,10.8287,0.0],[-68.3043,10.8299,0.1869],[-68.3026,10.8249,0.0],[-68.2968,10.8218,0.0],[-68.2965,10.8235,0.4723],[-68.2929,10.8251,0.4157],[-68.2929,10.8299,0.2493],[-68.2954,10.8321,0.0],[-68.2996,10.8312,1.5323],[-68.2974,10.8354,0.0],[-68.2996,10.839,0.2887],[-68.3035,10.8399,0.6317],[-68.3015,10.8415,0.0],[-68.3121,10.839,2.1938],[-68.3068,10.844,0.0],[-68.3146,10.8426,1.3412],[-68.3126,10.846,0.1526],[-68.3215,10.8468,2.0966],[-68.3201,10.8493,0.0],[-68.3238,10.8504,1.6105],[-68.3254,10.8535,2.7015],[-68.3218,10.8529,0.0],[-68.3215,10.8554,0.6257],[-68.3199,10.8512,0.4326],[-68.316,10.8507,0.2003],[-68.3146,10.8529,0.3108],[-68.3163,10.8554,1.2627],[-68.314,10.8554,0.0],[-68.3124,10.854,0.6125],[-68.3132,10.8512,0.8269],[-68.3115,10.8485,0.0],[-68.3018,10.8449,0.3022],[-68.3093,10.8524,1.0506],[-68.3093,10.8543,0.7619],[-68.3032,10.8485,0.2596],[-68.3007,10.8485,0.0],[-68.2965,10.8424,0.64],[-68.2932,10.8415,0.0],[-68.2901,10.8418,0.0],[-68.2907,10.844,0.8765],[-68.2862,10.8446,0.4162],[-68.2857,10.8476,0.6435],[-68.2876,10.8482,0.3498],[-68.289,10.846,0.7728],[-68.2937,10.8446,1.996],[-68.3018,10.8507,1.5351],[-68.3029,10.8565,0.4297],[-68.2974,10.8585,-0.0733],[-68.2957,10.8615,0.4152],[-68.2913,10.8587,0.0],[-68.2832,10.8593,1.3339],[-68.2829,10.8579,0.6611],[-68.2812,10.859,10.5263],[-68.281,10.8576,1.1089],[-68.2771,10.8571,2.1933],[-68.2771,10.854,0.0],[-68.2754,10.8529,0.5011],[-68.2782,10.8526,0.2422],[-68.2765,10.851,0.9517],[-68.2793,10.8482,0.1521],[-68.2737,10.846,0.581],[-68.2724,10.8465,0.6855],[-68.2729,10.849,1.0542],[-68.2699,10.8496,0.5461],[-68.2646,10.8549,2.4924],[-68.2626,10.8518,0.0],[-68.259,10.8521,1.7637],[-68.2593,10.8504,0.0],[-68.2576,10.8501,0.0],[-68.2554,10.854,1.5644],[-68.2487,10.8554,0.0],[-68.249,10.8526,0.4231],[-68.2446,10.8507,0.8619],[-68.2412,10.8512,0.8085],[-68.2399,10.8493,0.7158],[-68.236,10.8524,1.1604],[-68.2282,10.8529,3.2995],[-68.2276,10.8585,0.6592],[-68.2257,10.8587,0.0],[-68.224,10.8574,0.5975],[-68.2268,10.8524,3.935],[-68.2229,10.8546,1.9708],[-68.2213,10.8515,0.0],[-68.2171,10.8587,0.0],[-68.2185,10.8604,2.3339],[-68.2207,10.8571,1.4398],[-68.2229,10.8571,2.2715],[-68.2207,10.859,0.0],[-68.2215,10.8638,0.7367],[-68.2185,10.8665,0.0],[-68.2187,10.8704,0.6467],[-68.2201,10.8707,0.0],[-68.2193,10.8674,0.3419],[-68.2207,10.866,0.6615],[-68.2243,10.8676,0.6875],[-68.2276,10.8635,15.1231],[-68.2315,10.8629,1.0286],[-68.2315,10.8643,1.3841],[-68.2296,10.8679,0.8397],[-68.2274,10.8662,0.0],[-68.2218,10.869,0.8351],[-68.2218,10.8718,0.6887],[-68.2262,10.8785,0.5107],[-68.2226,10.8776,0.384],[-68.2235,10.8751,1.4973],[-68.2213,10.8726,0.7997],[-68.2185,10.8724,1.258],[-68.2176,10.8671,0.3419],[-68.2157,10.8654,0.6458],[-68.216,10.8776,1.3224],[-68.2201,10.879,0.0],[-68.2271,10.8785,0.5107],[-68.2271,10.8824,1.2751],[-68.2237,10.8837,0.0],[-68.2246,10.8865,0.7685],[-68.2321,10.8857,5.3445],[-68.2404,10.8904,6.7658],[-68.2457,10.901,0.0],[-68.2507,10.9054,1.5466],[-68.2513,10.9093,1.478],[-68.2474,10.9121,1.6575],[-68.2471,10.9146,1.7471],[-68.2579,10.921,0.0],[-68.261,10.9185,0.0],[-68.2554,10.9143,1.6373],[-68.2532,10.9104,1.0829],[-68.2551,10.9046,0.554],[-68.251,10.9035,0.8344],[-68.2532,10.9024,0.3127],[-68.2549,10.8979,1.2125],[-68.2571,10.8979,0.0],[-68.2579,10.894,0.3648],[-68.2637,10.894,1.8462],[-68.2801,10.8979,10.0202],[-68.2932,10.9035,11.5318],[-68.3007,10.9046,40.5164],[-68.3115,10.9087,12.7835],[-68.3151,10.9085,49.4253],[-68.3163,10.9121,0.0],[-68.319,10.9129,7.5187],[-68.3204,10.9157,0.0],[-68.3324,10.9129,3.3664],[-68.3418,10.9074,1.5906],[-68.3487,10.9065,2.8254],[-68.3487,10.9099,0.0],[-68.3565,10.9143,0.0],[-68.3571,10.9182,0.0],[-68.364,10.919,0.4515],[-68.3646,10.9224,3.2209],[-68.3626,10.9276,1.6005],[-68.364,10.9301,4.9011],[-68.3629,10.9312,1.2127],[-68.3487,10.9324,3.2393],[-68.3432,10.9301,0.0],[-68.3399,10.9329,3.0376],[-68.3368,10.9324,1.7312],[-68.334,10.934,5.1543],[-68.3321,10.9321,3.9063],[-68.3246,10.9332,0.0],[-68.3201,10.9368,0.869],[-68.3171,10.9371,4.8531],[-68.3154,10.9338,2.5379],[-68.3107,10.9326,0.9113],[-68.309,10.9301,0.0],[-68.3043,10.9312,1.4365],[-68.3001,10.9288,0.5264],[-68.294,10.9288,1.587],[-68.294,10.926,0.0],[-68.2901,10.9265,1.0844],[-68.2874,10.9249,0.0],[-68.2887,10.9179,0.6681],[-68.2937,10.9188,0.0],[-68.296,10.9163,0.0],[-68.2926,10.9157,0.5128],[-68.2826,10.909,1.6298],[-68.2793,10.9038,0.5813],[-68.2679,10.9035,0.0],[-68.2629,10.9049,0.0],[-68.2618,10.9068,0.0],[-68.2643,10.9101,0.1991],[-68.269,10.9079,0.9749],[-68.2729,10.9126,1.3579],[-68.2749,10.9176,2.3548],[-68.2743,10.9226,1.2837],[-68.2679,10.9263,0.2077],[-68.2704,10.9346,0.0],[-68.2807,10.9432,0.0],[-68.2832,10.9482,0.9701],[-68.2857,10.949,0.5778],[-68.2935,10.9632,1.853],[-68.3037,10.9763,2.7778],[-68.3224,11.0132,1.6007],[-68.3299,11.0332,1.5854],[-68.3337,11.0535,0.0],[-68.3393,11.0671,0.0],[-68.3579,11.0962,0.0],[-68.369,11.1099,0.0],[-68.3821,11.1371,0.0],[-68.3885,11.1457,0.3699],[-68.389,11.1565,0.2069],[-68.3876,11.1596,0.0],[-68.3857,11.1613,1.2658],[-68.3799,11.1588,0.1302],[-68.3779,11.1599,0.0],[-68.3796,11.164,0.0],[-68.3932,11.1801,0.0],[-68.4043,11.1907,0.0],[-68.4112,11.1932,0.0],[-68.4132,11.1904,0.0],[-68.4085,11.1871,1.3523],[-68.4079,11.181,0.7645],[-68.4124,11.1743,1.7327],[-68.4187,11.1713,2.4152],[-68.4432,11.174,1.5569],[-68.4535,11.1785,3.5324],[-68.4696,11.1963,0.0],[-68.4801,11.2029,1.0905],[-68.489,11.2126,0.3186],[-68.4907,11.2124,0.3186],[-68.4926,11.2171,0.0],[-68.5082,11.234,2.0908],[-68.5115,11.239,0.0],[-68.5115,11.2429,0.0],[-68.5165,11.2474,0.0],[-68.5174,11.2515,0.0],[-68.5251,11.2571,0.0],[-68.5315,11.2651,2.6277],[-68.5351,11.2651,10.6669],[-68.5379,11.2674,0.0],[-68.5421,11.2646,10.9218],[-68.546,11.2649,2.9326],[-68.5582,11.2746,2.1584],[-68.5638,11.2749,6.1951],[-68.5721,11.2715,17.8775],[-68.5788,11.2754,1.7585],[-68.5851,11.2749,3.3085],[-68.5932,11.2826,0.0],[-68.5993,11.2807,0.0],[-68.6029,11.2821,0.0],[-68.6249,11.3051,9.139],[-68.6535,11.341,0.0],[-68.6637,11.3485,3.6707],[-68.6679,11.3465,49.8352],[-68.6718,11.3471,0.0],[-68.6896,11.3554,23.1274],[-68.6918,11.3535,5.7547],[-68.6904,11.3457,25.3625],[-68.6924,11.3426,20.8747],[-68.6993,11.3404,3.2195],[-68.7068,11.341,1.0591],[-68.7237,11.3482,2.452],[-68.7387,11.3599,1.0818],[-68.7424,11.3649,6.1417],[-68.7468,11.3668,6.1665],[-68.7532,11.366,6.9814],[-68.7599,11.3718,1.9966],[-68.7665,11.3737,11.1307],[-68.7787,11.3871,0.0],[-68.7913,11.3951,0.0],[-68.7985,11.4021,0.0],[-68.8121,11.4215,0.0],[-68.8251,11.4362,0.0],[-68.8293,11.444,0.0],[-68.8357,11.4421,0.0],[-68.8371,11.439,0.0],[-68.8407,11.4382,7.3874],[-68.8507,11.4429,0.0],[-68.8599,11.4507,0.0],[-68.8632,11.449,4.7399],[-68.8693,11.4499,7.8729],[-68.874,11.446,3.1993],[-68.8857,11.4485,18.2972],[-68.8854,11.4435,0.3105],[-68.8913,11.4415,2.0379],[-68.904,11.4454,15.3431],[-68.9063,11.4482,0.0],[-68.9099,11.4485,2.2551],[-68.9193,11.4454,21.0258],[-68.9282,11.4468,0.0],[-68.9337,11.446,0.0],[-68.9485,11.451,0.0],[-68.9543,11.4476,0.0],[-68.9599,11.4476,0.0],[-68.9651,11.4429,6.7048],[-68.969,11.4424,0.0],[-68.9693,11.4404,0.0],[-68.9671,11.4388,0.0],[-68.9732,11.4376,0.0],[-68.9796,11.4401,2.7062],[-68.9865,11.4376,0.0],[-68.9882,11.4349,0.0],[-69.0021,11.4393,8.6903],[-69.0079,11.4432,0.0],[-69.0188,11.4388,0.0],[-69.0182,11.4365,3.5972],[-69.0212,11.4354,33.8298],[-69.0293,11.4365,10.6009],[-69.0421,11.4438,0.0],[-69.0512,11.4393,0.0],[-69.0632,11.4462,30.8747],[-69.0726,11.4546,10.4817],[-69.0979,11.4865,0.0],[-69.101,11.4893,0.0],[-69.1035,11.489,0.0],[-69.1071,11.4937,8.2493],[-69.1118,11.4915,9.0488],[-69.1101,11.4874,10.4522],[-69.1124,11.4846,0.3682],[-69.1196,11.4838,0.0],[-69.1343,11.4915,12.7891],[-69.1426,11.4901,25.7693],[-69.1488,11.4926,0.0],[-69.1537,11.4913,4.8247],[-69.159,11.4935,10.8436],[-69.1682,11.4996,20.5871],[-69.1765,11.5085,27.6756],[-69.1826,11.5107,1.0268],[-69.1957,11.5096,4.5962],[-69.1988,11.5074,0.675],[-69.2001,11.5035,8.2033],[-69.2074,11.5032,6.2769],[-69.2204,11.5107,0.0],[-69.2251,11.5082,8.0486],[-69.2321,11.511,10.2972],[-69.2496,11.5224,4.53],[-69.2543,11.5279,0.0],[-69.266,11.5346,2.6098],[-69.284,11.5332,1.1646],[-69.2874,11.5257,0.9525],[-69.2943,11.5254,4.3037],[-69.3087,11.5151,6.2006],[-69.3151,11.5143,2.4777],[-69.3221,11.509,10.0371],[-69.3285,11.5079,0.0],[-69.3288,11.5032,4.4349],[-69.3335,11.4999,10.3508],[-69.3401,11.4957,7.0848],[-69.3546,11.4913,0.0],[-69.3568,11.4899,0.8861],[-69.3576,11.4868,9.5605],[-69.3621,11.4843,4.124],[-69.3665,11.4846,0.0],[-69.3688,11.4826,8.5719],[-69.3838,11.4826,3.4723],[-69.389,11.4849,0.6881],[-69.3965,11.4838,2.4201],[-69.4065,11.4885,2.7535],[-69.4132,11.4888,4.4269],[-69.4218,11.4924,0.0],[-69.4437,11.4937,30.4805],[-69.4507,11.4979,5.1382],[-69.4596,11.5007,0.0],[-69.4849,11.501,17.7276],[-69.4926,11.504,0.0],[-69.5032,11.5037,30.3427],[-69.5137,11.5057,0.0],[-69.5285,11.5018,0.83],[-69.5324,11.4976,10.4565],[-69.5365,11.4971,0.0],[-69.5393,11.4932,13.8707],[-69.5432,11.4924,1.4751],[-69.561,11.4796,2.3756],[-69.5665,11.4738,1.1825],[-69.5676,11.4676,5.1303],[-69.5707,11.4646,2.2384],[-69.571,11.4585,4.22],[-69.5754,11.4557,1.0465],[-69.5865,11.4546,2.33],[-69.6074,11.4587,3.4516],[-69.6243,11.4685,0.0],[-69.6385,11.4799,0.2484],[-69.664,11.5079,1.6649],[-69.6801,11.5326,0.0],[-69.6871,11.5407,1.6453],[-69.7243,11.6068,1.4554],[-69.7421,11.6524,1.3714],[-69.7515,11.6682,2.1467],[-69.754,11.679,0.0],[-69.7607,11.6915,1.8995],[-69.7596,11.6932,1.4196],[-69.7618,11.6963,1.505],[-69.7615,11.7001,0.2915],[-69.7696,11.7213,1.6031],[-69.7699,11.7254,0.2578],[-69.7732,11.7307,3.8355],[-69.7726,11.7329,0.0],[-69.7824,11.759,1.6346],[-69.7846,11.7612,2.7703],[-69.7943,11.7924,1.9132],[-69.7946,11.799,1.0311],[-69.7993,11.8129,0.8938],[-69.8063,11.8454,1.2925],[-69.8079,11.8604,0.0],[-69.8118,11.8763,0.4507],[-69.8135,11.8776,0.9405],[-69.8157,11.9082,0.6287],[-69.8138,11.9279,0.7617],[-69.8115,11.9357,1.1423],[-69.8012,11.9424,0.1295],[-69.8026,11.9438,0.0],[-69.8074,11.9429,0.9919],[-69.8104,11.9454,1.9743],[-69.819,11.9646,1.0942],[-69.8204,11.9715,1.0356],[-69.8193,11.9746,0.0],[-69.8199,11.9913,0.0],[-69.8235,11.9932,0.244],[-69.8215,11.9988,0.0],[-69.8235,12.0046,0.0],[-69.8301,12.006,0.0],[-69.8313,12.0101,0.0],[-69.8335,12.0115,0.0],[-69.8326,12.0201,0.6795],[-69.8357,12.0226,0.2941],[-69.839,12.0337,0.4091],[-69.8454,12.0368,0.2423],[-69.8463,12.0415,0.1745],[-69.8515,12.0457,0.6674],[-69.851,12.0551,0.0],[-69.8549,12.059,0.0],[-69.8549,12.0635,0.0],[-69.8635,12.0774,0.1047],[-69.8665,12.0788,0.0],[-69.8668,12.0835,0.0],[-69.8737,12.0857,0.0],[-69.8768,12.0993,0.0],[-69.881,12.1013,0.0],[-69.8849,12.1124,0.0],[-69.884,12.1185,0.0],[-69.8851,12.1212,0.0],[-69.8907,12.1254,1.8217],[-69.8929,12.1338,0.0],[-69.8957,12.1354,1.1738],[-69.8946,12.1363,1.4322],[-69.8976,12.1401,1.2601],[-69.9004,12.1432,0.6139],[-69.9049,12.1446,0.8408],[-69.9043,12.1476,0.0],[-69.9057,12.1496,0.8328],[-69.9143,12.1546,1.7012],[-69.9168,12.1593,0.0],[-69.9326,12.1721,0.0],[-69.9349,12.1724,0.0],[-69.9354,12.1696,0.8869],[-69.9376,12.1699,1.995],[-69.9393,12.1721,0.0],[-69.9421,12.1721,1.5259],[-69.9443,12.1757,0.0],[-69.9615,12.1751,0.5627],[-69.9646,12.1715,4.0125],[-69.9701,12.1724,2.173],[-69.9854,12.1804,4.0457],[-69.9996,12.1965,0.0],[-70.0004,12.1946,2.4721],[-70.0054,12.1938,1.7132],[-70.0232,12.1957,0.4571],[-70.0276,12.191,1.1705],[-70.0371,12.1876,0.0],[-70.0385,12.184,1.4054],[-70.044,12.1849,2.0677],[-70.0554,12.1782,0.0],[-70.061,12.1729,1.249],[-70.069,12.1726,0.9457],[-70.0676,12.1685,1.0875],[-70.069,12.1668,2.9772],[-70.0829,12.1601,0.5774],[-70.0924,12.1524,0.0],[-70.099,12.1499,0.0957],[-70.1024,12.1438,0.0],[-70.1149,12.1379,0.0],[-70.1201,12.1329,0.3054],[-70.1204,12.1263,3.3689],[-70.1218,12.1249,2.6442],[-70.1363,12.1146,3.1742],[-70.1449,12.1121,0.0],[-70.1451,12.109,0.614],[-70.1479,12.1065,0.9385],[-70.1785,12.1015,1.8956],[-70.2024,12.1015,7.4571],[-70.2071,12.099,1.7729],[-70.2093,12.0996,0.0],[-70.2154,12.0932,0.0],[-70.2138,12.0907,0.0],[-70.2185,12.0824,0.3606],[-70.2107,12.0782,0.737],[-70.2085,12.0715,0.8475],[-70.2143,12.0554,0.345],[-70.216,12.0463,0.7626],[-70.2337,12.0251,0.7211],[-70.2401,12.014,0.0],[-70.2449,12.0001,0.9379],[-70.2579,11.9812,0.4585],[-70.259,11.969,0.0],[-70.2565,11.964,0.0],[-70.259,11.9579,0.5794],[-70.2699,11.9446,0.7289],[-70.2699,11.9396,2.0775],[-70.2726,11.9368,0.4353],[-70.2738,11.9324,0.3977],[-70.2812,11.9254,0.0],[-70.2849,11.9129,0.602],[-70.291,11.9018,0.5607],[-70.2915,11.8868,0.0],[-70.289,11.8718,0.4227],[-70.2946,11.8624,0.5606],[-70.2846,11.8612,0.4943],[-70.2801,11.8537,2.3232],[-70.2818,11.8374,0.0],[-70.2771,11.8265,0.0],[-70.2768,11.8174,1.1998],[-70.2682,11.8204,0.0],[-70.261,11.819,0.857],[-70.2543,11.7996,1.9366],[-70.2585,11.7954,0.0],[-70.256,11.7935,0.0],[-70.2521,11.7949,2.6313],[-70.2529,11.7921,0.8284],[-70.2493,11.7882,0.0],[-70.2454,11.7729,0.0],[-70.2429,11.774,1.8417],[-70.2418,11.7726,1.5775],[-70.2387,11.7574,0.0],[-70.2368,11.7571,0.0],[-70.2368,11.7593,1.3933],[-70.234,11.7593,1.2376],[-70.2318,11.7621,0.0],[-70.2324,11.7654,3.9397],[-70.2393,11.7704,1.765],[-70.2379,11.7771,4.0334],[-70.2282,11.7807,0.1898],[-70.2129,11.7757,5.3071],[-70.2093,11.771,7.3427],[-70.2049,11.7601,0.3816],[-70.2049,11.7549,9.8812],[-70.2079,11.7507,0.8723],[-70.2121,11.7482,0.0],[-70.2143,11.7504,0.0],[-70.2176,11.7499,0.0],[-70.2179,11.7485,0.0],[-70.2168,11.7454,0.0],[-70.2129,11.7471,0.0],[-70.2124,11.7443,0.0],[-70.209,11.7446,3.425],[-70.2079,11.7421,0.2613],[-70.2035,11.7413,0.0],[-70.2007,11.7365,10.4584],[-70.2018,11.7282,5.4831],[-70.2096,11.7257,0.0],[-70.2115,11.7326,2.8899],[-70.2132,11.7335,2.8899],[-70.2182,11.7274,-0.0102],[-70.2215,11.7276,0.2039],[-70.2271,11.736,0.0],[-70.2257,11.744,0.0],[-70.2293,11.7396,3.6108],[-70.2351,11.7382,1.5439],[-70.231,11.7321,1.5267],[-70.2274,11.7318,3.6058],[-70.2254,11.7288,4.5077],[-70.226,11.7218,0.0],[-70.2235,11.7224,5.5799],[-70.2224,11.721,1.1912],[-70.2221,11.7193,0.0],[-70.224,11.7185,0.0],[-70.2221,11.7179,0.0],[-70.2218,11.7146,0.0],[-70.2188,11.714,0.0],[-70.2182,11.7171,3.1727],[-70.2162,11.7185,0.3332],[-70.2124,11.7157,0.3473],[-70.2146,11.7129,0.0],[-70.2113,11.7138,0.0],[-70.2096,11.7054,8.0061],[-70.2118,11.6987,7.2414],[-70.2168,11.6957,6.4801],[-70.2207,11.6962,4.0827],[-70.2218,11.6987,1.0418],[-70.2262,11.6979,0.0],[-70.224,11.6971,0.0],[-70.2229,11.6935,0.0],[-70.2213,11.6946,1.2338],[-70.2193,11.6932,2.3559],[-70.2185,11.6885,16.7678],[-70.2218,11.6871,0.0],[-70.2193,11.6871,16.7678],[-70.2132,11.6726,1.4824],[-70.2171,11.6718,0.0],[-70.2151,11.6665,18.8534],[-70.2224,11.661,0.0],[-70.2271,11.6468,23.9536],[-70.2324,11.6415,0.0],[-70.2324,11.6393,3.1799],[-70.2357,11.6354,19.5555],[-70.2357,11.6315,20.3231],[-70.2385,11.6313,0.0],[-70.2346,11.6279,1.4165],[-70.2382,11.6271,0.0],[-70.2385,11.6257,0.0],[-70.2343,11.6271,1.4165],[-70.2363,11.6237,0.0],[-70.2315,11.624,3.9667],[-70.2337,11.6199,0.0],[-70.2301,11.6215,0.0],[-70.2299,11.6179,0.0],[-70.2249,11.6182,1.9693],[-70.224,11.6107,0.0],[-70.2199,11.6062,0.0],[-70.2138,11.6074,2.1116],[-70.2074,11.604,1.0001],[-70.2004,11.6051,0.5248],[-70.1971,11.6038,0.9266],[-70.1899,11.606,0.9903],[-70.1843,11.6049,0.0],[-70.1779,11.6085,0.596],[-70.174,11.6082,0.0633],[-70.1621,11.6126,0.8066],[-70.1546,11.6138,0.6655],[-70.1524,11.6118,0.0],[-70.1424,11.6187,0.0],[-70.1254,11.6165,0.0],[-70.124,11.6185,0.02],[-70.1093,11.6218,0.0],[-70.1093,11.6229,0.1871],[-70.101,11.6235,0.0],[-70.0871,11.6285,0.0],[-70.0832,11.6279,0.0],[-70.0835,11.6296,0.2523],[-70.0804,11.6315,0.0829],[-70.0757,11.6307,0.0457],[-70.0757,11.6324,-0.478],[-70.0596,11.6351,0.0],[-70.0563,11.6379,0.1097],[-70.0515,11.6388,0.0154],[-70.0532,11.6368,0.0],[-70.0524,11.6354,0.0],[-70.0429,11.6412,0.0548],[-70.0396,11.6396,0.0],[-70.0296,11.6451,-0.0163],[-70.024,11.6449,0.0],[-70.0163,11.6488,-0.0651],[-70.0126,11.6485,0.0],[-69.9982,11.6574,0.0271],[-69.986,11.6563,0.0],[-69.9785,11.6574,0.0],[-69.976,11.659,0.0],[-69.9762,11.6618,0.08],[-69.9746,11.6626,1.0338],[-69.9721,11.661,0.0],[-69.9687,11.6624,0.2133],[-69.9649,11.659,0.0],[-69.9607,11.666,0.1291],[-69.9574,11.666,0.1665],[-69.9554,11.6629,0.0065],[-69.9526,11.6635,0.0],[-69.949,11.6612,0.0137],[-69.9504,11.6632,0.1836],[-69.9499,11.6668,-0.0239],[-69.9393,11.6713,-0.2824],[-69.9388,11.6696,-0.0198],[-69.9393,11.6671,-0.0155],[-69.9332,11.6657,0.0],[-69.9326,11.6635,0.3032],[-69.9393,11.6632,0.0],[-69.9468,11.6599,0.0],[-69.9426,11.6576,0.1549],[-69.941,11.6549,0.0],[-69.9285,11.6535,0.349],[-69.9251,11.6479,0.2745],[-69.9204,11.6507,0.0],[-69.9121,11.6626,0.0],[-69.9099,11.6635,0.0609],[-69.9065,11.6621,0.6061],[-69.9035,11.6671,0.2214],[-69.8988,11.6687,0.0],[-69.8976,11.6721,0.1981],[-69.8921,11.6726,0.0],[-69.8974,11.6687,0.0],[-69.8968,11.6665,0.0],[-69.8868,11.6679,0.1925],[-69.8765,11.666,0.3281],[-69.8732,11.6676,1.0161],[-69.8715,11.6637,0.0619],[-69.8699,11.6637,0.0619],[-69.8626,11.6813,0.2728],[-69.8599,11.6838,0.6937],[-69.8515,11.6838,0.423],[-69.8437,11.6915,0.6833],[-69.841,11.6918,0.0856],[-69.8365,11.6879,0.1393],[-69.8299,11.6857,0.3331],[-69.8288,11.6804,0.0],[-69.8235,11.6768,0.0],[-69.8168,11.679,0.54],[-69.8126,11.6868,0.0609],[-69.8026,11.6943,0.0],[-69.8026,11.6954,0.0],[-69.806,11.6954,0.0],[-69.8051,11.6974,0.2198],[-69.7985,11.6979,5.9806],[-69.7985,11.6951,0.0],[-69.794,11.6929,0.163],[-69.7907,11.6871,3.4644],[-69.7871,11.6865,0.0],[-69.7868,11.6896,0.0],[-69.7901,11.691,0.0],[-69.7949,11.6976,0.207],[-69.794,11.7029,0.0],[-69.8024,11.7049,2.2114],[-69.7985,11.706,0.3314],[-69.8026,11.7088,2.706],[-69.8007,11.7176,3.2935],[-69.8018,11.7246,2.1628],[-69.8037,11.7254,2.1628],[-69.8057,11.7304,0.0],[-69.8051,11.7349,0.0],[-69.8071,11.7432,0.0],[-69.8037,11.7501,0.0],[-69.8049,11.7535,0.0],[-69.8015,11.7565,1.5133],[-69.7988,11.7563,0.0],[-69.7996,11.7596,0.0],[-69.7976,11.764,0.0],[-69.799,11.7693,0.0],[-69.8049,11.7751,4.1654],[-69.8068,11.781,0.0],[-69.8057,11.7868,0.0],[-69.8085,11.7949,3.3117],[-69.8046,11.8043,0.2623],[-69.8076,11.8154,1.9891],[-69.8132,11.8221,0.0],[-69.8171,11.8235,0.9897],[-69.8193,11.8301,0.6525],[-69.8238,11.8296,0.4689],[-69.8257,11.831,0.0],[-69.8299,11.8426,2.0465],[-69.8296,11.8518,0.2158],[-69.8224,11.8507,0.6583],[-69.821,11.8529,0.4965],[-69.8174,11.849,0.4903],[-69.8068,11.816,2.2918],[-69.8035,11.8015,0.1812],[-69.7974,11.7882,1.0277],[-69.7979,11.7857,0.0],[-69.7951,11.7799,5.1838],[-69.7935,11.7682,1.7997],[-69.7901,11.7612,2.6969],[-69.791,11.7565,2.0666],[-69.7885,11.7557,4.9277],[-69.7899,11.7526,0.7051],[-69.7868,11.7524,5.4977],[-69.7871,11.7499,1.715],[-69.7851,11.7479,3.9519],[-69.7862,11.7415,0.6984],[-69.784,11.7346,0.0],[-69.7854,11.7321,0.0],[-69.7829,11.7318,0.8377],[-69.7807,11.7274,3.2202],[-69.7765,11.7076,2.6358],[-69.7832,11.7074,0.0],[-69.7985,11.7113,0.0],[-69.799,11.7107,0.0],[-69.7979,11.7099,0.9173],[-69.7999,11.709,0.0],[-69.7974,11.709,2.9241],[-69.7985,11.7074,0.3313],[-69.7965,11.7082,0.1296],[-69.7937,11.706,0.0],[-69.7899,11.7079,0.1254],[-69.784,11.706,0.3535],[-69.776,11.7065,1.4231],[-69.7721,11.6904,0.7356],[-69.7701,11.6882,1.3005],[-69.771,11.6865,0.0],[-69.769,11.6865,1.1119],[-69.7682,11.6801,1.2862],[-69.7651,11.6757,1.5626],[-69.7651,11.6732,0.0],[-69.7632,11.6726,2.8702],[-69.764,11.6699,2.0915],[-69.7526,11.6471,2.3794],[-69.7515,11.6413,0.4097],[-69.7429,11.6263,1.4955],[-69.7387,11.6143,0.0],[-69.7301,11.5996,0.5669],[-69.7254,11.5849,0.6363],[-69.7213,11.579,1.2849],[-69.7196,11.5732,0.0],[-69.7157,11.5699,0.3011],[-69.7026,11.5468,0.9112],[-69.6993,11.5443,0.7115],[-69.6946,11.536,2.636],[-69.6949,11.5329,0.0],[-69.6874,11.5243,0.9741],[-69.6865,11.521,0.0],[-69.6851,11.521,0.2286],[-69.6857,11.5176,0.1086],[-69.6829,11.5174,2.008],[-69.6771,11.509,0.314],[-69.6774,11.504,0.7974],[-69.6751,11.5035,1.9121],[-69.6746,11.5012,0.3137],[-69.6635,11.4896,0.4286],[-69.6607,11.4888,1.6819],[-69.6632,11.4824,0.1606],[-69.6604,11.484,0.5377],[-69.6593,11.4824,-0.5],[-69.6579,11.4849,0.2471],[-69.6565,11.4843,1.1991],[-69.6562,11.4804,-0.1681],[-69.659,11.4762,0.0744],[-69.6565,11.4762,-0.5],[-69.654,11.4815,0.1662],[-69.6543,11.4788,-0.5],[-69.6485,11.476,3.9495],[-69.6618,11.4721,1.7762],[-69.6637,11.4685,1.6543],[-69.6671,11.4679,1.3054],[-69.6624,11.4649,0.1234],[-69.661,11.4579,0.7536],[-69.6629,11.4554,2.2293],[-69.6671,11.4529,3.6711],[-69.6718,11.4524,2.0985],[-69.6707,11.4557,0.6111],[-69.6718,11.4574,0.4675],[-69.6701,11.4579,0.4675],[-69.6699,11.4601,0.0],[-69.6738,11.4635,0.0],[-69.6771,11.4635,0.0],[-69.6799,11.4621,0.0764],[-69.6815,11.4574,0.0],[-69.6879,11.4535,0.2564],[-69.6893,11.4507,1.5009],[-69.6926,11.4501,4.3216],[-69.6943,11.4543,0.2889],[-69.6907,11.4546,0.0],[-69.6865,11.4585,0.0],[-69.6843,11.4585,0.0],[-69.6849,11.4615,0.0],[-69.6882,11.4624,0.0],[-69.6871,11.4651,0.0],[-69.6901,11.4654,1.3309],[-69.6924,11.4632,1.333],[-69.6893,11.4601,0.0],[-69.6904,11.4582,0.0],[-69.694,11.4574,0.0],[-69.6974,11.4621,0.0],[-69.7024,11.4618,0.0],[-69.7021,11.4582,0.4843],[-69.7057,11.454,0.0],[-69.7082,11.4546,0.0],[-69.7126,11.4526,0.0],[-69.7199,11.446,0.0],[-69.7262,11.4454,0.0521],[-69.7271,11.4493,0.0],[-69.7296,11.4485,0.0],[-69.7232,11.4538,0.0],[-69.7237,11.456,0.0],[-69.7285,11.4563,0.0],[-69.7307,11.4524,0.0],[-69.7368,11.4554,0.0],[-69.7435,11.4515,0.0],[-69.7435,11.4535,0.0],[-69.746,11.4546,0.0],[-69.7507,11.4515,0.0],[-69.7471,11.4496,0.0],[-69.7482,11.4482,0.0],[-69.7526,11.446,0.0],[-69.7574,11.4468,0.0],[-69.7613,11.4446,0.0],[-69.7615,11.4421,0.0],[-69.7651,11.4407,0.0],[-69.7682,11.444,0.0],[-69.7715,11.4449,0.0],[-69.7721,11.4429,0.0],[-69.7771,11.4415,0.0],[-69.776,11.4385,0.0],[-69.7846,11.4329,0.0],[-69.7851,11.4299,0.8714],[-69.7974,11.4265,0.9897],[-69.799,11.4229,4.7504],[-69.8012,11.4282,0.7303],[-69.8104,11.4196,3.2395],[-69.8218,11.4207,0.0],[-69.8265,11.4235,3.2245],[-69.8443,11.4221,0.0],[-69.8543,11.4279,0.8603],[-69.8587,11.4274,1.2615],[-69.859,11.431,0.5511],[-69.871,11.436,0.937],[-69.876,11.4415,0.744],[-69.8754,11.4438,0.8749],[-69.869,11.4465,0.5426],[-69.8676,11.4524,0.5544],[-69.8729,11.4476,0.8643],[-69.8785,11.4476,1.2155],[-69.8788,11.4496,1.1893],[-69.8757,11.4518,0.9291],[-69.8699,11.4524,0.6568],[-69.8685,11.4546,0.4861],[-69.8729,11.4532,0.7649],[-69.8707,11.4571,0.2807],[-69.8765,11.4554,0.6411],[-69.8721,11.459,0.2933],[-69.8749,11.4615,0.2748],[-69.8832,11.4576,1.2475],[-69.8793,11.4615,0.9271],[-69.8704,11.4651,0.1612],[-69.8724,11.4663,0.3626],[-69.871,11.4693,0.4913],[-69.8838,11.4638,0.8154],[-69.8907,11.4665,0.5362],[-69.8949,11.4776,0.6554],[-69.8971,11.4785,0.8614],[-69.8938,11.4865,0.2516],[-69.9001,11.4868,0.3914],[-69.8996,11.4896,0.2745],[-69.9046,11.4882,0.3389],[-69.9024,11.4915,0.1663],[-69.8954,11.4929,0.0],[-69.8962,11.4957,0.0],[-69.9021,11.494,0.0725],[-69.9062,11.4882,0.304],[-69.909,11.4876,0.3151],[-69.904,11.4963,-0.1204],[-69.9001,11.4971,-0.0369],[-69.9001,11.499,0.0],[-69.8982,11.4974,0.0],[-69.8996,11.5007,0.0],[-69.9062,11.4949,-0.0536],[-69.9151,11.4901,0.1775],[-69.919,11.4921,-0.0228],[-69.921,11.4999,0.0],[-69.9232,11.501,0.0],[-69.9274,11.4993,-0.1272],[-69.9315,11.5104,-0.1632],[-69.9307,11.5151,0.0],[-69.9238,11.5188,0.0],[-69.9235,11.5204,0.0],[-69.9204,11.5207,0.0],[-69.9201,11.5232,0.0],[-69.9321,11.5171,0.0],[-69.9407,11.5176,0.0],[-69.9421,11.5154,0.0147],[-69.9451,11.5182,0.0],[-69.9471,11.5232,0.0],[-69.9499,11.5226,0.0],[-69.9501,11.5196,0.0],[-69.9526,11.5185,0.0],[-69.9587,11.5068,-0.1557],[-69.9629,11.5043,-0.0452],[-69.9696,11.5037,0.0],[-69.9762,11.499,-0.0384],[-69.9815,11.5026,0.0],[-69.9854,11.5018,-0.0006],[-69.9879,11.5093,0.0],[-69.9924,11.5143,0.0],[-69.9965,11.5101,-0.3356],[-69.9987,11.5107,-0.0582],[-69.9999,11.5093,-0.5436],[-70.0046,11.5188,0.0],[-70.0118,11.5168,0.0],[-70.0137,11.5138,-0.0555],[-70.0182,11.5132,-0.26],[-70.0204,11.5149,0.0065],[-70.0207,11.5118,-0.4117],[-70.0293,11.5096,-0.2099],[-70.0312,11.511,-0.0145],[-70.0335,11.5079,-0.1028],[-70.0349,11.5104,-0.0972],[-70.0418,11.509,0.0619],[-70.049,11.5118,0.09],[-70.0446,11.5071,0.0758],[-70.0476,11.5012,0.0],[-70.0504,11.4893,-1.8455],[-70.0393,11.4907,1.3245],[-70.0365,11.489,0.0775],[-70.0349,11.4851,-0.1024],[-70.0301,11.4829,-0.2273],[-70.0307,11.4771,0.0548],[-70.0321,11.4782,0.0548],[-70.0329,11.4768,-0.041],[-70.0357,11.4771,0.0],[-70.0376,11.4749,0.0004],[-70.0399,11.4674,-0.1743],[-70.0401,11.4474,-0.1927],[-70.0451,11.4421,0.0],[-70.0474,11.4371,0.0],[-70.0499,11.4363,0.0056],[-70.0549,11.4401,0.1064],[-70.0651,11.4524,0.0],[-70.0721,11.4493,0.0],[-70.0754,11.4507,0.0],[-70.0868,11.4468,0.2643],[-70.0874,11.4451,0.493],[-70.0837,11.4421,0.3069],[-70.084,11.4382,-0.0092],[-70.0926,11.4268,3.6839],[-70.0987,11.4243,0.7692],[-70.1285,11.4543,0.0],[-70.1338,11.4629,0.0],[-70.1479,11.4679,0.0],[-70.1585,11.4665,0.0],[-70.1621,11.4624,0.0],[-70.166,11.4607,0.0],[-70.1621,11.4615,0.0],[-70.1574,11.466,0.0],[-70.1529,11.4651,0.0],[-70.1504,11.4665,0.4533],[-70.1479,11.4638,0.7956],[-70.1413,11.4638,0.3239],[-70.1435,11.456,0.0],[-70.1385,11.4518,0.6265],[-70.1429,11.4501,0.9079],[-70.1446,11.4468,0.6976],[-70.1471,11.4354,-0.039],[-70.1465,11.434,-0.039],[-70.1429,11.4346,0.2028],[-70.1457,11.4315,0.0],[-70.1471,11.4268,0.1879],[-70.1446,11.426,-0.0567],[-70.1462,11.4226,0.1149],[-70.1401,11.4251,-0.1994],[-70.144,11.419,0.0],[-70.1471,11.4171,0.0849],[-70.1493,11.4121,0.1078],[-70.1549,11.411,0.0301],[-70.1588,11.4137,0.1412],[-70.1632,11.399,0.0],[-70.1696,11.3899,0.0],[-70.1721,11.3776,1.6521],[-70.1793,11.3738,0.0],[-70.1854,11.3626,0.1029],[-70.1921,11.3582,2.2519],[-70.2068,11.3554,1.4715],[-70.2185,11.3476,0.843],[-70.2393,11.3412,0.4673],[-70.2532,11.3449,0.3729],[-70.2637,11.351,0.104],[-70.2654,11.351,0.4012],[-70.2657,11.3465,0.5872],[-70.2685,11.3462,1.5402],[-70.2682,11.3482,0.7237],[-70.2699,11.3496,0.335],[-70.2721,11.3485,0.9358],[-70.2715,11.346,1.4037],[-70.2688,11.346,1.5402],[-70.2696,11.3429,1.5302],[-70.2735,11.3474,0.8829],[-70.2724,11.3529,0.242],[-70.2776,11.3515,0.1412],[-70.2785,11.3543,0.0096],[-70.291,11.351,0.0],[-70.2937,11.3482,0.0],[-70.2949,11.3426,0.0127],[-70.3063,11.334,0.0601],[-70.2915,11.3415,-0.2936],[-70.3112,11.3285,0.0421],[-70.3124,11.3288,0.0212],[-70.3096,11.3307,0.0],[-70.3112,11.3313,0.0],[-70.3104,11.3329,0.0],[-70.3135,11.3332,0.0],[-70.3168,11.3307,0.0125],[-70.3196,11.331,0.0],[-70.3218,11.3285,0.3055],[-70.3262,11.3276,0.0],[-70.3329,11.3196,0.144],[-70.3429,11.316,0.0],[-70.3518,11.3157,0.0],[-70.3565,11.3099,2.5672],[-70.3682,11.3085,3.2064],[-70.3771,11.3093,0.0],[-70.3782,11.3065,5.6048],[-70.3876,11.306,0.0],[-70.3962,11.2999,3.5468],[-70.4004,11.2935,2.7556],[-70.4076,11.2904,0.1739],[-70.4129,11.2843,0.0],[-70.4238,11.2793,-0.0067],[-70.4418,11.2785,2.2584],[-70.4599,11.2854,0.9538],[-70.4682,11.2862,0.1195],[-70.4718,11.2896,0.0],[-70.4771,11.2907,0.0],[-70.4821,11.2907,0.0],[-70.4946,11.2863,0.0],[-70.5054,11.2776,0.8636],[-70.5113,11.2699,-0.899],[-70.5157,11.2699,0.4611],[-70.5185,11.2679,0.0],[-70.5257,11.2588,0.0],[-70.5276,11.2537,0.0],[-70.5385,11.2451,0.0],[-70.5413,11.2376,0.1024],[-70.5404,11.2365,0.3386],[-70.5335,11.2468,0.0564],[-70.5307,11.2429,0.0],[-70.5296,11.2457,0.0195],[-70.5246,11.2474,0.0],[-70.5196,11.2563,0.2736],[-70.5149,11.2568,0.0],[-70.5121,11.2624,0.1024],[-70.5099,11.259,0.0],[-70.5104,11.2526,0.1908],[-70.5074,11.2568,0.0],[-70.506,11.2643,0.2627],[-70.5004,11.2682,0.1477],[-70.4993,11.2643,-0.0474],[-70.4982,11.2704,0.0],[-70.4935,11.2743,0.0925],[-70.4924,11.274,0.121],[-70.4912,11.2771,-0.4325],[-70.4887,11.2757,-0.0439],[-70.4938,11.2732,0.0848],[-70.4985,11.2643,-0.0474],[-70.4949,11.264,0.1337],[-70.4912,11.2701,0.2683],[-70.486,11.2738,-0.2722],[-70.4929,11.2629,0.6751],[-70.4957,11.261,0.0],[-70.4996,11.2532,2.026],[-70.5026,11.2529,0.4793],[-70.504,11.2499,0.7006],[-70.5076,11.2482,0.2722],[-70.5074,11.244,3.7081],[-70.509,11.244,1.6898],[-70.5126,11.2482,0.0],[-70.5151,11.2446,0.1449],[-70.5157,11.2382,1.4866],[-70.5226,11.2382,0.134],[-70.5287,11.2318,3.0806],[-70.5321,11.2324,0.0],[-70.5329,11.2368,0.0],[-70.5351,11.2374,0.0],[-70.5401,11.2318,0.8479],[-70.5485,11.2296,0.9597],[-70.5568,11.229,0.0],[-70.5807,11.2315,0.0],[-70.6065,11.2257,0.0],[-70.6354,11.2257,0.0],[-70.6601,11.231,0.0],[-70.6643,11.2304,2.3415],[-70.6712,11.2265,3.7653],[-70.6901,11.2279,0.0],[-70.6968,11.2243,0.0],[-70.7115,11.2276,0.0],[-70.7168,11.2226,2.3931],[-70.736,11.2182,0.0],[-70.741,11.2157,0.0],[-70.7568,11.2135,3.0393],[-70.7624,11.2107,1.0496],[-70.7654,11.2065,6.4714],[-70.7732,11.204,0.0],[-70.7826,11.2035,0.0],[-70.7857,11.2013,0.8929],[-70.8029,11.2021,0.0],[-70.8151,11.1976,0.0],[-70.8285,11.1957,1.469],[-70.8368,11.1968,0.0],[-70.844,11.1951,0.0],[-70.8543,11.1874,1.1599],[-70.8557,11.1882,0.0],[-70.8807,11.176,0.0],[-70.8865,11.171,0.0],[-70.8896,11.1704,1.8681],[-70.9196,11.1507,0.0],[-70.9457,11.1393,0.0],[-70.9526,11.1285,4.946],[-70.9574,11.126,3.0396],[-70.9551,11.1301,0.2169],[-70.9579,11.1299,0.0],[-70.964,11.1265,0.0],[-70.9662,11.1229,7.6449],[-70.9796,11.1179,0.0],[-70.9865,11.1129,4.1355],[-70.9996,11.1071,0.0],[-71.026,11.0921,1.2339],[-71.0437,11.0779,4.143],[-71.0529,11.0726,0.2068],[-71.0604,11.0718,0.0],[-71.0663,11.0682,0.2986],[-71.0774,11.0646,0.0],[-71.0979,11.0529,0.0792],[-71.1026,11.0482,0.3713],[-71.1387,11.0368,0.0],[-71.1474,11.031,0.5638],[-71.1546,11.0288,0.0],[-71.1588,11.0251,0.1678],[-71.1596,11.0224,0.7143],[-71.1457,11.0307,0.5638],[-71.1446,11.029,0.7519],[-71.1418,11.0324,0.1585],[-71.1376,11.034,0.6207],[-71.1443,11.0257,1.0734],[-71.1565,11.021,0.0839],[-71.161,11.0171,0.0],[-71.1743,11.0143,0.0],[-71.1988,11.0024,0.3312],[-71.224,10.996,0.0],[-71.2288,10.9926,0.3841],[-71.2404,10.9893,0.0],[-71.2462,10.9846,2.066],[-71.2549,10.9826,0.0],[-71.2356,10.9523,8.9683],[-71.1934,10.8945,16.9231],[-71.1831,10.8768,20.1241],[-71.1709,10.8604,22.444],[-71.1153,10.8035,33.1427],[-71.0987,10.7832,36.6988],[-71.0817,10.7562,39.7001],[-71.0735,10.732,47.4793],[-71.0664,10.6723,85.0462],[-71.062,10.6592,125.7671],[-71.0356,10.619,125.8346],[-71.0267,10.6005,133.276],[-71.0145,10.5683,119.1028],[-71.003,10.5225,165.632],[-70.9973,10.5099,157.4862],[-70.9865,10.5015,156.5437],[-70.9499,10.4872,229.8742],[-70.9257,10.4642,254.3514],[-70.9125,10.4594,273.7325],[-70.8499,10.451,813.1504],[-70.8121,10.4535,1223.1282],[-70.7889,10.4493,944.5718],[-70.7762,10.4426,926.8951],[-70.7583,10.4267,1144.5032],[-70.7487,10.4121,1442.709],[-70.7425,10.3922,1491.7773],[-70.739,10.3447,970.9732],[-70.7281,10.327,1106.6196],[-70.7161,10.3171,1260.1561],[-70.7078,10.313,1389.859],[-70.6914,10.3073,1326.8416],[-70.6577,10.3051,1857.4917],[-70.657,10.3018,1773.7505],[-70.6313,10.3262,1998.4895],[-70.6149,10.3358,1753.1809],[-70.5908,10.3459,1137.183],[-70.5726,10.3504,907.6199],[-70.5594,10.3503,1113.7965],[-70.5395,10.354,1012.8468],[-70.5293,10.3668,1009.7828],[-70.516,10.4007,713.4095],[-70.4855,10.4484,926.2021],[-70.4742,10.4598,934.1133],[-70.4597,10.4677,1031.6853],[-70.4055,10.4754,1076.1317],[-70.391,10.481,1047.8594],[-70.3785,10.4936,962.8588],[-70.3611,10.5388,904.2327],[-70.3541,10.5453,915.6099],[-70.3083,10.5688,800.5175],[-70.287,10.5765,710.8575],[-70.2661,10.5798,724.1594],[-70.2425,10.5881,925.1479],[-70.2118,10.6031,979.5641],[-70.1722,10.6257,842.0311],[-70.1319,10.6653,783.1706],[-70.1182,10.6715,669.6045],[-70.0944,10.6713,608.1665],[-70.0711,10.666,806.0144],[-70.0412,10.6632,907.2144],[-69.9827,10.6863,911.974],[-69.955,10.691,677.0756],[-69.9282,10.6984,779.7076],[-69.9034,10.7097,833.2362],[-69.8528,10.7386,964.4716],[-69.8316,10.747,826.225],[-69.8173,10.7487,862.8624],[-69.791,10.7388,835.0144],[-69.7714,10.735,971.5624],[-69.7535,10.739,1051.6619],[-69.7352,10.7491,954.4588],[-69.705,10.7607,767.066],[-69.6773,10.7664,836.0626],[-69.6354,10.7802,821.4578],[-69.605,10.7827,734.2834],[-69.5386,10.7754,731.6738],[-69.5276,10.7692,903.8777],[-69.5094,10.743,700.4404],[-69.5017,10.7365,854.0366],[-69.4897,10.7302,845.0643],[-69.4666,10.7267,640.0258],[-69.4489,10.7277,612.5584],[-69.3718,10.7423,524.1331],[-69.3436,10.7419,579.5046],[-69.2842,10.7334,707.6619],[-69.2535,10.7339,637.3029],[-69.2322,10.7373,424.1042],[-69.1974,10.735,289.8202],[-69.1302,10.723,150.6404],[-69.0897,10.7176,193.0511],[-69.0732,10.7141,189.712],[-69.0537,10.7044,134.7852],[-69.0348,10.7076,117.143],[-68.988,10.7222,141.5793],[-68.9545,10.7289,105.9443],[-68.9198,10.728,62.2965],[-68.8986,10.7303,92.0898],[-68.8883,10.7299,198.1673],[-68.8807,10.7248,128.5861],[-68.8674,10.7078,113.8403],[-68.866,10.7076,113.8403],[-68.8407,10.7111,129.0399],[-68.8247,10.7159,149.2364],[-68.8051,10.725,332.6023],[-68.7864,10.7392,302.0747],[-68.7641,10.7601,189.355],[-68.7502,10.7638,151.0315],[-68.7098,10.7566,201.3329],[-68.6702,10.755,194.8159],[-68.6328,10.76,399.5359],[-68.6091,10.7679,445.2087],[-68.6022,10.7687,371.7736],[-68.5993,10.7633,266.7416],[-68.5934,10.7032,88.4967]]],
[[[-68.2829,10.8135,0.7771],[-68.2854,10.814,0.0],[-68.2862,10.8118,0.0],[-68.2846,10.8107,1.0131],[-68.2882,10.8096,0.4916],[-68.2835,10.8068,0.0],[-68.2776,10.8085,0.0],[-68.2779,10.8135,0.6115],[-68.2829,10.8135,0.7771]]],
[[[-68.2885,10.8407,0.0],[-68.2913,10.841,0.0],[-68.2896,10.8382,1.5665],[-68.291,10.8396,0.9699],[-68.2929,10.8385,0.3671],[-68.2896,10.834,0.672],[-68.2862,10.8379,0.3643],[-68.2865,10.8407,0.0],[-68.2885,10.8407,0.0]]],
[[[-68.2424,10.729,2.483],[-68.2432,10.7301,2.483],[-68.2449,10.7282,0.0],[-68.2429,10.7282,0.0],[-68.2424,10.729,2.483]]],
[[[-68.2324,10.7421,0.0],[-68.2351,10.7432,0.0],[-68.2363,10.7399,0.0],[-68.2349,10.7393,0.0],[-68.2349,10.7424,0.0],[-68.2324,10.7421,0.0]]],
[[[-68.1982,10.7801,0.7617],[-68.1968,10.7818,1.559],[-68.201,10.7782,0.0],[-68.1996,10.7782,0.0],[-68.1982,10.7801,0.7617]]],
[[[-68.2374,10.8312,0.0],[-68.241,10.8318,0.1695],[-68.2404,10.8299,0.5353],[-68.2446,10.831,0.3908],[-68.2499,10.8271,0.3342],[-68.2493,10.8254,1.1306],[-68.2524,10.8265,0.2203],[-68.2549,10.824,0.4441],[-68.2538,10.8204,1.7564],[-68.2562,10.8232,0.1217],[-68.2596,10.8237,1.2038],[-68.2601,10.819,0.3933],[-68.2649,10.8157,1.9273],[-68.2668,10.8163,0.0],[-68.2671,10.8149,0.0],[-68.2599,10.8157,0.7098],[-68.2571,10.8179,0.4594],[-68.2529,10.8168,0.0],[-68.2526,10.8193,1.7564],[-68.2499,10.8213,0.5745],[-68.2457,10.819,0.0],[-68.2443,10.8226,0.6123],[-68.2468,10.8221,1.4119],[-68.2476,10.8235,1.4119],[-68.2446,10.8237,0.6123],[-68.2443,10.8257,1.1532],[-68.2401,10.8282,2.077],[-68.2376,10.8271,0.3609],[-68.2371,10.829,3.1367],[-68.2346,10.829,1.0335],[-68.2374,10.8312,0.0]]],
[[[-68.2699,10.8465,0.8469],[-68.2704,10.8479,0.0],[-68.2715,10.8457,0.6855],[-68.2763,10.8454,0.9098],[-68.2768,10.8401,0.9977],[-68.2865,10.8349,0.4923],[-68.2851,10.8287,1.188],[-68.2882,10.8254,0.5613],[-68.2862,10.8215,0.0],[-68.2846,10.8229,1.024],[-68.2835,10.8213,0.0],[-68.2821,10.8218,0.5181],[-68.2829,10.8243,0.963],[-68.2787,10.8279,1.0179],[-68.2799,10.8226,1.0442],[-68.276,10.8207,0.887],[-68.274,10.8229,0.0],[-68.2746,10.8268,0.9357],[-68.2701,10.8282,0.0],[-68.2676,10.8318,0.3555],[-68.2707,10.8287,0.0],[-68.2765,10.8276,0.4351],[-68.2746,10.8307,0.3046],[-68.2674,10.834,0.9914],[-68.2651,10.8318,0.0],[-68.2643,10.834,0.9384],[-68.2607,10.8351,0.7431],[-68.2624,10.836,0.8055],[-68.2674,10.8351,0.9914],[-68.2679,10.8365,0.7464],[-68.2715,10.8368,0.3415],[-68.2715,10.8324,0.536],[-68.2735,10.8329,0.9048],[-68.2726,10.8374,0.0],[-68.2757,10.8393,0.9977],[-68.274,10.8393,0.2338],[-68.2735,10.8415,1.6559],[-68.2718,10.8385,0.0],[-68.2671,10.8396,1.4609],[-68.2699,10.841,0.0],[-68.2699,10.8465,0.8469]]],
[[[-68.2257,10.8463,1.2398],[-68.2279,10.8471,0.0],[-68.2326,10.844,0.3318],[-68.2329,10.8418,0.3853],[-68.2371,10.8413,0.7033],[-68.2368,10.8376,1.2481],[-68.2385,10.8349,0.0],[-68.2346,10.8351,0.0],[-68.2254,10.8407,0.0],[-68.226,10.8424,0.0],[-68.2288,10.8407,0.3087],[-68.2307,10.8424,0.9839],[-68.2307,10.8438,0.6604],[-68.2268,10.8446,0.689],[-68.2246,10.8432,0.5768],[-68.224,10.8449,1.2357],[-68.2257,10.8463,1.2398]]],
[[[-68.2799,10.8463,0.3643],[-68.2812,10.8479,0.2053],[-68.2826,10.8449,0.6893],[-68.2835,10.8474,0.0],[-68.2851,10.8449,1.1015],[-68.284,10.8393,0.2109],[-68.279,10.8413,0.0],[-68.2782,10.8446,0.0],[-68.2799,10.8463,0.3643]]],
[[[-68.2165,10.8624,0.5393],[-68.216,10.864,0.6458],[-68.2174,10.8643,0.0],[-68.2176,10.8618,0.0],[-68.2165,10.8624,0.5393]]],
[[[-68.2115,10.8707,2.5854],[-68.2118,10.8724,0.0],[-68.2149,10.8715,0.0],[-68.2132,10.8699,0.0],[-68.2115,10.8707,2.5854]]],
[[[-68.2074,10.8865,1.1498],[-68.2099,10.8874,0.0],[-68.2115,10.8829,0.0],[-68.2076,10.8785,1.9511],[-68.2074,10.8757,0.0],[-68.2051,10.8746,0.0],[-68.2068,10.8776,2.3544],[-68.2057,10.881,0.0],[-68.2074,10.8821,0.0],[-68.2074,10.8865,1.1498]]],
[[[-68.2596,10.9301,2.7856],[-68.2618,10.931,0.9445],[-68.2621,10.9293,4.5648],[-68.2593,10.929,2.7856],[-68.2596,10.9301,2.7856]]],
[[[-68.2588,10.9451,0.0],[-68.2604,10.9465,0.0],[-68.2665,10.9457,0.0],[-68.2654,10.9424,0.0],[-68.2643,10.9429,0.6389],[-68.2596,10.9385,0.0],[-68.2568,10.939,1.9503],[-68.2557,10.9435,0.0],[-68.2543,10.9438,0.0],[-68.2562,10.9454,0.0],[-68.2588,10.9451,0.0]]],
[[[-71.0368,11.086,0.0],[-71.036,11.0871,0.0],[-71.0432,11.0851,0.0],[-71.0479,11.0815,0.0],[-71.046,11.0812,0.0],[-71.0368,11.086,0.0]]],
[[[-70.4987,11.2574,0.0],[-70.499,11.259,0.0],[-70.5007,11.2582,0.5146],[-70.5018,11.2537,0.4793],[-70.501,11.2537,2.026],[-70.4987,11.2574,0.0]]],
[[[-70.4976,11.2618,0.0],[-70.4979,11.2635,0.1273],[-70.4996,11.2635,0.1996],[-70.4996,11.2596,0.0],[-70.4979,11.261,0.0],[-70.4976,11.2618,0.0]]],
[[[-69.7593,11.6221,0.0],[-69.761,11.624,0.0],[-69.7624,11.6215,0.8493],[-69.7554,11.6118,0.0],[-69.7538,11.606,0.0],[-69.7515,11.6057,0.0992],[-69.751,11.6074,0.0],[-69.7585,11.6185,0.0],[-69.7593,11.6221,0.0]]],
[[[-69.7676,11.641,0.0],[-69.7696,11.6418,0.2018],[-69.7699,11.6393,0.4752],[-69.7649,11.6329,0.3812],[-69.7646,11.6346,0.0],[-69.7676,11.641,0.0]]],
[[[-68.2854,10.8562,0.7691],[-68.2832,10.8565,1.2348],[-68.2829,10.8579,0.6611],[-68.2862,10.8568,0.7691],[-68.2854,10.8562,0.7691]]],
[[[-68.2471,10.9718,0.0],[-68.2429,10.9749,0.0],[-68.2426,10.9771,0.0],[-68.2476,10.9729,0.5966],[-68.2471,10.9718,0.0]]],
[[[-68.0001,10.9999,0.0],[-67.9999,10.9999,0.0],[-67.9999,11.0001,0.0],[-68.0001,11.0001,0.0],[-68.0001,10.9999,0.0]]],
[[[-68.4179,11.1987,0.0],[-68.4224,11.1996,0.0],[-68.4238,11.1979,0.0],[-68.4187,11.1943,2.2407],[-68.4157,11.1946,0.0],[-68.4154,11.1974,0.0],[-68.4179,11.1987,0.0]]],
[[[-68.4454,11.2213,0.0],[-68.4479,11.2221,0.0],[-68.4488,11.2207,0.0],[-68.446,11.2176,0.6107],[-68.4446,11.219,0.0],[-68.4454,11.2213,0.0]]],
[[[-70.0768,11.5087,0.0],[-70.076,11.5107,-0.0354],[-70.0788,11.5104,0.249],[-70.0799,11.5074,0.0],[-70.0774,11.5076,0.0],[-70.0768,11.5087,0.0]]],
[[[-70.0532,11.5132,0.0054],[-70.0535,11.5146,-0.0641],[-70.0565,11.514,-0.0887],[-70.0546,11.5129,0.0054],[-70.0532,11.5132,0.0054]]],
[[[-70.1046,11.5299,0.0777],[-70.111,11.531,0.0],[-70.1174,11.5301,0.0],[-70.1104,11.5296,0.0212],[-70.1062,11.5301,0.0777],[-70.1057,11.529,0.0777],[-70.1207,11.5276,0.0],[-70.1182,11.5224,0.229],[-70.119,11.5201,0.0],[-70.1137,11.5193,-0.0521],[-70.1126,11.5221,0.0268],[-70.1099,11.5215,0.8034],[-70.1113,11.5232,-0.1038],[-70.1096,11.5263,0.0517],[-70.1029,11.5271,0.163],[-70.0965,11.5301,-0.0051],[-70.1032,11.5288,0.0],[-70.1046,11.5299,0.0777]]],
[[[-70.1346,11.5646,0.0],[-70.139,11.5654,0.0],[-70.139,11.5626,0.0],[-70.1293,11.5529,0.0599],[-70.1293,11.5493,0.072],[-70.1265,11.5465,0.0434],[-70.1249,11.5468,0.0434],[-70.1249,11.5493,-0.1344],[-70.1232,11.5501,0.2712],[-70.1199,11.5488,-0.0877],[-70.1199,11.5465,0.1037],[-70.1129,11.5407,0.0393],[-70.1043,11.5415,-0.0895],[-70.0901,11.531,0.0407],[-70.0826,11.5326,-0.0116],[-70.089,11.529,0.0484],[-70.0957,11.5301,-0.0037],[-70.0987,11.5274,-0.0168],[-70.0968,11.5201,-0.0061],[-70.079,11.521,-0.0467],[-70.0804,11.5182,-0.1136],[-70.0837,11.5179,-0.0941],[-70.0832,11.5149,-0.6975],[-70.0865,11.5132,0.027],[-70.0854,11.5118,0.0],[-70.0818,11.5118,0.0],[-70.0768,11.5176,-0.0718],[-70.0701,11.5201,-0.2387],[-70.0682,11.5201,-0.2423],[-70.0682,11.5182,-0.1515],[-70.0743,11.5165,-0.0275],[-70.0746,11.5143,0.0934],[-70.0701,11.5154,-0.7227],[-70.0668,11.5129,0.0],[-70.0635,11.5151,0.0197],[-70.0574,11.5146,-0.0631],[-70.0571,11.5176,0.0123],[-70.0663,11.5235,-0.1235],[-70.0735,11.5304,0.1332],[-70.0857,11.5368,0.0],[-70.0963,11.539,-0.0952],[-70.1157,11.5521,-0.0572],[-70.1246,11.5604,-0.0057],[-70.1346,11.5646,0.0]]],
[[[-69.776,11.6615,0.4142],[-69.7796,11.664,0.3668],[-69.7768,11.6571,1.5828],[-69.7735,11.6546,0.0],[-69.7721,11.6563,0.0],[-69.776,11.6615,0.4142]]],
[[[-69.781,11.6732,0.0],[-69.7835,11.674,0.0],[-69.7824,11.669,0.0],[-69.781,11.6696,0.0],[-69.781,11.6732,0.0]]],
[[[-69.7962,11.6893,0.0],[-69.7993,11.6904,0.0],[-69.8043,11.6851,0.0],[-69.7993,11.6818,0.0],[-69.7979,11.679,0.0],[-69.7988,11.6749,0.0],[-69.7965,11.6738,0.0],[-69.7937,11.6757,0.0],[-69.791,11.674,0.0],[-69.7871,11.6751,0.0],[-69.7879,11.6782,0.0],[-69.7846,11.679,0.0],[-69.7826,11.6813,0.0],[-69.7832,11.6826,0.0],[-69.7899,11.6851,0.0],[-69.7926,11.6804,0.0],[-69.7946,11.6804,0.0],[-69.7965,11.6835,0.0],[-69.7993,11.6835,0.0],[-69.8015,11.686,0.0],[-69.8012,11.6871,0.1295],[-69.7946,11.6862,0.0],[-69.7937,11.6888,0.0],[-69.7962,11.6893,0.0]]],
[[[-69.7879,11.7043,0.0],[-69.7887,11.7054,0.0],[-69.7921,11.7038,0.0],[-69.7904,11.7032,0.0],[-69.7879,11.7043,0.0]]],
[[[-69.7868,11.7171,0.0],[-69.789,11.7179,0.0],[-69.7907,11.7151,0.7597],[-69.7949,11.714,0.0],[-69.7962,11.7118,0.0],[-69.7876,11.7151,0.0],[-69.7868,11.7171,0.0]]],
[[[-69.7965,11.736,0.0],[-69.799,11.7368,2.7404],[-69.7993,11.7354,4.1998],[-69.7937,11.7307,3.3282],[-69.7929,11.7282,0.0],[-69.7918,11.731,3.7065],[-69.7962,11.7338,0.6517],[-69.7965,11.736,0.0]]],
[[[-69.7913,11.7354,0.0],[-69.7918,11.736,0.8389],[-69.794,11.736,0.0],[-69.7929,11.7346,0.6656],[-69.7913,11.7354,0.0]]],
[[[-69.7949,11.7568,0.0],[-69.7974,11.7565,2.2478],[-69.7965,11.7537,0.0],[-69.7949,11.754,0.0],[-69.7949,11.7568,0.0]]],
[[[-70.1368,11.5554,0.277],[-70.1343,11.5549,0.0],[-70.1338,11.556,0.2971],[-70.1368,11.556,0.4365],[-70.1368,11.5554,0.277]]]]}}