{"type":"Feature","properties":{"ISO3166-1-Alpha-3":"VEN","country":"Venezuela","fill":"#F0F","id":"23","name":"Falcón"},
"geometry":{"type": "Polygon","coordinates": [[[-68.27375,10.63421,4.0391],[-68.27375,10.63422,4.0391],[-68.2871,10.6579,3.572],[-68.31835,10.74518,3.5509],[-68.33145,10.80683,5.742],[-68.33194,10.82958,6.9455],[-68.32657,10.84927,-1.0],[-68.31143,10.85761,-1.0],[-68.26618,10.8581,46.3465],[-68.24983,10.86591,117.9943],[-68.23884,10.88496,39.1356],[-68.26268,10.90314,0.0],[-68.34341,10.91039,0.0],[-68.37662,10.91909,2.3534],[-68.36954,10.92524,0.9691],[-68.35953,10.93171,0.0],[-68.34777,10.93696,1.7591],[-68.33507,10.9396,-1.0],[-68.31835,10.93598,0.869],[-68.30504,10.9267,0.0],[-68.29479,10.91714,0.3857],[-68.28726,10.91283,0.391],[-68.27843,10.92548,2.55],[-68.28824,10.95331,0.4577],[-68.34968,11.07184,-0.0479],[-68.38866,11.12824,0.7483],[-68.39794,11.154,2.7856],[-68.39029,11.17292,1.8974],[-68.39029,11.17914,0.0],[-68.40038,11.19416,0.0],[-68.40331,11.20026,0.0],[-68.41076,11.20026,0.0],[-68.41104,11.19335,0.0],[-68.41267,11.18887,0.0],[-68.41759,11.17914,0.0],[-68.48351,11.20694,0.7644],[-68.49275,11.21768,0.0],[-68.50007,11.23241,0.0],[-68.51797,11.24934,24.2272],[-68.54052,11.26504,10.9218],[-68.61522,11.30341,0.0],[-68.63996,11.32221,18.1019],[-68.65038,11.34052,0.0],[-68.65567,11.34789,0.0],[-68.67919,11.3583,0.0],[-68.68448,11.36164,0.0],[-68.69042,11.357,0.0],[-68.70434,11.35806,0.0],[-68.72029,11.36176,0.0],[-68.75438,11.37409,0.0],[-68.77623,11.38622,0.0],[-68.79597,11.40062,0.0],[-68.82893,11.4357,49.8702],[-68.84439,11.44741,0.0],[-68.86319,11.45287,0.0],[-69.01993,11.44623,0.0],[-69.06188,11.45352,0.0],[-69.07445,11.45938,0.0],[-69.09016,11.46931,9.9491],[-69.10342,11.48086,5.7063],[-69.10904,11.49136,22.3626],[-69.121,11.48989,0.0],[-69.18541,11.51557,0.0],[-69.19555,11.51708,0.0],[-69.22948,11.51557,0.0],[-69.23986,11.51874,0.0],[-69.26024,11.53286,0.0],[-69.27042,11.53604,0.0],[-69.29092,11.53335,0.0],[-69.30761,11.52656,0.0],[-69.3356,11.50873,0.0],[-69.3767,11.49405,0.0],[-69.41552,11.49559,0.0],[-69.50007,11.50873,0.0],[-69.53726,11.49868,0.0],[-69.56338,11.47842,0.0],[-69.58869,11.46304,0.0],[-69.62361,11.46776,0.0],[-69.66584,11.49775,2.2986],[-69.70031,11.54019,0.0],[-69.74714,11.63227,0.0],[-69.80858,11.80362,1.6812],[-69.81591,11.84638,1.5357],[-69.81676,11.93244,0.1183],[-69.82217,11.97484,1.1661],[-69.83532,12.0152,2.0248],[-69.92536,12.15961,5.387],[-69.9442,12.17451,1.9641],[-69.99031,12.1848,0.0],[-70.00349,12.19351,8.4039],[-70.01773,12.19892,0.0],[-70.04133,12.194,0.0],[-70.06456,12.18146,0.0],[-70.12702,12.12881,0.0],[-70.14428,12.11799,0.0],[-70.1621,12.1131,0.0],[-70.2058,12.11201,0.0],[-70.21129,12.10273,0.0],[-70.21003,12.07355,0.0],[-70.21325,12.05679,0.9407],[-70.22378,12.04182,0.0],[-70.25463,12.00682,0.0],[-70.26106,11.99164,0.0],[-70.26521,11.97163,0.0],[-70.28356,11.93964,0.0],[-70.28775,11.92333,0.0],[-70.28897,11.90868,0.8438],[-70.29678,11.87189,0.0],[-70.30199,11.85814,0.0],[-70.29101,11.85961,0.0],[-70.28454,11.85733,0.0],[-70.28161,11.85114,0.0],[-70.27969,11.83015,0.0],[-70.27652,11.82567,2.3324],[-70.27212,11.82282,0.7709],[-70.26724,11.8166,0.0],[-70.24535,11.77936,1.9572],[-70.24059,11.76195,0.0],[-70.23302,11.76972,0.0],[-70.22899,11.7812,0.1898],[-70.22395,11.7884,24.1816],[-70.21325,11.78311,34.5668],[-70.208,11.77432,38.0496],[-70.20592,11.76252,0.0],[-70.2058,11.73469,0.0],[-70.21174,11.73802,0.0],[-70.22716,11.74482,0.0],[-70.23314,11.74836,0.0],[-70.23054,11.74201,0.0],[-70.22142,11.72948,0.0],[-70.21947,11.72785,0.2039],[-70.21947,11.70112,0.0],[-70.21736,11.69587,6.4801],[-70.21443,11.69184,29.0133],[-70.21239,11.6872,27.8643],[-70.21325,11.68008,25.3232],[-70.21736,11.67267,0.0],[-70.22936,11.65949,0.0],[-70.23314,11.65274,0.0],[-70.22989,11.62788,18.4006],[-70.21178,11.60908,2.0152],[-70.18651,11.60269,0.0],[-70.13834,11.62596,3.28],[-70.0738,11.6319,0.0],[-70.05187,11.64216,0.1263],[-70.04149,11.64863,-0.447],[-70.02676,11.6518,-1.5],[-69.99694,11.65274,0.0],[-69.9855,11.65526,0.0],[-69.94514,11.67324,0.862],[-69.95006,11.65668,0.0],[-69.92772,11.65843,-0.0227],[-69.88024,11.67324,0.0],[-69.87637,11.67642,-0.0158],[-69.871,11.68334,0.0],[-69.86262,11.69038,1.5847],[-69.84952,11.69367,0.0243],[-69.84236,11.68757,0.0],[-69.833,11.67723,0.0],[-69.82502,11.67524,0.0],[-69.82217,11.69367,0.8145],[-69.81603,11.69367,0.0],[-69.79137,11.64533,0.0],[-69.78515,11.61567,0.0],[-69.76915,11.56859,0.0],[-69.76081,11.55711,0.0],[-69.76476,11.53767,0.0],[-69.74364,11.50336,0.0],[-69.74714,11.48078,0.0],[-69.76,11.46809,0.0],[-69.78921,11.451,0.0],[-69.79491,11.43671,0.0],[-69.81408,11.4256,0.0],[-69.8446,11.43623,0.0],[-69.85652,11.45867,0.0],[-69.87658,11.46933,0.6954],[-69.89262,11.47865,0.6472],[-69.89917,11.49579,-0.1365],[-69.91262,11.49325,0.0677],[-69.92065,11.49725,0.0],[-69.9259,11.51306,0.0],[-69.94598,11.51977,0.0],[-69.95678,11.51065,0.0],[-69.97562,11.5029,0.0],[-69.99032,11.51089,0.0],[-70.0078,11.51557,0.0239],[-70.02437,11.51407,0.0],[-70.04212,11.51878,0.0],[-70.05053,11.52113,0.0],[-70.06824,11.52996,0.0],[-70.09527,11.5439,0.0],[-70.12277,11.5591,-0.0057],[-70.1616,11.56855,0.0],[-70.14158,11.55396,0.0],[-70.12956,11.54731,0.0],[-70.11617,11.54328,0.0],[-70.10467,11.53892,0.0],[-70.0963,11.53107,0.0],[-70.11127,11.53071,0.0],[-70.11856,11.53095,0.0],[-70.12316,11.52521,0.0],[-70.11986,11.52241,0.0],[-70.09679,11.5207,-0.1336],[-70.05391,11.50648,0.0],[-70.05588,11.4932,0.0],[-70.04133,11.48823,0.0],[-70.04638,11.48151,0.0],[-70.0476,11.4785,0.0],[-70.04874,11.47394,0.0],[-70.04011,11.47093,-0.0779],[-70.03588,11.46654,-0.3939],[-70.03454,11.45991,0.0077],[-70.03449,11.45038,-0.227],[-70.03653,11.4409,-0.0003],[-70.04117,11.44086,0.075],[-70.04874,11.44725,0.0],[-70.05846,11.45083,0.0],[-70.06969,11.45694,0.0],[-70.07901,11.45734,0.0],[-70.08292,11.44383,0.1442],[-70.08812,11.43403,0.0],[-70.09937,11.42955,0.0],[-70.1092,11.43866,0.0],[-70.11901,11.44971,0.0],[-70.12683,11.46204,0.0],[-70.14129,11.46859,0.0],[-70.15447,11.46997,0.0],[-70.1644,11.46293,0.0],[-70.15321,11.46092,0.0],[-70.146,11.45441,0.0],[-70.14436,11.44725,0.2793],[-70.14517,11.42894,-0.1368],[-70.15901,11.40143,0.1358],[-70.18,11.37637,0.0],[-70.23107,11.35159,0.0],[-70.26861,11.35634,0.0],[-70.28795,11.35708,0.0],[-70.32433,11.33283,0.0],[-70.40099,11.29698,0.0],[-70.43395,11.2876,0.0],[-70.48644,11.29511,0.0],[-70.51061,11.28636,0.0],[-70.50744,11.26166,0.0],[-70.5039,11.27131,-0.6034],[-70.49787,11.27928,-0.3884],[-70.48982,11.28531,0.0211],[-70.48013,11.28901,0.2281],[-70.49608,11.26386,0.2437],[-70.51391,11.25316,0.0],[-70.62975,11.2392,0.0],[-70.66413,11.23871,0.0],[-70.68562,11.24803,0.0],[-70.71321,11.23705,0.0],[-70.8697,11.19628,0.0],[-71.06237,11.0904,0.0],[-71.12222,11.06835,0.0],[-71.13126,11.06,0.0],[-71.17593,11.03413,0.0],[-71.282,10.99145,0.0],[-71.28107,10.98928,0.0],[-71.25611,10.92644,7.9419],[-71.24601,10.90835,9.1657],[-71.23536,10.89665,14.0253],[-71.21588,10.88104,20.1404],[-71.20033,10.87135,19.4984],[-71.16121,10.82828,26.7658],[-71.14227,10.81112,34.5074],[-71.13353,10.80593,35.4552],[-71.08842,10.76699,38.6294],[-71.08046,10.75676,39.7027],[-71.07705,10.74208,43.0415],[-71.08635,10.70508,52.4167],[-71.08705,10.69312,54.089],[-71.08651,10.68343,58.5348],[-71.0848,10.67521,61.923],[-71.07982,10.66015,64.1652],[-71.0786,10.65488,68.2715],[-71.07876,10.64907,71.0387],[-71.081,10.63858,69.299],[-71.07814,10.63129,76.6998],[-71.07178,10.62292,88.7761],[-71.0561,10.60894,96.987799999999993],[-71.04716,10.59941,83.7917],[-71.03966,10.58956,96.5713],[-71.03243,10.57388,90.6651],[-71.02752,10.5562,106.3034],[-71.02685,10.55013,116.6087],[-71.02212,10.52773,112.935],[-71.01483,10.51887,109.9091],[-70.97654,10.48132,208.6267],[-70.96608,10.46835,269.3127],[-70.95734,10.46029,275.3382],[-70.95197,10.45781,245.0907],[-70.94174,10.45828,228.9],[-70.92706,10.45758,248.2639],[-70.91218,10.44727,275.388],[-70.90313,10.4429,344.7919],[-70.89825,10.44401,325.2184],[-70.88936,10.44789,326.1313],[-70.85497,10.4568,633.1525],[-70.80275,10.4606,1274.7268],[-70.7787,10.45363,800.6876],[-70.76503,10.4412,1245.54],[-70.74519,10.41513,1181.8597],[-70.73896,10.38534,1286.3414],[-70.7402,10.3605,1163.2577],[-70.73772,10.34438,935.2402],[-70.72904,10.33198,1045.818],[-70.71291,10.32079,1241.511],[-70.69428,10.31211,1172.5859],[-70.67938,10.31087,1563.8231],[-70.65808,10.30477,1748.3868],[-70.65121,10.31335,1697.9984],[-70.63798,10.32658,1931.856],[-70.61318,10.34146,1603.1396],[-70.59163,10.35141,1107.9871],[-70.57013,10.35637,834.5208],[-70.55029,10.35968,1180.0734],[-70.53538,10.36301,916.6241],[-70.53042,10.3696,1016.2296],[-70.52546,10.3812,857.0579],[-70.51716,10.39608,729.3937],[-70.51218,10.40769,710.9759],[-70.50063,10.43414,746.2957],[-70.49231,10.44742,824.1726],[-70.47084,10.46394,1026.1013],[-70.45097,10.47223,878.4175],[-70.43608,10.47554,772.225],[-70.41453,10.4838,933.1448],[-70.40296,10.49541,907.1824],[-70.39469,10.51029,986.3551],[-70.38746,10.52003,929.9877],[-70.37376,10.52866,915.6637],[-70.34622,10.54083,878.2084],[-70.33898,10.54703,924.8411],[-70.33028,10.55806,851.763],[-70.32307,10.5624,884.7687],[-70.30648,10.56566,760.7333],[-70.28322,10.56613,962.8599],[-70.24718,10.55837,664.607],[-70.23108,10.57302,679.0299],[-70.22982,10.5783,767.1422],[-70.22496,10.5855,854.8782],[-70.21809,10.59204,1040.526],[-70.20095,10.60096,1001.209],[-70.18651,10.61111,1028.6954],[-70.17473,10.63423,752.1235],[-70.16894,10.6423,729.1097],[-70.16556,10.64581,785.1658],[-70.16176,10.64899,789.733],[-70.1575,10.6517,712.5482],[-70.15021,10.65356,725.1801],[-70.14075,10.6548,717.2003],[-70.11285,10.65348,850.7361],[-70.06432,10.64292,990.192],[-70.0566,10.64317,992.6967],[-70.04722,10.64527,893.9824],[-70.032,10.65294,787.6625],[-70.01823,10.66209,897.3647],[-69.98722,10.67715,993.4695],[-69.96932,10.69048,800.4899],[-69.96203,10.69235,735.5103],[-69.94841,10.6918,749.0549],[-69.94009,10.69048,924.286],[-69.93304,10.6887,888.6079],[-69.92699,10.68831,815.0555],[-69.9204,10.6894,980.5807],[-69.91128,10.6939,897.1495],[-69.9034,10.69594,916.1557],[-69.89196,10.69514,863.4197],[-69.88439,10.69397,811.4291],[-69.87547,10.69467,702.7869],[-69.86658,10.698,708.173],[-69.85273,10.70718,910.1481],[-69.84041,10.71787,1065.874],[-69.83715,10.72152,943.6695],[-69.83361,10.72488,934.3387],[-69.82899,10.72782,921.4014],[-69.82379,10.7303,1080.7352],[-69.81604,10.73061,1095.7081],[-69.81147,10.72953,1038.9512],[-69.80607,10.72035,1093.7815],[-69.81387,10.714,1163.0035],[-69.81752,10.71183,1188.819],[-69.82137,10.70857,1250.5724],[-69.82294,10.70508,1341.1193],[-69.82124,10.70175,1308.3973],[-69.81643,10.69989,1256.9028],[-69.81015,10.69909,1247.7507],[-69.80098,10.69966,1166.6594],[-69.78987,10.70144,993.9949],[-69.74708,10.71617,655.2335],[-69.70925,10.73387,775.3461],[-69.66393,10.76467,874.2383],[-69.65489,10.76482,909.2012],[-69.64218,10.76273,695.8639],[-69.5905,10.7479,955.1104],[-69.5372,10.74201,622.1766],[-69.52074,10.73247,584.4962],[-69.51764,10.7286,408.5405],[-69.51415,10.72322,435.1415],[-69.51107,10.71276,529.9712],[-69.50999,10.7071,541.8456],[-69.50841,10.70183,456.1369],[-69.50617,10.69718,321.2559],[-69.49859,10.69514,203.8603],[-69.48875,10.69514,301.6821],[-69.44364,10.70671,259.1083],[-69.43206,10.71082,346.5569],[-69.42609,10.7119,331.186],[-69.28357,10.70004,126.9011],[-69.27791,10.69857,140.2159],[-69.2729,10.69661,147.1871],[-69.26716,10.69498,164.3908],[-69.26029,10.69459,135.579],[-69.24249,10.69826,129.3849],[-69.2343,10.69857,129.4994],[-69.12627,10.68126,100.5021],[-69.08425,10.68049,88.1435],[-69.05829,10.68614,77.4932],[-69.03457,10.6956,81.5024],[-69.02842,10.69614,85.7947],[-69.01736,10.69374,78.4853],[-68.98142,10.69343,94.7616],[-68.9585,10.69764,73.28],[-68.92411,10.69733,79.6936],[-68.90972,10.69141,87.5879],[-68.9046,10.68669,93.6653],[-68.89928,10.68273,91.7377],[-68.88551,10.65953,133.9503],[-68.82654,10.67715,246.4708],[-68.80928,10.68622,311.0745],[-68.80339,10.69428,435.2558],[-68.79202,10.71345,348.762],[-68.7867,10.71973,319.5681],[-68.7766,10.72937,452.1347],[-68.76921,10.73247,405.1122],[-68.76295,10.73278,447.1043],[-68.75324,10.72774,296.4366],[-68.74652,10.72617,305.1881],[-68.7352,10.72679,296.028],[-68.72373,10.73232,232.47],[-68.71534,10.73495,290.5595],[-68.70815,10.7365,227.2921],[-68.66777,10.73588,329.6418],[-68.65464,10.73255,378.5271],[-68.63358,10.73294,218.6917],[-68.61371,10.72798,124.6962],[-68.59635,10.72051,120.8364],[-68.59635,10.70315,88.628],[-68.59139,10.67831,69.8338],[-68.51938,10.63858,39.1674],[-68.27375,10.63421,4.0391]]]}}