{"type":"Feature","properties":{"GID_2":"VEN.25.14_1","GID_0":"VEN","country":"Venezuela","GID_1":"VEN.25_1","province":"Zulia","NL_NAME_1":"NA","county":"Maracaibo","VARNAME_2":"NA","NL_NAME_2":"NA","TYPE_2":"Municipio","ENGTYPE_2":"Municipality","CC_2":"NA","HASC_2":"NA","name":"Maracaibo.county"},
"geometry":{"type": "MultiPolygon","coordinates": [[[[-71.7582,10.6087,74.5532],[-71.6062,10.6137,0.0],[-71.6054,10.6168,0.0],[-71.6085,10.6176,2.423],[-71.6096,10.6207,0.0],[-71.6121,10.6218,0.6816],[-71.611,10.6257,0.0],[-71.6157,10.6338,1.8142],[-71.6129,10.6388,4.4151],[-71.6093,10.636,0.0],[-71.6071,10.6374,1.5167],[-71.6032,10.6365,0.0],[-71.5965,10.6482,3.165],[-71.5929,10.6504,0.0],[-71.5899,10.656,0.3841],[-71.5882,10.664,2.7208],[-71.5899,10.6637,2.987],[-71.5885,10.6665,2.1389],[-71.5904,10.666,3.7069],[-71.5904,10.6676,5.2936],[-71.5868,10.6687,0.0],[-71.5876,10.6746,0.0],[-71.5901,10.6765,6.843],[-71.5907,10.6821,0.0],[-71.5935,10.6835,2.8547],[-71.5965,10.6901,5.2394],[-71.5957,10.6921,0.3147],[-71.5904,10.6946,0.0],[-71.5918,10.6982,0.0],[-71.5896,10.7015,2.0471],[-71.5824,10.6999,0.0],[-71.5818,10.7018,7.5405],[-71.594,10.7096,0.0],[-71.5951,10.714,0.0],[-71.6007,10.7157,1.8705],[-71.621,10.7304,5.7179],[-71.6196,10.7315,0.0],[-71.6207,10.7354,0.0],[-71.6168,10.7351,0.0],[-71.6171,10.7368,2.2296],[-71.6215,10.7374,0.0],[-71.6249,10.7354,5.1264],[-71.6257,10.7371,0.0],[-71.629,10.7371,0.1142],[-71.6457,10.7524,6.9786],[-71.649,10.7593,0.0],[-71.6674,10.7771,0.0],[-71.6787,10.8007,5.2334],[-71.7581,10.7995,65.0926],[-71.7582,10.6087,74.5532]]]]}}