{"type":"Feature","properties":{"GID_2":"VEN.25.19_1","GID_0":"VEN","country":"Venezuela","GID_1":"VEN.25_1","province":"Zulia","NL_NAME_1":"NA","county":"SimónBolívar","VARNAME_2":"NA","NL_NAME_2":"NA","TYPE_2":"Municipio","ENGTYPE_2":"Municipality","CC_2":"NA","HASC_2":"NA","name":"Simón_Bolívar.county"},
"geometry":{"type": "MultiPolygon","coordinates": [[[[-71.4218,10.3343,0.0],[-71.4168,10.3296,5.3864],[-71.4168,10.321,1.7766],[-71.4124,10.3124,7.588],[-71.414,10.3043,0.0],[-71.406,10.2999,0.751],[-71.4054,10.2924,0.0],[-71.3882,10.2807,0.9211],[-71.3776,10.2696,-0.5771],[-71.3735,10.2607,-1.7642],[-71.3724,10.2532,0.0],[-71.3701,10.2504,0.0],[-71.3696,10.2426,-1.1135],[-71.3289,10.2439,12.5586],[-71.2896,10.2393,24.4761],[-71.281,10.2396,24.6007],[-71.2746,10.243,27.4538],[-71.2303,10.2426,40.0654],[-71.2236,10.2456,37.0623],[-71.2095,10.2658,60.9341],[-71.2016,10.284,61.3483],[-71.1977,10.3103,62.7466],[-71.194,10.3237,77.4952],[-71.1854,10.3371,86.4024],[-71.1787,10.3554,92.53],[-71.1739,10.3615,80.7997],[-71.1557,10.377,89.3281],[-71.1469,10.3835,95.7607],[-71.1397,10.3864,101.1095],[-71.2257,10.3852,73.3678],[-71.2883,10.3776,71.7721],[-71.3358,10.3757,66.1397],[-71.3415,10.37,39.3192],[-71.3434,10.3624,42.1376],[-71.3434,10.3491,29.4729],[-71.3415,10.3453,31.5525],[-71.3415,10.3377,34.8117],[-71.3491,10.332,24.0719],[-71.3946,10.332,15.7942],[-71.4218,10.3343,0.0]]]]}}