{"type":"Feature","properties":{"GID_2":"VEN.20.10_1","GID_0":"VEN","country":"Venezuela","GID_1":"VEN.20_1","province":"Sucre","NL_NAME_1":"NA","county":"Mariño","VARNAME_2":"NA","NL_NAME_2":"NA","TYPE_2":"Municipio","ENGTYPE_2":"Municipality","CC_2":"NA","HASC_2":"NA","name":"Mariño.county"},
"geometry":{"type": "MultiPolygon","coordinates": [[[[-62.6659,10.6829,400.2979],[-62.6641,10.6359,80.8621],[-62.6604,10.6114,29.9668],[-62.6648,10.6053,4.5851],[-62.6971,10.5817,22.6575],[-62.7487,10.5565,0.0],[-62.7335,10.5601,0.0],[-62.7232,10.5585,0.0],[-62.7185,10.5599,10.8256],[-62.6899,10.5604,0.0],[-62.6826,10.5654,0.0],[-62.6818,10.5685,1.2746],[-62.6729,10.5763,12.3361],[-62.6579,10.5779,12.1749],[-62.6521,10.576,0.0],[-62.639,10.5754,0.0],[-62.6351,10.5726,0.0],[-62.6287,10.5737,0.0],[-62.6207,10.5715,0.0],[-62.6176,10.5721,16.2751],[-62.5926,10.5649,0.0],[-62.5782,10.5657,2.3222],[-62.5704,10.5626,7.2493],[-62.5671,10.559,0.7312],[-62.5499,10.5521,3.808],[-62.544,10.5521,11.6059],[-62.541,10.5501,0.0],[-62.5379,10.5524,8.3261],[-62.5365,10.5504,0.0],[-62.5318,10.549,1.3258],[-62.5276,10.5435,0.0],[-62.516,10.5485,0.0],[-62.5121,10.5479,0.0],[-62.511,10.5463,0.0],[-62.5079,10.5468,0.0],[-62.5037,10.5518,5.1399],[-62.4979,10.5535,0.0],[-62.4921,10.5513,0.0],[-62.4857,10.5538,15.2327],[-62.4837,10.551,1.1253],[-62.481,10.5515,0.0],[-62.479,10.5485,0.0],[-62.4674,10.5526,22.5779],[-62.4635,10.549,10.6873],[-62.4576,10.5485,3.5933],[-62.4521,10.5379,0.0],[-62.4471,10.5376,3.3226],[-62.441,10.5332,0.0],[-62.4376,10.5335,0.0],[-62.4354,10.5357,4.6525],[-62.4335,10.534,0.0],[-62.4299,10.5346,0.0],[-62.4224,10.5407,0.0],[-62.4196,10.5454,4.6901],[-62.4101,10.5513,6.3636],[-62.4076,10.5513,2.8433],[-62.4049,10.5468,0.0],[-62.3921,10.5546,4.286],[-62.3817,10.5504,0.0],[-62.3834,10.566,14.36],[-62.3902,10.5809,39.878],[-62.4098,10.6058,38.2752],[-62.4311,10.6259,49.7471],[-62.4342,10.6307,59.8294],[-62.4379,10.6567,469.2649],[-62.436,10.6752,705.6457],[-62.4321,10.693,792.0328],[-62.4602,10.6888,874.7659],[-62.4762,10.6895,900.731],[-62.4957,10.6952,653.7885],[-62.5233,10.6886,601.8386],[-62.5701,10.7073,719.7453],[-62.5851,10.709,499.1109],[-62.5942,10.7056,688.7132],[-62.6031,10.6958,907.5963],[-62.6232,10.6844,738.5186],[-62.6412,10.6767,532.9938],[-62.6515,10.6776,688.4722],[-62.6659,10.6829,400.2979]]]]}}