{"type":"Feature","properties":{"GID_2":"VEN.21.21_1","GID_0":"VEN","country":"Venezuela","GID_1":"VEN.21_1","province":"Táchira","NL_NAME_1":"NA","county":"RafaelUrdaneta","VARNAME_2":"NA","NL_NAME_2":"NA","TYPE_2":"Municipio","ENGTYPE_2":"Municipality","CC_2":"NA","HASC_2":"NA","name":"Rafael_Urdaneta.county"},
"geometry":{"type": "MultiPolygon","coordinates": [[[[-72.4414,7.4367,2311.0132],[-72.3861,7.4629,2703.842],[-72.3706,7.4661,2394.7529],[-72.3724,7.4747,2547.1628],[-72.3786,7.4894,2560.9275],[-72.3843,7.4955,2790.3857],[-72.389,7.506,3264.2224],[-72.3895,7.5169,3158.1736],[-72.3919,7.524,2541.9578],[-72.3871,7.5468,2630.0569],[-72.3895,7.5577,2316.7471],[-72.399,7.5762,2779.1106],[-72.4137,7.5933,2420.8975],[-72.4194,7.5976,2287.1194],[-72.4279,7.6251,1667.4766],[-72.4332,7.637,1781.5912],[-72.4386,7.6448,1702.8784],[-72.4561,7.6497,1596.4548],[-72.4643,7.6504,1337.3301],[-72.4762,7.6471,929.9922],[-72.4729,7.6413,989.6475],[-72.4755,7.6317,1024.5493],[-72.4689,7.6178,1083.4988],[-72.4667,7.6089,1106.9698],[-72.4677,7.6075,1114.4867],[-72.4648,7.6021,1139.0614],[-72.4658,7.5992,1148.9587],[-72.4636,7.5961,1311.517],[-72.4654,7.5928,1216.5387],[-72.4626,7.5886,1295.801],[-72.4596,7.5871,1240.2944],[-72.4573,7.5815,1339.1517],[-72.4556,7.5809,1316.9495],[-72.4565,7.5785,1420.0544],[-72.4535,7.5744,1344.0396],[-72.4543,7.5719,1360.5319],[-72.4528,7.5702,1347.8967],[-72.4518,7.5586,1487.7101],[-72.4551,7.5523,1486.7596],[-72.456,7.544,1665.9678],[-72.4584,7.5423,1523.6875],[-72.4599,7.5371,1701.972],[-72.464,7.5359,1675.4568],[-72.4671,7.5323,1617.7739],[-72.4662,7.529,1688.1777],[-72.4704,7.5252,1696.9365],[-72.4715,7.5227,1628.8311],[-72.4705,7.5204,1758.9578],[-72.4734,7.5182,1645.9646],[-72.4715,7.5118,1725.2142],[-72.4737,7.5055,1731.3169],[-72.4727,7.4954,1875.0182],[-72.4743,7.4896,1921.2037],[-72.4733,7.4867,1847.0593],[-72.4687,7.4833,1876.012],[-72.4618,7.4826,1920.3679],[-72.4595,7.4809,1933.9062],[-72.4537,7.4683,2037.5739],[-72.4479,7.4633,2111.0996],[-72.4441,7.4535,2181.6873],[-72.4442,7.4476,2213.5222],[-72.4414,7.4367,2311.0132]]]]}}