{"type":"Feature","properties":{"GID_2":"VEN.15.3_1","GID_0":"VEN","country":"Venezuela","GID_1":"VEN.15_1","province":"Mérida","NL_NAME_1":"NA","county":"AntonioPintoSalinas","VARNAME_2":"NA","NL_NAME_2":"NA","TYPE_2":"Municipio","ENGTYPE_2":"Municipality","CC_2":"NA","HASC_2":"NA","name":"Antonio_Pinto_Salinas.county"},
"geometry":{"type": "MultiPolygon","coordinates": [[[[-71.7416,8.4923,299.0793],[-71.7221,8.4684,500.6438],[-71.7194,8.4628,362.6725],[-71.7187,8.4433,653.9825],[-71.7217,8.4236,597.2869],[-71.7424,8.4113,610.2397],[-71.7448,8.4081,775.6389],[-71.7359,8.4091,849.2292],[-71.7217,8.4046,868.5459],[-71.7156,8.3742,1023.8115],[-71.6941,8.3673,700.65],[-71.6859,8.3604,1028.2808],[-71.6789,8.3504,1678.3777],[-71.6754,8.3199,2140.958],[-71.6812,8.3043,2581.9724],[-71.6789,8.2714,2168.3945],[-71.6617,8.2625,2344.0088],[-71.6377,8.2554,2047.0171],[-71.6009,8.2504,2678.2996],[-71.5927,8.2442,2991.3989],[-71.575,8.2253,2680.0352],[-71.5741,8.2288,2614.5083],[-71.5654,8.2364,2439.3076],[-71.5581,8.2374,2119.5913],[-71.5705,8.299,2297.4878],[-71.5724,8.3137,2678.8906],[-71.5717,8.3197,2556.8376],[-71.5666,8.3239,2231.5662],[-71.5515,8.3426,1720.2552],[-71.5448,8.3535,2001.5513],[-71.5393,8.3635,2422.1682],[-71.537,8.3766,1913.4922],[-71.5387,8.389,2305.4873],[-71.5433,8.4,2174.6736],[-71.5619,8.4247,1067.2803],[-71.5645,8.4329,848.416],[-71.5645,8.4422,571.3206],[-71.5584,8.4687,605.3294],[-71.5583,8.4822,994.9587],[-71.5612,8.4903,1096.1443],[-71.5727,8.4874,381.5023],[-71.5986,8.4882,783.4896],[-71.6088,8.4934,789.2956],[-71.6195,8.5037,599.4514],[-71.6297,8.5161,882.801],[-71.6333,8.5264,895.4535],[-71.6619,8.5196,405.369],[-71.7261,8.4961,181.9401],[-71.7416,8.4923,299.0793]]]]}}