{"type": "Feature","bbox": [-63.3463,9.8847,-62.9298,10.151],"geometry": {"type": "MultiPolygon","coordinates": [[[[-63.2305,10.1498,519.351],[-63.2339,10.1489,313.7203],[-63.2425,10.1306,356.549],[-63.254,10.119,424.1036],[-63.2574,10.1126,373.3453],[-63.2547,10.0958,682.1591],[-63.2574,10.0845,607.0788],[-63.271,10.0775,905.0654],[-63.2897,10.0721,901.2725],[-63.3246,10.0702,1159.6154],[-63.3463,10.0442,781.413],[-63.3458,10.0369,543.6609],[-63.3374,10.0344,659.2075],[-63.3158,10.0386,633.6014],[-63.309,10.0352,489.064],[-63.3153,9.9723,99.4084],[-63.3155,9.9626,61.7732],[-63.3133,9.9512,66.4496],[-63.2007,9.918,42.4369],[-63.1581,9.9105,31.5939],[-63.1275,9.9001,23.0596],[-63.1148,9.8883,33.3879],[-63.1083,9.8857,36.2861],[-63.0985,9.8847,22.6671],[-63.0921,9.888,27.8395],[-63.0833,9.897,16.3893],[-62.9456,10.1057,13.5697],[-62.9298,10.1254,3.0958],[-62.9546,10.1293,8.0974],[-62.9671,10.1258,21.9972],[-62.9777,10.1258,6.0769],[-62.9885,10.1315,8.0589],[-63.0193,10.1089,12.2526],[-63.0273,10.0995,22.3244],[-63.0344,10.0777,13.3528],[-63.0399,10.0692,11.242],[-63.0487,10.0657,12.8431],[-63.0895,10.07,19.7752],[-63.0989,10.0686,17.4293],[-63.1097,10.0636,28.5411],[-63.1297,10.0474,94.8047],[-63.1478,10.0409,99.172],[-63.1582,10.0426,72.0987],[-63.1626,10.0507,97.8076],[-63.1511,10.0692,148.709],[-63.1533,10.0782,113.5494],[-63.1708,10.0987,206.3694],[-63.1815,10.1074,227.435],[-63.1962,10.1177,392.4757],[-63.2024,10.1208,298.575],[-63.2111,10.1218,403.8098],[-63.2195,10.1277,453.8251],[-63.2217,10.1316,368.6796],[-63.2231,10.1494,538.2272],[-63.2257,10.151,589.2221],[-63.2305,10.1498,519.351]]]]}
,"properties": {"GID_2": "VEN.17.10_1","GID_0": "VEN","country": "Venezuela","GID_1": "VEN.17_1","province": "Monagas","NL_NAME_1": "NA","county": "Punceres","VARNAME_2": "NA","NL_NAME_2": "NA","TYPE_2": "Municipio","ENGTYPE_2": "Municipality","CC_2": "NA","HASC_2": "NA","name": "Punceres.county","area_km2": 655.0006,"hist_schema_id": "Elevation0-9000","hist_area_km2": {"0": 39.2259,"25": 198.9215,"50": 116.167,"75": 89.2457,"100": 36.101,"125": 19.083,"150": 14.4055,"175": 10.7933,"200": 9.5406,"225": 8.935,"250": 8.3503,"275": 8.0163,"300": 9.2479,"325": 7.9953,"350": 7.1603,"375": 6.7218,"400": 5.8033,"425": 5.01,"450": 4.676,"475": 4.9683,"500": 3.6741,"525": 4.0499,"550": 3.7785,"575": 3.5906,"600": 2.8808,"625": 2.8808,"650": 2.5677,"675": 2.6512,"700": 2.4425,"725": 2.3172,"750": 2.1711,"775": 1.7327,"800": 1.4613,"825": 1.3361,"850": 1.2525,"875": 0.8977,"900": 1.0438,"925": 0.7515,"950": 0.5845,"975": 0.6263,"1000": 0.501,"1025": 0.2923,"1050": 0.334,"1075": 0.2296,"1100": 0.2923,"1125": 0.1461,"1150": 0.1461}}}