{"type":"Feature","properties":{"GID_2":"VEN.22.16_1","GID_0":"VEN","country":"Venezuela","GID_1":"VEN.22_1","province":"Trujillo","NL_NAME_1":"NA","county":"SanRafaeldeCarvajal","VARNAME_2":"NA","NL_NAME_2":"NA","TYPE_2":"Municipio","ENGTYPE_2":"Municipality","CC_2":"NA","HASC_2":"NA","name":"San_Rafaelde_Carvajal.county"},
"geometry":{"type": "MultiPolygon","coordinates": [[[[-70.5967,9.4017,446.2037],[-70.5939,9.3842,331.2644],[-70.5929,9.3564,402.4964],[-70.5947,9.3196,449.8172],[-70.5901,9.3143,620.9186],[-70.5848,9.3114,588.608],[-70.5768,9.3105,555.1382],[-70.5696,9.3208,486.7138],[-70.5513,9.3393,442.4378],[-70.5495,9.3444,419.477],[-70.5502,9.3515,405.8398],[-70.5566,9.3595,430.776],[-70.5594,9.3674,434.7751],[-70.5594,9.3825,447.4425],[-70.5575,9.3926,398.1834],[-70.5544,9.4015,328.3657],[-70.5489,9.4105,317.4261],[-70.5341,9.4266,350.0424],[-70.5307,9.4349,306.0411],[-70.5302,9.4461,351.1888],[-70.5327,9.4686,411.9174],[-70.5361,9.4753,420.5523],[-70.563,9.5007,227.0081],[-70.566,9.4904,195.4743],[-70.5748,9.4761,227.3497],[-70.5773,9.4687,303.4235],[-70.5793,9.4418,236.3297],[-70.5836,9.432,254.6836],[-70.5942,9.4195,469.2879],[-70.597,9.41,481.9254],[-70.5967,9.4017,446.2037]]]]}}