{"type":"Feature","properties":{"ISO3166-1-Alpha-3":"VEN","country":"Venezuela","id":"99?","name":null},
"geometry":{"type": "MultiPolygon","coordinates": [[[[-64.91234,10.14789,0.0],[-64.9206,10.15257,0.0],[-64.92715,10.15672,0.0],[-64.93822,10.15766,0.0],[-64.9335,10.1496,0.0923],[-64.92793,10.14558,-0.8065],[-64.92044,10.1446,-0.1555],[-64.91234,10.14789,0.0]]],
[[[-65.76106,10.22582,8.8808],[-65.76203,10.23469,9.6844],[-65.77188,10.24405,0.0],[-65.78307,10.24982,4.3381],[-65.82698,10.26769,0.0],[-65.84183,10.2694,2.403],[-65.84569,10.26777,1.7368],[-65.84545,10.26207,2.4216],[-65.82828,10.24832,8.2886],[-65.79809,10.24449,8.0123],[-65.79096,10.23802,7.9476],[-65.78205,10.23277,9.5692],[-65.77599,10.23204,12.029],[-65.77042,10.2298,10.9074],[-65.76757,10.22435,10.6387],[-65.76106,10.22582,8.8808]]],
[[[-64.54235,10.26179,6.7344],[-64.53982,10.26769,0.0],[-64.54422,10.27094,32.2945],[-64.54857,10.2766,0.0],[-64.5548,10.27155,0.0],[-64.55228,10.27001,31.7416],[-64.55358,10.26724,0.0],[-64.5548,10.26288,0.0],[-64.54792,10.25731,125.8731],[-64.54235,10.26179,6.7344]]],
[[[-64.73729,10.27879,5.2497],[-64.73062,10.29767,79.6987],[-64.7303,10.3048,253.0537],[-64.73884,10.3096,130.6854],[-64.74975,10.30744,0.0],[-64.75361,10.29955,0.0],[-64.76122,10.29312,0.0],[-64.76138,10.28897,0.0],[-64.75125,10.28042,0.0],[-64.74071,10.27534,0.0],[-64.73729,10.27879,5.2497]]],
[[[-64.41706,10.36538,111.8222],[-64.41356,10.36876,0.0],[-64.4145,10.37861,8.7114],[-64.4178,10.38243,0.0],[-64.42488,10.38337,0.0],[-64.42903,10.38101,0.0],[-64.43769,10.37193,0.0],[-64.43733,10.36758,0.0],[-64.43419,10.36225,0.0],[-64.43078,10.35997,31.393],[-64.41706,10.36538,111.8222]]],
[[[-63.73131,11.20087,0.0],[-63.73506,11.20226,0.0],[-63.73754,11.20661,0.0],[-63.74258,11.20104,7.2586],[-63.73074,11.19099,13.2545],[-63.73131,11.20087,0.0]]],
[[[-63.13459,11.34866,0.0],[-63.13398,11.34927,0.0],[-63.1348,11.3513,0.0],[-63.13825,11.35139,0.0],[-63.13777,11.34866,0.0],[-63.13459,11.34866,0.0]]],
[[[-63.1293,11.36046,0.0],[-63.13113,11.36306,2.999],[-63.13085,11.35859,0.0],[-63.1293,11.36046,0.0]]],
[[[-63.13272,11.35859,8.2092],[-63.13773,11.36791,0.0],[-63.14163,11.35859,3.3246],[-63.13272,11.35859,8.2092]]],
[[[-63.0605,11.36909,0.0],[-63.06432,11.37023,0.0],[-63.06355,11.36603,0.0],[-63.0605,11.36909,0.0]]],
[[[-63.12125,11.36864,0.0],[-63.12153,11.37067,1.8035],[-63.12308,11.37063,3.9398],[-63.12348,11.36909,0.0],[-63.12275,11.36791,0.0],[-63.12125,11.36864,0.0]]],
[[[-63.08011,11.37979,0.0],[-63.08365,11.38479,0.0],[-63.09052,11.38105,0.0],[-63.08666,11.37417,0.0],[-63.08011,11.37979,0.0]]],
[[[-63.09223,11.38821,0.0],[-63.0935,11.38955,0.0],[-63.0935,11.38788,0.0],[-63.09223,11.38821,0.0]]],
[[[-63.09293,11.39305,0.0],[-63.09488,11.39216,0.0],[-63.09386,11.39069,0.0],[-63.09374,11.39073,0.0],[-63.09333,11.39016,0.0],[-63.09211,11.39077,0.0],[-63.0924,11.39252,0.0],[-63.0928,11.39232,0.0],[-63.09293,11.39305,0.0]]],
[[[-63.11531,11.39415,0.0],[-63.12271,11.39322,0.0],[-63.13077,11.39012,0.0],[-63.13594,11.3913,0.0],[-63.13956,11.39309,1.9683],[-63.13874,11.38772,24.161],[-63.1114,11.36392,53.1183],[-63.10578,11.36197,0.0],[-63.10464,11.36526,18.5225],[-63.10481,11.36852,0.0],[-63.11197,11.37462,0.0],[-63.1149,11.38154,57.8017],[-63.11388,11.38947,26.1968],[-63.11531,11.39415,0.0]]],
[[[-63.13964,11.39684,0.0],[-63.14163,11.39594,0.0],[-63.14057,11.39444,0.0],[-63.14045,11.39452,0.0],[-63.14004,11.39395,0.0],[-63.13882,11.39456,0.0],[-63.13911,11.39631,0.0],[-63.13952,11.3961,0.0],[-63.13964,11.39684,0.0]]],
[[[-63.11714,11.39537,0.0],[-63.11714,11.39631,0.0],[-63.1184,11.39724,0.0],[-63.11998,11.39635,0.0],[-63.11872,11.39533,0.0],[-63.11714,11.39537,0.0]]],
[[[-63.04524,11.41857,0.0],[-63.048,11.41275,0.0],[-63.0443,11.41271,16.5421],[-63.04524,11.41857,0.0]]],
[[[-66.58637,11.81782,0.0],[-66.58979,11.82486,0.0],[-66.59284,11.82351,0.0],[-66.59838,11.8135,0.0],[-66.59293,11.80455,11.8031],[-66.58637,11.81782,0.0]]],
[[[-66.94465,11.83076,0.0],[-66.94551,11.8264,0.0],[-66.94042,11.82453,0.0],[-66.92923,11.82689,0.0],[-66.93423,11.82888,0.0],[-66.94156,11.82689,0.0],[-66.94465,11.83076,0.0]]],
[[[-66.72183,11.85981,0.0],[-66.72676,11.85936,0.0],[-66.72623,11.85627,0.0],[-66.72183,11.85981,0.0]]],
[[[-66.71378,11.86559,0.0],[-66.71447,11.86575,0.0],[-66.72105,11.86024,0.0],[-66.71927,11.86001,0.0],[-66.71378,11.86559,0.0]]],
[[[-66.60228,11.85753,0.0],[-66.61083,11.87198,0.0],[-66.61653,11.8603,0.0],[-66.60908,11.85065,2.4886],[-66.60228,11.85753,0.0]]],
[[[-66.10778,11.83059,2.3395],[-66.09455,11.845,1.0203],[-66.0917,11.85838,1.5074],[-66.09313,11.86681,1.8107],[-66.10391,11.87368,0.0],[-66.09972,11.86119,0.3079],[-66.09862,11.84545,0.0],[-66.10452,11.84223,0.0],[-66.107,11.84081,0.0],[-66.10782,11.83755,0.0],[-66.11376,11.83462,0.0],[-66.12076,11.82888,0.0],[-66.10778,11.83059,2.3395]]],
[[[-66.68208,11.87283,0.0],[-66.68529,11.88068,0.0],[-66.68529,11.88243,0.0],[-66.69054,11.8815,0.0],[-66.6918,11.87735,0.0],[-66.68916,11.87084,6.5857],[-66.68883,11.86681,4.1535],[-66.68208,11.87283,0.0]]],
[[[-66.76997,11.89004,0.0],[-66.78445,11.89236,0.0],[-66.79121,11.89297,0.0],[-66.79971,11.897,0.0],[-66.79922,11.89431,0.0],[-66.79267,11.88996,0.0],[-66.79096,11.8874,0.0],[-66.79023,11.88882,0.0],[-66.78881,11.88996,0.0],[-66.77864,11.88841,0.0],[-66.76997,11.89004,0.0]]],
[[[-66.62739,11.88723,0.0],[-66.63008,11.89102,0.0],[-66.6383,11.89932,0.0],[-66.64912,11.90099,0.0],[-66.6527,11.89928,0.0],[-66.64875,11.89741,0.0],[-66.64529,11.89533,0.0],[-66.64411,11.89305,0.5009],[-66.6411,11.89069,2.546],[-66.63699,11.89049,0.0],[-66.63028,11.88552,0.0],[-66.62739,11.88723,0.0]]],
[[[-66.85839,11.90339,0.0],[-66.85953,11.90156,0.0],[-66.85074,11.89606,0.0],[-66.85839,11.90339,0.0]]],
[[[-67.43505,11.94725,0.0],[-67.44152,11.94945,0.0],[-67.44156,11.94725,0.0],[-67.43505,11.94725,0.0]]],
[[[-67.42313,11.94961,0.0],[-67.42089,11.95262,0.0],[-67.42878,11.95189,0.0],[-67.43688,11.95095,0.0],[-67.43187,11.94725,0.0],[-67.42313,11.94961,0.0]]],
[[[-67.44188,11.95848,0.0],[-67.44131,11.95962,0.0],[-67.44302,11.96035,0.0],[-67.44278,11.95848,0.0],[-67.44188,11.95848,0.0]]],
[[[-66.66751,11.95364,0.0],[-66.67243,11.96068,0.0],[-66.68956,11.9641,0.0],[-66.69351,11.96284,0.0],[-66.67886,11.95519,0.0],[-66.6702,11.95095,0.3687],[-66.66751,11.95364,0.0]]],
[[[-67.45779,11.96853,0.0],[-67.45824,11.97008,0.0],[-67.45869,11.96841,0.0],[-67.45779,11.96853,0.0]]],
[[[-67.47037,11.97443,0.0],[-67.47366,11.97244,0.0],[-67.47826,11.97431,0.0],[-67.48107,11.97305,0.0],[-67.47863,11.96841,0.4882],[-67.47155,11.97122,0.0],[-67.47037,11.97443,0.0]]],
[[[-63.63394,15.69619,0.0],[-63.63459,15.70059,0.0],[-63.63964,15.70295,0.0],[-63.64363,15.70059,0.0],[-63.63988,15.69603,0.0],[-63.63549,15.69404,0.0],[-63.63394,15.69619,0.0]]]]}}