{"type":"Feature","properties":{"GID_2":"VEN.20.11_1","GID_0":"VEN","country":"Venezuela","GID_1":"VEN.20_1","province":"Sucre","NL_NAME_1":"NA","county":"Mejía","VARNAME_2":"NA","NL_NAME_2":"NA","TYPE_2":"Municipio","ENGTYPE_2":"Municipality","CC_2":"NA","HASC_2":"NA","name":"Mejía.county"},
"geometry":{"type": "MultiPolygon","coordinates": [[[[-63.8709,10.3633,316.2361],[-63.8576,10.364,440.8266],[-63.8498,10.3619,523.7557],[-63.8431,10.3571,445.1795],[-63.8247,10.3368,462.2446],[-63.8088,10.3151,586.445],[-63.7968,10.3052,804.9249],[-63.7894,10.3036,759.3986],[-63.7823,10.305,588.3036],[-63.7571,10.3123,424.5654],[-63.7501,10.3161,416.3888],[-63.74,10.3241,529.4721],[-63.7217,10.3494,392.4134],[-63.6925,10.3775,223.7849],[-63.6854,10.3879,285.3956],[-63.6768,10.4103,388.5368],[-63.6706,10.4343,348.1492],[-63.6563,10.4593,163.1883],[-63.658,10.4758,6.6808],[-63.6546,10.489,1.8607],[-63.6585,10.4885,5.3144],[-63.6601,10.4865,4.0865],[-63.6582,10.4829,3.6979],[-63.6635,10.4757,0.0],[-63.6688,10.4749,1.4829],[-63.6707,10.4724,0.0],[-63.674,10.4732,1.6822],[-63.6799,10.469,0.0],[-63.684,10.471,0.0],[-63.689,10.4674,0.0],[-63.6954,10.4685,5.2668],[-63.6985,10.466,0.0],[-63.7068,10.4685,0.4203],[-63.7093,10.4671,0.0],[-63.7096,10.4646,4.9522],[-63.7137,10.4649,2.1229],[-63.7226,10.4615,13.4181],[-63.731,10.4665,0.0],[-63.734,10.466,0.0],[-63.736,10.4624,3.7738],[-63.7379,10.4646,1.6997],[-63.741,10.464,0.0],[-63.7429,10.459,0.0],[-63.7476,10.4604,0.239],[-63.7551,10.4585,5.4953],[-63.7565,10.4543,0.0],[-63.7593,10.4529,1.0947],[-63.7779,10.4496,1.2255],[-63.7849,10.4443,0.0],[-63.7929,10.4432,0.356],[-63.7971,10.441,3.5313],[-63.8093,10.4413,7.1598],[-63.8124,10.4449,2.2201],[-63.8143,10.4449,1.0519],[-63.8174,10.444,1.029],[-63.8196,10.4393,4.2488],[-63.8237,10.4393,3.9837],[-63.826,10.4415,0.0],[-63.8318,10.4396,8.8343],[-63.8349,10.441,0.5554],[-63.8382,10.4474,0.0],[-63.84,10.4468,4.3214],[-63.8554,10.4178,336.0563],[-63.8668,10.3737,211.3428],[-63.8709,10.3633,316.2361]]]]}}