{"type":"Feature","properties":{"GID_2":"VEN.12.19_1","GID_0":"VEN","country":"Venezuela","GID_1":"VEN.12_1","province":"Falcón","NL_NAME_1":"NA","county":"SanFrancisco","VARNAME_2":"NA","NL_NAME_2":"NA","TYPE_2":"Municipio","ENGTYPE_2":"Municipality","CC_2":"NA","HASC_2":"NA","name":"San_Francisco.county"},
"geometry":{"type": "MultiPolygon","coordinates": [[[[-68.7734,11.2813,106.1761],[-68.7749,11.2739,55.1915],[-68.8235,11.2591,83.3398],[-68.7687,11.1646,92.9791],[-68.7245,11.0948,73.0593],[-68.696,11.056,75.4714],[-68.6809,11.0283,109.2422],[-68.6668,11.026,99.4269],[-68.6348,11.0259,84.3717],[-68.6277,11.0278,60.8737],[-68.6247,11.0309,60.5511],[-68.6145,11.0331,75.751],[-68.5727,11.0319,73.7487],[-68.565,11.0332,78.6607],[-68.5611,11.0355,75.4538],[-68.5599,11.0404,54.3926],[-68.5608,11.0458,43.2143],[-68.5671,11.0559,52.1845],[-68.5744,11.0781,34.9306],[-68.5789,11.0852,27.6923],[-68.5969,11.098,34.0013],[-68.606,11.1079,54.7656],[-68.606,11.1141,55.2885],[-68.595,11.13,100.062],[-68.5933,11.1388,175.0323],[-68.594,11.1513,104.3444],[-68.5983,11.1612,86.1498],[-68.6087,11.1709,242.2225],[-68.6468,11.1825,353.8534],[-68.6607,11.1881,387.6505],[-68.6711,11.1946,220.1378],[-68.7031,11.2238,56.3853],[-68.7734,11.2813,106.1761]]]]}}