{"type": "Feature","bbox": [-70.3895,6.2322,-68.5837,7.3],"geometry": {"type": "MultiPolygon","coordinates": [[[[-69.7202,6.4761,93.356],[-69.529,6.2322,91.974],[-69.5177,6.2594,85.1776],[-69.5093,6.2736,89.5273],[-69.504,6.278,92.3728],[-69.4848,6.2858,81.1103],[-69.4154,6.2973,93.7474],[-69.3731,6.311,92.559],[-69.3582,6.314,84.0986],[-69.2809,6.3112,83.6626],[-69.2598,6.3154,95.3139],[-69.247,6.3207,91.2274],[-69.2119,6.3535,76.51],[-69.1898,6.3691,76.0078],[-69.1617,6.3839,85.389],[-69.14,6.3906,88.2437],[-69.0828,6.4013,74.6094],[-68.9595,6.4123,90.0738],[-68.9446,6.4183,90.6866],[-68.9107,6.4408,92.7785],[-68.8936,6.4502,85.5079],[-68.8768,6.4569,92.1493],[-68.8616,6.4589,92.2617],[-68.8219,6.4564,90.4272],[-68.799,6.4598,91.1345],[-68.7636,6.4685,88.0429],[-68.7134,6.4896,87.1149],[-68.6983,6.4993,85.5704],[-68.6705,6.5219,85.4282],[-68.5837,6.5484,82.3638],[-68.8353,6.783,84.5596],[-68.9358,7.2796,79.3197],[-68.9342,7.2866,73.0608],[-68.9495,7.2821,73.5943],[-68.96,7.2754,80.7295],[-68.9786,7.2576,80.9655],[-69.0139,7.2132,75.3522],[-69.0205,7.2009,82.971],[-69.0288,7.191,78.409],[-69.0416,7.1822,78.7467],[-69.0692,7.1726,77.3941],[-69.1006,7.1546,79.0233],[-69.1201,7.1409,85.8815],[-69.1359,7.1243,86.4278],[-69.1445,7.1102,79.9899],[-69.1496,7.1048,80.681],[-69.1622,7.0983,84.3418],[-69.1701,7.0983,87.8703],[-69.1918,7.1043,81.7071],[-69.2483,7.1155,85.9601],[-69.2896,7.1268,82.8077],[-69.3561,7.1416,84.7418],[-69.4248,7.1603,89.2844],[-69.4433,7.1626,91.8304],[-69.4497,7.1605,92.8087],[-69.4642,7.1462,87.635],[-69.4748,7.1396,91.504],[-69.482,7.1407,88.2446],[-69.4876,7.1439,88.519],[-69.5163,7.1776,89.725],[-69.5324,7.2028,92.1449],[-69.5633,7.2458,96.6173],[-69.6107,7.3,91.9111],[-69.6404,7.2718,93.9476],[-69.6725,7.2485,94.3575],[-69.6852,7.2419,95.546],[-69.701,7.2379,96.3377],[-69.7245,7.2362,96.2032],[-69.7812,7.2395,97.3177],[-69.8011,7.2375,98.3748],[-69.8099,7.2357,99.0513],[-69.8537,7.2151,98.9521],[-69.8698,7.2097,99.7076],[-69.8912,7.2077,100.0551],[-69.9519,7.2104,101.6379],[-69.9866,7.215,103.6226],[-70.034,7.2249,113.58],[-70.1025,7.2329,105.1871],[-70.1297,7.2309,106.7243],[-70.1497,7.2275,106.5135],[-70.1792,7.2155,106.8591],[-70.2239,7.1939,108.7898],[-70.2515,7.1891,109.7747],[-70.2751,7.1902,118.3285],[-70.2899,7.1946,115.3982],[-70.3233,7.2124,112.4329],[-70.3405,7.2183,111.6276],[-70.354,7.219,113.0329],[-70.3716,7.217,113.6367],[-70.3895,7.2116,114.2004],[-70.3878,7.2085,114.0833],[-70.0934,7.0102,106.7679],[-70.0893,7.0025,107.8893],[-70.0941,7.0021,111.5844],[-70.1087,6.993,105.5],[-70.1247,6.9793,115.2711],[-70.1217,6.9792,113.4758],[-70.0103,6.8442,100.5906],[-69.9919,6.8184,100.4975],[-69.7907,6.5632,101.1611],[-69.7202,6.4761,93.356]]]]}
,"properties": {"GID_2": "VEN.3.6_1","GID_0": "VEN","country": "Venezuela","GID_1": "VEN.3_1","province": "Apure","NL_NAME_1": "NA","county": "RómuloGallegos","VARNAME_2": "NA","NL_NAME_2": "NA","TYPE_2": "Municipio","ENGTYPE_2": "Municipality","CC_2": "NA","HASC_2": "NA","name": "Rómulo_Gallegos.county","area_km2": 11976.806,"hist_schema_id": "Elevation0-9000","hist_area_km2": {"50": 28.753,"75": 4628.962,"100": 7250.508,"125": 68.583}}}