{"type": "Feature","bbox": [-72.4274,8.1932,-72.1157,8.5694],"geometry": {"type": "MultiPolygon","coordinates": [[[[-72.3923,8.3286,54.185],[-72.3869,8.3253,54.3725],[-72.3498,8.3195,57.9782],[-72.3453,8.3177,59.2049],[-72.336,8.3095,76.912],[-72.328,8.2997,62.0536],[-72.3215,8.2857,66.4854],[-72.3194,8.278,67.7459],[-72.3184,8.2576,69.0661],[-72.3155,8.2472,75.2753],[-72.3059,8.2414,79.8759],[-72.2955,8.2377,83.8633],[-72.2907,8.2334,87.5424],[-72.279,8.2108,103.6261],[-72.2678,8.2013,121.1283],[-72.251,8.1973,139.5064],[-72.2187,8.1932,380.5284],[-72.1577,8.2644,116.5457],[-72.131,8.2911,126.5443],[-72.1376,8.2943,124.2803],[-72.1447,8.3023,87.6353],[-72.1497,8.3108,95.2656],[-72.1529,8.3229,91.268],[-72.152,8.328,83.8792],[-72.1469,8.3318,73.7565],[-72.1157,8.3452,81.2874],[-72.1162,8.3701,74.5207],[-72.1219,8.382,69.717],[-72.1411,8.4038,57.2351],[-72.142,8.4085,54.663],[-72.1397,8.427,52.1451],[-72.1404,8.4336,49.0248],[-72.1447,8.4441,46.6207],[-72.1679,8.4638,39.2879],[-72.1724,8.4683,38.5693],[-72.1767,8.476,35.6952],[-72.178,8.488,34.899],[-72.1765,8.5047,32.9005],[-72.1792,8.5233,30.4039],[-72.1813,8.5332,27.6554],[-72.1907,8.5431,26.0244],[-72.2122,8.5563,25.738],[-72.2236,8.556,25.9562],[-72.2395,8.559,27.188],[-72.2725,8.5694,27.2688],[-72.2893,8.5694,29.2271],[-72.3149,8.5652,29.181],[-72.3324,8.5587,29.87],[-72.3473,8.5505,39.2478],[-72.3625,8.5396,34.1347],[-72.3741,8.5251,38.0649],[-72.3779,8.513,40.7288],[-72.3751,8.4806,38.5195],[-72.3761,8.4696,41.8652],[-72.3825,8.4607,39.6924],[-72.4098,8.4359,45.4143],[-72.4274,8.3823,48.8575],[-72.4217,8.3825,50.4668],[-72.4166,8.3808,48.0],[-72.4088,8.3744,48.91],[-72.4089,8.3708,49.1631],[-72.4165,8.3672,47.5035],[-72.4151,8.3635,50.4754],[-72.4115,8.3635,49.8641],[-72.4077,8.3667,46.0898],[-72.4036,8.364,49.0706],[-72.4083,8.3601,49.7297],[-72.4046,8.3607,48.8741],[-72.4034,8.356,48.223],[-72.4016,8.3559,48.1822],[-72.4,8.3605,51.0305],[-72.3924,8.3572,50.0511],[-72.3942,8.3505,49.8774],[-72.3896,8.3494,53.6703],[-72.3887,8.3466,53.1006],[-72.3892,8.3441,51.1835],[-72.3956,8.3434,52.2781],[-72.3931,8.3385,52.9739],[-72.3955,8.3315,54.0437],[-72.3923,8.3286,54.185]]]]}
,"properties": {"GID_2": "VEN.21.9_1","GID_0": "VEN","country": "Venezuela","GID_1": "VEN.21_1","province": "Táchira","NL_NAME_1": "NA","county": "GarcíadeHevia","VARNAME_2": "NA","NL_NAME_2": "NA","TYPE_2": "Municipio","ENGTYPE_2": "Municipality","CC_2": "NA","HASC_2": "NA","name": "Garcíade_Hevia.county","area_km2": 911.4332,"hist_schema_id": "Elevation0-9000","hist_area_km2": {"25": 171.6463,"50": 460.9318,"75": 183.1934,"100": 47.3361,"125": 18.1715,"150": 8.4774,"175": 5.2879,"200": 4.5116,"225": 4.2598,"250": 3.5673,"275": 1.9306,"300": 1.385,"325": 0.6086,"350": 0.042,"375": 0.042,"400": 0.042}}}