{"type":"Feature","properties":{"GID_2":"VEN.5.11_1","GID_0":"VEN","country":"Venezuela","GID_1":"VEN.5_1","province":"Barinas","NL_NAME_1":"NA","county":"Rojas","VARNAME_2":"NA","NL_NAME_2":"NA","TYPE_2":"Municipio","ENGTYPE_2":"Municipality","CC_2":"NA","HASC_2":"NA","name":"Rojas.county"},
"geometry":{"type": "MultiPolygon","coordinates": [[[[-69.9324,8.6592,137.7472],[-69.887,8.6464,131.8401],[-69.8706,8.6301,129.8542],[-69.8529,8.6059,126.5838],[-69.8348,8.5762,124.1454],[-69.8078,8.5441,120.1375],[-69.8,8.5122,118.284],[-69.7924,8.4907,115.2384],[-69.78,8.4657,113.6888],[-69.7722,8.4557,112.6955],[-69.7651,8.4487,111.5605],[-69.7342,8.4357,109.4043],[-69.6963,8.425,112.855],[-69.6552,8.3996,108.1842],[-69.6415,8.3832,104.4692],[-69.6204,8.3494,99.399],[-69.6124,8.34,98.3983],[-69.6034,8.3332,98.8885],[-69.589,8.3185,97.1371],[-69.5694,8.2842,99.6668],[-69.5468,8.2549,92.2786],[-69.5287,8.2458,94.2699],[-69.5025,8.2413,91.0409],[-69.5041,8.257,93.134],[-69.4961,8.2949,92.1184],[-69.4913,8.3338,93.361],[-69.4831,8.6392,111.9586],[-69.5195,8.679,105.4749],[-69.5341,8.6994,111.8039],[-69.561,8.7569,109.5643],[-69.6187,8.7702,112.5137],[-69.6854,8.75,116.7672],[-69.7037,8.7495,120.9472],[-69.7291,8.7534,123.2468],[-69.9324,8.6592,137.7472]]]]}}