{"type": "Feature","bbox": [-72.1536,7.9294,-71.9917,8.1324],"geometry": {"type": "MultiPolygon","coordinates": [[[[-72.0738,7.9294,3168.4937],[-72.0725,7.9372,2875.7649],[-72.0644,7.9504,2672.1731],[-72.0377,7.9816,2717.9155],[-72.0213,8.0081,3072.073],[-72.0036,8.029,2967.897],[-72.0008,8.0357,3321.426],[-71.9965,8.0509,3071.116],[-71.9932,8.0737,2468.752],[-71.9917,8.1135,1715.3918],[-71.9932,8.1188,1463.1057],[-71.9979,8.1221,1656.5193],[-72.035,8.1324,1791.3671],[-72.0399,8.1159,1610.6951],[-72.0437,8.1095,1845.4927],[-72.0536,8.1068,2036.4452],[-72.0877,8.1042,1706.729],[-72.0976,8.1004,1336.6726],[-72.114,8.088,1392.7051],[-72.1293,8.0883,1157.3828],[-72.1456,8.0936,1270.4739],[-72.1536,8.0669,1472.7454],[-72.1478,8.0617,1532.9415],[-72.1438,8.0537,1800.7677],[-72.1413,8.0186,2376.6887],[-72.1388,8.0104,2509.6211],[-72.1347,8.0055,2509.6274],[-72.1232,7.9989,2394.29],[-72.1189,7.9918,2222.5215],[-72.1205,7.9747,2708.6206],[-72.1301,7.9448,2178.0818],[-72.1026,7.9362,2336.2715],[-72.0738,7.9294,3168.4937]]]]}
,"properties": {"GID_2": "VEN.21.13_1","GID_0": "VEN","country": "Venezuela","GID_1": "VEN.21_1","province": "Táchira","NL_NAME_1": "NA","county": "JoséMaríaVargas","VARNAME_2": "NA","NL_NAME_2": "NA","TYPE_2": "Municipio","ENGTYPE_2": "Municipality","CC_2": "NA","HASC_2": "NA","name": "José_María_Vargas.county","area_km2": 246.8258,"hist_schema_id": "Elevation0-9000","hist_area_km2": {"1000": 0.021,"1025": 0.063,"1050": 0.042,"1075": 0.105,"1100": 0.021,"1125": 0.1469,"1150": 0.1469,"1175": 0.2099,"1200": 0.3569,"1225": 0.4618,"1250": 0.5877,"1275": 0.5668,"1300": 0.8187,"1325": 0.9446,"1350": 1.1335,"1375": 1.3644,"1400": 1.1335,"1425": 1.4274,"1450": 1.8053,"1475": 1.9732,"1500": 2.0152,"1525": 2.351,"1550": 2.477,"1575": 2.8338,"1600": 2.6869,"1625": 3.1277,"1650": 2.9598,"1675": 3.3377,"1700": 3.7155,"1725": 3.6526,"1750": 4.0515,"1775": 3.7996,"1800": 4.0725,"1825": 4.3244,"1850": 4.5763,"1875": 4.6183,"1900": 4.1775,"1925": 4.7024,"1950": 4.2195,"1975": 4.9544,"2000": 4.5765,"2025": 4.8704,"2050": 4.4716,"2075": 5.1224,"2100": 5.3114,"2125": 5.0385,"2150": 4.9126,"2175": 5.5004,"2200": 5.7314,"2225": 5.2065,"2250": 5.7734,"2275": 4.8287,"2300": 4.9757,"2325": 4.8707,"2350": 5.5216,"2375": 5.0387,"2400": 4.7449,"2425": 4.493,"2450": 4.8499,"2475": 4.1151,"2500": 3.6323,"2525": 3.3383,"2550": 3.1074,"2575": 3.1494,"2600": 2.9395,"2625": 2.4356,"2650": 2.4356,"2675": 1.9317,"2700": 2.0366,"2725": 1.8687,"2750": 2.3936,"2775": 2.2466,"2800": 1.8897,"2825": 1.7847,"2850": 1.7637,"2875": 2.0367,"2900": 1.9947,"2925": 1.7847,"2950": 1.6587,"2975": 1.8057,"3000": 1.6377,"3025": 2.0786,"3050": 1.5327,"3075": 1.3227,"3100": 1.4697,"3125": 1.2598,"3150": 0.9658,"3175": 0.9658,"3200": 0.8399,"3225": 0.7769,"3250": 0.7349,"3275": 0.4619,"3300": 0.4199,"3325": 0.147,"3350": 0.042}}}