{"type": "Feature","bbox": [-71.5515,10.4644,-71.162,10.6461],"geometry": {"type": "MultiPolygon","coordinates": [[[[-71.1649,10.481,114.1077],[-71.162,10.4806,115.9333],[-71.1623,10.4891,132.8257],[-71.1634,10.4967,118.8841],[-71.1673,10.5023,115.1527],[-71.2142,10.5396,92.1625],[-71.2549,10.5541,67.4718],[-71.2671,10.56,89.7697],[-71.2846,10.5778,56.2748],[-71.2995,10.5903,48.6558],[-71.3118,10.5955,32.172],[-71.3532,10.6067,30.4338],[-71.3626,10.6105,23.3065],[-71.3715,10.6187,18.008],[-71.3801,10.6443,20.1758],[-71.3839,10.6461,20.5835],[-71.3905,10.6454,18.9698],[-71.4082,10.6366,13.0555],[-71.4294,10.629,12.8391],[-71.4365,10.6306,16.5687],[-71.4431,10.6345,20.5627],[-71.45,10.6355,13.8279],[-71.4699,10.6313,6.7427],[-71.4881,10.6351,8.2497],[-71.4953,10.632,7.1127],[-71.4988,10.6326,3.7717],[-71.504,10.6393,8.7256],[-71.5084,10.6405,9.6737],[-71.5247,10.6369,2.1501],[-71.529,10.639,0.0],[-71.5318,10.6365,1.6965],[-71.5315,10.6332,0.0],[-71.5151,10.6276,5.8444],[-71.5099,10.6226,0.0],[-71.5049,10.6207,8.9338],[-71.5004,10.6163,10.4021],[-71.4965,10.6057,5.7136],[-71.4987,10.6021,0.0],[-71.509,10.6007,0.0],[-71.5193,10.5951,2.7739],[-71.5254,10.5938,0.0],[-71.5307,10.5893,0.0],[-71.5312,10.5837,2.6971],[-71.5335,10.5799,1.6985],[-71.5318,10.5593,3.9684],[-71.5407,10.5499,0.0],[-71.5396,10.5476,0.0],[-71.5312,10.546,1.6153],[-71.5237,10.5407,2.6816],[-71.5124,10.5238,0.9602],[-71.504,10.5154,0.0],[-71.4685,10.4976,3.4699],[-71.4607,10.4893,1.0061],[-71.4571,10.4791,0.0],[-71.4537,10.4772,12.207],[-71.4393,10.4826,17.6372],[-71.4255,10.4835,25.3202],[-71.3939,10.4758,32.6284],[-71.3629,10.476,37.2976],[-71.324,10.4704,31.5866],[-71.2773,10.4695,56.3831],[-71.2353,10.4644,143.7855],[-71.2131,10.4651,85.0248],[-71.1649,10.481,114.1077]]],
[[[-71.5493,10.6224,0.0],[-71.5515,10.6201,1.33],[-71.5471,10.6113,0.0],[-71.5446,10.6132,1.0489],[-71.541,10.6121,0.3725],[-71.5407,10.6132,0.3725],[-71.5435,10.614,0.5257],[-71.5493,10.6224,0.0]]]]}
,"properties": {"GID_2": "VEN.25.18_1","GID_0": "VEN","country": "Venezuela","GID_1": "VEN.25_1","province": "Zulia","NL_NAME_1": "NA","county": "SantaRita","VARNAME_2": "NA","NL_NAME_2": "NA","TYPE_2": "Municipio","ENGTYPE_2": "Municipality","CC_2": "NA","HASC_2": "NA","name": "Santa_Rita.county","area_km2": 501.6786,"hist_schema_id": "Elevation0-9000","hist_area_km2": {"0": 67.9856,"25": 170.1636,"50": 155.6295,"75": 77.4836,"100": 23.4113,"125": 4.8575,"150": 1.0008,"175": 0.5421,"200": 0.4587,"225": 0.1459}}}