{"type":"Feature","properties":{"GID_2":"VEN.22.4_1","GID_0":"VEN","country":"Venezuela","GID_1":"VEN.22_1","province":"Trujillo","NL_NAME_1":"NA","county":"Candelaria","VARNAME_2":"NA","NL_NAME_2":"NA","TYPE_2":"Municipio","ENGTYPE_2":"Municipality","CC_2":"NA","HASC_2":"NA","name":"Candelaria.county"},
"geometry":{"type": "MultiPolygon","coordinates": [[[[-70.29,9.591,912.1101],[-70.2888,9.591,1093.8674],[-70.2887,9.5972,1152.4288],[-70.2906,9.639,706.4592],[-70.2892,9.6496,770.6893],[-70.2828,9.6663,820.8205],[-70.2816,9.6765,863.8325],[-70.2829,9.6874,914.2036],[-70.2902,9.6942,927.7844],[-70.3055,9.7002,991.9912],[-70.344,9.7009,896.5503],[-70.3518,9.7023,1000.5604],[-70.3656,9.7094,611.0798],[-70.3774,9.7124,474.764],[-70.3953,9.7103,307.0508],[-70.429,9.6944,222.9142],[-70.4338,9.6964,212.3759],[-70.4433,9.7067,210.5369],[-70.4643,9.711,233.3626],[-70.4836,9.7109,189.5861],[-70.4901,9.7115,201.9687],[-70.493,9.7132,200.9295],[-70.4917,9.7194,202.3476],[-70.4734,9.7277,203.9927],[-70.4559,9.7383,397.1726],[-70.4513,9.7451,436.4171],[-70.4437,9.7521,554.5436],[-70.4106,9.7777,598.3827],[-70.3825,9.8283,576.4293],[-70.3805,9.8359,469.128],[-70.3803,9.8528,653.7434],[-70.5598,9.7646,561.0665],[-70.5565,9.766,542.9161],[-70.5479,9.7594,374.71],[-70.5387,9.7496,282.0096],[-70.5291,9.7429,258.5283],[-70.5268,9.737,249.017],[-70.5248,9.7098,220.0958],[-70.5277,9.6986,213.8114],[-70.5305,9.6951,194.4177],[-70.5359,9.6921,186.0873],[-70.5468,9.692,185.7569],[-70.5499,9.6884,198.0705],[-70.5498,9.6667,185.1126],[-70.545,9.6565,162.3884],[-70.5389,9.6524,152.629],[-70.5321,9.6513,155.5844],[-70.5238,9.6525,159.0282],[-70.5091,9.6591,169.0498],[-70.4753,9.6605,193.6356],[-70.457,9.6573,205.798],[-70.4467,9.6515,220.0929],[-70.4419,9.6531,221.0165],[-70.4358,9.6362,230.931],[-70.4342,9.6168,244.6416],[-70.4344,9.5821,251.3153],[-70.432,9.5674,275.4192],[-70.4289,9.5618,293.0988],[-70.4242,9.5579,342.2834],[-70.3926,9.5521,945.9506],[-70.3729,9.5542,1389.5488],[-70.3651,9.5562,1417.6653],[-70.3482,9.5653,1585.3993],[-70.3306,9.5673,1764.5747],[-70.3238,9.5652,1480.0137],[-70.3219,9.5546,1467.8479],[-70.3127,9.5525,1287.1289],[-70.3034,9.5681,1026.8888],[-70.2971,9.5831,1016.2553],[-70.2921,9.5904,943.6469],[-70.29,9.591,912.1101]]],
[[[-70.3803,9.8528,653.7434],[-70.3795,9.8531,669.2918],[-70.3764,9.8545,802.2053],[-70.3767,9.8545,802.2053],[-70.3803,9.8528,653.7434]]]]}}