{"type":"Feature","properties":{"GID_2":"VEN.12.6_1","GID_0":"VEN","country":"Venezuela","GID_1":"VEN.12_1","province":"Falcón","NL_NAME_1":"NA","county":"Colina","VARNAME_2":"NA","NL_NAME_2":"NA","TYPE_2":"Municipio","ENGTYPE_2":"Municipality","CC_2":"NA","HASC_2":"NA","name":"Colina.county"},
"geometry":{"type": "MultiPolygon","coordinates": [[[[-69.4287,11.4932,15.5128],[-69.4437,11.4937,30.4805],[-69.4507,11.4979,5.1382],[-69.4596,11.5007,0.0],[-69.4849,11.501,17.7276],[-69.4926,11.504,0.0],[-69.5032,11.5037,30.3427],[-69.5132,11.5057,0.0],[-69.5263,11.5029,8.6973],[-69.5324,11.4976,10.4565],[-69.5365,11.4971,0.0],[-69.5393,11.4932,13.8707],[-69.5432,11.4924,1.4751],[-69.5524,11.4862,5.9056],[-69.5663,11.4743,1.1825],[-69.5676,11.4676,5.1303],[-69.5707,11.4646,2.2384],[-69.5713,11.4582,0.0],[-69.5732,11.4582,0.0],[-69.5754,11.4557,1.0465],[-69.586,11.4546,2.33],[-69.5913,11.4557,0.0],[-69.5956,11.4499,5.4016],[-69.6026,11.4332,6.901],[-69.6068,11.4086,20.4764],[-69.6086,11.3942,40.7713],[-69.6077,11.3775,128.6677],[-69.6062,11.3731,245.5414],[-69.5286,11.3786,324.7274],[-69.4962,11.3873,286.5788],[-69.488,11.3905,311.8254],[-69.4733,11.3996,318.2334],[-69.4646,11.3911,171.941],[-69.4507,11.3725,152.6475],[-69.4488,11.3656,138.4726],[-69.523,11.2835,1012.3529],[-69.5536,11.2531,913.175],[-69.5785,11.2319,1215.5299],[-69.5773,11.2239,1101.5098],[-69.5692,11.213,1151.2299],[-69.5627,11.2109,1272.7632],[-69.5517,11.2112,1026.3556],[-69.542,11.2153,847.8556],[-69.5253,11.2308,849.0459],[-69.5095,11.2392,750.8078],[-69.4838,11.2303,479.371],[-69.4475,11.2046,295.5619],[-69.4235,11.1784,341.9389],[-69.4013,11.1483,275.4665],[-69.3904,11.1407,174.4615],[-69.369,11.1577,147.4517],[-69.3652,11.165,103.9382],[-69.3656,11.2396,386.4307],[-69.3623,11.3001,95.4754],[-69.3636,11.3077,93.1173],[-69.3847,11.3205,136.3932],[-69.386,11.324,149.0096],[-69.3889,11.3754,211.1312],[-69.3895,11.4547,84.8935],[-69.3911,11.4609,50.5708],[-69.416,11.4684,156.2922],[-69.4298,11.4772,73.5388],[-69.437,11.4916,24.5181],[-69.4287,11.4932,15.5128]]]]}}