{"type":"Feature","properties":{"GID_2":"VEN.2.16_1","GID_0":"VEN","country":"Venezuela","GID_1":"VEN.2_1","province":"Anzoátegui","NL_NAME_1":"NA","county":"Miranda","VARNAME_2":"NA","NL_NAME_2":"NA","TYPE_2":"Municipio","ENGTYPE_2":"Municipality","CC_2":"NA","HASC_2":"NA","name":"Miranda.county"},
"geometry":{"type": "MultiPolygon","coordinates": [[[[-64.7278,8.8288,238.9604],[-64.7978,8.8208,223.4327],[-64.7862,8.8074,232.2808],[-64.7673,8.779,215.9932],[-64.7607,8.7558,232.6843],[-64.7621,8.741,252.3536],[-64.7701,8.7189,214.371],[-64.7861,8.6895,212.5543],[-64.8186,8.6401,195.8035],[-64.841,8.6136,195.2411],[-64.8161,8.5881,185.2245],[-64.8099,8.5845,179.1232],[-64.8028,8.583,194.41],[-64.7942,8.5816,196.5274],[-64.7655,8.5823,162.711],[-64.7295,8.5898,179.8415],[-64.7023,8.5928,190.417],[-64.6505,8.5898,160.7625],[-64.6271,8.587,142.2759],[-64.5824,8.5748,128.061],[-64.5739,8.5721,135.348],[-64.5617,8.5644,148.9916],[-64.5538,8.5536,144.8388],[-64.5492,8.5395,133.9647],[-64.5361,8.4871,124.8754],[-64.5318,8.4483,150.1871],[-64.5296,8.4409,149.9273],[-64.5211,8.4251,169.2085],[-64.4863,8.4104,146.8178],[-64.4252,8.3765,132.4886],[-64.4047,8.3622,104.2327],[-64.3776,8.3466,75.404],[-64.3285,8.3118,63.7187],[-64.3163,8.2962,67.2596],[-64.3084,8.2707,66.7654],[-64.3015,8.2577,83.7138],[-64.2833,8.2333,98.667],[-64.2732,8.2134,60.6841],[-64.2685,8.1867,41.6879],[-64.2562,8.1379,27.5858],[-64.2534,8.1183,21.2688],[-64.2442,8.0883,15.0],[-64.2423,8.0759,15.0],[-64.2482,8.0438,21.0666],[-64.2231,7.9927,26.3787],[-64.2135,8.001,17.735],[-64.2094,8.0071,19.1782],[-64.2019,8.0305,15.0],[-64.1961,8.0238,16.0907],[-64.1814,8.013,15.0],[-64.1601,7.986,16.1874],[-64.1305,7.9656,15.0],[-64.1107,7.9431,17.9285],[-64.104,7.9384,25.356],[-64.0501,7.9148,35.2863],[-64.0425,7.9138,23.4465],[-64.0204,7.9154,58.4374],[-63.9782,7.9042,64.4254],[-63.9687,7.9042,64.1716],[-63.9448,7.914,22.5851],[-63.8995,7.9235,73.0205],[-63.878,7.9382,35.6692],[-63.8549,7.9583,44.425],[-63.85,7.9639,68.3339],[-63.8293,7.9993,123.0508],[-63.8083,8.0203,96.3302],[-63.8022,8.0283,66.4411],[-63.7954,8.0439,50.381],[-63.7899,8.0659,63.6534],[-63.7845,8.0741,49.8456],[-63.7795,8.0789,57.7253],[-63.7707,8.0826,62.4475],[-63.7892,8.1248,13.0],[-63.8023,8.1439,13.0],[-63.8169,8.1615,17.1272],[-63.8212,8.1698,17.039],[-63.831,8.1985,25.9627],[-63.8616,8.231,81.7144],[-63.8723,8.2461,53.4551],[-63.8849,8.2769,120.4815],[-63.9022,8.3042,131.2371],[-63.93,8.3281,127.4004],[-63.9333,8.3348,97.2687],[-63.9367,8.3503,122.6469],[-63.9425,8.3638,154.6538],[-63.9599,8.3817,159.4434],[-63.9647,8.3925,156.6599],[-63.9649,8.4265,167.272],[-63.9599,8.4586,175.3723],[-63.9603,8.4716,174.1779],[-63.9573,8.4825,177.3172],[-63.9535,8.5152,175.8446],[-63.9509,8.5553,93.8257],[-63.952,8.5645,92.4361],[-63.9515,8.5592,97.8767],[-63.9614,8.5644,97.5598],[-63.987,8.5826,107.5442],[-63.9961,8.5856,108.1693],[-64.0299,8.5867,105.4837],[-64.0683,8.6011,123.5344],[-64.094,8.6025,122.4848],[-64.1083,8.6111,125.0525],[-64.1207,8.6232,129.4418],[-64.1293,8.6359,151.2592],[-64.134,8.6548,169.869],[-64.1344,8.6739,202.7695],[-64.1405,8.6699,183.7358],[-64.1447,8.6694,173.7395],[-64.1522,8.6748,157.5332],[-64.1668,8.6917,173.1236],[-64.1745,8.6976,165.2694],[-64.2066,8.7126,190.4667],[-64.2432,8.7179,235.7879],[-64.2536,8.7233,243.1515],[-64.2796,8.7416,259.7851],[-64.3177,8.7551,239.7997],[-64.3328,8.7634,247.8604],[-64.335,8.7606,249.4898],[-64.5978,8.8448,245.1734],[-64.7278,8.8288,238.9604]]]]}}