{"type": "Feature","bbox": [-69.1744,9.5962,-68.9445,9.7664],"geometry": {"type": "MultiPolygon","coordinates": [[[[-69.1705,9.7664,256.2884],[-69.1744,9.7448,254.612],[-69.1701,9.7286,231.3659],[-69.1645,9.7211,224.5023],[-69.156,9.7142,217.4167],[-69.1442,9.7077,231.5838],[-69.1161,9.6953,496.5479],[-69.0735,9.6658,166.7571],[-69.0666,9.6563,161.2481],[-69.0597,9.6368,160.5],[-69.0438,9.6211,151.7495],[-69.0351,9.6088,148.0476],[-69.0252,9.5999,144.6587],[-69.0239,9.5962,143.674],[-68.9624,9.6054,140.8676],[-68.9451,9.6094,140.4602],[-68.9445,9.6108,140.2928],[-68.9539,9.6307,145.4244],[-68.956,9.6577,149.4371],[-68.9598,9.6674,150.2306],[-68.9643,9.6709,151.5323],[-68.9856,9.6797,161.391],[-69.0089,9.6969,235.7479],[-69.0164,9.705,376.8705],[-69.0241,9.7167,259.9852],[-69.0476,9.7615,364.6407],[-69.0655,9.7613,332.1582],[-69.093,9.754,286.7024],[-69.1061,9.7582,272.4539],[-69.1613,9.7632,251.2379],[-69.1705,9.7664,256.2884]]]]}
,"properties": {"GID_2": "VEN.19.1_1","GID_0": "VEN","country": "Venezuela","GID_1": "VEN.19_1","province": "Portuguesa","NL_NAME_1": "NA","county": "AguaBlanca","VARNAME_2": "NA","NL_NAME_2": "NA","TYPE_2": "Municipio","ENGTYPE_2": "Municipality","CC_2": "NA","HASC_2": "NA","name": "Agua_Blanca.county","area_km2": 221.8734,"hist_schema_id": "Elevation0-9000","hist_area_km2": {"150": 83.4024,"175": 20.5453,"200": 9.6767,"225": 14.6287,"250": 15.2758,"275": 6.4783,"300": 9.9054,"325": 8.965,"350": 7.4603,"375": 6.2483,"400": 5.1826,"425": 4.5975,"450": 4.8691,"475": 3.9078,"500": 3.657,"525": 3.0719,"550": 3.1555,"575": 2.654,"600": 2.7166,"625": 1.8807,"650": 1.63,"675": 0.8777,"700": 0.6269,"725": 0.2926,"750": 0.1254,"775": 0.0418}}}