{"type": "Feature","bbox": [-68.1053,10.3355,-67.8268,10.5099],"geometry": {"type": "MultiPolygon","coordinates": [[[[-67.8315,10.4687,265.8914],[-67.8301,10.4804,27.3372],[-67.8315,10.4826,0.0],[-67.8354,10.4832,0.0],[-67.8401,10.4701,0.0],[-67.839,10.4676,0.0],[-67.8407,10.4615,15.7561],[-67.8449,10.4532,0.0],[-67.8426,10.4451,2.5493],[-67.8365,10.4438,7.8091],[-67.8368,10.4399,0.0],[-67.8412,10.439,0.0],[-67.8418,10.444,2.5493],[-67.856,10.446,0.0],[-67.8554,10.4535,0.1341],[-67.8574,10.4493,5.9538],[-67.8579,10.4524,-0.5],[-67.8604,10.4526,-0.5],[-67.8585,10.4574,3.537],[-67.856,10.4546,0.2537],[-67.8557,10.459,-0.5],[-67.8576,10.4576,3.537],[-67.8579,10.4604,4.0606],[-67.8549,10.4643,-0.5],[-67.8546,10.4674,8.6778],[-67.8538,10.4615,-0.1413],[-67.8551,10.4596,0.4644],[-67.8543,10.4596,0.4644],[-67.8529,10.4626,0.0],[-67.8529,10.4693,0.0],[-67.8576,10.479,0.0],[-67.864,10.4787,0.0],[-67.8665,10.4749,4.7835],[-67.8685,10.4746,3.7442],[-67.8707,10.4749,18.922],[-67.8724,10.4779,0.0],[-67.8763,10.4776,0.0],[-67.8771,10.474,5.3679],[-67.8818,10.4715,1.4945],[-67.8854,10.4718,5.3631],[-67.8854,10.4749,0.0],[-67.8874,10.4754,3.9979],[-67.889,10.4715,0.0],[-67.894,10.4674,0.3731],[-67.8957,10.4704,0.0],[-67.9001,10.4718,0.0],[-67.8965,10.469,0.3703],[-67.8976,10.4643,1.1835],[-67.9021,10.4665,0.0],[-67.8996,10.4735,0.0],[-67.9035,10.4738,0.0],[-67.9085,10.4699,0.0],[-67.9126,10.4621,4.3287],[-67.9193,10.4576,0.0],[-67.9207,10.454,4.8454],[-67.9257,10.4543,2.2248],[-67.9299,10.4626,0.0],[-67.9315,10.4596,2.1815],[-67.9332,10.4629,4.4907],[-67.931,10.4674,0.0],[-67.9321,10.4724,0.0],[-67.9468,10.4615,3.9465],[-67.951,10.4621,0.0],[-67.9604,10.4743,0.2323],[-67.9668,10.4776,3.0098],[-67.9685,10.4807,0.0],[-67.9729,10.4835,0.657],[-67.9737,10.4868,0.017],[-67.9796,10.4899,0.078],[-67.9851,10.4899,0.0],[-67.9815,10.4865,0.6856],[-67.9837,10.4854,1.3857],[-67.9874,10.4888,0.0],[-67.9965,10.4924,0.0],[-68.0029,10.4896,1.0388],[-68.0054,10.4915,0.0],[-68.0093,10.4912,0.0],[-68.0115,10.4857,0.0],[-68.0113,10.4835,0.0],[-68.009,10.4832,0.0],[-68.0054,10.4849,0.9947],[-68.0068,10.4879,0.438],[-68.0043,10.4849,0.0],[-67.9996,10.4854,0.0],[-67.999,10.4885,0.0],[-67.9932,10.4874,0.7405],[-67.9929,10.4849,2.0979],[-67.9962,10.4843,0.0],[-67.9943,10.4787,0.0],[-67.9912,10.4776,2.193],[-67.9896,10.4743,0.0],[-67.9868,10.474,5.3079],[-67.9843,10.4701,3.7894],[-67.9835,10.4651,3.7557],[-67.9863,10.4651,0.9248],[-67.9882,10.4707,0.0],[-67.991,10.4718,4.6339],[-67.9921,10.4751,0.0],[-67.9943,10.4749,0.0],[-67.9985,10.4685,4.3684],[-68.0029,10.4696,1.781],[-67.9971,10.4732,0.9448],[-67.9987,10.4768,0.0],[-68.001,10.4765,0.0],[-68.0004,10.4812,0.0],[-68.0088,10.4821,0.0],[-68.0129,10.4771,0.0],[-68.0118,10.4746,0.7507],[-68.0232,10.4743,0.8914],[-68.0385,10.4824,2.8217],[-68.0385,10.4854,0.0],[-68.0351,10.4885,0.0],[-68.0415,10.4846,0.9978],[-68.046,10.4896,0.0],[-68.0485,10.4896,1.1902],[-68.0593,10.4976,0.2569],[-68.0649,10.4976,0.0],[-68.0665,10.4957,0.0],[-68.0681,10.4961,0.6037],[-68.0708,10.477,8.2954],[-68.0884,10.4387,433.2471],[-68.0926,10.4018,318.3928],[-68.0983,10.3706,119.1147],[-68.1053,10.3573,321.7774],[-68.0858,10.3585,259.0097],[-68.0487,10.3538,603.5538],[-68.0236,10.3392,1063.3333],[-68.0123,10.3355,1352.3555],[-68.003,10.3357,1608.7112],[-67.97,10.3448,1443.562],[-67.9324,10.3521,1563.007],[-67.9241,10.3567,1543.7863],[-67.9119,10.3724,1001.4836],[-67.8268,10.3921,1163.9872],[-67.8308,10.4094,668.1802],[-67.8315,10.4687,265.8914]]],
[[[-67.9485,10.4926,0.0],[-67.9521,10.4932,0.0],[-67.9529,10.4907,0.3345],[-67.9446,10.4882,0.0],[-67.944,10.4818,0.0],[-67.9407,10.4846,0.0],[-67.9418,10.489,0.0],[-67.9485,10.4926,0.0]]],
[[[-67.961,10.4963,2.3138],[-67.9624,10.4974,0.0],[-67.9651,10.4954,0.1688],[-67.9607,10.4929,0.1391],[-67.961,10.4963,2.3138]]],
[[[-68.0401,10.4946,0.0],[-68.0424,10.4946,0.0],[-68.0415,10.4915,0.6603],[-68.0396,10.4935,0.2077],[-68.0401,10.4946,0.0]]],
[[[-67.9912,10.4968,0.6017],[-67.9935,10.4974,0.0],[-67.994,10.4971,0.0],[-67.9901,10.4946,0.0],[-67.9912,10.4968,0.6017]]],
[[[-67.9737,10.5093,0.0],[-67.976,10.5099,0.0],[-67.9768,10.5088,0.0],[-67.9746,10.5082,0.0],[-67.9771,10.5074,0.0],[-67.974,10.5043,0.6247],[-67.9701,10.5049,0.0],[-67.9696,10.5065,0.0],[-67.9737,10.5093,0.0]]]]}
,"properties": {"GID_2": "VEN.7.12_1","GID_0": "VEN","country": "Venezuela","GID_1": "VEN.7_1","province": "Carabobo","NL_NAME_1": "NA","county": "PuertoCabello","VARNAME_2": "NA","NL_NAME_2": "NA","TYPE_2": "Municipio","ENGTYPE_2": "Municipality","CC_2": "NA","HASC_2": "NA","name": "Puerto_Cabello.county","area_km2": 366.9267,"hist_schema_id": "Elevation0-9000","hist_area_km2": {"0": 47.3492,"25": 23.7284,"50": 11.8852,"75": 11.5307,"100": 11.3224,"125": 11.3433,"150": 11.8021,"175": 10.5094,"200": 10.6555,"225": 11.3853,"250": 10.3428,"275": 10.9059,"300": 9.7799,"325": 9.5923,"350": 9.0711,"375": 9.1129,"400": 8.1954,"425": 8.0286,"450": 7.1946,"475": 7.1112,"500": 6.5273,"525": 6.1937,"550": 5.7975,"575": 5.2344,"600": 4.6506,"625": 4.4003,"650": 3.9415,"675": 3.9624,"700": 3.3785,"725": 3.9625,"750": 2.9614,"775": 3.024,"800": 3.5662,"825": 2.9823,"850": 2.7112,"875": 2.4401,"900": 2.6695,"925": 2.169,"950": 1.8561,"975": 2.1898,"1000": 2.5444,"1025": 1.8144,"1050": 1.7936,"1075": 2.1899,"1100": 2.0647,"1125": 2.1273,"1150": 1.9188,"1175": 2.0439,"1200": 1.7311,"1225": 1.7936,"1250": 1.5851,"1275": 1.7102,"1300": 1.5851,"1325": 1.2931,"1350": 1.5851,"1375": 1.2931,"1400": 1.2931,"1425": 1.1054,"1450": 1.2722,"1475": 0.9385,"1500": 0.584,"1525": 0.6048,"1550": 0.8551,"1575": 0.7091,"1600": 0.5423,"1625": 0.5006,"1650": 0.6048,"1675": 0.3963,"1700": 0.5214,"1725": 0.3128,"1750": 0.3337,"1775": 0.5423,"1800": 0.3754,"1825": 0.3337,"1850": 0.1251,"1875": 0.1877,"1900": 0.0834,"1925": 0.0626,"1950": 0.0417,"1975": 0.0626}}}