{"type":"Feature","properties":{"GID_2":"VEN.5.2_1","GID_0":"VEN","country":"Venezuela","GID_1":"VEN.5_1","province":"Barinas","NL_NAME_1":"NA","county":"AndresEloyBlanco","VARNAME_2":"NA","NL_NAME_2":"NA","TYPE_2":"Municipio","ENGTYPE_2":"Municipality","CC_2":"NA","HASC_2":"NA","name":"Andres_Eloy_Blanco.county"},
"geometry":{"type": "MultiPolygon","coordinates": [[[[-70.5223,7.3887,117.1286],[-70.5404,7.395,128.3163],[-70.5791,7.4016,120.5005],[-70.5954,7.4074,127.7531],[-70.6115,7.4155,125.3239],[-70.6234,7.4174,121.7121],[-70.6943,7.4111,124.1695],[-70.7165,7.4042,124.9937],[-70.7217,7.4039,126.0452],[-70.7155,7.6339,126.8806],[-70.7262,7.6145,124.6317],[-70.7367,7.6022,124.1309],[-70.7462,7.5955,124.6108],[-70.8136,7.5746,134.0551],[-70.8677,7.5708,134.5875],[-70.9094,7.5594,134.761],[-70.9578,7.5433,141.4431],[-70.9626,7.5386,135.8463],[-70.9721,7.5386,136.8757],[-70.9882,7.5215,140.9953],[-71.0082,7.5063,138.8584],[-71.0452,7.4702,141.8382],[-71.0708,7.4493,144.4779],[-71.0851,7.4465,145.302],[-71.1059,7.4465,156.2008],[-71.1354,7.4503,145.9436],[-71.1743,7.4512,147.0787],[-71.2189,7.456,149.7503],[-71.2426,7.455,151.866],[-71.2844,7.4617,154.6475],[-71.3516,7.4644,157.3971],[-71.356,7.4598,164.6646],[-71.3684,7.4551,163.2965],[-71.3837,7.4512,162.9437],[-71.3995,7.4502,160.3464],[-71.4234,7.4633,165.6439],[-71.454,7.4653,168.4082],[-71.4963,7.4605,167.3054],[-71.529,7.4658,168.9939],[-71.5911,7.4725,181.4884],[-71.6583,7.4863,189.011],[-71.6952,7.4963,186.9628],[-71.7374,7.4897,191.4607],[-71.7619,7.4909,195.1823],[-71.7764,7.4977,196.6697],[-71.7893,7.5009,197.8602],[-71.8095,7.5022,199.0208],[-71.8262,7.5013,202.2268],[-71.8483,7.4951,204.0401],[-71.8615,7.4886,208.3014],[-71.8678,7.4811,210.9048],[-71.8677,7.4776,205.5],[-71.8561,7.4718,207.5029],[-71.8469,7.4708,207.2369],[-71.8267,7.4611,214.4304],[-71.8189,7.4534,205.357],[-71.8112,7.4396,204.1658],[-71.8049,7.4365,202.8494],[-71.7943,7.4362,200.3893],[-71.7779,7.4385,197.9497],[-71.7474,7.4249,191.9658],[-71.7476,7.4155,192.8424],[-71.7504,7.4083,192.6583],[-71.7494,7.3994,192.2554],[-71.7371,7.3811,192.4378],[-71.7316,7.3768,191.2194],[-71.7264,7.3767,190.2642],[-71.7131,7.3869,189.6358],[-71.704,7.3894,199.8799],[-71.6834,7.3828,185.4487],[-71.6656,7.3835,185.4283],[-71.6321,7.3971,181.1327],[-71.6047,7.4022,189.4615],[-71.5719,7.4154,179.1133],[-71.5277,7.4173,173.1139],[-71.5023,7.4219,168.3739],[-71.4636,7.4259,165.721],[-71.4372,7.4198,162.3959],[-71.3901,7.4187,162.5668],[-71.3592,7.4258,157.303],[-71.3432,7.424,157.016],[-71.2937,7.4277,153.9999],[-71.2849,7.4217,156.0331],[-71.2499,7.4185,152.6951],[-71.2378,7.4128,152.2897],[-71.2143,7.3946,149.0239],[-71.2006,7.3886,149.5761],[-71.1982,7.3883,148.0042],[-71.1847,7.3973,147.3971],[-71.1717,7.3993,155.2019],[-71.1552,7.3978,146.4416],[-71.1391,7.3924,147.9323],[-71.0996,7.3846,142.9926],[-71.0856,7.3798,141.3708],[-71.0714,7.3713,144.3363],[-71.0506,7.3622,142.5125],[-71.0159,7.3493,147.698],[-70.9842,7.3312,136.2516],[-70.9701,7.3268,135.5645],[-70.9475,7.326,146.1338],[-70.9296,7.3285,141.7778],[-70.9143,7.334,135.2356],[-70.8845,7.3528,132.6114],[-70.8745,7.353,133.0394],[-70.8609,7.3497,131.7531],[-70.8488,7.3416,137.7765],[-70.8405,7.3334,131.9732],[-70.8268,7.3265,133.0735],[-70.8124,7.3232,130.2258],[-70.7974,7.3154,137.4882],[-70.7874,7.3075,142.4771],[-70.7714,7.3038,129.1181],[-70.7555,7.3093,130.2341],[-70.7396,7.3221,126.5789],[-70.7263,7.3293,126.7132],[-70.7041,7.3364,125.2145],[-70.6901,7.3449,123.9424],[-70.6777,7.359,125.6279],[-70.665,7.3639,133.4532],[-70.6526,7.3633,130.6015],[-70.639,7.3576,124.6357],[-70.6347,7.3514,123.5643],[-70.6331,7.3456,121.9302],[-70.62,7.3451,123.1735],[-70.5893,7.3558,125.0231],[-70.5802,7.3607,120.067],[-70.5693,7.3733,127.4305],[-70.5614,7.3786,121.9126],[-70.5534,7.3793,123.0206],[-70.5404,7.375,118.1962],[-70.5352,7.3749,120.0289],[-70.5277,7.3773,123.0394],[-70.5227,7.3804,118.5908],[-70.5223,7.3887,117.1286]]]]}}