{"type": "Feature","bbox": [-64.0001,10.7362,-63.8871,10.8171],"geometry": {"type": "MultiPolygon","coordinates": [[[[-63.9929,10.8171,0.0],[-63.9946,10.8165,0.1333],[-63.9899,10.8104,0.7168],[-63.9879,10.8049,0.2291],[-63.9876,10.7924,1.0947],[-63.9893,10.791,0.6916],[-63.9924,10.7921,0.0],[-63.9921,10.7901,2.1317],[-64.0001,10.7821,0.0],[-64.0001,10.7799,0.0],[-63.9951,10.779,1.7463],[-63.991,10.7751,0.0],[-63.9771,10.7704,0.0],[-63.9688,10.7715,0.0],[-63.9671,10.7699,0.0],[-63.959,10.7696,1.746],[-63.9529,10.7635,0.0],[-63.9518,10.7635,0.0],[-63.9518,10.7671,1.4562],[-63.9485,10.7663,1.5276],[-63.9446,10.7624,0.1935],[-63.9415,10.7543,0.0],[-63.944,10.7537,0.3897],[-63.9468,10.7568,0.1079],[-63.9557,10.7551,0.0],[-63.9601,10.759,0.0],[-63.9585,10.7554,0.0],[-63.9493,10.7535,0.5092],[-63.9449,10.7496,0.0748],[-63.9388,10.7496,0.3289],[-63.9362,10.7474,0.197],[-63.9318,10.7465,1.0723],[-63.9293,10.741,0.51],[-63.9232,10.7396,0.5355],[-63.9182,10.7362,0.7534],[-63.9149,10.7374,0.0061],[-63.9093,10.7365,0.0],[-63.9043,10.739,11.05],[-63.8993,10.7385,0.0],[-63.8924,10.7407,2.6099],[-63.8887,10.7543,4.2931],[-63.8887,10.7607,6.8313],[-63.8871,10.7612,0.0],[-63.8879,10.7646,0.0],[-63.8904,10.7638,5.0153],[-63.8915,10.7649,5.0153],[-63.8957,10.7749,0.0],[-63.9021,10.7818,1.4692],[-63.9051,10.7907,0.0],[-63.9096,10.7946,1.5176],[-63.9162,10.7965,10.7848],[-63.9196,10.7993,0.0],[-63.9251,10.7982,7.2718],[-63.9435,10.801,0.492],[-63.9562,10.8043,0.0],[-63.9582,10.8062,0.0],[-63.9624,10.806,0.1241],[-63.9679,10.8112,0.0],[-63.9743,10.8135,0.1142],[-63.984,10.8115,0.1607],[-63.9929,10.8171,0.0]]]]}
,"properties": {"GID_2": "VEN.18.6_1","GID_0": "VEN","country": "Venezuela","GID_1": "VEN.18_1","province": "NuevaEsparta","NL_NAME_1": "NA","county": "IsladeCoche","VARNAME_2": "NA","NL_NAME_2": "NA","TYPE_2": "Municipio","ENGTYPE_2": "Municipality","CC_2": "NA","HASC_2": "NA","name": "Islade_Coche.county","area_km2": 56.778,"hist_schema_id": "Elevation0-9000","hist_area_km2": {"0": 22.43191,"25": 28.53484,"50": 5.81126}}}