{"type":"Feature","properties":{"GID_2":"VEN.5.8_1","GID_0":"VEN","country":"Venezuela","GID_1":"VEN.5_1","province":"Barinas","NL_NAME_1":"NA","county":"EzequielZamora","VARNAME_2":"NA","NL_NAME_2":"NA","TYPE_2":"Municipio","ENGTYPE_2":"Municipality","CC_2":"NA","HASC_2":"NA","name":"Ezequiel_Zamora.county"},
"geometry":{"type": "MultiPolygon","coordinates": [[[[-70.7155,7.6339,126.8806],[-70.7086,7.8431,120.1487],[-70.7063,7.8638,121.6249],[-70.7242,7.8982,125.6839],[-70.7299,7.9246,129.3681],[-70.7444,7.9398,129.3766],[-70.7858,7.9744,137.5836],[-70.7945,7.9789,143.1402],[-70.8201,7.9835,141.5363],[-70.835,7.9907,143.3347],[-70.856,8.0105,150.6632],[-70.8774,8.0278,156.5859],[-70.8832,8.0388,163.7245],[-70.8862,8.054,168.8319],[-70.8834,8.1116,197.6667],[-70.8907,8.1295,233.7851],[-70.9057,8.1565,451.4778],[-70.9124,8.1627,492.3633],[-70.9221,8.1666,436.8379],[-70.9337,8.1673,746.9409],[-70.9443,8.1626,862.1861],[-70.9613,8.1444,850.8087],[-70.9681,8.1433,746.5181],[-70.992,8.1512,1128.6772],[-71.0123,8.1528,1512.7617],[-71.0363,8.0807,968.2171],[-71.0483,8.0634,788.9766],[-71.0654,8.0457,875.2199],[-71.1056,8.0109,595.5914],[-71.1205,8.0037,579.4536],[-71.1397,8.0013,546.5287],[-71.1528,7.9944,449.2083],[-71.1897,7.9661,392.8618],[-71.2143,7.9538,514.4706],[-71.2428,7.944,486.2991],[-71.2784,7.925,417.7458],[-71.3136,7.9139,611.9603],[-71.3335,7.9001,496.0122],[-71.3274,7.8918,419.508],[-71.3327,7.8739,302.0],[-71.3565,7.8564,302.0],[-71.3754,7.8376,302.0],[-71.39,7.8133,348.9884],[-71.4034,7.7972,332.5176],[-71.4379,7.7672,544.9264],[-71.4538,7.7487,384.4208],[-71.4586,7.7366,240.668],[-71.4619,7.7163,201.3849],[-71.4603,7.6611,189.4305],[-71.4648,7.6388,246.8708],[-71.4739,7.6267,233.8636],[-71.4886,7.6218,187.7594],[-71.5003,7.6213,175.8835],[-71.5096,7.5982,251.78],[-71.5098,7.592,202.3082],[-71.507,7.5871,175.1176],[-71.4865,7.5808,172.0561],[-71.4805,7.5741,171.4398],[-71.4708,7.5676,170.2242],[-71.4547,7.5655,169.1993],[-71.4497,7.563,167.0096],[-71.4467,7.5591,168.5178],[-71.4422,7.5406,166.9742],[-71.4389,7.5335,164.7548],[-71.4345,7.5296,165.0492],[-71.4276,7.5317,165.1508],[-71.419,7.5415,164.735],[-71.4163,7.542,164.2422],[-71.4138,7.5404,164.0079],[-71.4083,7.5242,162.2562],[-71.4055,7.5041,162.3644],[-71.4025,7.4982,162.7569],[-71.3941,7.4926,160.4227],[-71.3816,7.4911,164.0232],[-71.3665,7.4918,160.1335],[-71.3546,7.4888,158.841],[-71.3493,7.4809,159.1301],[-71.348,7.4698,157.9091],[-71.3516,7.4644,157.3971],[-71.2844,7.4617,154.6475],[-71.2426,7.455,151.866],[-71.2189,7.456,149.7503],[-71.1743,7.4512,147.0787],[-71.1354,7.4503,145.9436],[-71.1059,7.4465,156.2008],[-71.0851,7.4465,145.302],[-71.0708,7.4493,144.4779],[-71.0452,7.4702,141.8382],[-71.0082,7.5063,138.8584],[-70.9882,7.5215,140.9953],[-70.9721,7.5386,136.8757],[-70.9626,7.5386,135.8463],[-70.9578,7.5433,141.4431],[-70.9094,7.5594,134.761],[-70.8677,7.5708,134.5875],[-70.8136,7.5746,134.0551],[-70.7462,7.5955,124.6108],[-70.7367,7.6022,124.1309],[-70.7262,7.6145,124.6317],[-70.7155,7.6339,126.8806]]]]}}