{"type":"Feature","properties":{"GID_2":"VEN.4.11_1","GID_0":"VEN","country":"Venezuela","GID_1":"VEN.4_1","province":"Aragua","NL_NAME_1":"NA","county":"SanCasimiro","VARNAME_2":"NA","NL_NAME_2":"NA","TYPE_2":"Municipio","ENGTYPE_2":"Municipality","CC_2":"NA","HASC_2":"NA","name":"San_Casimiro.county"},
"geometry":{"type": "MultiPolygon","coordinates": [[[[-66.7048,10.012,638.4606],[-66.7168,10.0162,920.2092],[-66.7537,10.0353,873.9058],[-66.7651,10.0396,1012.1938],[-66.7866,10.0434,596.8281],[-66.8125,10.0429,629.2463],[-66.8548,10.0372,643.7948],[-66.877,10.0321,1173.4578],[-66.8963,10.0336,808.2933],[-66.9118,10.043,691.1406],[-66.9427,10.079,711.647],[-66.9573,10.0893,661.9186],[-66.9714,10.0948,554.7395],[-67.0324,10.101,517.7438],[-67.0273,10.0788,616.168],[-67.0275,10.0653,1145.5656],[-67.0334,10.0391,1159.4971],[-67.038,10.0247,676.3436],[-67.0455,10.0109,1059.7684],[-67.0594,9.9945,796.0092],[-67.0636,9.9863,557.0263],[-67.0662,9.9709,682.7119],[-67.0759,9.9462,613.2781],[-67.0779,9.9346,551.684],[-67.0758,9.9212,389.7903],[-67.0695,9.9119,400.9387],[-67.0457,9.9141,361.8076],[-67.0419,9.9312,378.6153],[-66.9915,9.9271,483.0316],[-66.9366,9.9252,628.3459],[-66.9098,9.9216,418.018],[-66.8416,9.9199,468.9601],[-66.8219,9.9259,477.232],[-66.8152,9.9324,531.9791],[-66.8121,9.9402,724.4306],[-66.8066,9.9469,680.7637],[-66.7513,9.9736,601.801],[-66.7385,9.9819,776.3354],[-66.7239,9.9919,1037.7445],[-66.7048,10.012,638.4606]]]]}}