{"type":"Feature","properties":{"GID_2":"VEN.2.21_1","GID_0":"VEN","country":"Venezuela","GID_1":"VEN.2_1","province":"Anzoátegui","NL_NAME_1":"NA","county":"SimónRodríguez","VARNAME_2":"NA","NL_NAME_2":"NA","TYPE_2":"Municipio","ENGTYPE_2":"Municipality","CC_2":"NA","HASC_2":"NA","name":"Simón_Rodríguez.county"},
"geometry":{"type": "MultiPolygon","coordinates": [[[[-64.3328,8.7634,247.8604],[-64.3177,8.7551,239.7997],[-64.2796,8.7416,259.7851],[-64.2536,8.7233,243.1515],[-64.2432,8.7179,235.7879],[-64.2066,8.7126,190.4667],[-64.1745,8.6976,165.2694],[-64.1668,8.6917,173.1236],[-64.1522,8.6748,157.5332],[-64.1447,8.6694,173.7395],[-64.1405,8.6699,183.7358],[-64.1344,8.6739,202.7695],[-64.134,8.6548,169.869],[-64.1293,8.6359,151.2592],[-64.1207,8.6232,129.4418],[-64.1083,8.6111,125.0525],[-64.094,8.6025,122.4848],[-64.0683,8.6011,123.5344],[-64.0299,8.5867,105.4837],[-63.9961,8.5856,108.1693],[-63.987,8.5826,107.5442],[-63.9614,8.5644,97.5598],[-63.9515,8.5592,97.8767],[-63.9524,8.5675,101.5085],[-63.963,8.6035,163.4169],[-63.9621,8.6368,181.1504],[-63.9657,8.6496,190.8807],[-63.9744,8.6618,153.6155],[-63.9895,8.693,211.8041],[-63.9979,8.7046,196.8587],[-64.0278,8.7131,189.63],[-64.0354,8.7181,215.7738],[-64.2143,8.8637,264.0799],[-64.2227,8.8614,269.1317],[-64.2662,8.8598,281.1765],[-64.2868,8.8538,282.4409],[-64.2996,8.8453,278.6531],[-64.3062,8.8337,277.1738],[-64.3328,8.7634,247.8604]]]]}}