{"type":"Feature","properties":{"GID_2":"VEN.4.9_1","GID_0":"VEN","country":"Venezuela","GID_1":"VEN.4_1","province":"Aragua","NL_NAME_1":"NA","county":"MarioBriceñoIragorry","VARNAME_2":"NA","NL_NAME_2":"NA","TYPE_2":"Municipio","ENGTYPE_2":"Municipality","CC_2":"NA","HASC_2":"NA","name":"Mario_Briceño_Iragorry.county"},
"geometry":{"type": "MultiPolygon","coordinates": [[[[-67.5644,10.3712,1800.1572],[-67.5842,10.3769,912.8636],[-67.5991,10.3757,949.6963],[-67.6191,10.3705,1491.4097],[-67.6477,10.356,1218.0792],[-67.6131,10.3312,948.2361],[-67.6108,10.322,1049.6985],[-67.6113,10.3039,778.236],[-67.608,10.2792,450.3378],[-67.6032,10.2754,459.7887],[-67.5985,10.2682,453.3817],[-67.5919,10.2655,458.3012],[-67.5863,10.2654,461.007],[-67.5806,10.2677,467.1259],[-67.5634,10.2885,510.3023],[-67.5615,10.2956,531.4553],[-67.5617,10.3376,877.0698],[-67.5645,10.3598,1526.0604],[-67.5644,10.3712,1800.1572]]]]}}