{"type":"Feature","properties":{"GID_2":"VEN.16.20_1","GID_0":"VEN","country":"Venezuela","GID_1":"VEN.16_1","province":"Miranda","NL_NAME_1":"NA","county":"Urdaneta","VARNAME_2":"NA","NL_NAME_2":"NA","TYPE_2":"Municipio","ENGTYPE_2":"Municipality","CC_2":"NA","HASC_2":"NA","name":"Urdaneta.county"},
"geometry":{"type": "MultiPolygon","coordinates": [[[[-66.8414,10.0389,556.4004],[-66.8268,10.0564,455.6073],[-66.8222,10.0687,338.6765],[-66.8221,10.0835,299.3041],[-66.8294,10.1147,514.4688],[-66.8292,10.1322,193.6253],[-66.8224,10.1603,249.5753],[-66.8149,10.1751,216.7469],[-66.8119,10.1867,253.7428],[-66.8174,10.1891,234.3038],[-66.8354,10.21,339.2086],[-66.8409,10.213,346.0489],[-66.8627,10.2192,302.7717],[-66.8693,10.224,324.4592],[-66.8727,10.234,383.8978],[-66.8727,10.2512,436.1981],[-66.8764,10.2595,584.2837],[-66.88,10.2621,543.7151],[-66.8976,10.2479,717.8347],[-66.938,10.2373,881.9174],[-66.9384,10.2279,649.2028],[-66.9336,10.2159,628.0474],[-66.9335,10.2036,443.0907],[-66.9372,10.1852,322.0368],[-66.9416,10.1762,309.4397],[-66.9495,10.169,281.4335],[-66.9787,10.1568,502.6707],[-66.9787,10.1531,603.1851],[-66.9876,10.1403,638.9122],[-66.9891,10.1339,540.2692],[-66.9887,10.1233,602.1221],[-66.985,10.1162,654.2039],[-66.9713,10.1024,529.8934],[-66.9628,10.0914,626.5337],[-66.9573,10.0893,661.9186],[-66.9427,10.079,711.647],[-66.9118,10.043,691.1406],[-66.8963,10.0336,808.2933],[-66.877,10.0321,1173.4578],[-66.8414,10.0389,556.4004]]]]}}