{"type":"Feature","properties":{"GID_2":"VEN.13.1_1","GID_0":"VEN","country":"Venezuela","GID_1":"VEN.13_1","province":"Guárico","NL_NAME_1":"NA","county":"Camaguán","VARNAME_2":"NA","NL_NAME_2":"NA","TYPE_2":"Municipio","ENGTYPE_2":"Municipality","CC_2":"NA","HASC_2":"NA","name":"Camaguán.county"},
"geometry":{"type": "MultiPolygon","coordinates": [[[[-67.4257,7.8812,40.6512],[-67.4046,7.8936,47.3649],[-67.397,7.905,43.3643],[-67.397,7.9164,42.0415],[-67.4065,7.9449,42.7926],[-67.4198,7.9714,47.7879],[-67.4274,8.0113,45.2192],[-67.435,8.0303,45.9786],[-67.4578,8.0455,43.4992],[-67.4559,8.0721,44.7171],[-67.4483,8.0854,45.9266],[-67.3932,8.1271,56.3953],[-67.3876,8.1385,58.2767],[-67.397,8.1499,48.5931],[-67.4046,8.1537,55.1758],[-67.4046,8.1632,58.5665],[-67.397,8.1803,57.6295],[-67.3781,8.2088,49.3943],[-67.3743,8.224,47.4104],[-67.3838,8.2353,48.8177],[-67.3932,8.2429,54.0005],[-67.4027,8.2562,57.108],[-67.4141,8.2657,59.5791],[-67.4426,8.2771,57.4432],[-67.4597,8.2923,57.7315],[-67.473,8.3208,53.6766],[-67.485,8.3329,63.1078],[-67.5165,8.3329,60.117],[-67.5329,8.3301,61.0892],[-67.6099,8.3052,54.4651],[-67.7409,8.2556,49.6869],[-67.7694,8.246,48.7336],[-67.7909,8.2407,48.877],[-67.7921,8.2322,48.6214],[-67.7888,8.223,47.1158],[-67.7671,8.2074,48.4554],[-67.7411,8.1971,51.3893],[-67.6951,8.1655,47.4306],[-67.6782,8.1509,49.0528],[-67.6605,8.1225,45.8103],[-67.6506,8.1144,47.7819],[-67.6388,8.1098,45.8041],[-67.6315,8.1047,46.3217],[-67.6266,8.0978,48.9926],[-67.6248,8.0795,45.5852],[-67.6194,8.0628,45.8073],[-67.5916,8.0155,45.2148],[-67.5905,8.0106,44.5408],[-67.5946,8.0042,44.9335],[-67.6031,8.0013,44.7217],[-67.6064,7.9982,45.1509],[-67.6079,7.9896,45.2562],[-67.5937,7.9561,49.3639],[-67.5908,7.9416,46.0303],[-67.5849,7.9296,50.9481],[-67.5588,7.9063,44.9673],[-67.5524,7.8922,44.3113],[-67.5501,7.8767,44.2491],[-67.5511,7.8655,45.0469],[-67.5501,7.8591,46.4555],[-67.5478,7.8558,40.7541],[-67.544,7.8529,42.3596],[-67.5434,7.8539,42.3212],[-67.541,7.8507,45.9529],[-67.5305,7.8479,46.3737],[-67.5004,7.8483,42.6363],[-67.4889,7.8455,43.9078],[-67.4568,7.8536,42.2169],[-67.4377,7.8803,43.3538],[-67.4257,7.8812,40.6512]]]]}}