{"type":"Feature","properties":{"GID_1":"VEN.5_1","GID_0":"VEN","country":"Venezuela","province":"Barinas","VARNAME_1":"NA","NL_NAME_1":"NA","TYPE_1":"Estado","ENGTYPE_1":"State","CC_1":"NA","HASC_1":"NA","ISO_1":"VE-E","name":"Barinas.province"},
"geometry":{"type": "MultiPolygon","coordinates": [[[[-70.5404,7.375,118.1962],[-70.5352,7.3749,120.0289],[-70.5227,7.3804,118.5908],[-70.5223,7.3887,117.1286],[-70.5135,7.3851,118.0093],[-70.5115,7.4083,122.6469],[-70.5076,7.4128,118.5391],[-70.4808,7.4134,116.1817],[-70.4404,7.4194,114.0],[-70.4216,7.4258,117.3092],[-70.3936,7.4446,112.5],[-70.3835,7.4543,112.5],[-70.3658,7.4815,116.7092],[-70.3394,7.536,110.2398],[-70.3295,7.5537,110.2314],[-70.3208,7.5631,112.8816],[-70.3121,7.5676,111.5033],[-70.2927,7.5725,108.1329],[-70.2765,7.5729,107.0191],[-70.2611,7.571,105.9537],[-70.2427,7.5658,106.5145],[-70.2245,7.5634,106.6123],[-70.2052,7.5679,106.0309],[-70.1698,7.5888,104.2956],[-70.16,7.5962,104.6003],[-70.1544,7.605,103.6115],[-70.155,7.6149,103.9537],[-70.1584,7.6232,104.7804],[-70.1593,7.6339,104.2876],[-70.1558,7.6387,108.1439],[-70.1252,7.6605,102.3033],[-70.0954,7.6849,101.5855],[-70.0839,7.6902,101.1326],[-70.0487,7.7017,99.3878],[-70.0315,7.7064,98.1605],[-70.0077,7.7101,98.1864],[-69.9444,7.7082,99.0196],[-69.9362,7.7174,96.1083],[-69.9271,7.7395,95.99],[-69.9186,7.7503,95.4889],[-69.8736,7.7805,93.9107],[-69.851,7.7924,97.7831],[-69.7882,7.8073,94.0973],[-69.7723,7.8176,91.2706],[-69.7583,7.8369,89.5465],[-69.7481,7.8557,88.5719],[-69.7374,7.8684,89.1136],[-69.7079,7.8807,87.6757],[-69.6659,7.9131,87.3715],[-69.6389,7.9398,86.3799],[-69.6237,7.9471,86.0265],[-69.6007,7.9548,86.0848],[-69.5923,7.9611,87.1416],[-69.5887,7.9668,85.4945],[-69.5755,8.0098,85.9679],[-69.5658,8.0243,92.1599],[-69.5487,8.0351,89.6543],[-69.5291,8.04,83.7306],[-69.512,8.0407,82.7306],[-69.4908,8.0497,82.1318],[-69.4784,8.0664,82.0456],[-69.4637,8.0931,89.5635],[-69.4515,8.1001,91.1772],[-69.4337,8.0992,83.9451],[-69.4189,8.0932,82.9865],[-69.4129,8.0884,87.5075],[-69.4075,8.0803,81.0447],[-69.388,8.074,88.0526],[-69.3762,8.0679,81.3876],[-69.3681,8.0617,79.5035],[-69.3594,8.0595,79.1136],[-69.3454,8.0642,76.0],[-69.3328,8.082,80.5615],[-69.3239,8.0855,78.7744],[-69.3005,8.0875,79.251],[-69.2863,8.087,77.4278],[-69.2432,8.0816,76.1814],[-69.229,8.078,77.797],[-69.1882,8.0787,79.7465],[-69.1785,8.0754,76.0035],[-69.1535,8.0607,75.5909],[-69.1459,8.0575,76.3066],[-69.1389,8.0568,75.7951],[-69.1314,8.0524,84.8198],[-69.1281,8.0471,75.5672],[-69.1252,8.0387,77.9572],[-69.125,8.0181,75.3836],[-69.1275,8.0104,84.506],[-69.1337,8.0029,75.1202],[-69.135,7.999,75.9916],[-69.1348,7.9932,73.2316],[-69.1318,7.9885,72.7725],[-69.1258,7.9836,76.0969],[-69.117,7.981,74.9132],[-69.0955,7.9797,74.1983],[-69.0858,7.9768,81.2557],[-69.0662,7.9662,73.1311],[-69.0562,7.9632,73.5872],[-69.0437,7.9631,74.5584],[-69.0411,7.9736,73.6919],[-69.0316,7.979,77.3968],[-69.0123,7.9734,71.9338],[-68.9797,7.973,69.8011],[-68.9706,7.9706,69.6717],[-68.9652,7.9655,69.456],[-68.9584,7.9249,68.8288],[-68.9552,7.9168,68.7867],[-68.9442,7.9023,66.9734],[-68.9386,7.8962,68.7176],[-68.9058,7.8771,67.9898],[-68.898,7.8709,68.2088],[-68.8625,7.8547,68.1164],[-68.8395,7.8571,66.6084],[-68.8276,7.8564,66.4025],[-68.7954,7.8492,67.3384],[-68.7371,7.8584,64.7001],[-68.722,7.8697,65.2246],[-68.7127,7.88,66.4095],[-68.7004,7.9041,65.093],[-68.6635,7.9209,64.1238],[-68.6482,7.9337,65.7725],[-68.6387,7.9499,69.3969],[-68.6317,7.9559,64.3137],[-68.6211,7.9574,63.0176],[-68.5948,7.95,63.7665],[-68.5844,7.9554,61.015],[-68.5454,7.9542,61.932],[-68.516,7.9352,60.0],[-68.4801,7.9376,61.7266],[-68.4569,7.9594,65.5718],[-68.444,7.964,60.234],[-68.4345,7.9645,64.6813],[-68.4341,7.9664,60.3591],[-68.4154,7.9647,66.7635],[-68.4164,7.9631,67.1684],[-68.4046,7.96,58.711],[-68.3702,7.9387,58.8254],[-68.3574,7.9326,62.7706],[-68.334,7.9289,57.0962],[-68.3183,7.9341,57.5238],[-68.2989,7.9438,59.297],[-68.2789,7.9486,56.0055],[-68.2601,7.9474,65.8246],[-68.2347,7.9414,55.8262],[-68.2029,7.93,60.336],[-68.1864,7.9237,56.8018],[-68.1676,7.9124,55.9299],[-68.1498,7.912,54.7247],[-68.128,7.9076,53.931399999999996],[-68.067,7.8729,53.0993],[-68.0183,7.8398,55.3702],[-67.959,7.7911,54.5623],[-67.9075,7.7724,50.8083],[-67.8763,7.7718,49.1211],[-67.8464,7.7831,49.622],[-67.8464,7.7612,48.5098],[-67.825,7.7702,47.9133],[-67.7716,7.8044,48.6755],[-67.731,7.8114,47.583],[-67.7169,7.8168,47.5415],[-67.7042,7.8185,47.8588],[-67.664,7.815,45.5998],[-67.6364,7.8068,45.8034],[-67.6309,7.8102,45.1473],[-67.6224,7.8276,45.6503],[-67.6151,7.8347,49.1544],[-67.6098,7.8309,45.125],[-67.6094,7.8248,45.4513],[-67.6066,7.8176,44.7478],[-67.6028,7.8131,45.43],[-67.5948,7.8115,43.9941],[-67.5692,7.8116,45.3519],[-67.5385,7.8255,42.2749],[-67.5376,7.8367,46.9207],[-67.5359,7.839,43.798],[-67.5301,7.8403,45.0802],[-67.5185,7.8395,44.7723],[-67.5185,7.8483,44.9072],[-67.5305,7.8479,46.3737],[-67.541,7.8507,45.9529],[-67.5434,7.8539,42.3212],[-67.544,7.8529,42.3596],[-67.5478,7.8558,40.7541],[-67.5501,7.8591,46.4555],[-67.5511,7.8655,45.0469],[-67.5501,7.8767,44.2491],[-67.5524,7.8922,44.3113],[-67.5588,7.9063,44.9673],[-67.5849,7.9296,50.9481],[-67.5908,7.9416,46.0303],[-67.5937,7.9561,49.3639],[-67.6079,7.9896,45.2562],[-67.6064,7.9982,45.1509],[-67.6031,8.0013,44.7217],[-67.5946,8.0042,44.9335],[-67.5905,8.0106,44.5408],[-67.5916,8.0155,45.2148],[-67.6194,8.0628,45.8073],[-67.6248,8.0795,45.5852],[-67.6266,8.0978,48.9926],[-67.6315,8.1047,46.3217],[-67.6388,8.1098,45.8041],[-67.6506,8.1144,47.7819],[-67.6605,8.1225,45.8103],[-67.6782,8.1509,49.0528],[-67.6951,8.1655,47.4306],[-67.7411,8.1971,51.3893],[-67.7671,8.2074,48.4554],[-67.7888,8.223,47.1158],[-67.7921,8.2322,48.6214],[-67.7902,8.2524,48.9197],[-67.7985,8.264,49.9776],[-67.8115,8.2681,49.0842],[-67.8316,8.2681,52.7453],[-67.8382,8.276,49.5286],[-67.8352,8.2936,49.9172],[-67.8367,8.3043,50.285],[-67.8401,8.3101,49.9968],[-67.8622,8.3292,53.3481],[-67.8751,8.3448,54.8905],[-67.8808,8.37,50.82],[-67.8925,8.3776,52.1506],[-67.9236,8.3757,54.6728],[-67.9707,8.3939,53.0724],[-67.9924,8.4085,52.1089],[-68.0123,8.4275,52.0793],[-68.0342,8.4628,55.6538],[-68.0489,8.4738,52.7582],[-68.0661,8.4812,53.383],[-68.101,8.5087,53.6638],[-68.1191,8.5183,56.0009],[-68.1396,8.5271,54.8245],[-68.1596,8.5317,54.7073],[-68.1703,8.532,60.5793],[-68.1839,8.5293,65.2428],[-68.1948,8.5324,57.5349],[-68.2052,8.5415,61.595],[-68.2272,8.5525,60.582],[-68.2609,8.5591,57.7353],[-68.2921,8.5602,61.5672],[-68.3351,8.5573,62.2285],[-68.3827,8.5448,67.1949],[-68.4862,8.468,65.6295],[-68.5127,8.4405,63.0505],[-68.5714,8.3716,62.2365],[-68.6565,8.2839,63.1778],[-68.6865,8.2706,65.5493],[-68.7296,8.2596,64.7072],[-68.7429,8.2491,72.2544],[-68.767,8.1978,69.8816],[-68.7993,8.144,65.4249],[-68.8062,8.1238,66.4249],[-68.7985,8.084,70.3138],[-68.7992,8.0708,67.0748],[-68.8059,8.0669,66.3383],[-68.8196,8.0677,75.6686],[-68.8437,8.0797,67.4323],[-68.8617,8.0913,67.6775],[-68.9213,8.138,69.2478],[-68.9603,8.1652,71.2831],[-68.9684,8.1759,70.3997],[-68.9696,8.1875,70.0709],[-68.9686,8.2047,70.0786],[-68.9718,8.2122,82.2099],[-68.9871,8.2267,70.7924],[-69.0064,8.2385,81.6346],[-69.0479,8.2576,73.7421],[-69.0681,8.2691,79.9892],[-69.0807,8.2799,75.0375],[-69.0839,8.2886,75.628],[-69.0854,8.3071,76.4031],[-69.0896,8.3264,76.73],[-69.1089,8.354,77.7473],[-69.1117,8.3777,79.7553],[-69.1114,8.3914,79.1169],[-69.1242,8.4382,82.7126],[-69.1354,8.4573,83.79],[-69.1521,8.4792,82.4746],[-69.2298,8.5441,92.8781],[-69.3098,8.5602,90.3102],[-69.3897,8.5941,93.4199],[-69.4492,8.6143,98.0729],[-69.4767,8.6321,99.3912],[-69.5195,8.679,105.4749],[-69.5341,8.6994,111.8039],[-69.561,8.7569,109.5643],[-69.6187,8.7702,112.5137],[-69.6854,8.75,116.7672],[-69.7037,8.7495,120.9472],[-69.7526,8.7582,123.9903],[-69.7762,8.7654,123.8091],[-69.796,8.7737,126.3445],[-69.8871,8.7968,143.5031],[-69.9036,8.807,146.9527],[-69.9542,8.8438,164.567],[-70.0453,8.9009,262.5],[-70.0666,8.9182,303.543],[-70.0739,8.9307,303.5093],[-70.0907,8.9686,324.246],[-70.0989,8.9807,321.8802],[-70.1128,8.9939,346.793],[-70.1324,9.006,646.3441],[-70.1695,9.0203,756.7757],[-70.1834,9.0304,378.2421],[-70.194,9.0411,479.9091],[-70.2121,9.0676,473.5965],[-70.236,9.0855,534.3589],[-70.2514,9.0905,787.3815],[-70.2732,9.0814,1323.4564],[-70.3182,9.0778,2512.1201],[-70.341,9.0824,1901.3566],[-70.3632,9.0801,2553.8274],[-70.3939,9.067,2726.4751],[-70.4125,9.0649,2767.9629],[-70.4459,9.0654,2303.9231],[-70.4632,9.0579,2162.5088],[-70.5498,8.9915,3412.4438],[-70.5606,8.9704,3359.1274],[-70.5772,8.9021,1697.399],[-70.5887,8.8854,1908.9724],[-70.6128,8.8571,2080.1646],[-70.6236,8.8288,2639.439],[-70.635,8.8064,2757.1628],[-70.6416,8.7792,2184.6929],[-70.6494,8.7615,2029.3689],[-70.6607,8.7476,2384.062],[-70.6703,8.7406,2965.0186],[-70.6866,8.7301,2476.1821],[-70.7117,8.7199,2119.4746],[-70.7199,8.7136,2626.6052],[-70.7255,8.7041,2963.418],[-70.7269,8.6923,2913.6035],[-70.7234,8.6754,1819.9885],[-70.7143,8.6592,2124.7793],[-70.704,8.6457,1466.6045],[-70.7006,8.6294,1232.27],[-70.7048,8.6142,930.1956],[-70.712,8.6076,831.0365],[-70.7293,8.5976,1403.1229],[-70.7441,8.5924,1643.562],[-70.7684,8.5875,2273.3831],[-70.8058,8.5845,2595.3889],[-70.8329,8.5788,2723.459],[-70.8437,8.5737,2970.7747],[-70.8505,8.5666,2437.825],[-70.8561,8.557,2169.9897],[-70.8572,8.5467,2008.475],[-70.8517,8.4918,1416.9927],[-70.8548,8.4583,1422.9062],[-70.8543,8.4168,871.1616],[-70.8574,8.3904,1346.3535],[-70.8699,8.3611,1178.6799],[-70.8924,8.283,852.571],[-70.902,8.2685,874.0161],[-70.9206,8.2507,839.7771],[-70.9424,8.2438,1235.9836],[-70.9535,8.248,1312.5197],[-70.9647,8.2572,1550.5471],[-70.9758,8.2605,1386.1841],[-70.9949,8.2526,1460.6259],[-71.0013,8.2463,1515.8342],[-71.0046,8.2408,1750.4106],[-71.0057,8.2316,1947.1097],[-70.9971,8.2084,1549.7007],[-70.9958,8.1942,1559.8193],[-71.0011,8.1755,1372.309],[-71.0159,8.1444,1633.3893],[-71.0262,8.1078,908.5892],[-71.0363,8.0807,968.2171],[-71.0483,8.0634,788.9766],[-71.0654,8.0457,875.2199],[-71.1056,8.0109,595.5914],[-71.1205,8.0037,579.4536],[-71.1397,8.0013,546.5287],[-71.1528,7.9944,449.2083],[-71.1897,7.9661,392.8618],[-71.2143,7.9538,514.4706],[-71.2428,7.944,486.2991],[-71.2784,7.925,417.7458],[-71.3136,7.9139,611.9603],[-71.3335,7.9001,496.0122],[-71.3274,7.8918,419.508],[-71.3327,7.8739,302.0],[-71.3565,7.8564,302.0],[-71.3754,7.8376,302.0],[-71.39,7.8133,348.9884],[-71.4034,7.7972,332.5176],[-71.4379,7.7672,544.9264],[-71.4538,7.7487,384.4208],[-71.4586,7.7366,240.668],[-71.4619,7.7163,201.3849],[-71.4603,7.6611,189.4305],[-71.4648,7.6388,246.8708],[-71.4739,7.6267,233.8636],[-71.4886,7.6218,187.7594],[-71.5003,7.6213,175.8835],[-71.5096,7.5982,251.78],[-71.5098,7.592,202.3082],[-71.507,7.5871,175.1176],[-71.4865,7.5808,172.0561],[-71.4805,7.5741,171.4398],[-71.4708,7.5676,170.2242],[-71.4547,7.5655,169.1993],[-71.4497,7.563,167.0096],[-71.4467,7.5591,168.5178],[-71.4422,7.5406,166.9742],[-71.4389,7.5335,164.7548],[-71.4345,7.5296,165.0492],[-71.4276,7.5317,165.1508],[-71.419,7.5415,164.735],[-71.4163,7.542,164.2422],[-71.4138,7.5404,164.0079],[-71.4083,7.5242,162.2562],[-71.4055,7.5041,162.3644],[-71.4025,7.4982,162.7569],[-71.3941,7.4926,160.4227],[-71.3816,7.4911,164.0232],[-71.3665,7.4918,160.1335],[-71.3546,7.4888,158.841],[-71.3493,7.4809,159.1301],[-71.348,7.4698,157.9091],[-71.3494,7.4667,157.7928],[-71.356,7.4598,164.6646],[-71.3684,7.4551,163.2965],[-71.3837,7.4512,162.9437],[-71.3995,7.4502,160.3464],[-71.4234,7.4633,165.6439],[-71.454,7.4653,168.4082],[-71.4963,7.4605,167.3054],[-71.529,7.4658,168.9939],[-71.5911,7.4725,181.4884],[-71.6583,7.4863,189.011],[-71.6952,7.4963,186.9628],[-71.7374,7.4897,191.4607],[-71.7619,7.4909,195.1823],[-71.7764,7.4977,196.6697],[-71.7893,7.5009,197.8602],[-71.8095,7.5022,199.0208],[-71.8262,7.5013,202.2268],[-71.8483,7.4951,204.0401],[-71.8615,7.4886,208.3014],[-71.8678,7.4811,210.9048],[-71.8677,7.4776,205.5],[-71.8561,7.4718,207.5029],[-71.8469,7.4708,207.2369],[-71.8267,7.4611,214.4304],[-71.8189,7.4534,205.357],[-71.8112,7.4396,204.1658],[-71.8049,7.4365,202.8494],[-71.7943,7.4362,200.3893],[-71.7779,7.4385,197.9497],[-71.7474,7.4249,191.9658],[-71.7476,7.4155,192.8424],[-71.7504,7.4083,192.6583],[-71.7494,7.3994,192.2554],[-71.7371,7.3811,192.4378],[-71.7316,7.3768,191.2194],[-71.7264,7.3767,190.2642],[-71.7131,7.3869,189.6358],[-71.704,7.3894,199.8799],[-71.6834,7.3828,185.4487],[-71.6656,7.3835,185.4283],[-71.6321,7.3971,181.1327],[-71.6047,7.4022,189.4615],[-71.5719,7.4154,179.1133],[-71.5277,7.4173,173.1139],[-71.5023,7.4219,168.3739],[-71.4636,7.4259,165.721],[-71.4372,7.4198,162.3959],[-71.3901,7.4187,162.5668],[-71.3592,7.4258,157.303],[-71.3432,7.424,157.016],[-71.2937,7.4277,153.9999],[-71.2849,7.4217,156.0331],[-71.2499,7.4185,152.6951],[-71.2378,7.4128,152.2897],[-71.2143,7.3946,149.0239],[-71.2006,7.3886,149.5761],[-71.1982,7.3883,148.0042],[-71.1847,7.3973,147.3971],[-71.1717,7.3993,155.2019],[-71.1552,7.3978,146.4416],[-71.1391,7.3924,147.9323],[-71.0996,7.3846,142.9926],[-71.0856,7.3798,141.3708],[-71.0714,7.3713,144.3363],[-71.0506,7.3622,142.5125],[-71.0159,7.3493,147.698],[-70.9842,7.3312,136.2516],[-70.9701,7.3268,135.5645],[-70.9475,7.326,146.1338],[-70.9296,7.3285,141.7778],[-70.9143,7.334,135.2356],[-70.8845,7.3528,132.6114],[-70.8745,7.353,133.0394],[-70.8609,7.3497,131.7531],[-70.8488,7.3416,137.7765],[-70.8405,7.3334,131.9732],[-70.8268,7.3265,133.0735],[-70.8124,7.3232,130.2258],[-70.7974,7.3154,137.4882],[-70.7874,7.3075,142.4771],[-70.7714,7.3038,129.1181],[-70.7555,7.3093,130.2341],[-70.7396,7.3221,126.5789],[-70.7263,7.3293,126.7132],[-70.7041,7.3364,125.2145],[-70.6901,7.3449,123.9424],[-70.6777,7.359,125.6279],[-70.665,7.3639,133.4532],[-70.6526,7.3633,130.6015],[-70.639,7.3576,124.6357],[-70.6347,7.3514,123.5643],[-70.6331,7.3456,121.9302],[-70.62,7.3451,123.1735],[-70.5893,7.3558,125.0231],[-70.5802,7.3607,120.067],[-70.5693,7.3733,127.4305],[-70.5614,7.3786,121.9126],[-70.5534,7.3793,123.0206],[-70.5404,7.375,118.1962]]]]}}