{"type": "Feature","id": "26","bbox": [-71.84773,7.28741,-67.51673,9.0234],"geometry": {"type": "Polygon","coordinates": [[[-70.18245,9.00787,348.8643],[-70.2139,9.00911,698.9399],[-70.23537,9.01449,928.7073],[-70.2525,9.02061,1225.5137],[-70.26286,9.02278,1427.1217],[-70.27131,9.0234,1297.8391],[-70.29418,9.01883,1272.855],[-70.34839,9.01516,1905.3169],[-70.39771,9.02038,3055.5259],[-70.42673,9.02247,3308.1445],[-70.44373,9.0196,3283.2439],[-70.49608,8.99927,3291.9333],[-70.51246,8.98366,3241.4697],[-70.52424,8.96669,3419.8899],[-70.53468,8.95535,3367.0337],[-70.55558,8.92563,2909.5281],[-70.56106,8.91013,2468.5833],[-70.5677,8.87,1482.6251],[-70.57251,8.86186,1047.0271],[-70.57747,8.85667,1414.8479],[-70.59504,8.85086,2419.9116],[-70.6155,8.84664,2459.6587],[-70.63294,8.83951,3083.4492],[-70.64917,8.82944,3105.1729],[-70.65814,8.82509,3293.4409],[-70.66584,8.82362,3358.3447],[-70.67157,8.82494,3311.9915],[-70.6778,8.82571,3101.1282],[-70.68695,8.82362,3194.1743],[-70.69188,8.82019,3321.9189],[-70.69578,8.81592,3578.6133],[-70.70036,8.80662,3451.9998],[-70.70627,8.79032,3131.344],[-70.714,8.77528,3341.6599],[-70.71852,8.7704,3474.3306],[-70.72294,8.76683,3506.0901],[-70.72769,8.76474,3530.3608],[-70.73281,8.76396,3823.3579],[-70.73785,8.76497,3807.9023],[-70.74154,8.76791,3834.083],[-70.74397,8.77233,3961.4634],[-70.74568,8.77729,3839.2107],[-70.74901,8.7814,3966.2461],[-70.75229,8.78404,3952.7485],[-70.76857,8.78148,4161.1133],[-70.80446,8.75146,4289.5449],[-70.8267,8.7365,4324.02],[-70.83771,8.72546,3885.5645],[-70.8474,8.71182,3929.0364],[-70.85159,8.7021,3570.1211],[-70.89409,8.64399,3886.0352],[-70.91006,8.62413,3908.1987],[-70.91512,8.62431,3912.6807],[-70.9199,8.62601,3968.3179],[-70.92567,8.62989,3938.9082],[-70.92995,8.62927,4072.3223],[-70.93437,8.62679,4140.0049],[-70.95703,8.60723,4158.0483],[-70.96238,8.60141,3985.8169],[-70.96967,8.59193,4201.4937],[-70.97352,8.58534,3860.5791],[-70.97602,8.57906,3554.437],[-70.97636,8.57309,3874.6245],[-70.97584,8.56718,3729.3604],[-70.97277,8.55648,3628.0781],[-70.96892,8.54679,3650.9968],[-70.96905,8.53834,3250.762],[-70.97168,8.52723,3052.6313],[-70.98044,8.50666,3664.6174],[-70.98646,8.4976,3707.97],[-70.99181,8.49147,3664.3794],[-71.01677,8.47463,2880.0918],[-71.02736,8.46532,2806.407],[-71.0322,8.4585,2707.9204],[-71.0347,8.45158,2944.5342],[-71.03579,8.43607,3382.418],[-71.03837,8.42434,3395.1624],[-71.04194,8.41845,3232.189],[-71.04571,8.41372,3206.2158],[-71.07111,8.39114,3398.7007],[-71.07537,8.38386,3521.9229],[-71.07754,8.37634,3456.5449],[-71.07687,8.35042,3360.0117],[-71.07506,8.33877,3320.0017],[-71.0724,8.32792,3405.0999],[-71.06514,8.30781,3159.6648],[-71.06276,8.30332,3143.3975],[-71.05927,8.29983,2995.5098],[-71.05475,8.29743,2750.7888],[-71.04431,8.29371,2559.499],[-71.04028,8.29076,2513.4802],[-71.03687,8.28735,2293.3594],[-71.0315,8.27895,2005.9042],[-71.02755,8.26926,2051.6182],[-71.02266,8.24707,2361.3716],[-71.02075,8.24218,2193.9729],[-71.01336,8.22743,1853.9502],[-71.01184,8.21976,1790.1499],[-71.01181,8.20666,1286.5103],[-71.01548,8.19679,1056.0992],[-71.02251,8.1857,1044.64],[-71.02876,8.17842,1217.922],[-71.04827,8.14653,806.8309],[-71.05995,8.11005,653.5494],[-71.09046,8.06754,552.5778],[-71.16849,7.99879,356.2695],[-71.20741,7.97605,448.2165],[-71.21728,7.96574,356.7724],[-71.24123,7.93386,328.6028],[-71.25378,7.92277,395.4381],[-71.26381,7.916,318.9366],[-71.28967,7.90205,302.0],[-71.42967,7.80226,309.9616],[-71.46214,7.76953,302.0],[-71.46274,7.74508,278.2787],[-71.4547,7.71428,194.4839],[-71.45669,7.70242,194.4096],[-71.46214,7.69364,189.1021],[-71.46909,7.68976,187.6306],[-71.48356,7.68449,188.2005],[-71.48356,7.66617,181.4837],[-71.4909,7.62979,187.9372],[-71.48594,7.62452,196.3357],[-71.47961,7.62003,186.0513],[-71.47444,7.61724,174.7737],[-71.46933,7.61271,171.5053],[-71.46367,7.60636,176.5837],[-71.45587,7.59985,171.0961],[-71.43465,7.5861,168.54],[-71.42884,7.57641,167.2532],[-71.4246,7.56657,166.7514],[-71.41052,7.55804,166.3699],[-71.40566,7.5515,165.4764],[-71.40119,7.54251,162.7011],[-71.37796,7.52404,165.5677],[-71.36644,7.51791,171.4032],[-71.35375,7.51435,164.9855],[-71.32828,7.51148,159.405],[-71.32083,7.50706,166.3694],[-71.31758,7.50238,168.0383],[-71.31761,7.49959,160.8686],[-71.31978,7.49642,155.3691],[-71.32611,7.49231,158.6154],[-71.3343,7.48874,157.7856],[-71.34373,7.48657,158.5784],[-71.35125,7.48595,158.4096],[-71.36068,7.48618,158.4171],[-71.3829,7.48975,160.2401],[-71.44566,7.51101,174.8404],[-71.45654,7.51357,167.1672],[-71.46754,7.51489,166.5616],[-71.50183,7.51357,171.8491],[-71.50909,7.51427,172.6766],[-71.55173,7.52466,174.2056],[-71.62526,7.53429,181.7728],[-71.66756,7.54747,184.7674],[-71.692,7.54933,187.4837],[-71.75716,7.54646,194.6616],[-71.76732,7.54282,196.5352],[-71.77517,7.53871,195.3147],[-71.7867,7.53716,199.1831],[-71.80086,7.53825,205.3257],[-71.82672,7.53592,203.3982],[-71.83791,7.53321,205.0994],[-71.84398,7.53039,205.4348],[-71.84582,7.52613,205.8783],[-71.84713,7.52094,206.2046],[-71.84773,7.51528,204.8721],[-71.84711,7.50931,206.9085],[-71.8438,7.49959,207.3989],[-71.84155,7.49476,201.0],[-71.82987,7.4998,203.2073],[-71.80938,7.4974,200.7747],[-71.74877,7.47828,196.7543],[-71.74065,7.47246,193.715],[-71.72528,7.45221,191.3923],[-71.71585,7.44247,189.9733],[-71.7034,7.43831,188.9474],[-71.66035,7.43216,183.2781],[-71.63958,7.43234,183.1134],[-71.63079,7.44172,180.6125],[-71.62756,7.4534,180.6427],[-71.62027,7.45089,179.669],[-71.6072,7.43831,180.2209],[-71.59493,7.44053,180.1534],[-71.57284,7.45029,175.223],[-71.56312,7.45259,172.5991],[-71.55258,7.45045,172.5319],[-71.53286,7.44055,172.849],[-71.52093,7.43831,169.3057],[-71.50878,7.43955,169.8357],[-71.50323,7.4428,168.279],[-71.49989,7.44735,167.7332],[-71.49424,7.45259,168.6518],[-71.4722,7.4628,166.9255],[-71.45442,7.46389,166.7675],[-71.4154,7.4588,162.4626],[-71.34042,7.46011,156.4366],[-71.30456,7.45642,156.6518],[-71.26769,7.44513,154.9485],[-71.24885,7.45453,155.0802],[-71.22678,7.43867,150.5616],[-71.20557,7.41583,149.7684],[-71.18916,7.40417,147.7637],[-71.16619,7.40185,151.5267],[-71.15591,7.39859,146.2246],[-71.14475,7.38614,150.5501],[-71.1293,7.38585,144.9764],[-71.1032,7.38989,143.1669],[-71.06137,7.37872,149.4164],[-71.01997,7.36188,145.9627],[-70.98111,7.33862,140.2921],[-70.94678,7.30798,136.2605],[-70.93014,7.31317,135.3582],[-70.91233,7.30521,132.6409],[-70.8936,7.29351,131.8387],[-70.87417,7.28749,137.4971],[-70.85642,7.29005,136.8842],[-70.81053,7.30539,129.2651],[-70.79534,7.3148,137.7592],[-70.75891,7.29974,128.4814],[-70.71286,7.28994,126.2013],[-70.6669,7.28741,124.2805],[-70.63085,7.29431,122.2846],[-70.62504,7.30033,121.621],[-70.60917,7.32252,123.1962],[-70.60354,7.32844,119.5],[-70.59085,7.33252,121.7552],[-70.58274,7.33206,122.8006],[-70.57553,7.32981,124.309],[-70.56569,7.32844,121.3212],[-70.54783,7.33371,119.5107],[-70.53163,7.34599,118.7598],[-70.50734,7.36942,118.9568],[-70.50052,7.38368,117.4673],[-70.49512,7.38337,117.0329],[-70.48747,7.38136,117.2756],[-70.48122,7.37865,116.8223],[-70.48003,7.37624,117.7789],[-70.47184,7.3819,115.9086],[-70.46781,7.38609,115.9291],[-70.46649,7.39309,119.7516],[-70.46637,7.40727,122.9664],[-70.46024,7.42306,120.3475],[-70.44484,7.42784,115.6615],[-70.42466,7.42823,121.465],[-70.4043,7.43086,113.949],[-70.36833,7.45045,116.2579],[-70.34053,7.48078,111.0705],[-70.3209,7.51688,111.1422],[-70.29953,7.59039,107.8693],[-70.28888,7.60377,114.6772],[-70.27085,7.60899,112.45],[-70.26049,7.61036,113.6663],[-70.24299,7.61587,114.6063],[-70.23299,7.61646,105.2617],[-70.2224,7.61375,105.2326],[-70.20661,7.60501,106.5018],[-70.19948,7.60279,105.9367],[-70.18292,7.60574,104.3982],[-70.15719,7.61501,104.0692],[-70.13352,7.62933,102.0782],[-70.12313,7.64749,102.7766],[-70.11732,7.66638,102.2193],[-70.10339,7.69028,101.2109],[-70.0866,7.71074,105.7009],[-70.07223,7.71948,104.7195],[-70.05884,7.72418,108.4943],[-70.01389,7.75426,98.1924],[-69.99787,7.75743,98.0598],[-69.94872,7.75426,98.7599],[-69.93549,7.75777,101.3801],[-69.92151,7.76681,95.0107],[-69.89234,7.79221,95.0054],[-69.87756,7.80397,94.4288],[-69.86299,7.81198,93.4086],[-69.84875,7.81399,94.8183],[-69.83514,7.80764,92.8675],[-69.82447,7.81547,92.2998],[-69.79067,7.83234,90.6692],[-69.77772,7.83554,89.9163],[-69.75168,7.83782,89.3211],[-69.7337,7.84443,88.2904],[-69.57704,7.95104,90.2689],[-69.4624,8.05837,81.8438],[-69.44095,8.07165,87.4211],[-69.41736,8.07235,81.8906],[-69.36961,8.06209,79.9254],[-69.33124,8.06194,78.2997],[-69.21259,8.07576,80.8999],[-69.18869,8.07067,79.9326],[-69.15322,8.04705,73.4172],[-69.13345,8.04163,75.0386],[-69.12769,8.0362,74.1123],[-69.11813,8.0123,74.3737],[-69.11265,8.00685,73.6323],[-69.07477,7.99321,73.1645],[-69.06978,7.99057,73.4932],[-69.05844,7.98197,72.9341],[-69.05431,7.98019,75.8142],[-69.04805,7.9823,80.4717],[-69.03855,7.99109,75.3504],[-69.03382,7.99321,71.9575],[-68.99627,7.99321,73.49],[-68.99126,7.99569,70.7613],[-68.98072,7.99954,74.9949],[-68.97028,7.99938,70.6752],[-68.96555,7.9898,71.5827],[-68.96341,7.98034,77.2375],[-68.95814,7.97006,72.2114],[-68.94506,7.95225,75.2713],[-68.94429,7.94799,72.8347],[-68.9461,7.93574,74.987799999999993],[-68.94506,7.93176,72.5152],[-68.94088,7.9307,68.0498],[-68.92912,7.93246,68.9094],[-68.92457,7.93176,68.6427],[-68.88672,7.91127,69.3214],[-68.82347,7.90252,70.1132],[-68.72983,7.91585,69.3197],[-68.71541,7.92122,64.7946],[-68.70125,7.9337,64.9728],[-68.65025,7.9659,71.8125],[-68.63387,7.96936,69.208],[-68.5717,7.9659,65.5383],[-68.54907,7.96117,62.3417],[-68.51036,7.94145,61.3344],[-68.48514,7.93859,60.6967],[-68.46127,7.94734,62.0001],[-68.4259,7.97936,61.0798],[-68.40693,7.98639,57.7614],[-68.38623,7.99158,59.0021],[-68.37471,7.99135,62.6889],[-68.3697,7.98329,58.3512],[-68.36518,7.98119,65.89],[-68.34174,7.9659,62.9676],[-68.32166,7.96636,58.4905],[-68.29678,7.97021,57.8359],[-68.27559,7.97093,58.3986],[-68.26665,7.96218,56.6325],[-68.25658,7.95652,55.6068],[-68.23464,7.96628,54.9472],[-68.20521,7.98639,54.2185],[-68.19865,7.98812,54.4696],[-68.17992,7.99057,54.7836],[-68.17043,7.99321,54.2264],[-68.15886,8.00078,55.1568],[-68.14968,8.01005,59.0476],[-68.13992,8.01786,53.3298],[-68.10873,8.0247,52.6957],[-68.07333,8.04204,52.106],[-68.05437,8.04845,53.1192],[-67.95443,8.05465,50.2179],[-67.93011,8.04783,49.5185],[-67.90712,8.03481,49.177],[-67.88482,8.02672,48.9689],[-67.86257,8.03481,55.5548],[-67.8166,8.02176,48.7732],[-67.72056,8.01757,46.854],[-67.67015,8.00685,46.0217],[-67.64922,7.99869,46.4406],[-67.6292,7.99321,45.6857],[-67.6114,7.9984,44.5187],[-67.6053,7.99941,45.4207],[-67.60153,7.99739,45.1922],[-67.59507,7.9884,44.9206],[-67.59135,7.98639,44.5486],[-67.56825,7.97936,44.937],[-67.54618,7.96251,43.9423],[-67.54422,7.95877,45.2236],[-67.53194,7.96417,45.7089],[-67.519,7.97161,45.6501],[-67.51673,7.9813,45.8601],[-67.53362,7.99321,44.8245],[-67.55274,7.98468,49.2715],[-67.56357,7.9952,50.341],[-67.57458,8.02734,44.7283],[-67.59509,8.04731,50.413],[-67.59688,8.05455,45.829],[-67.57458,8.04845,43.9313],[-67.57458,8.05465,47.4289],[-67.57851,8.06034,47.4383],[-67.58021,8.06625,58.1575],[-67.57913,8.07336,50.8281],[-67.57458,8.08258,47.2271],[-67.58861,8.0863,48.6689],[-67.5992,8.09369,49.0262],[-67.60946,8.09889,43.8084],[-67.62238,8.09625,46.8757],[-67.6255,8.11568,46.405],[-67.63561,8.13571,46.0675],[-67.64845,8.15136,47.5854],[-67.65992,8.15769,47.2277],[-67.66563,8.16731,47.7888],[-67.67741,8.20953,47.5557],[-67.68754,8.21914,47.8134],[-67.69289,8.22244,49.0321],[-67.70806,8.23694,49.258],[-67.71516,8.24025,50.9729],[-67.76144,8.24001,49.4627],[-67.76787,8.23908,48.7137],[-67.77185,8.24291,48.6638],[-67.77382,8.27895,48.8452],[-67.77583,8.28756,49.3924],[-67.78002,8.29487,51.2371],[-67.78686,8.29487,49.3188],[-67.78756,8.28828,49.0353],[-67.78929,8.28376,49.0275],[-67.79154,8.2797,48.6335],[-67.79369,8.27438,48.5863],[-67.79785,8.28213,49.1707],[-67.8019,8.28621,49.2841],[-67.80785,8.28776,49.4435],[-67.81759,8.28805,49.7184],[-67.82141,8.29154,49.6653],[-67.82002,8.30867,49.8039],[-67.821,8.31536,49.8926],[-67.82379,8.31577,50.3331],[-67.83206,8.32066,49.9262],[-67.83911,8.32629,49.9429],[-67.83836,8.329,51.6226],[-67.84358,8.33084,50.0301],[-67.84655,8.33388,50.1025],[-67.84983,8.3345,55.8544],[-67.85575,8.329,55.8916],[-67.86257,8.329,53.3481],[-67.85968,8.34337,50.5419],[-67.85391,8.35608,51.41],[-67.85081,8.36716,50.6909],[-67.85575,8.3768,50.8635],[-67.86107,8.37706,50.8521],[-67.87546,8.3697,50.8626],[-67.88306,8.36998,50.9086],[-67.888,8.37277,51.4032],[-67.90293,8.38362,52.2249],[-67.90479,8.38734,51.2725],[-67.90761,8.40011,50.5372],[-67.91037,8.40411,51.2748],[-67.91657,8.40419,51.4343],[-67.93011,8.39706,51.8018],[-67.93768,8.39789,52.4648],[-67.94458,8.40435,54.3477],[-67.95122,8.41463,52.727],[-67.95618,8.42589,51.3831],[-67.95817,8.43545,51.8281],[-67.95983,8.43912,51.9481],[-67.96406,8.44243,51.8749],[-67.96962,8.44481,52.0363],[-67.97523,8.44569,58.1831],[-67.97964,8.44894,56.8431],[-67.97791,8.45644,55.2523],[-67.97181,8.46959,53.898],[-67.97466,8.47563,52.5329],[-67.99571,8.49008,52.7258],[-68.00003,8.49542,58.2458],[-68.00507,8.50519,53.9714],[-68.03649,8.5385,53.5131],[-68.04445,8.54222,62.2193],[-68.04734,8.5464,62.5337],[-68.05085,8.55346,61.0395],[-68.05258,8.56074,55.238],[-68.05662,8.57108,62.5917],[-68.06336,8.57542,63.9332],[-68.07276,8.57968,66.2212],[-68.08731,8.5817,63.374],[-68.09287,8.58309,55.6354],[-68.14612,8.60467,59.9083],[-68.16539,8.60893,55.576],[-68.18521,8.61002,55.7769],[-68.19154,8.6094,55.8287],[-68.20289,8.60707,56.371],[-68.20816,8.60552,56.1897],[-68.21756,8.60134,56.2039],[-68.22606,8.59986,56.1846],[-68.23795,8.5994,58.4727],[-68.29291,8.60606,65.665],[-68.30552,8.60568,66.3395],[-68.32624,8.60196,67.9016],[-68.34954,8.60738,71.7424],[-68.37414,8.6156,60.2316],[-68.3867,8.61785,64.6749],[-68.39564,8.61777,58.838],[-68.40003,8.61537,60.6499],[-68.40848,8.60885,64.5997],[-68.41375,8.60575,62.1177],[-68.42305,8.60374,70.6064],[-68.43031,8.6056,63.5097],[-68.43936,8.61017,65.2982],[-68.44641,8.6125,70.7864],[-68.45326,8.61389,62.0487],[-68.4884,8.6118,64.6081],[-68.50232,8.61258,66.6308],[-68.57353,8.63539,76.7964],[-68.57281,8.62195,65.1575],[-68.57467,8.60351,73.2061],[-68.57994,8.58658,71.2365],[-68.58095,8.58123,68.6168],[-68.58214,8.56883,65.1948],[-68.59069,8.53615,72.5145],[-68.60364,8.49984,67.8849],[-68.65423,8.42287,66.7279],[-68.67852,8.39246,67.6168],[-68.73262,8.36422,69.3403],[-68.78306,8.33164,77.1047],[-68.7876,8.32559,74.9874],[-68.7922,8.31714,68.7115],[-68.81432,8.25815,70.9741],[-68.82845,8.20053,72.9087],[-68.82791,8.19237,72.4751],[-68.81737,8.15684,67.5501],[-68.816,8.14503,66.4012],[-68.82104,8.12674,66.6232],[-68.82786,8.1193,66.2915],[-68.83117,8.11671,66.7158],[-68.83605,8.11392,66.9406],[-68.84145,8.11245,68.2113],[-68.84739,8.11199,68.3086],[-68.8537,8.1123,75.0887],[-68.86491,8.11509,67.5791],[-68.86972,8.1178,71.478],[-68.87388,8.12178,67.798],[-68.8769,8.12875,70.2141],[-68.87995,8.14108,77.9248],[-68.88339,8.147,71.5821],[-68.88936,8.15258,72.7505],[-68.93576,8.17586,71.5877],[-68.94168,8.17997,70.725],[-68.9484,8.18601,84.0844],[-68.97051,8.21666,81.7742],[-68.9808,8.23389,72.2661],[-68.98615,8.23939,73.5757],[-69.02524,8.26601,75.9695],[-69.07151,8.2896,82.1911],[-69.07632,8.29285,76.3381],[-69.08092,8.29758,83.8006],[-69.08955,8.31138,85.6186],[-69.12764,8.35104,77.5645],[-69.13554,8.36298,84.8776],[-69.13965,8.37246,79.3717],[-69.13934,8.37882,85.9545],[-69.13663,8.38982,90.4939],[-69.13229,8.39944,88.6159],[-69.12707,8.40807,80.2758],[-69.12397,8.41202,80.893],[-69.11699,8.41884,80.2649],[-69.1143,8.42287,81.6315],[-69.1128,8.42739,82.0959],[-69.11441,8.43189,83.9348],[-69.11939,8.43514,82.1694],[-69.13001,8.43708,85.767],[-69.15221,8.43747,83.6824],[-69.15815,8.43871,84.2316],[-69.16247,8.44173,83.8428],[-69.16706,8.45525,81.9897],[-69.17084,8.46292,84.3524],[-69.17135,8.46889,84.1797],[-69.17006,8.48036,82.4127],[-69.170419999999993,8.48612,82.7938],[-69.17156,8.49147,83.2858],[-69.17557,8.50046,83.5381],[-69.19528,8.52956,85.6281],[-69.19854,8.53312,85.5948],[-69.25199,8.57674,88.3493],[-69.25874,8.58426,90.5516],[-69.26944,8.60141,92.0391],[-69.28636,8.63896,91.3154],[-69.29184,8.64322,94.892],[-69.30003,8.64671,91.5681],[-69.31783,8.6496,92.115],[-69.38209,8.65363,98.2244],[-69.39351,8.65743,96.0752],[-69.39909,8.66092,97.1546],[-69.43121,8.66123,98.1572],[-69.44715,8.66417,101.1395],[-69.46687,8.67038,101.1799],[-69.53743,8.70296,111.5267],[-69.57355,8.73337,111.1194],[-69.6027,8.74657,111.5814],[-69.61748,8.77288,112.5115],[-69.62311,8.77791,114.0903],[-69.63453,8.77311,114.7708],[-69.64047,8.76892,116.5065],[-69.64892,8.76091,123.0669],[-69.66181,8.75231,115.2428],[-69.68375,8.73205,120.6179],[-69.69215,8.7267,120.1693],[-69.69807,8.725,119.7313],[-69.70538,8.72383,123.3009],[-69.72613,8.7281,125.2228],[-69.74853,8.74448,124.8321],[-69.77108,8.75006,126.0913],[-69.79563,8.74758,128.8819],[-69.81411,8.74983,131.4784],[-69.81961,8.7513,133.9695],[-69.90803,8.78985,152.971],[-70.00407,8.84706,170.1878],[-70.01683,8.8583,180.039],[-70.04112,8.89173,247.936],[-70.17243,8.99183,328.0988],[-70.18245,9.00787,348.8643]]]}
,"properties": {"ISO3166-1-Alpha-3": "VEN","country": "Venezuela","fill": "#F0F","name": "Barinas","area_km2": 36994.92,"hist_schema_id": "Elevation0-9000","hist_area_km2": {"50": 4806.23,"75": 4684.27,"100": 6571.4,"125": 8230.69,"150": 4249.88,"175": 1632.55,"200": 768.37,"225": 419.36,"250": 316.36,"275": 299.67,"300": 321.34,"325": 271.44,"350": 253.68,"375": 227.25,"400": 195.53,"425": 166.07,"450": 147.18,"475": 127.97,"500": 112.39,"525": 100.68,"550": 89.74,"575": 83.88,"600": 73.56,"625": 66.52,"650": 60.2,"675": 57.98,"700": 53.3,"725": 49.42,"750": 46.92,"775": 48.58,"800": 46.19,"825": 47.4,"850": 45.03,"875": 44.17,"900": 43.79,"925": 40.57,"950": 41.97,"975": 39.83,"1000": 38.38,"1025": 38.7,"1050": 35.41,"1075": 35.6,"1100": 33.86,"1125": 33.67,"1150": 32.97,"1175": 30.82,"1200": 30.92,"1225": 31.63,"1250": 30.33,"1275": 30.29,"1300": 29.06,"1325": 30.92,"1350": 29.33,"1375": 28.99,"1400": 28.09,"1425": 26.94,"1450": 28.78,"1475": 27.11,"1500": 27.94,"1525": 27.67,"1550": 25.66,"1575": 26.16,"1600": 26.29,"1625": 25.16,"1650": 25.24,"1675": 23.77,"1700": 24.84,"1725": 22.76,"1750": 23.04,"1775": 22.74,"1800": 22.24,"1825": 22.16,"1850": 22.09,"1875": 20.71,"1900": 20.86,"1925": 20.42,"1950": 20.86,"1975": 19.91,"2000": 20.29,"2025": 17.96,"2050": 19.08,"2075": 19.18,"2100": 18.11,"2125": 18.74,"2150": 16.81,"2175": 17.69,"2200": 17.13,"2225": 16.29,"2250": 16.81,"2275": 15.64,"2300": 15.26,"2325": 15.13,"2350": 15.34,"2375": 15.03,"2400": 14.38,"2425": 14.19,"2450": 14.34,"2475": 14.13,"2500": 14.09,"2525": 13.37,"2550": 13.88,"2575": 13.46,"2600": 13.16,"2625": 14.0,"2650": 13.37,"2675": 13.1,"2700": 13.46,"2725": 12.07,"2750": 12.95,"2775": 11.97,"2800": 13.06,"2825": 11.78,"2850": 11.55,"2875": 12.14,"2900": 11.72,"2925": 12.03,"2950": 12.18,"2975": 11.68,"3000": 12.26,"3025": 11.19,"3050": 11.45,"3075": 11.74,"3100": 11.65,"3125": 11.99,"3150": 11.3,"3175": 11.05,"3200": 11.65,"3225": 11.65,"3250": 11.34,"3275": 11.89,"3300": 11.65,"3325": 12.68,"3350": 12.14,"3375": 12.75,"3400": 12.1,"3425": 12.39,"3450": 13.04,"3475": 12.77,"3500": 11.38,"3525": 11.28,"3550": 9.98,"3575": 10.79,"3600": 9.64,"3625": 10.35,"3650": 8.95,"3675": 9.75,"3700": 9.81,"3725": 9.24,"3750": 8.85,"3775": 7.59,"3800": 7.63,"3825": 7.73,"3850": 6.87,"3875": 6.75,"3900": 6.41,"3925": 5.03,"3950": 4.11,"3975": 4.02,"4000": 2.85,"4025": 2.85,"4050": 2.31,"4075": 1.78,"4100": 1.74,"4125": 1.15,"4150": 1.11,"4175": 1.13,"4200": 0.75,"4225": 0.92,"4250": 0.61,"4275": 0.63,"4300": 0.48,"4325": 0.42,"4350": 0.29}}}