{"type": "Feature","bbox": [-71.023,8.5539,-70.7006,8.86],"geometry": {"type": "MultiPolygon","coordinates": [[[[-70.8417,8.5746,3141.8186],[-70.8329,8.5788,2723.459],[-70.8058,8.5845,2595.3889],[-70.7684,8.5875,2273.3831],[-70.7441,8.5924,1643.562],[-70.7293,8.5976,1403.1229],[-70.712,8.6076,831.0365],[-70.7048,8.6142,930.1956],[-70.7006,8.6294,1232.27],[-70.704,8.6457,1466.6045],[-70.7143,8.6592,2124.7793],[-70.7234,8.6754,1819.9885],[-70.7269,8.6923,2913.6035],[-70.7255,8.7041,2963.418],[-70.7176,8.7154,2519.1897],[-70.7271,8.7474,3536.9387],[-70.7346,8.7533,3774.5361],[-70.743,8.7538,3883.0239],[-70.7483,8.7508,3770.769],[-70.7579,8.738,3504.4861],[-70.7627,8.7344,3395.1648],[-70.7675,8.7345,3329.4795],[-70.7723,8.7395,3451.1182],[-70.7739,8.7455,3735.1567],[-70.772,8.7789,4222.1914],[-70.7732,8.7919,4036.7859],[-70.7787,8.8015,3534.5354],[-70.7912,8.8153,3063.0894],[-70.8093,8.8272,3344.3779],[-70.8199,8.8362,3696.137],[-70.8264,8.846,4115.2222],[-70.8346,8.8528,3973.719],[-70.8506,8.86,4101.8286],[-70.863,8.8523,3836.375],[-70.8947,8.8075,4120.4658],[-70.9081,8.799,3527.7852],[-70.9417,8.7873,4309.7266],[-70.9378,8.7827,4062.6729],[-70.9375,8.7685,3746.4192],[-70.9474,8.7606,3601.9175],[-70.9634,8.7351,2848.8547],[-70.9743,8.7237,2540.7288],[-71.0131,8.698,2646.2795],[-71.023,8.6869,2491.3445],[-70.9969,8.6805,2301.7112],[-70.9943,8.6436,3154.0977],[-70.9946,8.6249,3884.7021],[-70.992,8.6115,3995.2483],[-70.9822,8.5989,4001.7117],[-70.9696,8.5945,4281.2437],[-70.9562,8.5954,4202.6382],[-70.9168,8.6041,4072.4333],[-70.9037,8.6091,4072.9351],[-70.8934,8.6026,3750.3896],[-70.8893,8.5933,3502.0405],[-70.8897,8.5862,3409.3174],[-70.8942,8.5751,3483.3635],[-70.8931,8.5668,3550.063],[-70.888,8.5602,3453.0803],[-70.8823,8.5568,3177.0374],[-70.872,8.5539,2938.1853],[-70.8564,8.5539,2147.8093],[-70.8505,8.5666,2437.825],[-70.8417,8.5746,3141.8186]]]]}
,"properties": {"GID_2": "VEN.15.17_1","GID_0": "VEN","country": "Venezuela","GID_1": "VEN.15_1","province": "Mérida","NL_NAME_1": "NA","county": "Rangel","VARNAME_2": "NA","NL_NAME_2": "NA","TYPE_2": "Municipio","ENGTYPE_2": "Municipality","CC_2": "NA","HASC_2": "NA","name": "Rangel.county","area_km2": 694.9264,"hist_schema_id": "Elevation0-9000","hist_area_km2": {"800": 0.0419,"825": 0.1467,"850": 0.1467,"875": 0.2725,"900": 0.1887,"925": 0.1887,"950": 0.2306,"975": 0.3773,"1000": 0.4193,"1025": 0.8804,"1050": 0.4821,"1075": 0.587,"1100": 1.0062,"1125": 0.6289,"1150": 1.132,"1175": 0.7756,"1200": 1.09,"1225": 1.0272,"1250": 1.0691,"1275": 1.677,"1300": 1.5512,"1325": 1.7608,"1350": 2.0962,"1375": 2.0333,"1400": 1.8656,"1425": 1.635,"1450": 1.7818,"1475": 1.635,"1500": 1.656,"1525": 1.7399,"1550": 1.677,"1575": 1.5093,"1600": 1.4464,"1625": 1.6141,"1650": 1.2996,"1675": 1.4044,"1700": 1.8446,"1725": 1.4463,"1750": 1.5092,"1775": 1.9914,"1800": 1.2787,"1825": 1.4883,"1850": 1.614,"1875": 1.635,"1900": 1.8236,"1925": 1.6769,"1950": 1.8027,"1975": 2.0333,"2000": 1.8656,"2025": 1.8446,"2050": 1.8027,"2075": 1.8865,"2100": 2.159,"2125": 1.8027,"2150": 1.8656,"2175": 2.3058,"2200": 2.2848,"2225": 2.18,"2250": 2.9136,"2275": 2.8297,"2300": 2.1799,"2325": 1.9913,"2350": 2.4943,"2375": 2.4314,"2400": 2.5991,"2425": 2.683,"2450": 3.144,"2475": 2.7039,"2500": 3.2698,"2525": 3.4165,"2550": 3.2908,"2575": 3.1231,"2600": 2.9973,"2625": 3.5842,"2650": 3.165,"2675": 2.9554,"2700": 3.6052,"2725": 3.2489,"2750": 3.4164,"2775": 3.5213,"2800": 4.171,"2825": 3.5841,"2850": 4.5272,"2875": 4.2339,"2900": 4.7998,"2925": 5.2399,"2950": 5.156,"2975": 5.3864,"3000": 6.0571,"3025": 5.8475,"3050": 5.9733,"3075": 6.078,"3100": 6.602,"3125": 7.1469,"3150": 6.3714,"3175": 6.9374,"3200": 6.7276,"3225": 7.5869,"3250": 8.1946,"3275": 8.3834,"3300": 8.467,"3325": 8.9282,"3350": 9.1798,"3375": 9.075,"3400": 9.8504,"3425": 10.8563,"3450": 11.6107,"3475": 11.904,"3500": 12.1553,"3525": 12.826,"3550": 12.7425,"3575": 13.3082,"3600": 13.8952,"3625": 14.2094,"3650": 13.2244,"3675": 13.3921,"3700": 14.461,"3725": 15.2364,"3750": 15.5508,"3775": 14.9639,"3800": 14.8173,"3825": 15.2575,"3850": 14.7963,"3875": 14.5449,"3900": 14.0208,"3925": 12.6584,"3950": 12.7212,"3975": 12.5117,"4000": 10.7932,"4025": 10.0596,"4050": 9.4096,"4075": 7.5655,"4100": 6.3918,"4125": 5.6374,"4150": 4.8201,"4175": 4.2754,"4200": 3.1017,"4225": 2.9131,"4250": 1.928,"4275": 1.7184,"4300": 1.425,"4325": 0.922,"4350": 0.7753,"4375": 0.482,"4400": 0.503,"4425": 0.3143,"4450": 0.2934,"4475": 0.1676,"4500": 0.2934,"4525": 0.0629,"4550": 0.0838,"4575": 0.0419}}}