{"type": "Feature","bbox": [-72.4414,6.9347,-69.6107,7.7297],"geometry": {"type": "MultiPolygon","coordinates": [[[[-70.1247,6.9793,115.2711],[-70.1087,6.993,105.5],[-70.0941,7.0021,111.5844],[-70.0893,7.0025,107.8893],[-70.0934,7.0102,106.7679],[-70.3878,7.2085,114.0833],[-70.3895,7.2116,114.2004],[-70.3716,7.217,113.6367],[-70.354,7.219,113.0329],[-70.3405,7.2183,111.6276],[-70.3233,7.2124,112.4329],[-70.2899,7.1946,115.3982],[-70.2751,7.1902,118.3285],[-70.2515,7.1891,109.7747],[-70.2239,7.1939,108.7898],[-70.1792,7.2155,106.8591],[-70.1497,7.2275,106.5135],[-70.1297,7.2309,106.7243],[-70.1025,7.2329,105.1871],[-70.034,7.2249,113.58],[-69.9866,7.215,103.6226],[-69.9519,7.2104,101.6379],[-69.8912,7.2077,100.0551],[-69.8698,7.2097,99.7076],[-69.8537,7.2151,98.9521],[-69.8099,7.2357,99.0513],[-69.8011,7.2375,98.3748],[-69.7812,7.2395,97.3177],[-69.7245,7.2362,96.2032],[-69.701,7.2379,96.3377],[-69.6852,7.2419,95.546],[-69.6725,7.2485,94.3575],[-69.6404,7.2718,93.9476],[-69.6107,7.3,91.9111],[-69.631,7.3185,92.6055],[-69.6763,7.4624,91.3655],[-69.6854,7.4827,91.1731],[-69.7141,7.5148,91.4988],[-69.7693,7.5688,94.0377],[-69.8218,7.6246,94.3377],[-69.8889,7.6994,97.0224],[-69.9221,7.7297,96.1787],[-69.9269,7.7214,96.4263],[-69.9359,7.7181,96.1083],[-69.9444,7.7082,99.0196],[-70.0077,7.7101,98.1864],[-70.0315,7.7064,98.1605],[-70.0487,7.7017,99.3878],[-70.0839,7.6902,101.1326],[-70.0954,7.6849,101.5855],[-70.1252,7.6605,102.3033],[-70.1558,7.6387,108.1439],[-70.1593,7.6339,104.2876],[-70.1584,7.6232,104.7804],[-70.155,7.6149,103.9537],[-70.1544,7.605,103.6115],[-70.16,7.5962,104.6003],[-70.1698,7.5888,104.2956],[-70.2052,7.5679,106.0309],[-70.2245,7.5634,106.6123],[-70.2427,7.5658,106.5145],[-70.2611,7.571,105.9537],[-70.2765,7.5729,107.0191],[-70.2927,7.5725,108.1329],[-70.3121,7.5676,111.5033],[-70.3208,7.5631,112.8816],[-70.3295,7.5537,110.2314],[-70.3658,7.4815,116.7092],[-70.3835,7.4543,112.5],[-70.3936,7.4446,112.5],[-70.4216,7.4258,117.3092],[-70.4404,7.4194,114.0],[-70.4601,7.4156,119.1869],[-70.5076,7.4128,118.5391],[-70.5115,7.4083,122.6469],[-70.5135,7.3851,118.0093],[-70.5223,7.3887,117.1286],[-70.5227,7.3804,118.5908],[-70.5352,7.3749,120.0289],[-70.5404,7.375,118.1962],[-70.5534,7.3793,123.0206],[-70.5614,7.3786,121.9126],[-70.5693,7.3733,127.4305],[-70.5802,7.3607,120.067],[-70.5893,7.3558,125.0231],[-70.62,7.3451,123.1735],[-70.6331,7.3456,121.9302],[-70.6347,7.3514,123.5643],[-70.639,7.3576,124.6357],[-70.6526,7.3633,130.6015],[-70.665,7.3639,133.4532],[-70.6777,7.359,125.6279],[-70.6901,7.3449,123.9424],[-70.7041,7.3364,125.2145],[-70.7263,7.3293,126.7132],[-70.7396,7.3221,126.5789],[-70.7555,7.3093,130.2341],[-70.7714,7.3038,129.1181],[-70.7874,7.3075,142.4771],[-70.7974,7.3154,137.4882],[-70.8124,7.3232,130.2258],[-70.8268,7.3265,133.0735],[-70.8405,7.3334,131.9732],[-70.8488,7.3416,137.7765],[-70.8609,7.3497,131.7531],[-70.8745,7.353,133.0394],[-70.8845,7.3528,132.6114],[-70.9143,7.334,135.2356],[-70.9296,7.3285,141.7778],[-70.9475,7.326,146.1338],[-70.9701,7.3268,135.5645],[-70.9842,7.3312,136.2516],[-71.0159,7.3493,147.698],[-71.0506,7.3622,142.5125],[-71.0714,7.3713,144.3363],[-71.0856,7.3798,141.3708],[-71.0996,7.3846,142.9926],[-71.1391,7.3924,147.9323],[-71.1552,7.3978,146.4416],[-71.1717,7.3993,155.2019],[-71.1847,7.3973,147.3971],[-71.1982,7.3883,148.0042],[-71.2006,7.3886,149.5761],[-71.2143,7.3946,149.0239],[-71.2378,7.4128,152.2897],[-71.2499,7.4185,152.6951],[-71.2849,7.4217,156.0331],[-71.2937,7.4277,153.9999],[-71.3432,7.424,157.016],[-71.3592,7.4258,157.303],[-71.3901,7.4187,162.5668],[-71.4372,7.4198,162.3959],[-71.4636,7.4259,165.721],[-71.5023,7.4219,168.3739],[-71.5277,7.4173,173.1139],[-71.5719,7.4154,179.1133],[-71.6047,7.4022,189.4615],[-71.6321,7.3971,181.1327],[-71.6656,7.3835,185.4283],[-71.6834,7.3828,185.4487],[-71.704,7.3894,199.8799],[-71.7131,7.3869,189.6358],[-71.7264,7.3767,190.2642],[-71.7316,7.3768,191.2194],[-71.7371,7.3811,192.4378],[-71.7494,7.3994,192.2554],[-71.7504,7.4083,192.6583],[-71.7476,7.4155,192.8424],[-71.7474,7.4249,191.9658],[-71.7779,7.4385,197.9497],[-71.7943,7.4362,200.3893],[-71.8048,7.4365,202.8494],[-71.8231,7.4293,207.7342],[-71.8428,7.4018,210.9826],[-71.8596,7.3851,214.6089],[-71.8877,7.3529,230.5708],[-71.9026,7.3443,249.4109],[-71.947,7.3253,328.0351],[-71.9752,7.3206,394.7082],[-72.0184,7.3296,542.152],[-72.0651,7.3493,556.7368],[-72.1123,7.3785,702.9813],[-72.1649,7.4178,1304.7286],[-72.2481,7.4618,1377.5057],[-72.2865,7.47,1845.9585],[-72.3151,7.4722,2990.0337],[-72.3384,7.4712,2366.0415],[-72.3861,7.4629,2703.842],[-72.4414,7.4367,2311.0132],[-72.4398,7.4248,2426.9714],[-72.4407,7.4194,2492.1724],[-72.4361,7.4105,2633.5371],[-72.4279,7.4008,2926.9958],[-72.3949,7.3993,3162.9592],[-72.3794,7.3968,3106.5874],[-72.3736,7.3929,3107.4688],[-72.3496,7.3921,2839.8853],[-72.3375,7.3867,2747.0969],[-72.3251,7.3747,2558.771],[-72.3111,7.3799,2411.2998],[-72.3099,7.3848,2355.0786],[-72.3032,7.3908,2272.4412],[-72.2924,7.3902,2134.5525],[-72.2911,7.3918,2065.2969],[-72.2886,7.3888,2094.3298],[-72.2789,7.3839,1803.0422],[-72.2691,7.3819,1607.8259],[-72.2659,7.3842,1628.1709],[-72.2622,7.3815,1483.7542],[-72.2513,7.381,1442.0215],[-72.2481,7.3868,1398.9231],[-72.2418,7.3913,1356.9835],[-72.2338,7.3903,1349.4451],[-72.2273,7.3943,1247.7672],[-72.2211,7.3955,1340.5107],[-72.2164,7.3928,1296.0491],[-72.2112,7.3926,1305.2588],[-72.2098,7.3894,1297.8354],[-72.2061,7.387,1297.8313],[-72.2032,7.3886,1226.0509],[-72.2015,7.3854,1241.3116],[-72.1992,7.387,1141.7423],[-72.1954,7.3852,1124.3057],[-72.1937,7.3782,1088.3361],[-72.1874,7.3738,1230.9167],[-72.1804,7.3556,976.335],[-72.177,7.3536,970.4162],[-72.1746,7.3491,932.588],[-72.1719,7.3487,923.7042],[-72.1722,7.3455,901.2673],[-72.1618,7.3381,882.9674],[-72.1616,7.336,835.0057],[-72.1578,7.3344,990.0436],[-72.1536,7.3284,855.4188],[-72.1589,7.3216,845.1823],[-72.1606,7.3178,848.6625],[-72.1587,7.3126,804.866],[-72.1629,7.3049,758.444],[-72.1657,7.3026,748.7859],[-72.1699,7.2923,775.4293],[-72.1709,7.2877,759.4266],[-72.1688,7.285,775.6261],[-72.1697,7.2803,753.1193],[-72.1674,7.2791,727.0694],[-72.1689,7.2742,720.3995],[-72.1674,7.2724,700.8458],[-72.1713,7.2686,736.6995],[-72.1706,7.2657,742.931],[-72.1727,7.2635,721.3869],[-72.1728,7.2605,681.0649],[-72.1743,7.2602,676.9234],[-72.174,7.2575,740.8137],[-72.1703,7.2557,729.0729],[-72.1702,7.2523,668.7237],[-72.1585,7.2332,1007.9291],[-72.085,7.1275,511.8317],[-72.0614,7.0827,822.3082],[-72.0326,7.0377,278.25],[-72.0272,7.0332,275.8438],[-72.0276,7.0273,278.5698],[-72.0204,7.0239,275.3128],[-72.014,7.0168,265.8915],[-72.0123,7.0113,263.4597],[-72.0068,7.0079,260.224],[-72.0039,7.0094,260.6636],[-71.9725,7.0094,239.9576],[-71.9417,7.0127,225.6971],[-71.9246,7.0112,216.5028],[-71.916,7.0136,213.219],[-71.8992,7.0134,213.2154],[-71.8936,7.0157,209.2892],[-71.8864,7.0133,205.2016],[-71.8718,7.0171,200.1689],[-71.8433,7.0172,195.9148],[-71.8401,7.0184,192.1021],[-71.8376,7.0223,191.3093],[-71.831,7.025,189.4691],[-71.8248,7.0309,183.2998],[-71.8244,7.0356,182.0],[-71.8267,7.0435,188.9143],[-71.8266,7.0518,182.0],[-71.8248,7.056,184.3549],[-71.8199,7.0576,180.6608],[-71.811,7.0564,182.4332],[-71.8049,7.0573,183.1571],[-71.7961,7.0635,178.5],[-71.783,7.0678,181.0668],[-71.7683,7.0648,177.5],[-71.7583,7.0657,177.0],[-71.7548,7.0682,177.0],[-71.7539,7.0736,178.1759],[-71.7505,7.0777,181.8606],[-71.7454,7.0811,181.4341],[-71.7421,7.078,180.4514],[-71.739,7.0638,176.0],[-71.7219,7.0567,175.0],[-71.7182,7.0487,174.875],[-71.7171,7.0391,174.5],[-71.7121,7.0337,174.0],[-71.7088,7.0326,174.0],[-71.6965,7.0345,173.0],[-71.6883,7.0378,175.0004],[-71.6772,7.0364,172.0],[-71.6716,7.0336,171.5],[-71.6613,7.0335,171.5],[-71.6514,7.0448,171.0],[-71.6474,7.0527,171.1064],[-71.643,7.0546,170.0],[-71.636,7.0543,170.556],[-71.6211,7.0448,169.1979],[-71.6142,7.0429,168.0],[-71.6038,7.0456,170.1062],[-71.5932,7.0534,167.0],[-71.5868,7.0529,166.5],[-71.5852,7.0458,167.151],[-71.592,7.0312,166.0],[-71.5922,7.0237,166.0],[-71.5891,7.0182,166.0],[-71.5845,7.0187,166.0],[-71.5716,7.0253,163.0],[-71.5575,7.0281,163.5455],[-71.5444,7.0329,163.0],[-71.5295,7.0344,162.5],[-71.5187,7.0255,161.125],[-71.5142,7.0246,160.875],[-71.5099,7.0253,160.5],[-71.5011,7.0337,159.5],[-71.4976,7.0339,161.3251],[-71.4933,7.0306,159.25],[-71.4872,7.0176,160.9853],[-71.4787,7.0153,158.0],[-71.4731,7.0182,160.5105],[-71.4699,7.0241,160.6845],[-71.4711,7.0376,160.6183],[-71.4669,7.0415,159.9983],[-71.4599,7.0389,159.6463],[-71.4578,7.0301,159.4953],[-71.4601,7.0151,157.0],[-71.4578,7.0109,157.8092],[-71.4547,7.0097,158.916],[-71.4505,7.0138,156.5],[-71.45,7.0277,159.1447],[-71.4476,7.0282,157.2627],[-71.4372,7.0247,155.5],[-71.4321,7.0348,158.8513],[-71.4265,7.0386,155.0],[-71.4144,7.0359,157.7487],[-71.3978,7.0368,155.3399],[-71.3924,7.0353,156.7972],[-71.3867,7.0313,157.6579],[-71.3803,7.0193,153.125],[-71.3719,7.0158,153.0],[-71.3666,7.0162,152.5],[-71.3604,7.0192,153.3362],[-71.351,7.019,152.0],[-71.3417,7.0166,151.5],[-71.3265,7.0183,151.0],[-71.2983,7.0289,151.6277],[-71.286,7.0244,149.5],[-71.2833,7.0247,149.5],[-71.2669,7.0327,154.4338],[-71.263,7.0304,155.0188],[-71.2593,7.0201,152.467],[-71.25,7.0187,148.5413],[-71.2414,7.0117,146.5],[-71.2382,7.014,153.5418],[-71.2324,7.0259,150.7495],[-71.2289,7.0274,151.1002],[-71.2252,7.0273,148.1085],[-71.2115,7.0196,145.5],[-71.208,7.02,146.1287],[-71.2031,7.0249,150.9529],[-71.199,7.0254,150.1627],[-71.1915,7.0195,147.8055],[-71.1881,7.0213,147.5721],[-71.1824,7.0212,145.5467],[-71.1689,7.0266,147.4637],[-71.1497,7.0275,144.7965],[-71.1441,7.0334,147.1024],[-71.1305,7.0336,143.9052],[-71.1255,7.0291,145.5693],[-71.1235,7.0238,146.1014],[-71.1245,7.0166,143.1813],[-71.1225,7.0128,150.2668],[-71.1191,7.011,145.4957],[-71.1092,7.0125,144.5251],[-71.1031,7.0083,142.0176],[-71.1034,7.0051,140.5],[-71.1088,7.0024,141.1423],[-71.112,7.0043,151.3644],[-71.1137,7.0074,146.4958],[-71.1157,7.0074,145.4249],[-71.112,7.0016,144.0723],[-71.1118,6.9979,145.6527],[-71.1144,6.9947,143.8211],[-71.1121,6.9907,144.1918],[-71.0952,6.9884,139.2326],[-71.0905,6.9835,139.8664],[-71.084,6.9846,137.0],[-71.0782,6.9811,137.0],[-71.072,6.9837,141.1774],[-71.0665,6.9808,141.5497],[-71.0623,6.9827,142.407],[-71.0547,6.9814,140.44],[-71.0406,6.9822,140.8772],[-71.022,6.9743,137.7253],[-70.9954,6.9836,135.803],[-70.9914,6.9907,139.5422],[-70.9866,6.9951,136.5391],[-70.9849,7.0005,136.452],[-70.9799,7.0,138.5445],[-70.9767,7.0021,136.1224],[-70.9752,7.0113,140.3795],[-70.9706,7.0164,134.0],[-70.952,7.0168,133.5],[-70.94,7.0139,133.5],[-70.9359,7.0201,135.2468],[-70.9224,7.0238,132.5],[-70.9214,7.0285,139.7498],[-70.9263,7.0348,135.1305],[-70.9273,7.0467,133.9529],[-70.9178,7.0534,130.75],[-70.9155,7.0528,130.5],[-70.9127,7.0444,138.8011],[-70.9068,7.0424,135.0721],[-70.9022,7.0462,129.5],[-70.8963,7.0585,129.5],[-70.8883,7.0641,131.8587],[-70.8745,7.0641,129.0],[-70.868,7.0579,129.0],[-70.8616,7.0547,128.625],[-70.8502,7.0572,128.0],[-70.8495,7.0597,128.0],[-70.8527,7.0624,131.3255],[-70.8464,7.0703,127.5],[-70.8479,7.072,129.8103],[-70.8519,7.0692,133.9337],[-70.8576,7.071,127.5],[-70.8575,7.074,131.496],[-70.8536,7.078,128.7726],[-70.8462,7.0749,127.0],[-70.8408,7.0786,130.1834],[-70.8375,7.079,128.8093],[-70.8327,7.0748,128.9871],[-70.8258,7.074,129.1827],[-70.8229,7.0703,134.1032],[-70.8199,7.0735,126.5],[-70.8185,7.0794,136.8353],[-70.8132,7.0789,129.9908],[-70.7974,7.0836,129.1429],[-70.7864,7.0835,126.0],[-70.7806,7.0775,128.017],[-70.7776,7.077,128.5952],[-70.7743,7.08,126.7443],[-70.7702,7.0892,125.0],[-70.7646,7.0906,128.0289],[-70.765,7.0953,130.2802],[-70.7624,7.0975,126.9499],[-70.7582,7.0973,126.8158],[-70.7445,7.0897,125.706],[-70.7382,7.089,128.4734],[-70.7177,7.0942,124.4605],[-70.6988,7.0938,123.2132],[-70.6954,7.0953,122.5],[-70.6895,7.1031,124.61],[-70.686,7.1042,122.8046],[-70.6814,7.0983,121.5],[-70.6794,7.0924,121.5],[-70.6731,7.0856,121.0],[-70.6643,7.0845,122.2089],[-70.6583,7.0807,122.6338],[-70.6467,7.0786,120.0],[-70.6438,7.075,123.7133],[-70.642,7.0693,121.1167],[-70.6355,7.0708,126.0252],[-70.6303,7.0693,122.8904],[-70.6252,7.0705,122.3232],[-70.607,7.0643,121.6168],[-70.5859,7.0691,121.6572],[-70.585,7.076,121.0632],[-70.5761,7.0755,121.1271],[-70.5709,7.0812,119.0],[-70.568,7.0814,119.0],[-70.5627,7.0779,119.0],[-70.5565,7.0797,119.4809],[-70.5542,7.0759,120.2707],[-70.5499,7.0756,121.1198],[-70.5473,7.0713,123.2852],[-70.5439,7.0693,123.9524],[-70.5416,7.0616,122.4011],[-70.5351,7.0552,121.4238],[-70.5374,7.0512,125.0789],[-70.5413,7.0509,121.2404],[-70.5391,7.0454,120.3886],[-70.5342,7.0479,121.6248],[-70.532,7.0473,121.5061],[-70.5333,7.0444,121.0236],[-70.5375,7.0431,120.2144],[-70.5386,7.0404,122.2483],[-70.5304,7.0407,119.8609],[-70.5283,7.0421,119.5415],[-70.5256,7.0359,119.9128],[-70.5216,7.0353,121.7426],[-70.5134,7.0281,120.2204],[-70.5108,7.0276,120.3331],[-70.5112,7.0248,119.8714],[-70.5147,7.0213,119.1602],[-70.5091,7.0192,125.5796],[-70.5095,7.0147,120.4791],[-70.5049,7.0113,120.2062],[-70.5026,7.006,119.4005],[-70.4928,7.0059,121.2131],[-70.4929,7.0086,119.559],[-70.4905,7.0094,120.8876],[-70.4751,7.0021,121.123],[-70.4671,7.0009,121.3232],[-70.4657,7.0036,120.2368],[-70.4589,7.0034,119.8228],[-70.4576,7.0106,120.0707],[-70.4547,7.0126,120.1167],[-70.4513,7.0109,121.9951],[-70.4502,7.0077,121.7809],[-70.4549,7.0056,120.7659],[-70.4549,7.0041,120.0344],[-70.4435,7.0034,120.0494],[-70.4392,7.0085,117.5151],[-70.437,7.0016,120.4138],[-70.4368,7.0069,119.1533],[-70.4306,7.0079,120.6408],[-70.4293,7.0022,118.2714],[-70.4267,6.9991,120.9797],[-70.4273,6.9944,115.4474],[-70.4231,6.9907,119.9831],[-70.4228,6.9871,117.4347],[-70.4172,6.9819,116.2637],[-70.4137,6.9817,118.0623],[-70.4099,6.9854,115.7316],[-70.406,6.9853,117.4933],[-70.4044,6.9885,116.2833],[-70.3976,6.9821,117.3841],[-70.3865,6.9861,115.3278],[-70.3795,6.9812,119.9747],[-70.3723,6.9817,119.4433],[-70.3711,6.9724,116.2475],[-70.3659,6.9678,116.7858],[-70.3611,6.9673,113.3758],[-70.3621,6.9617,115.23],[-70.3599,6.9562,116.6524],[-70.3518,6.9569,115.1981],[-70.3512,6.9551,116.2461],[-70.3547,6.9539,117.4718],[-70.3541,6.952,114.3787],[-70.3485,6.9527,115.0046],[-70.343,6.9443,116.3369],[-70.3385,6.9453,114.8669],[-70.3325,6.9412,114.9647],[-70.3279,6.9412,113.6963],[-70.3238,6.9354,116.9805],[-70.3113,6.9365,112.9281],[-70.3081,6.9381,112.3004],[-70.3016,6.9377,112.7957],[-70.2935,6.9347,114.142],[-70.2878,6.9368,113.541],[-70.2845,6.9414,111.6153],[-70.2775,6.9382,113.9255],[-70.2724,6.9417,112.7119],[-70.265,6.942,113.3947],[-70.2494,6.9541,113.4495],[-70.2498,6.9592,110.2334],[-70.2442,6.9597,115.0269],[-70.2309,6.9656,111.8343],[-70.2285,6.9679,112.7116],[-70.2288,6.9716,113.9386],[-70.224,6.9751,111.73779999999999],[-70.2162,6.9763,110.5045],[-70.2105,6.9749,113.5992],[-70.2063,6.9785,112.5928],[-70.2021,6.9762,112.1215],[-70.1973,6.9793,110.7186],[-70.1928,6.9767,113.4933],[-70.1887,6.9789,108.3971],[-70.1823,6.9772,110.5613],[-70.1797,6.9798,111.9884],[-70.1731,6.9766,114.0208],[-70.1689,6.9788,110.7161],[-70.1659,6.9781,110.9327],[-70.1562,6.9807,115.2964],[-70.1492,6.9847,111.7364],[-70.1455,6.9827,111.1634],[-70.1449,6.9788,115.0445],[-70.1422,6.9791,117.6606],[-70.1403,6.9771,118.9866],[-70.1375,6.9776,117.1748],[-70.1335,6.9755,117.2086],[-70.1247,6.9793,115.2711]]]]}
,"properties": {"GID_2": "VEN.3.4_1","GID_0": "VEN","country": "Venezuela","GID_1": "VEN.3_1","province": "Apure","NL_NAME_1": "NA","county": "Páez","VARNAME_2": "NA","NL_NAME_2": "NA","TYPE_2": "Municipio","ENGTYPE_2": "Municipality","CC_2": "NA","HASC_2": "NA","name": "Páez.county","area_km2": 11646.958,"hist_schema_id": "Elevation0-9000","hist_area_km2": {"75": 0.315,"100": 3553.893,"125": 2749.908,"150": 2062.862,"175": 1342.731,"200": 651.85,"225": 211.834,"250": 127.189,"275": 99.401,"300": 54.923,"325": 48.086,"350": 42.868,"375": 40.175,"400": 34.538,"425": 29.868,"450": 25.788,"475": 25.808,"500": 21.875,"525": 20.949,"550": 18.257,"575": 14.639,"600": 11.758,"625": 9.633,"650": 9.738,"675": 8.603,"700": 8.918,"725": 7.908,"750": 8.245,"775": 8.728,"800": 7.887,"825": 7.866,"850": 7.487,"875": 6.793,"900": 6.919,"925": 6.457,"950": 6.562,"975": 6.225,"1000": 5.952,"1025": 6.078,"1050": 5.847,"1075": 5.363,"1100": 5.615,"1125": 5.09,"1150": 4.942,"1175": 5.047,"1200": 4.437,"1225": 4.837,"1250": 4.543,"1275": 3.891,"1300": 4.143,"1325": 4.29,"1350": 4.017,"1375": 4.08,"1400": 3.449,"1425": 4.29,"1450": 3.47,"1475": 3.218,"1500": 3.154,"1525": 3.764,"1550": 3.217,"1575": 2.481,"1600": 2.313,"1625": 2.797,"1650": 2.271,"1675": 2.839,"1700": 2.418,"1725": 2.502,"1750": 2.565,"1775": 2.124,"1800": 2.607,"1825": 2.208,"1850": 2.081,"1875": 2.06,"1900": 2.754,"1925": 2.229,"1950": 2.88,"1975": 2.523,"2000": 2.502,"2025": 2.733,"2050": 2.817,"2075": 2.754,"2100": 2.712,"2125": 2.964,"2150": 3.028,"2175": 3.133,"2200": 3.427,"2225": 3.238,"2250": 3.322,"2275": 3.427,"2300": 3.742,"2325": 3.49,"2350": 4.331,"2375": 4.541,"2400": 3.995,"2425": 4.73,"2450": 4.772,"2475": 4.52,"2500": 4.625,"2525": 4.541,"2550": 4.226,"2575": 4.226,"2600": 4.016,"2625": 3.784,"2650": 4.373,"2675": 3.932,"2700": 4.226,"2725": 3.995,"2750": 4.142,"2775": 3.742,"2800": 3.784,"2825": 3.616,"2850": 3.679,"2875": 3.763,"2900": 4.163,"2925": 3.469,"2950": 3.637,"2975": 3.301,"3000": 3.133,"3025": 3.49,"3050": 3.784,"3075": 3.89,"3100": 3.385,"3125": 3.343,"3150": 3.007,"3175": 2.817,"3200": 2.649,"3225": 2.88,"3250": 2.565,"3275": 2.081,"3300": 1.976,"3325": 1.283,"3350": 1.325,"3375": 1.24,"3400": 0.883,"3425": 0.589,"3450": 0.778,"3475": 0.315,"3500": 0.105,"3525": 0.105}}}