{"type": "Feature","bbox": [-70.8246,9.2419,-70.6165,9.4316],"geometry": {"type": "MultiPolygon","coordinates": [[[[-70.8246,9.3032,100.3982],[-70.8244,9.3011,103.3209],[-70.8182,9.2969,167.1413],[-70.8014,9.2785,294.4563],[-70.7768,9.2556,872.7097],[-70.7564,9.247,1009.1938],[-70.7312,9.2499,1378.9138],[-70.725,9.247,1666.9553],[-70.7249,9.2419,1828.4318],[-70.7195,9.2444,1952.6349],[-70.7088,9.2527,2008.585],[-70.6951,9.2713,1505.7849],[-70.6752,9.2865,1036.1444],[-70.6596,9.3066,971.2701],[-70.6379,9.3226,819.9541],[-70.6256,9.3391,801.3276],[-70.6169,9.3671,610.3561],[-70.6165,9.3866,412.8178],[-70.6207,9.403,770.509],[-70.6549,9.4316,530.1848],[-70.6596,9.4159,491.4013],[-70.6727,9.3906,429.8016],[-70.6844,9.3765,650.8127],[-70.6864,9.375,631.9935],[-70.6898,9.3774,613.428],[-70.6962,9.373,636.15],[-70.7206,9.3477,676.8396],[-70.7647,9.3241,452.4952],[-70.7831,9.3065,240.8948],[-70.799,9.3029,215.0697],[-70.8246,9.3032,100.3982]]]]}
,"properties": {"GID_2": "VEN.22.6_1","GID_0": "VEN","country": "Venezuela","GID_1": "VEN.22_1","province": "Trujillo","NL_NAME_1": "NA","county": "Escuque","VARNAME_2": "NA","NL_NAME_2": "NA","TYPE_2": "Municipio","ENGTYPE_2": "Municipality","CC_2": "NA","HASC_2": "NA","name": "Escuque.county","area_km2": 195.3708,"hist_schema_id": "Elevation0-9000","hist_area_km2": {"100": 0.272,"125": 0.544,"150": 0.4812,"175": 0.6905,"200": 0.7533,"225": 0.7742,"250": 1.0253,"275": 0.7114,"300": 1.0671,"325": 1.4019,"350": 1.4437,"375": 1.9249,"400": 2.0504,"425": 3.2429,"450": 3.8913,"475": 5.3137,"500": 5.8157,"525": 5.8784,"550": 5.983,"575": 6.1294,"600": 5.1672,"625": 5.7112,"650": 5.4184,"675": 5.0419,"700": 5.1466,"725": 5.0839,"750": 4.7492,"775": 4.3098,"800": 3.9752,"825": 4.2681,"850": 4.1426,"875": 3.6405,"900": 3.7033,"925": 3.2639,"950": 3.3267,"975": 3.0547,"1000": 3.536,"1025": 3.2012,"1050": 3.5151,"1075": 3.3477,"1100": 3.2431,"1125": 4.1428,"1150": 3.6406,"1175": 4.08,"1200": 3.3687,"1225": 3.3059,"1250": 3.264,"1275": 3.1385,"1300": 2.72,"1325": 2.8037,"1350": 2.0295,"1375": 2.2179,"1400": 1.8622,"1425": 2.2597,"1450": 1.5065,"1475": 1.6739,"1500": 1.7576,"1525": 1.6739,"1550": 1.3391,"1575": 1.1927,"1600": 1.2764,"1625": 1.0044,"1650": 1.0044,"1675": 0.9625,"1700": 0.9207,"1725": 0.8998,"1750": 0.6696,"1775": 0.7115,"1800": 0.6068,"1825": 0.6487,"1850": 0.7324,"1875": 0.544,"1900": 0.3976,"1925": 0.293,"1950": 0.1674,"1975": 0.0837,"2000": 0.1046,"2025": 0.0419,"2050": 0.0837}}}