{"type":"Feature","properties":{"GID_2":"VEN.13.9_1","GID_0":"VEN","country":"Venezuela","GID_1":"VEN.13_1","province":"Guárico","NL_NAME_1":"NA","county":"Ortíz","VARNAME_2":"NA","NL_NAME_2":"NA","TYPE_2":"Municipio","ENGTYPE_2":"Municipality","CC_2":"NA","HASC_2":"NA","name":"Ortíz.county"},
"geometry":{"type": "MultiPolygon","coordinates": [[[[-67.7885,9.9268,809.1672],[-67.799,9.9239,1021.3145],[-67.8074,9.9143,881.966],[-67.8091,9.9016,1031.9039],[-67.8084,9.8916,886.9211],[-67.8025,9.855,834.5732],[-67.7963,9.8531,823.4971],[-67.7892,9.8467,1201.7631],[-67.7811,9.833,1164.8535],[-67.7674,9.8033,541.0756],[-67.7586,9.7921,532.5958],[-67.7494,9.7608,655.6235],[-67.7332,9.7359,327.0173],[-67.7283,9.7165,303.649],[-67.7332,9.7012,312.4139],[-67.7596,9.6875,299.2965],[-67.7738,9.6698,286.4574],[-67.8051,9.6444,259.0462],[-67.8363,9.6318,262.2009],[-67.854,9.6296,232.5491],[-67.8711,9.6308,244.57],[-67.8834,9.629,262.3956],[-67.896,9.618,184.5939],[-67.9058,9.5892,436.6434],[-67.931,9.5739,161.8268],[-67.937,9.5635,151.6353],[-67.9396,9.547,160.1064],[-67.9341,9.5292,130.5007],[-67.9151,9.4985,131.6695],[-67.9098,9.4871,119.7564],[-67.908,9.4748,125.2899],[-67.9041,9.4662,116.5747],[-67.9033,9.4505,126.1041],[-67.9052,9.4284,110.6504],[-67.8949,9.4007,116.0872],[-67.8969,9.3853,111.6979],[-67.9157,9.3351,96.5289],[-67.9179,9.3224,103.5766],[-67.9136,9.3086,94.2045],[-67.9046,9.2972,92.037],[-67.8816,9.2753,87.7285],[-67.8623,9.2421,91.5283],[-67.862,9.2239,89.4723],[-67.8644,9.1952,84.3277],[-67.863,9.1768,79.9347],[-67.5085,9.1762,119.927],[-67.4778,9.1781,133.6645],[-67.4618,9.1826,152.5631],[-67.4525,9.1877,151.1855],[-67.4373,9.1885,130.5272],[-67.4302,9.1871,125.159],[-67.4185,9.1817,119.4323],[-67.3961,9.1767,101.0867],[-67.3724,9.1767,103.131],[-67.3675,9.175,110.9326],[-67.3436,9.2184,112.7659],[-67.3406,9.2291,108.5485],[-67.3394,9.2576,112.0728],[-67.3335,9.2678,111.9858],[-67.293,9.3002,114.9235],[-67.2663,9.3174,120.3664],[-67.2542,9.3297,116.2608],[-67.2413,9.3505,121.7005],[-67.2293,9.3776,124.0442],[-67.2271,9.3923,131.6517],[-67.2344,9.4159,125.8901],[-67.2418,9.4539,134.6898],[-67.2418,9.4672,135.4266],[-67.2394,9.4791,145.3732],[-67.2008,9.5403,166.7583],[-67.1851,9.5708,309.4644],[-67.223,9.6514,226.5726],[-67.2298,9.6617,262.9883],[-67.2384,9.6698,263.435],[-67.2517,9.6765,205.6983],[-67.2701,9.6825,226.4472],[-67.3258,9.6925,226.4381],[-67.3411,9.697,250.1556],[-67.3709,9.7118,226.4497],[-67.3995,9.7298,244.4726],[-67.4151,9.7359,264.7515],[-67.4278,9.7371,263.1983],[-67.4741,9.7225,323.0688],[-67.5033,9.7203,300.1769],[-67.5125,9.724,303.8503],[-67.5189,9.7303,337.1334],[-67.5215,9.7369,322.7804],[-67.5227,9.7611,293.0011],[-67.5243,9.8869,1525.0564],[-67.5198,9.9049,1059.7345],[-67.5242,9.9076,1073.7729],[-67.535,9.9193,795.1643],[-67.5439,9.9206,883.231],[-67.5562,9.914,1085.4033],[-67.5645,9.9032,1357.8962],[-67.5716,9.8890999999999991,1037.9717],[-67.579,9.8806,929.9122],[-67.6257,9.8768,656.356],[-67.6426,9.8647,784.2838],[-67.6524,9.8545,604.4462],[-67.6727,9.8418,522.752],[-67.6901,9.8409,509.3829],[-67.6996,9.8454,612.317],[-67.717,9.8729,903.3744],[-67.7317,9.8905,1167.8999],[-67.7582,9.9147,763.6017],[-67.7697,9.9235,694.0685],[-67.7834,9.9281,709.6861],[-67.7885,9.9268,809.1672]]]]}}