{"type":"Feature","properties":{"GID_2":"VEN.14.5_1","GID_0":"VEN","country":"Venezuela","GID_1":"VEN.14_1","province":"Lara","NL_NAME_1":"NA","county":"Morán","VARNAME_2":"NA","NL_NAME_2":"NA","TYPE_2":"Municipio","ENGTYPE_2":"Municipality","CC_2":"NA","HASC_2":"NA","name":"Morán.county"},
"geometry":{"type": "MultiPolygon","coordinates": [[[[-69.713,9.8416,790.2516],[-69.7031,9.8724,658.6411],[-69.7014,9.8899,661.5512],[-69.7043,9.9073,716.9669],[-69.7282,9.9245,845.93],[-69.7416,9.9369,848.7715],[-69.7475,9.945,886.8911],[-69.7494,9.9526,858.0597],[-69.7471,9.9587,813.2708],[-69.7334,9.9703,864.7939],[-69.7307,9.9781,944.3792],[-69.7319,9.9878,883.6646],[-69.7382,10.004,827.3343],[-69.7484,10.0195,791.3834],[-69.7509,10.0292,651.5054],[-69.7512,10.0403,610.3046],[-69.7544,10.0439,618.0763],[-69.7696,10.052,705.0677],[-69.7737,10.0497,588.0697],[-69.7813,10.049,582.8901],[-69.7903,10.056,558.892],[-69.7972,10.0588,571.0941],[-69.806,10.0576,562.7],[-69.8157,10.0502,500.0],[-69.8326,10.0317,628.7053],[-69.8472,10.0094,843.3335],[-69.8613,9.9943,802.4415],[-69.8702,9.9913,958.355],[-69.8911,9.9918,706.5013],[-69.914,9.9862,645.8208],[-69.9231,9.9773,656.228],[-69.9251,9.971,694.3105],[-69.918,9.953,1024.1436],[-69.9186,9.9446,1241.0809],[-69.9219,9.9353,1563.291],[-69.9285,9.9258,1456.3997],[-69.9359,9.921,1234.9041],[-69.9734,9.9116,706.0734],[-69.9813,9.9118,717.6022],[-69.9878,9.916,885.5138],[-69.9868,9.9399,1284.2366],[-69.9885,9.9458,1314.4318],[-69.993,9.9476,1314.1417],[-70.0012,9.9469,1101.1107],[-70.0131,9.943,1138.6836],[-70.025,9.9365,1423.7418],[-70.0485,9.9183,1556.1553],[-70.0713,9.8909,1218.2208],[-70.0749,9.8816,1301.4457],[-70.0794,9.8387,1761.4873],[-70.0828,9.8244,1446.9667],[-70.087,9.8146,1374.5538],[-70.0978,9.8051,1258.5627],[-70.0919,9.8027,1460.9218],[-70.0668,9.7803,1885.8987],[-70.0336,9.7694,1948.6387],[-70.0187,9.7627,1945.7849],[-70.0022,9.748,2270.1833],[-69.9928,9.7357,2277.865],[-69.9878,9.7212,2094.2134],[-69.988,9.7121,2070.1702],[-69.9934,9.7043,1809.2583],[-70.0028,9.7013,1455.0271],[-70.0552,9.6991,2337.2256],[-70.0786,9.6927,2443.3687],[-70.0949,9.6801,2522.7227],[-70.1028,9.6649,2604.4644],[-70.1117,9.6103,2859.6682],[-70.112,9.5891,2871.4927],[-70.1079,9.5705,3053.5754],[-70.0954,9.5543,2652.9014],[-70.0663,9.526,2046.3289],[-70.044,9.4981,2074.0186],[-70.0311,9.4851,2149.9277],[-70.0193,9.4758,2005.4871],[-69.9992,9.5033,1955.9901],[-69.9887,9.5244,1958.3579],[-69.9757,9.5598,1366.948],[-69.9659,9.577,1491.5531],[-69.9566,9.5836,1892.1985],[-69.948,9.5869,1931.2856],[-69.935,9.5851,2032.3552],[-69.9198,9.5752,1932.9084],[-69.9081,9.5729,1482.568],[-69.8904,9.5736,1337.5759],[-69.851,9.5836,1471.0217],[-69.837,9.5835,1557.537],[-69.8297,9.5818,1550.3091],[-69.8256,9.5755,1588.1222],[-69.8261,9.5678,1691.0116],[-69.8423,9.5447,1350.8286],[-69.8582,9.5259,1228.8027],[-69.876,9.5105,1177.9229],[-69.8872,9.4975,1039.29],[-69.8939,9.4876,855.0616],[-69.8952,9.4802,817.7233],[-69.8932,9.4763,893.4768],[-69.8769,9.4726,1184.9395],[-69.8578,9.4711,1470.868],[-69.8136,9.4739,986.1395],[-69.7971,9.4792,1030.9674],[-69.7567,9.4971,1066.6565],[-69.7438,9.4996,1009.7294],[-69.7217,9.4935,1026.6219],[-69.7109,9.486,858.3764],[-69.6989,9.4739,884.744],[-69.6881,9.4685,928.6733],[-69.6481,9.4749,1005.0933],[-69.6166,9.4858,1575.9692],[-69.6087,9.4959,1363.0974],[-69.6106,9.5155,1388.516],[-69.6281,9.5379,1519.9421],[-69.6292,9.5456,1475.0532],[-69.6256,9.5538,1640.473],[-69.6026,9.5656,1792.1099],[-69.5979,9.6033,1358.811],[-69.5944,9.6112,1168.907],[-69.5923,9.6125,1124.1897],[-69.6082,9.6177,1161.3505],[-69.6362,9.6235,1375.616],[-69.6695,9.6257,1492.8431],[-69.6825,9.6309,1805.3154],[-69.6906,9.6362,1824.3998],[-69.6926,9.6419,1907.713],[-69.691,9.6648,2058.1472],[-69.6923,9.6746,2118.1826],[-69.6972,9.6842,1787.2531],[-69.7156,9.7055,1221.8389],[-69.738,9.7363,1078.1621],[-69.7461,9.7513,834.5719],[-69.7479,9.7637,972.6859],[-69.7467,9.7722,1048.1892],[-69.728,9.8013,861.9878],[-69.7202,9.8169,812.3466],[-69.713,9.8416,790.2516]]]]}}