{"type":"Feature","properties":{"GID_2":"VEN.4.14_1","GID_0":"VEN","country":"Venezuela","GID_1":"VEN.4_1","province":"Aragua","NL_NAME_1":"NA","county":"SantosMichelena","VARNAME_2":"NA","NL_NAME_2":"NA","TYPE_2":"Municipio","ENGTYPE_2":"Municipality","CC_2":"NA","HASC_2":"NA","name":"Santos_Michelena.county"},
"geometry":{"type": "MultiPolygon","coordinates": [[[[-67.1673,10.0914,742.9312],[-67.1485,10.0921,724.5646],[-67.1245,10.0959,938.7339],[-67.1057,10.108,942.0297],[-67.0876,10.1086,811.5437],[-67.0666,10.1119,566.0692],[-67.0698,10.1175,539.5762],[-67.0821,10.1539,917.5704],[-67.0942,10.1808,799.9743],[-67.0832,10.2241,893.9546],[-67.073,10.2509,663.3738],[-67.0732,10.2635,584.3152],[-67.0797,10.2765,882.6273],[-67.0901,10.2858,819.4588],[-67.1269,10.3125,1407.106],[-67.1341,10.3297,1520.3013],[-67.1581,10.3143,1277.1545],[-67.1626,10.3094,1272.0615],[-67.1635,10.305,1127.989],[-67.1616,10.2932,767.86],[-67.151,10.2699,576.9194],[-67.1436,10.2463,512.989],[-67.1461,10.2322,852.2358],[-67.1568,10.2168,868.6727],[-67.1604,10.2078,874.8491],[-67.162,10.1757,1288.6637],[-67.1614,10.1102,779.7529],[-67.1639,10.0976,839.486],[-67.1673,10.0914,742.9312]]]]}}