{"type": "Feature","bbox": [-72.3959,7.98,-72.1456,8.3286],"geometry": {"type": "MultiPolygon","coordinates": [[[[-72.3866,8.2785,60.338],[-72.3856,8.2779,61.845],[-72.3896,8.269,66.6741],[-72.3908,8.2596,66.747],[-72.394,8.2589,63.6725],[-72.3914,8.255,63.9178],[-72.3945,8.2519,64.8356],[-72.3928,8.2516,64.0413],[-72.3918,8.2534,63.5397],[-72.3871,8.2527,64.8631],[-72.3885,8.2505,65.2887],[-72.3869,8.2464,65.59],[-72.3816,8.2464,66.8808],[-72.3874,8.2416,66.7342],[-72.3827,8.2343,69.7683],[-72.3844,8.2315,68.323],[-72.3787,8.221,70.6041],[-72.3807,8.2187,70.5411],[-72.3757,8.2147,73.2195],[-72.3775,8.2085,72.8016],[-72.3741,8.2027,73.9662],[-72.3724,8.2036,73.4853],[-72.3726,8.201,76.4733],[-72.37,8.2007,73.2733],[-72.375,8.1949,76.1842],[-72.3696,8.1957,76.3203],[-72.3683,8.1921,77.341],[-72.3706,8.1919,76.9236],[-72.3707,8.1904,83.2312],[-72.3634,8.1913,78.0942],[-72.3674,8.1851,78.1828],[-72.3656,8.1843,79.971],[-72.3657,8.1821,80.2214],[-72.3634,8.1818,82.0335],[-72.3603,8.1713,83.4497],[-72.3554,8.1655,87.7577],[-72.3567,8.1632,89.2161],[-72.3554,8.1544,89.5816],[-72.3577,8.1539,89.4115],[-72.3582,8.1511,92.069],[-72.3601,8.153,91.1148],[-72.3608,8.1508,91.1586],[-72.3658,8.15,96.5076],[-72.3657,8.1457,102.56],[-72.3677,8.1427,107.0686],[-72.3673,8.1399,103.1713],[-72.3628,8.1406,100.2506],[-72.3667,8.1363,110.4547],[-72.3644,8.1339,112.8454],[-72.3628,8.1342,111.2169],[-72.3642,8.1294,122.7181],[-72.3617,8.1274,118.0068],[-72.3622,8.1255,122.2331],[-72.3608,8.1254,123.9727],[-72.3614,8.1238,123.9727],[-72.3598,8.1232,121.122],[-72.359,8.1202,151.0966],[-72.3625,8.1198,127.8163],[-72.3637,8.1211,135.03],[-72.3639,8.1191,130.0174],[-72.3674,8.1193,137.0627],[-72.3696,8.1172,158.101],[-72.37,8.1138,151.3288],[-72.3726,8.1138,160.3854],[-72.3714,8.1125,147.9191],[-72.3731,8.1122,160.7853],[-72.3749,8.1074,192.552],[-72.3721,8.1039,161.5295],[-72.3703,8.0936,214.6874],[-72.3579,8.0887,393.1729],[-72.3508,8.0802,505.0187],[-72.352,8.0725,489.7555],[-72.3478,8.0585,768.1642],[-72.3485,8.0457,931.8503],[-72.3465,8.0369,1264.6036],[-72.35,8.0326,1385.0273],[-72.3536,8.0311,1365.864],[-72.3552,8.0266,1488.4756],[-72.3476,8.018,1477.8615],[-72.3492,8.0052,1658.7939],[-72.3312,8.0032,1380.1248],[-72.3196,7.9957,1178.0651],[-72.2639,7.98,935.4272],[-72.2608,8.0029,767.5174],[-72.2545,8.018,925.5256],[-72.2443,8.0073,1139.3438],[-72.2378,8.0054,1198.1185],[-72.2277,8.0052,1324.0067],[-72.2148,8.0074,1293.2659],[-72.1964,8.0138,1933.3553],[-72.1852,8.0181,2086.3291],[-72.1765,8.0239,2166.5791],[-72.161,8.048,1585.1348],[-72.1456,8.0936,1270.4739],[-72.1793,8.1026,1275.3722],[-72.1788,8.1256,734.2419],[-72.1807,8.1368,436.7644],[-72.1994,8.1815,382.4117],[-72.2043,8.1889,345.5595],[-72.2154,8.1929,351.3231],[-72.251,8.1973,139.5064],[-72.2678,8.2013,121.1283],[-72.279,8.2108,103.6261],[-72.2907,8.2334,87.5424],[-72.2955,8.2377,83.8633],[-72.3059,8.2414,79.8759],[-72.3155,8.2472,75.2753],[-72.3184,8.2576,69.0661],[-72.3194,8.278,67.7459],[-72.3215,8.2857,66.4854],[-72.328,8.2997,62.0536],[-72.3453,8.3177,59.2049],[-72.3582,8.3217,56.6069],[-72.3869,8.3253,54.3725],[-72.3923,8.3286,54.185],[-72.3926,8.3273,55.2681],[-72.3955,8.3271,53.2988],[-72.3959,8.3253,53.477],[-72.3931,8.3204,54.2532],[-72.3895,8.3202,56.9917],[-72.3854,8.3162,56.5968],[-72.3823,8.3161,55.9932],[-72.3825,8.3118,55.2873],[-72.381,8.3106,57.8292],[-72.3832,8.3055,56.8545],[-72.3809,8.306,65.3809],[-72.381,8.3041,58.2508],[-72.387,8.3035,66.0796],[-72.3849,8.3015,63.2031],[-72.3872,8.2992,69.5636],[-72.3864,8.296,67.0355],[-72.3841,8.2944,61.7214],[-72.3886,8.2915,58.945],[-72.3852,8.2902,61.3041],[-72.3889,8.2898,58.9054],[-72.3899,8.2872,60.3506],[-72.3884,8.2869,59.9913],[-72.389,8.285,59.4155],[-72.3871,8.2826,66.7143],[-72.3891,8.2795,59.8382],[-72.3866,8.2785,60.338]]]]}
,"properties": {"GID_2": "VEN.21.3_1","GID_0": "VEN","country": "Venezuela","GID_1": "VEN.21_1","province": "Táchira","NL_NAME_1": "NA","county": "Ayacucho","VARNAME_2": "NA","NL_NAME_2": "NA","TYPE_2": "Municipio","ENGTYPE_2": "Municipality","CC_2": "NA","HASC_2": "NA","name": "Ayacucho.county","area_km2": 551.4265,"hist_schema_id": "Elevation0-9000","hist_area_km2": {"50": 25.8688,"75": 85.7597,"100": 38.153,"125": 18.4687,"150": 14.1878,"175": 11.0397,"200": 12.7816,"225": 13.2015,"250": 11.3547,"275": 9.235,"300": 9.9486,"325": 8.9202,"350": 8.8784,"375": 7.892,"400": 7.4303,"425": 7.5143,"450": 6.444,"475": 6.7799,"500": 6.9899,"525": 6.4022,"550": 6.7381,"575": 6.9481,"600": 7.4519,"625": 6.9272,"650": 7.9978,"675": 6.8013,"700": 7.5362,"725": 7.5153,"750": 8.5232,"775": 8.6071,"800": 7.3266,"825": 7.0747,"850": 6.9067,"875": 6.5499,"900": 5.962,"925": 5.8361,"950": 5.1853,"975": 4.9124,"1000": 4.7864,"1025": 4.7445,"1050": 4.1777,"1075": 3.9047,"1100": 4.4716,"1125": 4.1147,"1150": 4.0727,"1175": 4.4717,"1200": 4.2827,"1225": 3.7369,"1250": 3.7369,"1275": 3.6529,"1300": 4.1987,"1325": 3.5479,"1350": 3.8208,"1375": 3.7999,"1400": 3.1071,"1425": 2.9811,"1450": 2.6242,"1475": 2.4562,"1500": 2.4982,"1525": 1.9734,"1550": 1.6585,"1575": 1.7005,"1600": 1.5745,"1625": 1.8054,"1650": 1.2176,"1675": 1.4905,"1700": 1.2806,"1725": 1.2176,"1750": 1.3856,"1775": 1.3436,"1800": 1.2596,"1825": 1.4486,"1850": 1.2386,"1875": 1.0497,"1900": 1.0707,"1925": 1.1547,"1950": 0.9237,"1975": 0.9867,"2000": 0.5878,"2025": 0.6508,"2050": 0.5878,"2075": 0.6928,"2100": 0.6298,"2125": 0.4409,"2150": 0.3569,"2175": 0.189,"2200": 0.168,"2225": 0.063,"2250": 0.021,"2275": 0.021}}}