{"type": "Feature","bbox": [-63.6262,9.8029,-63.1674,10.1356],"geometry": {"type": "MultiPolygon","coordinates": [[[[-63.6262,10.0589,810.8456],[-63.6206,10.0569,683.0894],[-63.6173,10.0504,624.986],[-63.6094,10.0224,413.5622],[-63.6032,10.0176,361.4835],[-63.589,10.0142,373.1531],[-63.5817,10.0088,352.0334],[-63.57,9.9939,315.8672],[-63.5649,9.9807,369.8244],[-63.5612,9.9531,446.3515],[-63.5624,9.9366,350.7051],[-63.5583,9.9285,316.9222],[-63.5473,9.9231,314.3899],[-63.5428,9.9171,295.0614],[-63.5068,9.8832,247.1129],[-63.4971,9.8699,224.1667],[-63.4903,9.8511,200.3306],[-63.4856,9.8309,197.1261],[-63.4745,9.8329,198.7954],[-63.4702,9.8265,182.9256],[-63.4529,9.8097,176.8021],[-63.4433,9.8049,162.3092],[-63.4152,9.8069,176.6194],[-63.3969,9.8129,150.9412],[-63.3893,9.8137,126.1815],[-63.3604,9.8121,138.3164],[-63.3377,9.8033,127.3523],[-63.329,9.8029,121.8932],[-63.3267,9.8141,77.2698],[-63.3293,9.8261,106.9761],[-63.3381,9.8461,141.4848],[-63.3396,9.8622,154.1657],[-63.3326,9.8688,151.373],[-63.3242,9.8677,134.9094],[-63.3016,9.8567,105.5549],[-63.2652,9.8553,83.3294],[-63.2541,9.8591,60.8394],[-63.2289,9.8727,70.6968],[-63.2177,9.8821,46.0112],[-63.2035,9.8995,31.4954],[-63.1958,9.9053,28.1816],[-63.1674,9.9123,32.2711],[-63.2007,9.918,42.4369],[-63.3133,9.9512,66.4496],[-63.3155,9.9626,61.7732],[-63.3153,9.9723,99.4084],[-63.309,10.0352,489.064],[-63.3158,10.0386,633.6014],[-63.3374,10.0344,659.2075],[-63.3458,10.0369,543.6609],[-63.3463,10.0442,781.413],[-63.3246,10.0702,1159.6154],[-63.3479,10.0798,843.6044],[-63.3623,10.0758,890.4592],[-63.3704,10.0755,873.0304],[-63.4095,10.097,847.1885],[-63.4168,10.0973,902.7148],[-63.4425,10.0899,869.1296],[-63.4501,10.0896,889.4225],[-63.4576,10.0917,953.1274],[-63.4634,10.1007,1184.5405],[-63.46,10.1164,831.4435],[-63.4616,10.126,923.3925],[-63.4652,10.132,1092.1978],[-63.471,10.1356,1213.7909],[-63.482,10.1337,1163.2543],[-63.4911,10.1288,1333.1276],[-63.5191,10.1183,1163.3726],[-63.5329,10.1103,1189.1367],[-63.5432,10.1072,916.662],[-63.554,10.1095,967.967],[-63.5807,10.1271,919.4886],[-63.5877,10.1282,945.8258],[-63.5964,10.1254,936.5323],[-63.602,10.1185,802.5178],[-63.6143,10.0746,561.6738],[-63.6262,10.0589,810.8456]]]]}
,"properties": {"GID_2": "VEN.17.9_1","GID_0": "VEN","country": "Venezuela","GID_1": "VEN.17_1","province": "Monagas","NL_NAME_1": "NA","county": "Piar","VARNAME_2": "NA","NL_NAME_2": "NA","TYPE_2": "Municipio","ENGTYPE_2": "Municipality","CC_2": "NA","HASC_2": "NA","name": "Piar.county","area_km2": 935.2495,"hist_schema_id": "Elevation0-9000","hist_area_km2": {"25": 4.1563,"50": 37.4064,"75": 52.237,"100": 60.5101,"125": 53.8476,"150": 59.0059,"175": 66.6499,"200": 61.3842,"225": 44.4416,"250": 35.3343,"275": 34.7278,"300": 35.8334,"325": 30.4247,"350": 24.7648,"375": 19.3559,"400": 17.4342,"425": 14.8656,"450": 15.5748,"475": 17.537,"500": 17.3072,"525": 18.0376,"550": 18.6221,"575": 17.7661,"600": 16.6804,"625": 14.864,"650": 12.9225,"675": 13.3398,"700": 12.776,"725": 10.8553,"750": 10.7509,"775": 9.6235,"800": 9.4147,"825": 8.3082,"850": 7.9325,"875": 7.1809,"900": 6.325,"925": 6.0119,"950": 4.6551,"975": 3.6739,"1000": 3.0059,"1025": 2.7554,"1050": 2.5049,"1075": 2.1709,"1100": 2.1709,"1125": 1.8369,"1150": 1.3568,"1175": 1.3985,"1200": 1.148,"1225": 1.0854,"1250": 0.7097,"1275": 0.6262,"1300": 0.5218,"1325": 0.4174,"1350": 0.1879,"1375": 0.0626,"1400": 0.167,"1425": 0.0835,"1450": 0.1878,"1475": 0.0835,"1500": 0.1461,"1525": 0.0209,"1550": 0.0626}}}