{"type": "Feature","bbox": [-68.9358,6.4707,-67.8451,7.9664],"geometry": {"type": "MultiPolygon","coordinates": [[[[-68.6392,7.9491,64.9911],[-68.6482,7.9337,65.7725],[-68.6635,7.9209,64.1238],[-68.7004,7.9041,65.093],[-68.7127,7.88,66.4095],[-68.73,7.8625,64.6461],[-68.7371,7.8584,64.7001],[-68.7486,7.856,65.2708],[-68.7616,7.8555,66.628],[-68.7808,7.8508,66.96],[-68.7954,7.8492,67.3384],[-68.8007,7.8501,67.3216],[-68.8049,7.8277,66.852],[-68.9358,7.2796,79.3197],[-68.8353,6.783,84.5596],[-68.5837,6.5484,82.3638],[-68.5355,6.5575,63.3369],[-68.5226,6.556,63.8247],[-68.5205,6.5535,63.4746],[-68.5162,6.5313,70.5949],[-68.5115,6.52,71.0034],[-68.4974,6.5072,79.1227],[-68.49,6.504,79.3221],[-68.4792,6.5023,82.3112],[-68.4659,6.5048,80.131],[-68.4403,6.515,82.0072],[-68.4288,6.5147,76.7768],[-68.4129,6.509,82.6362],[-68.4041,6.5038,81.6619],[-68.374,6.478,78.1823],[-68.3575,6.4752,76.8614],[-68.2889,6.4782,69.5002],[-68.2541,6.4715,75.9545],[-68.2357,6.4707,78.9764],[-68.2226,6.4722,77.0058],[-68.2071,6.4792,79.3335],[-68.1835,6.4933,76.3371],[-68.1674,6.4964,74.3991],[-68.1099,6.4947,74.5375],[-68.0705,6.5015,73.0939],[-68.0562,6.5072,72.3385],[-68.0509,6.5152,72.3013],[-68.0478,6.5337,75.4224],[-68.0405,6.5461,70.4821],[-68.0288,6.5527,67.4984],[-68.0092,6.5541,59.6461],[-67.989,6.5535,69.245],[-67.9711,6.551,62.6069],[-67.9445,6.5446,57.8913],[-67.9366,6.5452,50.1569],[-67.9358,6.5497,49.259],[-67.9412,6.569,66.2799],[-67.9623,6.6172,51.264],[-68.0746,6.8459,65.8457],[-68.1107,6.9227,60.4878],[-68.0128,7.2974,53.247],[-68.0118,7.3098,52.6249],[-68.0156,7.3285,52.5813],[-68.0482,7.4208,52.574],[-68.0585,7.4452,52.6902],[-68.058,7.4586,52.6107],[-68.0502,7.4684,52.3737],[-68.016,7.4816,51.4195],[-68.0043,7.4879,51.3601],[-67.9744,7.5089,50.3251],[-67.9539,7.5177,50.0834],[-67.9388,7.5196,49.8384],[-67.9106,7.5185,48.988],[-67.8843,7.5098,48.4452],[-67.8713,7.5083,48.2236],[-67.8626,7.5092,47.823],[-67.8569,7.5145,48.2538],[-67.8537,7.5237,48.1969],[-67.8506,7.5439,47.8467],[-67.8451,7.7047,49.9023],[-67.8464,7.7831,49.622],[-67.8763,7.7718,49.1211],[-67.9075,7.7724,50.8083],[-67.959,7.7911,54.5623],[-68.0183,7.8398,55.3702],[-68.067,7.8729,53.0993],[-68.128,7.9076,53.931399999999996],[-68.1498,7.912,54.7247],[-68.1676,7.9124,55.9299],[-68.1864,7.9237,56.8018],[-68.2029,7.93,60.336],[-68.2347,7.9414,55.8262],[-68.2601,7.9474,65.8246],[-68.2789,7.9486,56.0055],[-68.2989,7.9438,59.297],[-68.3183,7.9341,57.5238],[-68.334,7.9289,57.0962],[-68.3574,7.9326,62.7706],[-68.3702,7.9387,58.8254],[-68.4046,7.96,58.711],[-68.4164,7.9631,67.1684],[-68.4154,7.9647,66.7635],[-68.4341,7.9664,60.3591],[-68.4345,7.9645,64.6813],[-68.444,7.964,60.234],[-68.4569,7.9594,65.5718],[-68.4801,7.9376,61.7266],[-68.516,7.9352,60.0],[-68.5454,7.9542,61.932],[-68.5844,7.9554,61.015],[-68.5948,7.95,63.7665],[-68.6211,7.9574,63.0176],[-68.6317,7.9559,64.3137],[-68.6392,7.9491,64.9911]]]]}
,"properties": {"GID_2": "VEN.3.1_1","GID_0": "VEN","country": "Venezuela","GID_1": "VEN.3_1","province": "Apure","NL_NAME_1": "NA","county": "Achaguas","VARNAME_2": "NA","NL_NAME_2": "NA","TYPE_2": "Municipio","ENGTYPE_2": "Municipality","CC_2": "NA","HASC_2": "NA","name": "Achaguas.county","area_km2": 14553.55,"hist_schema_id": "Elevation0-9000","hist_area_km2": {"50": 6255.53,"75": 8288.61,"100": 9.41}}}