{"type":"Feature","properties":{"featurecla":"Reservoir","scalerank":7,"name":"Embalse de Guri","name_abb":"Emb. de Guri","name_alt":null,"note":null,"delta":null,"dam_name":null,"year":-99,"admin":null,"min_zoom":5.7,"min_label":6.7},
"geometry":{"type": "Polygon","coordinates": [[[-62.997157199698933,7.5958857145776619,266.0],[-62.998040292080319,7.5929420733063466,266.0],[-63.001278297478777,7.5876435190179734,266.0],[-63.000542387160948,7.581167508221057,266.0],[-62.989650914457073,7.5752802256784264,266.0],[-62.958742681108248,7.5808731440939434,266.0],[-62.948734300785773,7.5817562364753428,266.0],[-62.948734300785773,7.5752802256784264,266.0],[-62.96978133587568,7.5752802256784264,266.0],[-62.965218691905136,7.5673323942458808,266.0],[-62.965954602222965,7.56056201932185,266.0],[-62.971989066829167,7.5558521932877341,266.0],[-62.9834692677873,7.553791644397819,266.0],[-62.975962982545454,7.5334805196257264,266.0],[-62.9792009879439,7.5143468513621769,266.0],[-62.991564281283431,7.4996286450056,266.0],[-63.010845131610552,7.4934469983358269,271.2011],[-63.010845131610552,7.4860878951575387,266.0],[-62.986412909058629,7.482555525631966,266.0],[-62.97684607492684,7.4734302376908772,266.0],[-62.970370064129952,7.4601838519699584,266.0],[-62.956093403964061,7.445171281486239,266.0],[-62.945937841578015,7.4575345748257584,266.0],[-62.946379387768715,7.4763738789621934,266.0],[-62.93504636887414,7.4860878951575387,266.0],[-62.942552654116,7.4934469983358269,266.0],[-62.934016094429182,7.4978624602428,266.0],[-62.927098537441594,7.50374974278543,266.0],[-62.920769708708264,7.5202341339048084,266.0],[-62.909731053940817,7.5252383240660379,266.0],[-62.894424119329983,7.5272988729559813,266.0],[-62.859983516455571,7.5275932370830958,266.0],[-62.8663123451889,7.50374974278543,266.0],[-62.863957432171844,7.4781400637249931,266.0],[-62.856156782802856,7.4687204116567614,266.0],[-62.846295584543952,7.4934469983358269,266.0],[-62.843351943272637,7.4822611615048231,266.0],[-62.833785109140848,7.4581233030800149,266.0],[-62.839525209619921,7.4366347217994084,266.0],[-62.833637927077291,7.4257432490955466,266.0],[-62.824807003263331,7.4169123252816007,266.0],[-62.819655631038529,7.4104363144846843,266.0],[-62.821568997864887,7.3939519233653357,266.0],[-62.835256929776506,7.39336319511105,266.0],[-62.85277159534084,7.3948350157467084,266.0],[-62.866165163125331,7.3836491789157037,266.0],[-62.8499751361331,7.3815886300257887,266.0],[-62.805378970872653,7.36922533668627,266.0],[-62.812738074050941,7.3665760595420693,266.0],[-62.817595082148614,7.3612775052536961,266.0],[-62.819949995165658,7.35332967382115,266.0],[-62.819655631038529,7.342732565244404,266.0],[-62.815976079449385,7.3447931141343474,266.0],[-62.808911340398225,7.3468536630242616,266.0],[-62.805378970872653,7.3489142119141766,266.0],[-62.804201514364124,7.3359621903203731,266.0],[-62.806997973571868,7.3247763534893693,266.0],[-62.812590891987369,7.3156510655483089,266.0],[-62.819655631038529,7.3079975982428778,266.0],[-62.812590891987369,7.30740886998862,266.0],[-62.807733883889696,7.30564268522582,266.0],[-62.803318421982723,7.3029934080816474,266.0],[-62.797872685630793,7.3012272233188469,266.0],[-62.804054332300552,7.2921019353777581,266.0],[-62.805231788809081,7.2844484680723554,266.0],[-62.801110691029237,7.2782668214025819,266.0],[-62.791691038961019,7.2738513594956089,266.0],[-62.815534533258685,7.2332291099514237,266.0],[-62.828486554852489,7.2161559905777892,266.0],[-62.846295584543952,7.1981997788227554,266.0],[-62.860425062646271,7.2076194308909862,266.0],[-62.87367144836719,7.202320876602613,266.0],[-62.930336542840038,7.1316734860910174,266.0],[-62.93504636887414,7.1196045568786133,266.0],[-62.9429942003067,7.1110679971917818,266.0],[-62.979053805880326,7.0945836060724048,266.0],[-62.989650914457073,7.0819259486057433,266.0],[-62.988179093821415,7.0627922803421939,266.0],[-62.97640452873614,7.0127503787298053,266.0],[-62.979789716198155,6.9962659876104283,266.0],[-62.995685379063275,6.9862576072879676,266.0],[-63.000100840970248,6.9788985041096794,266.0],[-62.997157199698933,6.9653577542616176,266.0],[-62.9890621862028,6.9553493739391294,266.0],[-62.980231262388855,6.9544662815577567,266.0],[-62.971253156511338,6.9556437380662706,266.0],[-62.96301096095165,6.951522640286413,266.0],[-62.95771240666329,6.9423973523453526,275.6851],[-62.958301134917548,6.9341551567856641,278.5347],[-62.961244776188863,6.9253242329717182,279.9629],[-62.96301096095165,6.9138440320135706,266.0],[-62.960803229998163,6.9035412875639679,266.0],[-62.95094203173926,6.88529071168179,266.0],[-62.945201931260186,6.8685119564352988,267.342],[-62.936665371573369,6.8655683151639826,266.0],[-62.925626716805937,6.8655683151639826,266.0],[-62.91458806203849,6.8629190380197826,266.0],[-62.909436689813688,6.8582092119856952,293.9892],[-62.895307211711369,6.8423135491205764,277.6095],[-62.869403168523789,6.8217080602213684,307.8156],[-62.853949051849369,6.81434895704308,307.6049],[-62.843057579145494,6.819647511331425,266.0],[-62.838789299302093,6.8455515545190337,289.8879],[-62.83893648136565,6.8882343529531056,269.5847],[-62.846589948671081,6.9014807386740529,273.0902],[-62.866165163125331,6.9100172983608559,267.5003],[-62.9076705050509,6.9123722113779138,266.0],[-62.92253589347105,6.917670765666287,266.0],[-62.928275993950123,6.9344495209127794,266.0],[-62.926362627123765,6.9456353577437824,266.0],[-62.91458806203849,6.9721281291856494,266.0],[-62.914146515847804,6.9818421453809947,281.9262],[-62.916059882674148,6.98802379205074,266.0],[-62.917237339182677,6.9947941669747706,266.0],[-62.91458806203849,7.0062743679329174,266.0],[-62.904432499652458,7.0171658406367783,266.0],[-62.888095290596638,7.0283516774677821,266.0],[-62.872935538049362,7.043069883824387,266.0],[-62.866165163125331,7.0642641009778524,266.0],[-62.864840524553244,7.0869301387670021,266.0],[-62.8611609729641,7.1098905406832671,266.0],[-62.854979326294327,7.1313791219638736,266.0],[-62.846295584543952,7.1508071543545668,266.0],[-62.816564807703656,7.1870139419917507,266.0],[-62.812149345796669,7.2017321483483556,266.0],[-62.77123273212537,7.2738513594956089,266.0],[-62.7426794117936,7.31064687538705,266.0],[-62.733701305916085,7.3327241849219433,266.0],[-62.746947691637004,7.342732565244404,266.0],[-62.768877819108326,7.3503860325498351,266.0],[-62.774323555460256,7.3686366084320127,266.0],[-62.768583454981183,7.39100828209402,266.0],[-62.756956071959493,7.4104363144846843,266.0],[-62.764315175137781,7.4104363144846843,270.4512],[-62.784331935782731,7.4251545208412892,266.0],[-62.788158669435447,7.4507641999017267,266.0],[-62.781977022765673,7.4713696888009622,266.0],[-62.77123273212537,7.4722527811823616,266.0],[-62.771379914188941,7.4875597157931963,266.0],[-62.767111634345525,7.4907977211916554,266.0],[-62.753865248624606,7.4860878951575387,266.0],[-62.747683601954833,7.4852048027761384,266.0],[-62.732818213534685,7.4807893408691646,266.0],[-62.728991479881984,7.4793175202335078,266.0],[-62.728402751627712,7.486970987538939,266.0],[-62.729580208136241,7.4913864494459119,266.0],[-62.733995670043214,7.4949188189714846,266.0],[-62.74326814004786,7.4996286450056,266.0],[-62.737380857505229,7.5046328351668308,266.0],[-62.7310520287719,7.5069877481838887,266.0],[-62.723987289720739,7.507870840565289,266.0],[-62.715892276224622,7.5072821123110316,266.0],[-62.722515469085081,7.5108144818366043,270.5163],[-62.7306104825812,7.5128750307265193,313.5917],[-62.740030134649416,7.5140524872350341,266.0],[-62.75077442528972,7.5134637589807767,266.0],[-62.75077442528972,7.5202341339048084,266.0],[-62.703381800821518,7.5337748837528693,266.0],[-62.678360850015324,7.54466635645673,266.0],[-62.66805810556572,7.5611507475761073,266.0],[-62.678066485888195,7.55644092154202,266.0],[-62.709121901300591,7.5476099977280464,266.0],[-62.708680355109891,7.5543803726520764,266.0],[-62.709563447491291,7.5685098507543964,266.0],[-62.709121901300591,7.5752802256784264,266.0],[-62.737675221632358,7.5523198237621614,266.0],[-62.754012430688164,7.545255084711016,266.0],[-62.77123273212537,7.5476099977280464,266.0],[-62.76505108545561,7.5526141878893043,266.0],[-62.761077169739323,7.558207106304792,266.0],[-62.758869438785837,7.5652718453559658,266.0],[-62.756956071959493,7.5752802256784264,266.0],[-62.764315175137781,7.5679211225001382,266.0],[-62.76505108545561,7.5743971332970261,266.0],[-62.766670088154825,7.5752802256784264,266.0],[-62.77123273212537,7.5752802256784264,266.0],[-62.773440463078856,7.5649774812288229,266.0],[-62.7780031070494,7.5611507475761073,266.0],[-62.7844791178463,7.5626225682117649,266.0],[-62.791691038961019,7.5679211225001382,285.4973],[-62.791691038961019,7.5611507475761073,272.2891],[-62.797872685630793,7.5611507475761073,266.0],[-62.797136775312964,7.5808731440939434,266.0],[-62.80552615293621,7.5858773342551729,266.0],[-62.817300718021485,7.5852886060009146,266.0],[-62.8258372777083,7.5891153396536311,266.0],[-62.832607652632319,7.5891153396536311,266.0],[-62.840997030255579,7.5820506006024573,266.0],[-62.844529399781152,7.5876435190179734,266.0],[-62.843793489463323,7.5988293558489772,268.9597],[-62.838789299302093,7.6088377361714379,266.0],[-62.829369647233875,7.6153137469683543,266.0],[-62.819214084847829,7.6167855676040119,266.0],[-62.810383161033883,7.6126644698241526,266.0],[-62.805378970872653,7.6026560895016928,266.0],[-62.796548047058693,7.6106039209342384,266.0],[-62.790660764516062,7.6197292088753272,266.0],[-62.78418475371916,7.6270883120536146,266.0],[-62.774323555460256,7.6300319533249308,266.0],[-62.760341259421494,7.6279714044350158,266.0],[-62.749891332908319,7.6247333990365576,266.0],[-62.740177316712987,7.6241446707823,266.0],[-62.728991479881984,7.6300319533249308,266.0],[-62.769466547362583,7.64828252920708,266.0],[-62.78418475371916,7.6506374422241379,266.0],[-62.771085550061812,7.6650612844536,266.0],[-62.761518715930023,7.6800738549373193,266.0],[-62.763284900692824,7.6903765993869229,266.0],[-62.78418475371916,7.6915540558954376,266.0],[-62.757691982277322,7.7009737079636693,266.0],[-62.738116767823058,7.6924371482768379,266.0],[-62.721043648449424,7.6783076701745188,266.0],[-62.702204344312989,7.6709485669962314,266.0],[-62.694992423198272,7.6724203876318882,266.0],[-62.684395314621526,7.6762471212846037,266.0],[-62.675858754934708,7.6827231320814917,266.0],[-62.674975662553322,7.6915540558954376,266.0],[-62.715892276224622,7.6989131590737259,266.0],[-62.707502898601362,7.71009899590473,266.0],[-62.702498708440132,7.7151031860659884,266.0],[-62.695433969388972,7.7195186479729614,266.0],[-62.711771178444778,7.7183411914644182,266.0],[-62.722073922894381,7.7224622892442767,266.0],[-62.726047838610654,7.73188194131248,266.0],[-62.72280983321221,7.7466001476690556,266.0],[-62.740324498776545,7.7448339629062843,266.0],[-62.759016620849408,7.7351199467109382,266.0],[-62.791691038961019,7.71186518066753,266.0],[-62.79213258515172,7.72776084353265,266.0],[-62.791691038961019,7.7330593978209947,266.0],[-62.820833087547058,7.7162806425745032,266.0],[-62.865282070743945,7.6986187949466114,271.7541],[-62.9085535974323,7.6930258765310953,268.1777],[-62.93504636887414,7.71186518066753,272.5741],[-62.921064072835392,7.7151031860659884,266.0],[-62.90958387187726,7.7192242838458176,269.2659],[-62.900605765999742,7.7251115663884491,266.0],[-62.89412975520284,7.7330593978209947,266.0],[-62.926656991250894,7.7345312184566808,266.0],[-62.950647667612131,7.7404185009993114,266.0],[-62.972283430956296,7.7530761584659729,266.0],[-62.997157199698933,7.7739760114923229,135.9012],[-63.002014207796606,7.7563141638644026,266.0],[-63.00481066700435,7.7053891698706423,266.0],[-63.003927574622963,7.6915540558954376,271.0368],[-62.990534006838473,7.6986187949466114,266.0],[-62.980378444452427,7.6953807895481532,269.0744],[-62.974343979846225,7.6889047787512652,266.0],[-62.972872159210567,7.6853724092256641,266.0],[-62.993919194300474,7.6833118603357491,266.0],[-63.003338846368692,7.6809569473186912,266.0],[-63.010845131610552,7.6777189419202614,266.0],[-62.99862902033459,7.6735978441404029,406.0085],[-62.9852354525501,7.6721260235047453,305.3636],[-62.974196797782653,7.66918238223343,436.8032],[-62.96978133587568,7.6603514584194841,266.0],[-62.975079890164054,7.6535810834954532,266.0],[-62.986854455249315,7.6512261704783953,332.8075],[-62.99862902033459,7.650343078096995,335.0143],[-63.003927574622963,7.64739943682568,277.8725],[-63.008931764784194,7.64327833904585,266.0],[-63.03159780257333,7.6279714044350158,266.0],[-63.049259650201236,7.6126644698241526,266.0],[-63.048523739883407,7.60736591553578,266.0],[-63.038073813370232,7.5958857145776619,266.0],[-63.046463190993478,7.5967688069590338,266.0],[-63.06544967719347,7.5958857145776619,275.9219],[-63.044108277976434,7.5902927961621458,266.0],[-63.027182340666357,7.5932364374334611,266.0],[-63.012169770182638,7.5976518993404341,266.0],[-62.997157199698933,7.5958857145776619,266.0]]]}}