{"type":"Feature","properties":{"GID_2":"VEN.25.4_1","GID_0":"VEN","country":"Venezuela","GID_1":"VEN.25_1","province":"Zulia","NL_NAME_1":"NA","county":"Catatumbo","VARNAME_2":"NA","NL_NAME_2":"NA","TYPE_2":"Municipio","ENGTYPE_2":"Municipality","CC_2":"NA","HASC_2":"NA","name":"Catatumbo.county"},
"geometry":{"type": "MultiPolygon","coordinates": [[[[-72.4274,8.3823,48.8575],[-72.4098,8.4359,45.4143],[-72.3825,8.4607,39.6924],[-72.3761,8.4696,41.8652],[-72.3751,8.4806,38.5195],[-72.3779,8.513,40.7288],[-72.3741,8.5251,38.0649],[-72.3625,8.5396,34.1347],[-72.3473,8.5505,39.2478],[-72.3324,8.5587,29.87],[-72.3149,8.5652,29.181],[-72.2893,8.5694,29.2271],[-72.2725,8.5694,27.2688],[-72.2395,8.559,27.188],[-72.2236,8.556,25.9562],[-72.1968,8.5566,28.1345],[-72.1638,8.5602,22.6486],[-72.163,8.5958,20.4061],[-72.16,8.6291,18.6636],[-72.1374,8.7575,12.7387],[-72.1301,8.8308,16.3145],[-72.133,8.8749,8.57],[-72.1403,8.942,7.7185],[-72.1363,9.0496,3.54],[-72.1389,9.0569,2.9201],[-72.1516,9.0683,4.4781],[-72.1551,9.0767,3.0066],[-72.1558,9.0854,3.1226],[-72.1509,9.0928,3.4605],[-72.1284,9.0995,2.105],[-72.1281,9.1028,2.241],[-72.1337,9.1216,3.0248],[-72.1323,9.1433,3.7678],[-72.1298,9.1513,3.1836],[-72.1221,9.1601,2.0],[-72.115,9.162,2.7078],[-72.1028,9.1583,2.0],[-72.0983,9.1534,4.0715],[-72.095,9.1361,4.1609],[-72.0926,9.1326,4.5008],[-72.043,9.1293,4.7126],[-72.0334,9.1241,2.5775],[-72.0257,9.1084,1.6519],[-72.0215,9.1039,2.4182],[-72.0085,9.1012,0.7128],[-71.9959,9.1024,0.5],[-71.986,9.1073,0.5],[-71.9728,9.1172,1.7609],[-71.8876,9.1915,2.8925],[-71.8421,9.2289,12.725],[-71.8204,9.228,5.8604],[-71.8132,9.2379,0.1839],[-71.8135,9.2404,0.0],[-71.8107,9.2407,1.6632],[-71.8057,9.2468,0.0],[-71.794,9.2526,5.9749],[-71.7882,9.2532,0.0],[-71.779,9.2568,0.0],[-71.7726,9.2571,0.0],[-71.7696,9.2632,0.0],[-71.7699,9.2815,0.0],[-71.7732,9.286,3.1124],[-71.7704,9.2835,0.0],[-71.7674,9.2846,6.0209],[-71.7674,9.2935,5.4348],[-71.7601,9.2835,0.0],[-71.7576,9.2837,0.0],[-71.756,9.286,4.1693],[-71.7532,9.2849,3.4956],[-71.7487,9.2757,0.0],[-71.7421,9.2693,0.0],[-71.7354,9.2724,0.0],[-71.7379,9.2752,0.0],[-71.7412,9.286,3.6072],[-71.734,9.2876,4.2363],[-71.7321,9.2863,0.0],[-71.7329,9.2829,0.0],[-71.729,9.2857,5.3087],[-71.7301,9.294,0.5647],[-71.734,9.3021,1.1695],[-71.7326,9.3082,0.0],[-71.7335,9.3215,0.0],[-71.7346,9.3251,1.1099],[-71.7443,9.3304,8.3058],[-71.7451,9.3332,0.0],[-71.7415,9.3365,0.0],[-71.7412,9.3415,0.3379],[-71.7399,9.3426,0.5556],[-71.7363,9.3418,0.0],[-71.7337,9.3382,0.3748],[-71.7401,9.3349,1.9264],[-71.7401,9.3329,0.4684],[-71.7307,9.3307,2.3732],[-71.7271,9.3313,0.0],[-71.7237,9.3374,9.0617],[-71.7196,9.3407,1.0047],[-71.7154,9.341,0.0],[-71.7138,9.3446,0.3048],[-71.7113,9.3457,0.3574],[-71.7038,9.3449,0.0],[-71.7049,9.3479,0.0],[-71.7099,9.3501,0.3517],[-71.716,9.3479,0.0],[-71.716,9.3462,0.3464],[-71.7179,9.3474,0.0],[-71.7187,9.3451,0.7644],[-71.7243,9.3451,1.9485],[-71.7276,9.3471,0.0],[-71.734,9.3476,1.4591],[-71.7365,9.3518,1.2723],[-71.7335,9.3601,0.0],[-71.7285,9.3663,0.6314],[-71.7268,9.3721,1.1054],[-71.719,9.3801,0.0],[-71.7099,9.3999,0.0],[-71.7068,9.401,0.0],[-71.7085,9.4046,0.0],[-71.7118,9.4021,0.0],[-71.7193,9.386,0.0],[-71.7268,9.3779,0.8931],[-71.7393,9.3699,1.5749],[-71.7515,9.3654,1.2136],[-71.7529,9.3621,0.3652],[-71.7657,9.3601,2.5814],[-71.7707,9.3624,0.2962],[-71.786,9.3804,2.3356],[-71.7868,9.3782,1.8952],[-71.789,9.3793,0.062],[-71.7915,9.3849,0.0],[-71.7876,9.381,0.7344],[-71.7862,9.3813,0.3398],[-71.7865,9.3826,0.0],[-71.7915,9.3915,0.0],[-71.7999,9.3988,0.0],[-71.8012,9.3946,0.0],[-71.7996,9.3882,0.1902],[-71.8015,9.3876,0.0],[-71.8018,9.3849,0.0],[-71.7996,9.3754,0.0],[-71.8018,9.3774,0.1244],[-71.8037,9.376,0.3451],[-71.8074,9.3771,0.2403],[-71.8085,9.3799,0.3207],[-71.809,9.3751,0.0619],[-71.8074,9.3718,0.6342],[-71.809,9.3737,0.2333],[-71.8107,9.3732,4.6171],[-71.8107,9.3851,2.984],[-71.8085,9.3949,3.5467],[-71.8051,9.3985,0.0],[-71.8057,9.4032,0.0],[-71.8104,9.4121,1.2886],[-71.8193,9.4207,0.0],[-71.8246,9.4207,0.8655],[-71.8304,9.4235,0.8305],[-71.8343,9.4163,0.0],[-71.839,9.4174,0.0],[-71.8421,9.4154,3.8487],[-71.8571,9.414,0.0],[-71.8607,9.419,0.0],[-71.8654,9.4187,0.9407],[-71.8732,9.4224,0.0],[-71.8763,9.4268,0.0],[-71.8815,9.4251,4.2987],[-71.8865,9.4276,0.0],[-71.8874,9.4243,0.0],[-71.8838,9.4201,4.6197],[-71.8854,9.4118,2.6516],[-71.8824,9.406,0.0],[-71.8904,9.4063,0.0],[-71.8907,9.3993,0.0],[-71.8946,9.3951,0.0],[-71.8924,9.3918,0.0],[-71.8943,9.3865,8.6845],[-71.8968,9.386,0.4334],[-71.8979,9.3882,0.0],[-71.8996,9.3876,0.0],[-71.9029,9.3901,0.0],[-71.904,9.3862,0.7302],[-71.9063,9.3849,2.7581],[-71.9085,9.3879,0.0],[-71.9065,9.3874,0.0],[-71.9051,9.3896,0.0],[-71.9104,9.3921,0.0],[-71.9104,9.3946,0.0],[-71.9071,9.3946,0.0],[-71.9054,9.3974,0.0],[-71.9057,9.4004,0.0],[-71.9085,9.399,0.0],[-71.9082,9.4007,1.8872],[-71.9043,9.4071,0.2065],[-71.8976,9.4093,0.5736],[-71.8985,9.4143,0.0],[-71.8974,9.4174,3.1091],[-71.891,9.4235,0.0],[-71.8907,9.4279,2.7411],[-71.8882,9.431,1.3507],[-71.8782,9.4349,0.3642],[-71.8737,9.4337,0.0],[-71.8604,9.4362,0.5397],[-71.8529,9.4343,0.5928],[-71.8515,9.4318,0.0],[-71.8365,9.4321,0.0],[-71.8265,9.4251,0.0],[-71.8215,9.4235,0.0],[-71.8201,9.4243,0.0],[-71.8429,9.4368,0.0],[-71.8818,9.4546,0.9598],[-71.9049,9.4718,0.0],[-71.9068,9.4715,0.0],[-71.904,9.4696,0.0],[-71.9088,9.4712,0.1115],[-71.9146,9.4701,0.925],[-71.9226,9.4732,0.6937],[-71.9315,9.4829,0.743],[-71.9332,9.4893,0.0],[-71.9362,9.4918,0.6818],[-71.9368,9.4946,0.0943],[-71.939,9.4932,2.2237],[-71.9393,9.4957,0.0],[-71.9368,9.4996,0.4221],[-71.9393,9.5024,0.0],[-71.9432,9.5032,0.5743],[-71.9493,9.4993,0.0],[-71.9504,9.4915,1.3048],[-71.9549,9.4924,0.0],[-71.9574,9.4913,1.4499],[-71.9576,9.5021,1.9444],[-71.9474,9.5024,0.0],[-71.9413,9.5065,0.5645],[-71.9476,9.5088,0.0],[-71.9468,9.5171,0.0],[-71.951,9.519,0.1831],[-71.9538,9.5179,0.6721],[-71.9535,9.5215,0.4628],[-71.9557,9.5221,0.2551],[-71.9546,9.5149,2.0234],[-71.956,9.5118,3.29],[-71.9635,9.5085,0.9372],[-71.9635,9.506,0.7426],[-71.9657,9.5038,0.219],[-71.9668,9.5043,2.3676],[-71.9662,9.5074,0.5487],[-71.9726,9.504,0.2583],[-71.969,9.5087,0.4318],[-71.9718,9.5101,0.0704],[-71.9682,9.5188,2.2505],[-71.9657,9.5188,2.4012],[-71.9651,9.5165,0.1002],[-71.9629,9.5157,1.1667],[-71.9613,9.5179,0.4595],[-71.9635,9.5263,0.0],[-71.9674,9.5285,3.4292],[-71.9668,9.5349,3.2972],[-71.9718,9.5393,0.0],[-71.9718,9.5451,0.0],[-71.9754,9.5496,6.3642],[-71.9774,9.556,1.42],[-71.9796,9.5574,0.6439],[-71.976,9.5618,1.0445],[-71.9765,9.5638,0.0],[-71.9815,9.5654,5.3933],[-71.9846,9.5632,0.8709],[-71.9863,9.5579,2.5395],[-71.9912,9.5582,0.0],[-71.9957,9.5535,4.0631],[-72.0007,9.5538,0.0],[-72.0076,9.5585,1.3408],[-72.0065,9.5618,0.0],[-72.0079,9.5718,1.2205],[-72.0038,9.5743,1.8959],[-72.0051,9.576,1.5108],[-71.9971,9.5796,4.0832],[-71.9918,9.5732,0.0],[-71.9893,9.5735,0.0],[-71.9837,9.5796,5.9331],[-71.9835,9.5893,2.0107],[-71.9876,9.5835,10.9267],[-71.9946,9.5826,11.4083],[-71.9991,9.5875,15.8094],[-72.0031,9.5874,15.0565],[-72.0061,9.5933,14.4226],[-72.0268,9.603,0.5828],[-72.0517,9.6256,5.6394],[-72.0627,9.6287,1.597],[-72.077,9.6298,2.4933],[-72.0893,9.6367,1.4779],[-72.0972,9.6392,1.7723],[-72.1444,9.626,1.2648],[-72.1698,9.6217,2.0453],[-72.175,9.6184,1.9907],[-72.1777,9.6144,2.5298],[-72.1762,9.5945,2.091],[-72.1792,9.5829,17.847],[-72.2029,9.544,2.9657],[-72.2121,9.5389,4.3735],[-72.2174,9.5326,2.5549],[-72.2229,9.5165,7.3116],[-72.226,9.4882,2.5928],[-72.2346,9.4733,12.8439],[-72.2422,9.4661,10.6449],[-72.2516,9.4622,5.529],[-72.2624,9.4624,4.8238],[-72.2735,9.4664,3.4032],[-72.2819,9.4656,3.6832],[-72.3041,9.4555,4.7375],[-72.3097,9.4499,5.6068],[-72.3175,9.4372,5.0444],[-72.3237,9.4319,5.0186],[-72.3484,9.4322,10.4764],[-72.3585,9.4341,6.4664],[-72.3746,9.4406,6.7018],[-72.4043,9.438,17.1673],[-72.4218,9.3068,9.4451],[-72.4332,9.1587,11.2086],[-72.3914,9.1321,11.4514],[-72.3838,9.1131,8.6637],[-72.3952,9.098,10.9274],[-72.3952,9.0714,10.6002],[-72.3876,9.0486,11.8143],[-72.38,9.0334,9.3196],[-72.3838,8.9954,10.9065],[-72.3952,8.9726,12.7398],[-72.418,8.9689,19.1496],[-72.418,8.9423,37.5534],[-72.4559,8.9423,17.4819],[-72.4673,8.8853,40.323],[-72.4863,8.7676,95.7495],[-72.5281,8.6309,274.6741],[-72.5688,8.5495,79.127],[-72.5704,8.5515,63.6358],[-72.5745,8.5457,78.9763],[-72.4274,8.3823,48.8575]]]]}}