{"type":"Feature","properties":{"GID_2":"VEN.22.14_1","GID_0":"VEN","country":"Venezuela","GID_1":"VEN.22_1","province":"Trujillo","NL_NAME_1":"NA","county":"Pampanito","VARNAME_2":"NA","NL_NAME_2":"NA","TYPE_2":"Municipio","ENGTYPE_2":"Municipality","CC_2":"NA","HASC_2":"NA","name":"Pampanito.county"},
"geometry":{"type": "MultiPolygon","coordinates": [[[[-70.563,9.5007,227.0081],[-70.5361,9.4753,420.5523],[-70.5327,9.4686,411.9174],[-70.5302,9.4461,351.1888],[-70.5307,9.4349,306.0411],[-70.5341,9.4266,350.0424],[-70.5444,9.4158,258.0692],[-70.5372,9.4039,280.8648],[-70.518,9.4035,306.9376],[-70.5144,9.4135,409.8439],[-70.5073,9.4242,570.8143],[-70.4539,9.4124,737.4162],[-70.4521,9.4131,737.4162],[-70.445,9.4309,683.6557],[-70.4553,9.4441,620.5829],[-70.4518,9.4569,822.8354],[-70.4208,9.4591,1142.6271],[-70.4204,9.4658,1099.8843],[-70.4243,9.4731,873.7501],[-70.4294,9.4715,661.9816],[-70.4454,9.4711,578.7803],[-70.4756,9.4731,508.9097],[-70.4964,9.4827,369.3412],[-70.5152,9.4885,327.8617],[-70.5224,9.4952,350.621],[-70.5262,9.5017,312.8026],[-70.5284,9.5102,287.2084],[-70.5366,9.5243,246.0144],[-70.5558,9.5401,206.374],[-70.5678,9.5464,179.1734],[-70.5736,9.5476,166.7357],[-70.5633,9.5185,183.2491],[-70.5612,9.507,207.9718],[-70.563,9.5007,227.0081]]]]}}