{"type":"Feature","properties":{"GID_2":"VEN.22.5_1","GID_0":"VEN","country":"Venezuela","GID_1":"VEN.22_1","province":"Trujillo","NL_NAME_1":"NA","county":"Carache","VARNAME_2":"NA","NL_NAME_2":"NA","TYPE_2":"Municipio","ENGTYPE_2":"Municipality","CC_2":"NA","HASC_2":"NA","name":"Carache.county"},
"geometry":{"type": "MultiPolygon","coordinates": [[[[-70.0978,9.8051,1258.5627],[-70.1085,9.8094,1330.9879],[-70.1392,9.811,1167.4829],[-70.1544,9.8185,820.7366],[-70.1903,9.8555,491.8471],[-70.2041,9.8664,481.7022],[-70.2148,9.8688,499.8202],[-70.2228,9.8642,479.5138],[-70.2276,9.8523,487.1939],[-70.2337,9.826,505.4347],[-70.238,9.8214,513.0015],[-70.2458,9.8211,522.4526],[-70.2512,9.8232,574.998],[-70.2625,9.8356,679.9144],[-70.2778,9.8681,873.5964],[-70.2827,9.8746,918.8146],[-70.297,9.879,774.938],[-70.3204,9.8748,842.4757],[-70.3258,9.8751,932.1946],[-70.328,9.8781,894.7997],[-70.3547,9.864,868.6292],[-70.3803,9.8528,653.7434],[-70.3805,9.8359,469.128],[-70.3825,9.8283,576.4293],[-70.4106,9.7777,598.3827],[-70.4437,9.7521,554.5436],[-70.4513,9.7451,436.4171],[-70.4559,9.7383,397.1726],[-70.4734,9.7277,203.9927],[-70.4917,9.7194,202.3476],[-70.493,9.7132,200.9295],[-70.4901,9.7115,201.9687],[-70.4836,9.7109,189.5861],[-70.4643,9.711,233.3626],[-70.4433,9.7067,210.5369],[-70.4338,9.6964,212.3759],[-70.429,9.6944,222.9142],[-70.3953,9.7103,307.0508],[-70.3774,9.7124,474.764],[-70.3656,9.7094,611.0798],[-70.3518,9.7023,1000.5604],[-70.344,9.7009,896.5503],[-70.3055,9.7002,991.9912],[-70.2902,9.6942,927.7844],[-70.2829,9.6874,914.2036],[-70.2816,9.6765,863.8325],[-70.2828,9.6663,820.8205],[-70.2892,9.6496,770.6893],[-70.2906,9.639,706.4592],[-70.2888,9.591,1093.8674],[-70.2852,9.591,1261.3176],[-70.2812,9.5851,1416.306],[-70.2808,9.5662,1367.8115],[-70.2787,9.5532,1147.6888],[-70.2698,9.5358,1289.6444],[-70.2691,9.5266,1699.6425],[-70.2701,9.5216,1588.0564],[-70.2731,9.5173,1852.9333],[-70.2604,9.5177,1348.6368],[-70.2542,9.5144,1439.1578],[-70.2504,9.5079,1624.9021],[-70.2449,9.4907,1607.1293],[-70.2356,9.4773,1757.5142],[-70.2306,9.4749,1881.1206],[-70.207,9.4726,2110.0854],[-70.1921,9.4695,2558.4875],[-70.1911,9.4866,2500.6479],[-70.186,9.4975,2296.8499],[-70.1567,9.5202,1928.6077],[-70.1292,9.5499,2714.4336],[-70.1224,9.5595,3349.7681],[-70.1079,9.5705,3053.5754],[-70.112,9.5891,2871.4927],[-70.1117,9.6103,2859.6682],[-70.1028,9.6649,2604.4644],[-70.0949,9.6801,2522.7227],[-70.0786,9.6927,2443.3687],[-70.0552,9.6991,2337.2256],[-70.0028,9.7013,1455.0271],[-69.9934,9.7043,1809.2583],[-69.988,9.7121,2070.1702],[-69.9878,9.7212,2094.2134],[-69.9928,9.7357,2277.865],[-70.0022,9.748,2270.1833],[-70.0187,9.7627,1945.7849],[-70.0336,9.7694,1948.6387],[-70.0668,9.7803,1885.8987],[-70.0919,9.8027,1460.9218],[-70.0978,9.8051,1258.5627]]]]}}