{"type": "Feature","bbox": [-67.1087,9.6804,-66.6914,10.012],"geometry": {"type": "MultiPolygon","coordinates": [[[[-67.0695,9.9119,400.9387],[-67.0716,9.9114,436.252],[-67.0721,9.8986,387.4886],[-67.0766,9.8781,487.6875],[-67.0811,9.8684,446.2548],[-67.0895,9.8577,391.8232],[-67.1087,9.8531,326.7153],[-67.0969,9.8366,350.9648],[-67.0842,9.8288,500.8365],[-67.0582,9.8247,415.0443],[-67.0472,9.818,298.0],[-67.0265,9.7972,302.2847],[-67.0122,9.7873,316.5928],[-66.9839,9.7805,309.5222],[-66.9789,9.7747,335.2206],[-66.9688,9.7457,445.0763],[-66.9631,9.7397,561.7746],[-66.9464,9.7301,457.8254],[-66.9108,9.7172,234.1728],[-66.8914,9.7066,221.7409],[-66.871,9.6907,217.2348],[-66.8681,9.6804,224.0101],[-66.8634,9.6804,205.9424],[-66.8511,9.685,200.2122],[-66.8445,9.6919,203.1012],[-66.8345,9.7144,217.3177],[-66.8271,9.72,215.9096],[-66.8167,9.7403,234.9202],[-66.8123,9.7457,236.1374],[-66.8037,9.7522,237.8581],[-66.7866,9.7559,278.235],[-66.7389,9.7559,271.9233],[-66.732,9.7583,281.5305],[-66.7241,9.7648,289.2996],[-66.7145,9.7828,338.3825],[-66.7016,9.8005,556.1498],[-66.6995,9.8164,658.7975],[-66.6977,9.8871,500.9228],[-66.6914,9.9991,617.1495],[-66.7048,10.012,638.4606],[-66.7239,9.9919,1037.7445],[-66.7385,9.9819,776.3354],[-66.7513,9.9736,601.801],[-66.8066,9.9469,680.7637],[-66.8121,9.9402,724.4306],[-66.8152,9.9324,531.9791],[-66.8219,9.9259,477.232],[-66.8416,9.9199,468.9601],[-66.9098,9.9216,418.018],[-66.9366,9.9252,628.3459],[-66.9915,9.9271,483.0316],[-67.0419,9.9312,378.6153],[-67.0457,9.9141,361.8076],[-67.0695,9.9119,400.9387]]]]}
,"properties": {"GID_2": "VEN.4.2_1","GID_0": "VEN","country": "Venezuela","GID_1": "VEN.4_1","province": "Aragua","NL_NAME_1": "NA","county": "Camatagua","VARNAME_2": "NA","NL_NAME_2": "NA","TYPE_2": "Municipio","ENGTYPE_2": "Municipality","CC_2": "NA","HASC_2": "NA","name": "Camatagua.county","area_km2": 871.616,"hist_schema_id": "Elevation0-9000","hist_area_km2": {"200": 5.7891,"225": 45.7224,"250": 90.9755,"275": 68.7593,"300": 115.049,"325": 59.2039,"350": 53.9584,"375": 57.7788,"400": 63.834,"425": 61.2847,"450": 53.827,"475": 43.5504,"500": 34.1716,"525": 25.9,"550": 20.5111,"575": 14.8086,"600": 12.0723,"625": 9.1271,"650": 7.6025,"675": 5.7016,"700": 3.613,"725": 3.1324,"750": 2.2135,"775": 1.775,"800": 1.8793,"825": 1.7331,"850": 1.232,"875": 1.3364,"900": 0.9188,"925": 0.7308,"950": 0.6891,"975": 0.6891,"1000": 0.522,"1025": 0.3341,"1050": 0.4176,"1075": 0.355,"1100": 0.3132,"1125": 0.0835,"1150": 0.0209}}}