{"type": "Feature","bbox": [-70.7835,8.7154,-70.5404,9.0428],"geometry": {"type": "MultiPolygon","coordinates": [[[[-70.5404,8.9988,3476.8418],[-70.547,9.0083,3556.6086],[-70.5565,9.0298,3441.8777],[-70.5641,9.0384,3456.8804],[-70.5713,9.0428,3561.8008],[-70.594,9.0168,3505.7017],[-70.6065,8.9987,3234.7031],[-70.6348,8.9408,2661.5864],[-70.6417,8.8919,1698.3674],[-70.6542,8.884,1772.0122],[-70.6688,8.8802,1966.8074],[-70.6779,8.8802,2199.3931],[-70.6876,8.889,2738.645],[-70.6951,8.893,2566.8997],[-70.7029,8.8932,2727.5107],[-70.7044,8.8856,2665.1956],[-70.7112,8.8701,2545.4346],[-70.718,8.8601,2886.5322],[-70.7372,8.8405,2628.6504],[-70.749,8.8252,2869.616],[-70.7615,8.8162,3014.0393],[-70.7835,8.8069,3199.3223],[-70.7732,8.7919,4036.7859],[-70.772,8.7789,4222.1914],[-70.7739,8.7455,3735.1567],[-70.7723,8.7395,3451.1182],[-70.7675,8.7345,3329.4795],[-70.7627,8.7344,3395.1648],[-70.7579,8.738,3504.4861],[-70.7483,8.7508,3770.769],[-70.743,8.7538,3883.0239],[-70.7346,8.7533,3774.5361],[-70.7271,8.7474,3536.9387],[-70.7176,8.7154,2519.1897],[-70.7117,8.7199,2119.4746],[-70.6866,8.7301,2476.1821],[-70.6607,8.7476,2384.062],[-70.6494,8.7615,2029.3689],[-70.6416,8.7792,2184.6929],[-70.635,8.8064,2757.1628],[-70.6236,8.8288,2639.439],[-70.6128,8.8571,2080.1646],[-70.5887,8.8854,1908.9724],[-70.5772,8.9021,1697.399],[-70.5606,8.9704,3359.1274],[-70.5498,8.9915,3412.4438],[-70.5404,8.9988,3476.8418]]]]}
,"properties": {"GID_2": "VEN.15.8_1","GID_0": "VEN","country": "Venezuela","GID_1": "VEN.15_1","province": "Mérida","NL_NAME_1": "NA","county": "CardenalQuintero","VARNAME_2": "NA","NL_NAME_2": "NA","TYPE_2": "Municipio","ENGTYPE_2": "Municipality","CC_2": "NA","HASC_2": "NA","name": "Cardenal_Quintero.county","area_km2": 329.7853,"hist_schema_id": "Elevation0-9000","hist_area_km2": {"1175": 0.0419,"1200": 0.0209,"1225": 0.0838,"1250": 0.0838,"1275": 0.1047,"1300": 0.1047,"1325": 0.1466,"1350": 0.1047,"1375": 0.1257,"1400": 0.2304,"1425": 0.1466,"1450": 0.1885,"1475": 0.2723,"1500": 0.1885,"1525": 0.3352,"1550": 0.398,"1575": 0.3142,"1600": 0.9008,"1625": 0.796,"1650": 1.0264,"1675": 0.796,"1700": 1.215,"1725": 1.4244,"1750": 0.9845,"1775": 1.3616,"1800": 1.3197,"1825": 1.4873,"1850": 1.8225,"1875": 1.5711,"1900": 1.7387,"1925": 1.9482,"1950": 1.9482,"1975": 2.1786,"2000": 1.9482,"2025": 2.4509,"2050": 2.3672,"2075": 2.5348,"2100": 2.5348,"2125": 2.2416,"2150": 2.8281,"2175": 2.6396,"2200": 3.0586,"2225": 2.7863,"2250": 3.0795,"2275": 3.2263,"2300": 3.2261,"2325": 2.9119,"2350": 3.4147,"2375": 3.2052,"2400": 3.3101,"2425": 3.2681,"2450": 3.1842,"2475": 3.4567,"2500": 3.4357,"2525": 3.1634,"2550": 3.4776,"2575": 3.5195,"2600": 3.4357,"2625": 3.7081,"2650": 3.6872,"2675": 3.289,"2700": 3.2891,"2725": 3.4357,"2750": 3.6452,"2775": 3.9595,"2800": 3.5194,"2825": 4.0013,"2850": 3.3099,"2875": 4.3993,"2900": 4.483,"2925": 4.7973,"2950": 4.3993,"2975": 3.5823,"3000": 4.148,"3025": 4.2107,"3050": 4.2106,"3075": 4.8392,"3100": 4.9649,"3125": 4.8811,"3150": 4.7972,"3175": 4.1688,"3200": 4.6716,"3225": 4.8601,"3250": 4.4411,"3275": 5.1324,"3300": 4.7134,"3325": 5.6141,"3350": 5.5093,"3375": 5.4465,"3400": 5.9073,"3425": 5.2162,"3450": 4.567,"3475": 5.2164,"3500": 4.9858,"3525": 5.4469,"3550": 4.9859,"3575": 5.5306,"3600": 4.9439,"3625": 4.6719,"3650": 5.1746,"3675": 4.2739,"3700": 4.3997,"3725": 3.96,"3750": 3.6248,"3775": 3.1219,"3800": 3.3945,"3825": 3.0383,"3850": 2.8497,"3875": 2.263,"3900": 2.3888,"3925": 1.5506,"3950": 1.362,"3975": 1.1106,"4000": 0.5658,"4025": 0.1886,"4050": 0.1886,"4075": 0.0629,"4100": 0.1467,"4125": 0.1257,"4150": 0.0838,"4175": 0.0838,"4200": 0.0629,"4225": 0.0419,"4275": 0.021}}}