{"type":"Feature","properties":{"GID_2":"VEN.16.7_1","GID_0":"VEN","country":"Venezuela","GID_1":"VEN.16_1","province":"Miranda","NL_NAME_1":"NA","county":"Chacao","VARNAME_2":"NA","NL_NAME_2":"NA","TYPE_2":"Municipio","ENGTYPE_2":"Municipality","CC_2":"NA","HASC_2":"NA","name":"Chacao.county"},
"geometry":{"type": "MultiPolygon","coordinates": [[[[-66.8522,10.4867,848.9729],[-66.8229,10.4875,853.151],[-66.826,10.5549,1912.7181],[-66.8423,10.5467,1904.428],[-66.8484,10.5388,2223.4561],[-66.8517,10.529,1860.1714],[-66.8522,10.4867,848.9729]]]]}}