{"type":"Feature","properties":{"GID_2":"VEN.1.3_1","GID_0":"VEN","country":"Venezuela","GID_1":"VEN.1_1","province":"Amazonas","NL_NAME_1":"NA","county":"Atures","VARNAME_2":"NA","NL_NAME_2":"NA","TYPE_2":"Municipio","ENGTYPE_2":"Municipality","CC_2":"NA","HASC_2":"NA","name":"Atures.county"},
"geometry":{"type": "MultiPolygon","coordinates": [[[[-67.8505,5.2936,66.0],[-67.8054,5.3008,78.8559],[-67.6772,5.355,89.7026],[-67.5718,5.3692,275.3654],[-67.4578,5.412,297.1364],[-67.3837,5.4376,241.4669],[-67.3154,5.4718,161.9229],[-67.1358,5.5202,624.5487],[-67.0703,5.5516,647.9601],[-67.0133,5.5829,452.2531],[-66.9409,5.645,1108.8009],[-66.9521,5.6536,994.057],[-66.9574,5.6647,1083.5247],[-66.9604,5.6774,912.8287],[-66.9675,5.6906,1117.924],[-66.9708,5.7027,833.2705],[-66.9758,5.713,869.6082],[-66.9858,5.7276,737.8587],[-67.0054,5.7412,434.8496],[-67.0161,5.7452,482.8711],[-67.0238,5.7462,620.7245],[-67.0398,5.744,710.1466],[-67.0587,5.7405,736.071],[-67.0905,5.7286,745.8226],[-67.1116,5.7246,673.8246],[-67.1315,5.7249,762.2749],[-67.1393,5.7284,720.6626],[-67.1482,5.7399,678.6646],[-67.1509,5.7547,616.8695],[-67.149,5.7714,491.1623],[-67.1384,5.8187,141.9883],[-67.136,5.8369,327.2325],[-67.1352,5.8727,145.8363],[-67.1327,5.8885,93.9155],[-67.1285,5.9094,187.7479],[-67.1219,5.9265,149.8301],[-67.1212,5.9535,146.6216],[-67.131,6.0038,505.5207],[-67.1322,6.0567,135.7835],[-67.1433,6.0818,115.342],[-67.1524,6.0923,285.3052],[-67.1666,6.1039,481.5152],[-67.1795,6.1093,550.1948],[-67.1961,6.1095,220.7204],[-67.2467,6.1055,210.2859],[-67.2606,6.1085,158.8165],[-67.2865,6.1312,77.173],[-67.2995,6.1325,70.2222],[-67.3154,6.1304,81.4555],[-67.356,6.1209,108.4267],[-67.374,6.1191,60.4051],[-67.3909,6.1244,55.2612],[-67.4004,6.1309,55.0247],[-67.4131,6.1473,51.3638],[-67.4228,6.152,51.6015],[-67.4346,6.1548,53.6707],[-67.4697,6.1566,41.0],[-67.4817,6.1509,64.2001],[-67.4909,6.1493,41.5],[-67.4934,6.132,42.0],[-67.4901,6.1226,42.0],[-67.4822,6.109,42.5],[-67.471,6.0941,43.0],[-67.4581,6.0634,44.5],[-67.4346,6.041,45.5],[-67.4275,6.0362,45.5],[-67.4258,6.0271,45.5],[-67.4054,6.0069,45.5],[-67.4042,6.0021,45.5],[-67.4051,5.9985,45.5],[-67.4095,5.993,45.5],[-67.424,5.984,45.5],[-67.4302,5.9718,45.5],[-67.4346,5.9674,45.5],[-67.4541,5.9586,45.5],[-67.4811,5.9419,46.1366],[-67.484,5.9379,48.9008],[-67.4889,5.9225,46.0],[-67.4917,5.9187,46.0],[-67.538,5.8935,46.5],[-67.5484,5.8844,47.0],[-67.5647,5.8611,47.0],[-67.5724,5.8558,47.0],[-67.5855,5.8499,47.0],[-67.5928,5.8401,47.0],[-67.6052,5.7926,47.5],[-67.6192,5.7491,48.5],[-67.6277,5.734,49.0],[-67.6313,5.6927,49.5],[-67.637,5.6753,49.5],[-67.6388,5.6507,50.0],[-67.6331,5.6358,50.0],[-67.635,5.6249,50.25],[-67.6291,5.6163,51.5],[-67.627,5.6005,53.0],[-67.622,5.5926,54.0],[-67.6246,5.579,55.0],[-67.6216,5.5747,55.5],[-67.6157,5.5714,55.625],[-67.6145,5.5626,56.25],[-67.6038,5.5516,57.5],[-67.6014,5.5439,57.75],[-67.6049,5.529,59.0],[-67.6142,5.5192,59.375],[-67.6197,5.5046,60.0],[-67.6237,5.4983,60.0],[-67.6218,5.4892,60.0],[-67.6247,5.4796,60.875],[-67.6295,5.4718,61.0],[-67.6329,5.4666,61.5],[-67.6471,5.4549,62.5],[-67.6663,5.443,63.0],[-67.6818,5.4304,63.5],[-67.6958,5.4243,63.5],[-67.7151,5.4129,63.5],[-67.7258,5.3975,64.0],[-67.7393,5.3874,64.0],[-67.7613,5.3803,64.5],[-67.796,5.3618,64.5],[-67.8095,5.3496,65.0],[-67.8229,5.3406,65.0],[-67.8468,5.3077,65.625],[-67.8505,5.2936,66.0]]]]}}