{"type":"Feature","properties":{"GID_2":"VEN.12.12_1","GID_0":"VEN","country":"Venezuela","GID_1":"VEN.12_1","province":"Falcón","NL_NAME_1":"NA","county":"LosTanques","VARNAME_2":"NA","NL_NAME_2":"NA","TYPE_2":"Municipio","ENGTYPE_2":"Municipality","CC_2":"NA","HASC_2":"NA","name":"Los_Tanques.county"},
"geometry":{"type": "MultiPolygon","coordinates": [[[[-70.1166,11.7472,20.4963],[-70.1274,11.7834,23.0995],[-70.1476,11.8289,29.4535],[-70.1661,11.88,26.7248],[-70.1854,11.8986,22.7133],[-70.1932,11.9028,20.3393],[-70.2254,11.931,12.6162],[-70.2643,11.9513,1.0144],[-70.2701,11.944,0.7289],[-70.2699,11.9396,2.0775],[-70.2726,11.9368,0.4353],[-70.2738,11.9324,0.3977],[-70.2812,11.9254,0.0],[-70.2849,11.9129,0.602],[-70.291,11.9018,0.5607],[-70.2915,11.8868,0.0],[-70.289,11.8718,0.4227],[-70.2946,11.8618,0.6997],[-70.2846,11.8612,0.4943],[-70.2801,11.8537,2.3232],[-70.2818,11.8374,0.0],[-70.2771,11.8265,0.0],[-70.2768,11.8174,1.1998],[-70.2682,11.8204,0.0],[-70.261,11.819,0.857],[-70.2543,11.7996,1.9366],[-70.2585,11.7954,0.0],[-70.256,11.7935,0.0],[-70.2521,11.7949,2.6313],[-70.2529,11.7921,0.8284],[-70.2493,11.7882,0.0],[-70.2454,11.7729,0.0],[-70.2429,11.774,1.8417],[-70.2418,11.7726,1.5775],[-70.2387,11.7574,0.0],[-70.2368,11.7571,0.0],[-70.2368,11.7593,1.3933],[-70.234,11.7593,1.2376],[-70.2318,11.7621,0.0],[-70.2324,11.7654,3.9397],[-70.2393,11.7704,1.765],[-70.2385,11.7757,1.2773],[-70.2301,11.7801,3.1354],[-70.2246,11.7804,0.0],[-70.214,11.7765,0.0],[-70.2071,11.7665,0.4961],[-70.2046,11.7587,0.3797],[-70.2054,11.7537,2.3028],[-70.2104,11.7487,2.9278],[-70.2129,11.7482,0.0],[-70.216,11.7504,0.0],[-70.2179,11.7485,0.0],[-70.2168,11.7454,0.0],[-70.2129,11.7471,0.0],[-70.2124,11.7443,0.0],[-70.209,11.7446,3.425],[-70.2079,11.7421,0.2613],[-70.2035,11.7413,0.0],[-70.2007,11.7365,10.4584],[-70.2021,11.7329,0.3838],[-70.2015,11.7285,5.4831],[-70.2096,11.7257,0.0],[-70.2115,11.7326,2.8899],[-70.2132,11.7335,2.8899],[-70.2182,11.7274,-0.0102],[-70.2215,11.7276,0.2039],[-70.2271,11.736,0.0],[-70.2262,11.744,0.0],[-70.2285,11.7401,3.6108],[-70.2351,11.7376,1.5439],[-70.231,11.7321,1.5267],[-70.2274,11.7318,3.6058],[-70.2254,11.7288,4.5077],[-70.226,11.7218,0.0],[-70.2235,11.7224,5.5799],[-70.222,11.7183,0.0],[-70.2085,11.7206,-0.5],[-70.1166,11.7472,20.4963]]]]}}