{"type":"Feature","properties":{"GID_2":"VEN.21.29_1","GID_0":"VEN","country":"Venezuela","GID_1":"VEN.21_1","province":"Táchira","NL_NAME_1":"NA","county":"Uribante","VARNAME_2":"NA","NL_NAME_2":"NA","TYPE_2":"Municipio","ENGTYPE_2":"Municipality","CC_2":"NA","HASC_2":"NA","name":"Uribante.county"},
"geometry":{"type": "MultiPolygon","coordinates": [[[[-71.5673,7.9879,2251.7351],[-71.5713,7.9898,2348.8799],[-71.5808,7.9879,2222.0349],[-71.6257,7.9738,1483.5089],[-71.6377,7.9718,1344.4],[-71.6567,7.975,1394.6044],[-71.6693,7.9832,1666.2972],[-71.6778,7.9941,1471.0057],[-71.6914,8.0242,1398.436],[-71.7416,8.069,1713.415],[-71.7556,8.0871,1578.4365],[-71.7689,8.1085,1788.344],[-71.7804,8.1216,2335.8125],[-71.7946,8.1313,2379.6787],[-71.8723,8.1525,2659.9033],[-71.881,8.1587,2822.4529],[-71.8869,8.1326,2908.1863],[-71.8939,8.1103,2929.668],[-71.8992,8.0705,3345.9458],[-71.8983,8.0466,3123.6936],[-71.8905,8.0164,3217.0078],[-71.8859,7.9863,2658.7151],[-71.881,7.9729,2567.1411],[-71.8758,7.9664,2307.8767],[-71.857,7.9517,2312.4595],[-71.8344,7.9261,1822.1241],[-71.8232,7.9161,1490.1459],[-71.8165,7.9126,1719.5004],[-71.7931,7.9074,1531.5217],[-71.7829,7.9035,1264.7964],[-71.7774,7.8994,1261.8014],[-71.7725,7.885,998.5598],[-71.7654,7.8438,1133.1676],[-71.7916,7.8209,1107.5212],[-71.8023,7.805,904.8911],[-71.8302,7.7854,720.724],[-71.8427,7.7714,758.7531],[-71.9242,7.7332,979.8117],[-71.9338,7.7301,1211.0596],[-71.94,7.7308,1077.6604],[-71.9495,7.7401,953.4049],[-71.9533,7.7403,1095.681],[-71.9584,7.7376,1119.5897],[-71.9704,7.716,890.6293],[-71.9642,7.7069,721.9896],[-71.9595,7.694,448.9196],[-71.9576,7.6625,339.1986],[-71.9548,7.6529,315.3423],[-71.9496,7.6464,306.1736],[-71.9285,7.6422,279.8486],[-71.9187,7.6335,285.1655],[-71.8907,7.5921,428.5504],[-71.8832,7.5859,492.0221],[-71.877,7.5852,519.1606],[-71.8681,7.5884,501.4581],[-71.84,7.6075,564.6159],[-71.8294,7.6111,505.2206],[-71.8163,7.618,415.6971],[-71.7957,7.6438,367.8417],[-71.787,7.6515,702.6512],[-71.7736,7.6592,509.3863],[-71.7652,7.6677,614.0168],[-71.7461,7.7136,569.7171],[-71.7321,7.7333,277.0209],[-71.7246,7.739,269.5065],[-71.7148,7.7434,305.5179],[-71.6989,7.748,430.3549],[-71.6773,7.7495,236.2686],[-71.6485,7.7543,279.9979],[-71.6349,7.762,332.486],[-71.6136,7.8023,310.7294],[-71.6098,7.8035,331.5293],[-71.5746,7.7367,382.2562],[-71.5579,7.7125,302.0],[-71.5486,7.7491,470.8298],[-71.5388,7.7732,513.6069],[-71.5188,7.7908,985.593],[-71.5178,7.8765,1505.343],[-71.519,7.8967,1320.3362],[-71.5251,7.915,1804.8936],[-71.5525,7.942,1070.8602],[-71.5614,7.9576,1598.6493],[-71.5673,7.9879,2251.7351]]]]}}