{"type":"Feature","properties":{"GID_2":"VEN.20.4_1","GID_0":"VEN","country":"Venezuela","GID_1":"VEN.20_1","province":"Sucre","NL_NAME_1":"NA","county":"Benítez","VARNAME_2":"NA","NL_NAME_2":"NA","TYPE_2":"Municipio","ENGTYPE_2":"Municipality","CC_2":"NA","HASC_2":"NA","name":"Benítez.county"},
"geometry":{"type": "MultiPolygon","coordinates": [[[[-62.9885,10.1315,8.0589],[-62.9777,10.1258,6.0769],[-62.9671,10.1258,21.9972],[-62.9546,10.1293,8.0974],[-62.9245,10.1245,1.9638],[-62.9121,10.1267,9.8329],[-62.9009,10.1311,2.0118],[-62.8906,10.1257,3.8968],[-62.883,10.1169,8.5079],[-62.8777,10.1059,12.4269],[-62.8747,10.0937,10.5965],[-62.8705,10.0917,9.9853],[-62.8633,10.0919,10.2416],[-62.8558,10.0957,11.3877],[-62.8418,10.1091,11.3192],[-62.8314,10.1087,3.6267],[-62.8266,10.1037,3.2912],[-62.8221,10.0901,1.7621],[-62.8109,10.0759,1.8013],[-62.8049,10.0707,2.6703],[-62.7967,10.0691,3.2224],[-62.7893,10.0693,21.2965],[-62.7844,10.0751,7.0941],[-62.7808,10.0997,2.5254],[-62.777,10.1061,1.8613],[-62.7713,10.1097,3.8371],[-62.7639,10.1109,1.495],[-62.7398,10.1085,9.122],[-62.7269,10.1017,8.1617],[-62.7178,10.0937,2.0719],[-62.71,10.0911,3.7366],[-62.6797,10.0933,12.9865],[-62.6359,10.1101,17.4179],[-62.6228,10.1229,24.3965],[-62.6141,10.1363,0.0],[-62.6124,10.1515,0.0],[-62.6181,10.1747,0.0],[-62.6263,10.1897,0.0],[-62.6488,10.2067,0.0],[-62.6648,10.2329,0.0],[-62.6693,10.2349,0.0],[-62.6682,10.2601,0.0],[-62.6704,10.2718,1.1324],[-62.6735,10.2801,0.0],[-62.6763,10.281,0.0],[-62.679,10.286,0.0],[-62.679,10.296,0.0],[-62.6849,10.2991,0.0],[-62.6876,10.3043,0.0],[-62.6757,10.3096,0.0],[-62.6707,10.3079,0.0],[-62.6674,10.3021,0.0],[-62.6629,10.3063,0.0],[-62.6543,10.3196,0.0],[-62.6499,10.3315,0.0],[-62.6501,10.341,0.0],[-62.6535,10.3512,0.0],[-62.6595,10.3596,0.0],[-62.6735,10.3721,0.0],[-62.6754,10.3755,0.0],[-62.6849,10.3821,0.0],[-62.6921,10.3896,1.7023],[-62.7118,10.4157,0.0],[-62.7226,10.4257,0.0],[-62.7354,10.441,0.0],[-62.7388,10.4474,0.0],[-62.7468,10.4551,0.0],[-62.7596,10.4749,0.0],[-62.7657,10.4935,0.0],[-62.7702,10.4988,0.0],[-62.7779,10.5013,6.3559],[-62.7957,10.5015,7.5198],[-62.8118,10.4979,0.0],[-62.8354,10.4999,0.0],[-62.8329,10.5268,0.0],[-62.8299,10.5357,22.3927],[-62.8193,10.5382,0.0],[-62.809,10.5447,0.0],[-62.8344,10.5449,25.0468],[-62.8575,10.5423,25.7512],[-62.8649,10.5443,19.8569],[-62.8665,10.54,24.1483],[-62.8992,10.5301,28.7892],[-62.9181,10.5157,0.0],[-62.9395,10.4903,25.2083],[-62.9476,10.4841,24.9268],[-62.9613,10.4874,24.2206],[-63.1032,10.5716,25.2924],[-63.1086,10.5769,50.4207],[-63.1039,10.5883,99.6678],[-63.0984,10.5936,220.062],[-63.089,10.6115,464.8508],[-63.0917,10.6163,498.3214],[-63.1053,10.6259,452.2852],[-63.1205,10.6287,488.0351],[-63.1358,10.6227,690.3549],[-63.1523,10.6194,624.9821],[-63.1825,10.6098,623.0101],[-63.1934,10.6041,307.2622],[-63.1888,10.5897,385.0293],[-63.189,10.5836,314.9829],[-63.1936,10.5705,173.6542],[-63.1984,10.5635,58.0298],[-63.2065,10.5571,158.3475],[-63.2103,10.5561,180.121],[-63.245,10.557,456.893],[-63.2499,10.5303,531.2309],[-63.264,10.4987,468.9969],[-63.2769,10.4598,486.4736],[-63.2735,10.4493,342.2737],[-63.2332,10.4338,541.9995],[-63.2187,10.4257,537.6985],[-63.2048,10.4125,298.7461],[-63.203,10.4062,187.9012],[-63.2049,10.3955,83.4963],[-63.2101,10.3891,40.5095],[-63.2148,10.3749,3.5156],[-63.2144,10.3585,5.8464],[-63.2102,10.3535,3.2799],[-63.1957,10.3433,3.317],[-63.1925,10.3373,3.1874],[-63.187,10.3316,2.8714],[-63.1716,10.3344,2.9677],[-63.1613,10.333,2.9575],[-63.1563,10.3276,3.131],[-63.1495,10.3122,3.3816],[-63.1404,10.3006,2.824],[-63.1253,10.291,2.8445],[-63.0948,10.2929,235.6891],[-63.0881,10.2907,90.8109],[-63.0824,10.2751,443.0659],[-63.0833,10.2676,327.4693],[-63.0861,10.2591,387.3257],[-63.0993,10.2405,5.8775],[-63.1011,10.2335,4.4152],[-63.098,10.2275,4.17],[-63.0905,10.2225,6.016],[-63.0837,10.2207,3.7727],[-63.0598,10.2267,226.7054],[-63.053,10.2253,142.3799],[-63.0486,10.2201,88.3671],[-63.0458,10.2113,103.1017],[-63.0386,10.1725,8.1072],[-63.0251,10.1593,24.7406],[-63.0223,10.1595,26.6973],[-63.0119,10.1541,8.8977],[-62.9885,10.1315,8.0589]]]]}}