{"type":"Feature","properties":{"GID_2":"VEN.15.16_1","GID_0":"VEN","country":"Venezuela","GID_1":"VEN.15_1","province":"Mérida","NL_NAME_1":"NA","county":"PuebloLlano","VARNAME_2":"NA","NL_NAME_2":"NA","TYPE_2":"Municipio","ENGTYPE_2":"Municipality","CC_2":"NA","HASC_2":"NA","name":"Pueblo_Llano.county"},
"geometry":{"type": "MultiPolygon","coordinates": [[[[-70.5713,9.0428,3561.8008],[-70.5845,9.0549,3209.8325],[-70.5903,9.0633,2918.8477],[-70.5999,9.0682,2897.3992],[-70.6094,9.0672,2963.4526],[-70.6303,9.0538,2576.8306],[-70.6428,9.0411,2212.4863],[-70.6646,9.0258,2256.5762],[-70.6735,9.0229,2458.4136],[-70.6803,9.0104,2876.6003],[-70.6853,9.0045,2746.4404],[-70.6895,8.9922,3082.2549],[-70.6875,8.9379,3037.6748],[-70.6904,8.9235,2900.7935],[-70.6945,8.9164,3249.5164],[-70.7028,8.8931,2727.5107],[-70.6951,8.893,2566.8997],[-70.6876,8.889,2738.645],[-70.6779,8.8802,2199.3931],[-70.6688,8.8802,1966.8074],[-70.6542,8.884,1772.0122],[-70.6417,8.8919,1698.3674],[-70.6348,8.9408,2661.5864],[-70.6065,8.9987,3234.7031],[-70.594,9.0168,3505.7017],[-70.5713,9.0428,3561.8008]]]]}}