{"type": "Feature","bbox": [-65.5817,8.7045,-64.7607,9.6421],"geometry": {"type": "MultiPolygon","coordinates": [[[[-65.5046,9.5764,116.4402],[-65.5327,9.52,86.5297],[-65.5495,9.4986,117.4127],[-65.578,9.4533,81.922],[-65.5811,9.4437,77.7996],[-65.5817,9.4314,78.0976],[-65.5777,9.4215,75.8215],[-65.5673,9.4059,86.8754],[-65.5596,9.4022,72.049],[-65.5452,9.3914,66.5],[-65.5296,9.3745,59.7005],[-65.4973,9.3028,65.0464],[-65.4813,9.2752,54.2635],[-65.4661,9.2551,68.8573],[-65.4649,9.2476,74.941],[-65.4676,9.2405,74.7499],[-65.4723,9.2339,72.7975],[-65.4846,9.2223,69.4338],[-65.5168,9.1825,78.2021],[-65.5319,9.1535,98.3233],[-65.5472,9.1302,77.1],[-65.5375,9.1235,85.162],[-65.5301,9.116,96.2876],[-65.5079,9.0867,101.5405],[-65.4916,9.0697,95.9042],[-65.4703,9.0431,112.16],[-65.4538,9.0177,102.5489],[-65.4445,8.9989,92.9962],[-65.4304,8.9615,84.7345],[-65.4255,8.9456,91.1477],[-65.4223,8.9176,100.8168],[-65.4067,8.9071,89.3856],[-65.4016,8.9094,88.4812],[-65.3948,8.9566,92.804],[-65.3896,8.9684,92.0867],[-65.3819,8.976,89.9276],[-65.3667,8.9738,86.0066],[-65.3595,8.9708,79.4458],[-65.349,8.9616,93.0969],[-65.3324,8.9519,84.9962],[-65.3125,8.9418,79.5106],[-65.3056,8.9414,84.6406],[-65.2903,8.9451,100.8007],[-65.2865,8.9395,99.8035],[-65.272,8.8895,106.5652],[-65.2472,8.8443,117.9573],[-65.2369,8.8282,132.3508],[-65.2288,8.819,139.2628],[-65.2185,8.8108,149.3022],[-65.2099,8.8064,136.9923],[-65.1875,8.7986,130.2588],[-65.1534,8.7977,140.4282],[-65.1259,8.7998,140.0996],[-65.0963,8.8059,139.7148],[-65.0699,8.8089,152.8376],[-65.0596,8.8073,150.7519],[-65.0319,8.7944,134.5839],[-65.005,8.7952,144.0492],[-64.9852,8.7929,145.1335],[-64.9568,8.7943,148.5266],[-64.9395,8.7894,160.0623],[-64.9061,8.7921,169.639],[-64.8906,8.7863,185.2817],[-64.8745,8.7744,216.4197],[-64.848,8.76,240.4648],[-64.797,8.7115,213.5386],[-64.7778,8.7045,211.6209],[-64.7636,8.7346,253.2676],[-64.7607,8.7558,232.6843],[-64.7643,8.7705,238.144],[-64.7709,8.7852,216.5455],[-64.791,8.8139,229.5025],[-64.7982,8.8213,223.4327],[-64.8444,8.8571,204.033],[-64.8819,8.8817,165.213],[-64.9194,8.9316,138.0976],[-64.9527,8.9537,141.4372],[-64.9634,8.9649,137.2547],[-64.9689,8.9749,133.6763],[-64.9756,8.9978,117.897],[-64.9794,9.0055,109.7281],[-65.0199,9.0256,109.572],[-65.044,9.0431,97.0868],[-65.0545,9.0462,97.4839],[-65.0815,9.0646,89.3295],[-65.0909,9.0679,98.7209],[-65.1361,9.0655,74.2761],[-65.1653,9.074,78.8484],[-65.1762,9.0814,90.7464],[-65.184,9.1017,83.7096],[-65.1987,9.1887,55.379],[-65.2036,9.2053,67.241],[-65.2289,9.274,48.2097],[-65.2391,9.3128,49.0117],[-65.2496,9.3304,52.1613],[-65.2626,9.3601,49.3599],[-65.2625,9.3705,33.6455],[-65.2573,9.3818,29.3189],[-65.2464,9.3935,30.1095],[-65.2193,9.4071,33.3558],[-65.1857,9.4337,31.5114],[-65.181,9.4392,32.4657],[-65.18,9.4496,45.5598],[-65.1858,9.4747,45.8896],[-65.1911,9.4885,32.5548],[-65.1995,9.4995,28.5533],[-65.208,9.5065,21.9375],[-65.2478,9.5262,41.8127],[-65.2951,9.542,45.3355],[-65.318,9.554,54.7225],[-65.326,9.5601,61.6241],[-65.3523,9.5877,74.1937],[-65.368,9.5987,83.3333],[-65.3827,9.6117,84.3122],[-65.4043,9.6356,106.9886],[-65.41,9.6402,114.7943],[-65.4175,9.6421,107.6465],[-65.4314,9.639,107.3917],[-65.4427,9.6338,107.334],[-65.4721,9.6137,123.3321],[-65.5046,9.5764,116.4402]]]]}
,"properties": {"GID_2": "VEN.13.15_1","GID_0": "VEN","country": "Venezuela","GID_1": "VEN.13_1","province": "Guárico","NL_NAME_1": "NA","county": "Zaraza","VARNAME_2": "NA","NL_NAME_2": "NA","TYPE_2": "Municipio","ENGTYPE_2": "Municipality","CC_2": "NA","HASC_2": "NA","name": "Zaraza.county","area_km2": 3419.88,"hist_schema_id": "Elevation0-9000","hist_area_km2": {"25": 133.171,"50": 679.462,"75": 1022.578,"100": 801.725,"125": 377.043,"150": 223.34,"175": 47.83,"200": 31.198,"225": 80.923,"250": 21.877,"275": 0.733}}}