{"type": "Feature","bbox": [-70.7348,9.0211,-70.418,9.3366],"geometry": {"type": "MultiPolygon","coordinates": [[[[-70.6735,9.0229,2458.4136],[-70.6646,9.0258,2256.5762],[-70.6428,9.0411,2212.4863],[-70.6303,9.0538,2576.8306],[-70.6094,9.0672,2963.4526],[-70.5999,9.0682,2897.3992],[-70.5891,9.0615,3031.0166],[-70.5803,9.0723,3031.1387],[-70.5705,9.0895,3626.1033],[-70.546,9.0978,3655.7136],[-70.5405,9.1088,3210.3423],[-70.5448,9.1181,2801.1016],[-70.5439,9.1246,2651.8735],[-70.5388,9.13,2933.7002],[-70.5165,9.1433,2759.0305],[-70.498,9.1579,3046.6584],[-70.4782,9.1618,2825.7415],[-70.4632,9.1627,2841.4658],[-70.4575,9.1684,2970.3167],[-70.448,9.1699,3099.2412],[-70.4417,9.1747,2938.6545],[-70.4407,9.1848,2951.0583],[-70.4521,9.2137,2376.3262],[-70.4456,9.2298,2715.6562],[-70.4254,9.2367,2564.6167],[-70.418,9.2548,2181.0942],[-70.4456,9.2518,2128.0989],[-70.4659,9.2574,2008.7098],[-70.4776,9.2633,1371.0056],[-70.4892,9.2772,1067.7712],[-70.4996,9.2859,1181.2233],[-70.5137,9.3135,1315.0427],[-70.5238,9.3265,1093.3311],[-70.5367,9.3324,724.7028],[-70.5543,9.3366,444.5453],[-70.5696,9.3208,486.7138],[-70.5766,9.3112,555.1382],[-70.584,9.2897,1043.1018],[-70.5981,9.2896,537.5821],[-70.6049,9.2857,603.4084],[-70.6103,9.2791,941.9852],[-70.6196,9.2519,1632.1406],[-70.6259,9.244,1591.0575],[-70.6256,9.2385,1718.3906],[-70.6333,9.2181,1638.2063],[-70.6502,9.2003,1660.955],[-70.6571,9.1901,1724.4641],[-70.6578,9.188,1773.1831],[-70.6528,9.1821,1388.0358],[-70.6527,9.1708,1662.9111],[-70.6577,9.1648,1654.2848],[-70.6636,9.1611,1661.9657],[-70.6725,9.1571,1830.2297],[-70.6931,9.1523,1540.697],[-70.7002,9.1477,1643.3679],[-70.7031,9.1435,1851.0623],[-70.7073,9.1125,2292.1062],[-70.7106,9.1023,2460.9619],[-70.7217,9.0815,2379.8105],[-70.7348,9.0644,2161.5835],[-70.713,9.0329,1894.5703],[-70.7053,9.0273,2124.3384],[-70.6943,9.0215,2090.7705],[-70.6787,9.0211,2541.0645],[-70.6735,9.0229,2458.4136]]]]}
,"properties": {"GID_2": "VEN.22.19_1","GID_0": "VEN","country": "Venezuela","GID_1": "VEN.22_1","province": "Trujillo","NL_NAME_1": "NA","county": "Urdaneta","VARNAME_2": "NA","NL_NAME_2": "NA","TYPE_2": "Municipio","ENGTYPE_2": "Municipality","CC_2": "NA","HASC_2": "NA","name": "Urdaneta.county","area_km2": 547.0925,"hist_schema_id": "Elevation0-9000","hist_area_km2": {"400": 0.0209,"425": 0.1883,"450": 0.4184,"475": 0.5231,"500": 0.5649,"525": 0.5858,"550": 0.8578,"575": 0.7742,"600": 1.1299,"625": 1.5065,"650": 1.4856,"675": 1.8623,"700": 1.9041,"725": 2.218,"750": 2.0088,"775": 2.3645,"800": 2.8459,"825": 3.4946,"850": 3.2016,"875": 3.9968,"900": 4.4153,"925": 4.8548,"950": 4.9386,"975": 4.6247,"1000": 5.3362,"1025": 5.6501,"1050": 5.9851,"1075": 6.2362,"1100": 5.3782,"1125": 6.1525,"1150": 6.0271,"1175": 6.1738,"1200": 6.383,"1225": 6.4878,"1250": 5.9437,"1275": 6.2994,"1300": 6.8229,"1325": 6.9275,"1350": 7.1997,"1375": 6.4673,"1400": 7.7858,"1425": 6.7186,"1450": 7.5348,"1475": 7.5559,"1500": 7.7025,"1525": 7.7027,"1550": 8.3096,"1575": 8.3934,"1600": 8.1632,"1625": 8.3308,"1650": 8.7913,"1675": 8.1633,"1700": 8.624,"1725": 8.1426,"1750": 8.6451,"1775": 7.9962,"1800": 7.3474,"1825": 8.2893,"1850": 8.1428,"1875": 7.766,"1900": 7.8079,"1925": 7.4939,"1950": 7.7033,"1975": 6.9916,"2000": 7.0962,"2025": 7.0755,"2050": 7.3684,"2075": 7.2428,"2100": 6.2381,"2125": 6.1543,"2150": 6.2381,"2175": 5.5681,"2200": 5.6311,"2225": 5.5891,"2250": 5.4006,"2275": 5.317,"2300": 4.2704,"2325": 4.6262,"2350": 4.3959,"2375": 3.9772,"2400": 3.8935,"2425": 4.0192,"2450": 3.8097,"2475": 3.7051,"2500": 3.7679,"2525": 3.5585,"2550": 3.14,"2575": 3.5167,"2600": 3.1608,"2625": 3.3701,"2650": 3.0352,"2675": 3.705,"2700": 3.4538,"2725": 3.1817,"2750": 3.726,"2775": 3.6212,"2800": 3.4747,"2825": 3.6213,"2850": 3.0561,"2875": 3.6213,"2900": 3.2237,"2925": 3.8306,"2950": 2.9934,"2975": 3.3702,"3000": 2.5538,"3025": 2.3236,"3050": 2.0305,"3075": 2.1562,"3100": 1.8422,"3125": 1.5073,"3150": 1.4654,"3175": 1.591,"3200": 1.1933,"3225": 0.984,"3250": 0.9421,"3275": 0.984,"3300": 0.7118,"3325": 0.8584,"3350": 0.67,"3375": 0.7537,"3400": 0.7118,"3425": 0.6909,"3450": 0.8584,"3475": 0.6699,"3500": 0.6699,"3525": 0.5025,"3550": 0.7118,"3575": 0.6281,"3600": 0.3768,"3625": 0.5862,"3650": 0.5234,"3675": 0.4187,"3700": 0.335,"3725": 0.2512,"3750": 0.1466,"3775": 0.0419}}}