{"type": "Feature","bbox": [-65.6487,9.6893,-65.1069,10.0601],"geometry": {"type": "MultiPolygon","coordinates": [[[[-65.3543,10.036,256.1764],[-65.3621,10.0324,359.7536],[-65.3751,10.0218,541.0367],[-65.3914,10.0251,397.9327],[-65.4124,10.0202,401.2207],[-65.4267,10.0252,179.1843],[-65.4611,10.0489,191.5563],[-65.4742,10.0601,206.6257],[-65.5071,10.0324,262.8872],[-65.516,10.0276,263.745],[-65.565,10.0083,175.8232],[-65.5819,10.0007,267.8821],[-65.5995,9.99,279.1573],[-65.6162,9.9835,492.7004],[-65.6138,9.9595,742.991],[-65.6114,9.9511,843.7069],[-65.6071,9.9454,634.2908],[-65.5776,9.9397,413.8086],[-65.5721,9.9351,367.0399],[-65.5761,9.9287,255.414],[-65.5951,9.913,394.1246],[-65.6146,9.8912,271.2618],[-65.6345,9.8561,232.5569],[-65.644,9.8196,192.185],[-65.6487,9.7898,154.9194],[-65.4701,9.7912,114.7931],[-65.4626,9.7861,88.7659],[-65.4428,9.7664,71.0292],[-65.4365,9.7625,77.2075],[-65.4301,9.7603,77.8828],[-65.3885,9.7613,56.2939],[-65.3772,9.7584,64.3105],[-65.3646,9.7498,59.5404],[-65.3598,9.7302,67.0392],[-65.3604,9.7198,63.0033],[-65.3624,9.7133,67.1688],[-65.3711,9.6995,76.9503],[-65.3714,9.6927,82.2888],[-65.3644,9.6911,82.5036],[-65.3175,9.6919,83.0517],[-65.3068,9.6893,83.4542],[-65.2959,9.6915,76.8195],[-65.293,9.6985,82.9609],[-65.2911,9.7172,81.7933],[-65.2865,9.7233,69.7639],[-65.2615,9.7417,76.8243],[-65.2502,9.7447,83.9086],[-65.2277,9.7451,65.5791],[-65.2126,9.7491,57.9501],[-65.1991,9.7574,90.2063],[-65.1875,9.7621,69.7941],[-65.1378,9.7721,13.7621],[-65.1304,9.7754,17.6838],[-65.124,9.7806,18.2756],[-65.1193,9.7899,13.7542],[-65.1194,9.8186,23.3254],[-65.1174,9.8274,18.0319],[-65.1136,9.8331,14.1328],[-65.111,9.8321,17.968],[-65.1069,9.8371,21.4267],[-65.115,9.9203,31.8334],[-65.1112,9.9735,55.0979],[-65.1103,10.0123,174.9201],[-65.2104,10.0063,18.223],[-65.2441,10.0361,258.8046],[-65.2598,10.0447,169.3156],[-65.2694,10.0461,216.1323],[-65.2854,10.0445,280.3138],[-65.3006,10.0363,321.6699],[-65.3192,10.0314,269.905],[-65.3374,10.0321,299.3198],[-65.3543,10.036,256.1764]]]]}
,"properties": {"GID_2": "VEN.2.4_1","GID_0": "VEN","country": "Venezuela","GID_1": "VEN.2_1","province": "Anzoátegui","NL_NAME_1": "NA","county": "Bruzual","VARNAME_2": "NA","NL_NAME_2": "NA","TYPE_2": "Municipio","ENGTYPE_2": "Municipality","CC_2": "NA","HASC_2": "NA","name": "Bruzual.county","area_km2": 1635.196,"hist_schema_id": "Elevation0-9000","hist_area_km2": {"0": 80.841,"25": 299.943,"50": 290.636,"75": 236.313,"100": 141.895,"125": 110.996,"150": 86.157,"175": 76.383,"200": 52.549,"225": 41.79,"250": 34.166,"275": 22.595,"300": 16.601,"325": 15.014,"350": 16.914,"375": 17.645,"400": 16.121,"425": 13.218,"450": 11.84,"475": 10.336,"500": 8.812,"525": 7.601,"550": 5.868,"575": 4.656,"600": 4.26,"625": 3.633,"650": 2.861,"675": 1.963,"700": 1.19,"725": 0.898,"750": 0.647,"775": 0.355,"800": 0.209,"825": 0.063,"850": 0.125,"875": 0.063,"900": 0.042}}}