{"type": "Feature","bbox": [-68.3298,10.1822,-68.1692,10.3002],"geometry": {"type": "MultiPolygon","coordinates": [[[[-68.3167,10.2954,946.1904],[-68.3298,10.2727,1645.176],[-68.3226,10.266,1500.2285],[-68.3092,10.235,733.061],[-68.2999,10.2236,652.897],[-68.2968,10.2088,641.9631],[-68.2925,10.1976,636.8571],[-68.2867,10.1922,638.191],[-68.2805,10.1885,653.9738],[-68.277,10.1882,663.2332],[-68.2608,10.1991,693.3295],[-68.2567,10.1988,681.2401],[-68.252,10.1961,685.9696],[-68.2504,10.1883,669.815],[-68.2453,10.1822,676.439],[-68.222,10.1903,821.3123],[-68.2136,10.1944,1080.7383],[-68.2112,10.1979,1113.7961],[-68.2063,10.2351,970.517],[-68.1966,10.2505,739.7132],[-68.1947,10.2591,745.5082],[-68.1887,10.2713,1012.2335],[-68.1754,10.2846,779.1005],[-68.1692,10.298,960.0554],[-68.2229,10.2967,1188.674],[-68.2693,10.3002,361.025],[-68.2837,10.2945,303.809],[-68.2958,10.2931,440.5409],[-68.3167,10.2954,946.1904]]]]}
,"properties": {"GID_2": "VEN.7.10_1","GID_0": "VEN","country": "Venezuela","GID_1": "VEN.7_1","province": "Carabobo","NL_NAME_1": "NA","county": "Montalbán","VARNAME_2": "NA","NL_NAME_2": "NA","TYPE_2": "Municipio","ENGTYPE_2": "Municipality","CC_2": "NA","HASC_2": "NA","name": "Montalbán.county","area_km2": 146.464,"hist_schema_id": "Elevation0-9000","hist_area_km2": {"300": 1.6272,"325": 0.7719,"350": 0.6467,"375": 0.5007,"400": 0.6258,"425": 0.6258,"450": 0.7093,"475": 1.0431,"500": 0.6676,"525": 0.6258,"550": 0.9179,"575": 0.7719,"600": 0.7927,"625": 1.2101,"650": 11.8517,"675": 9.0346,"700": 6.7606,"725": 4.3398,"750": 5.1118,"775": 4.4441,"800": 5.07,"825": 4.5692,"850": 4.3606,"875": 4.6109,"900": 4.6735,"925": 4.2353,"950": 4.2979,"975": 3.9015,"1000": 3.3799,"1025": 3.4216,"1050": 3.7555,"1075": 3.2339,"1100": 3.2547,"1125": 2.9835,"1150": 3.2756,"1175": 3.6094,"1200": 2.6914,"1225": 2.9417,"1250": 3.1921,"1275": 2.4202,"1300": 2.3158,"1325": 2.0028,"1350": 2.128,"1375": 2.274,"1400": 1.7107,"1425": 1.8776,"1450": 1.5021,"1475": 1.3978,"1500": 1.1683,"1525": 0.9179,"1550": 0.6885,"1575": 0.5424,"1600": 0.4172,"1625": 0.2712,"1650": 0.1878,"1675": 0.0626,"1700": 0.0417}}}