{"type": "Feature","bbox": [-71.0123,7.7514,-70.2444,8.5746],"geometry": {"type": "MultiPolygon","coordinates": [[[[-71.0123,8.1528,1512.7617],[-70.992,8.1512,1128.6772],[-70.9681,8.1433,746.5181],[-70.9613,8.1444,850.8087],[-70.9443,8.1626,862.1861],[-70.9337,8.1673,746.9409],[-70.9221,8.1666,436.8379],[-70.9124,8.1627,492.3633],[-70.9057,8.1565,451.4778],[-70.8907,8.1295,233.7851],[-70.8834,8.1116,197.6667],[-70.8862,8.054,168.8319],[-70.8832,8.0388,163.7245],[-70.8774,8.0278,156.5859],[-70.856,8.0105,150.6632],[-70.835,7.9907,143.3347],[-70.8201,7.9835,141.5363],[-70.7945,7.9789,143.1402],[-70.7858,7.9744,137.5836],[-70.7342,7.9304,129.4387],[-70.7299,7.9246,129.3681],[-70.7242,7.8982,125.6839],[-70.7063,7.8638,121.6249],[-70.7075,7.8525,121.3539],[-70.6137,7.8428,118.56],[-70.5831,7.8363,117.7495],[-70.5718,7.8282,116.1833],[-70.5612,7.8141,115.7896],[-70.5549,7.8112,115.7546],[-70.5306,7.8123,114.9667],[-70.519,7.8086,118.6227],[-70.505,7.7946,112.5818],[-70.4975,7.79,118.147],[-70.4871,7.788,115.5852],[-70.423,7.79,111.2486],[-70.4107,7.7791,111.5338],[-70.387,7.7695,111.5965],[-70.3824,7.7649,111.4024],[-70.3753,7.7538,109.22],[-70.3699,7.7518,108.7104],[-70.3633,7.7514,108.917],[-70.3539,7.7533,108.7982],[-70.3458,7.757,110.7114],[-70.325,7.7735,110.6903],[-70.3141,7.7781,112.5616],[-70.2721,7.7741,106.6066],[-70.256,7.7772,111.2393],[-70.2444,7.7865,104.4806],[-70.2576,7.8155,105.4445],[-70.2697,7.8338,106.8737],[-70.2748,7.852,107.6461],[-70.2807,7.8619,108.6827],[-70.2983,7.8741,110.8236],[-70.312,7.8875,112.0109],[-70.3207,7.9087,113.5313],[-70.3236,7.927,114.4176],[-70.3282,7.9338,115.3114],[-70.3473,7.9512,117.6638],[-70.3616,7.9603,117.3184],[-70.3656,7.9659,118.4466],[-70.3736,7.9724,119.2646],[-70.3985,7.9816,120.9448],[-70.4098,7.9965,130.4754],[-70.4176,8.0225,123.9087],[-70.4177,8.0382,125.4861],[-70.4114,8.0518,125.8472],[-70.4083,8.0639,127.0926],[-70.4088,8.0782,128.3626],[-70.413,8.0864,129.061],[-70.5703,8.2151,149.6088],[-70.7369,8.343,287.1691],[-70.7687,8.3645,683.5502],[-70.779,8.3757,629.7195],[-70.7849,8.3843,794.6725],[-70.7839,8.4323,1225.9119],[-70.7856,8.4848,1074.3832],[-70.8014,8.5176,1504.7246],[-70.8089,8.5405,2267.396],[-70.8175,8.5523,2029.8955],[-70.8417,8.5746,3141.8186],[-70.8505,8.5666,2437.825],[-70.8561,8.557,2169.9897],[-70.8572,8.5467,2008.475],[-70.8517,8.4918,1416.9927],[-70.8548,8.4583,1422.9062],[-70.8543,8.4168,871.1616],[-70.8574,8.3904,1346.3535],[-70.8699,8.3611,1178.6799],[-70.8924,8.283,852.571],[-70.902,8.2685,874.0161],[-70.9206,8.2507,839.7771],[-70.9424,8.2438,1235.9836],[-70.9535,8.248,1312.5197],[-70.9647,8.2572,1550.5471],[-70.9758,8.2605,1386.1841],[-70.9949,8.2526,1460.6259],[-71.0013,8.2463,1515.8342],[-71.0046,8.2408,1750.4106],[-71.0057,8.2316,1947.1097],[-70.9971,8.2084,1549.7007],[-70.9958,8.1942,1559.8193],[-71.0011,8.1755,1372.309],[-71.0123,8.1528,1512.7617]]]]}
,"properties": {"GID_2": "VEN.5.3_1","GID_0": "VEN","country": "Venezuela","GID_1": "VEN.5_1","province": "Barinas","NL_NAME_1": "NA","county": "AntonioJosédeSucre","VARNAME_2": "NA","NL_NAME_2": "NA","TYPE_2": "Municipio","ENGTYPE_2": "Municipality","CC_2": "NA","HASC_2": "NA","name": "Antonio_Joséde_Sucre.county","area_km2": 2832.527,"hist_schema_id": "Elevation0-9000","hist_area_km2": {"100": 185.412,"125": 1137.754,"150": 538.758,"175": 233.962,"200": 128.933,"225": 65.892,"250": 36.869,"275": 21.109,"300": 20.961,"325": 17.142,"350": 17.793,"375": 16.135,"400": 15.17,"425": 13.911,"450": 13.323,"475": 12.841,"500": 12.148,"525": 10.679,"550": 10.952,"575": 10.658,"600": 9.189,"625": 8.812,"650": 8.77,"675": 8.833,"700": 7.846,"725": 7.301,"750": 8.014,"775": 7.07,"800": 7.133,"825": 7.28,"850": 7.028,"875": 6.881,"900": 7.259,"925": 6.524,"950": 6.902,"975": 7.091,"1000": 6.776,"1025": 7.07,"1050": 7.195,"1075": 7.342,"1100": 6.524,"1125": 7.174,"1150": 6.839,"1175": 6.503,"1200": 6.713,"1225": 6.167,"1250": 5.203,"1275": 5.979,"1300": 4.259,"1325": 5.328,"1350": 4.657,"1375": 3.755,"1400": 3.629,"1425": 3.965,"1450": 3.944,"1475": 3.902,"1500": 3.86,"1525": 3.818,"1550": 3.503,"1575": 3.902,"1600": 3.42,"1625": 3.273,"1650": 3.231,"1675": 2.412,"1700": 2.455,"1725": 2.056,"1750": 2.413,"1775": 1.72,"1800": 2.077,"1825": 1.972,"1850": 1.93,"1875": 1.321,"1900": 1.3,"1925": 1.216,"1950": 1.216,"1975": 1.657,"2000": 1.132,"2025": 0.881,"2050": 1.174,"2075": 1.048,"2100": 0.923,"2125": 0.881,"2150": 0.902,"2175": 1.006,"2200": 0.923,"2225": 1.111,"2250": 0.86,"2275": 0.881,"2300": 0.755,"2325": 1.174,"2350": 0.776,"2375": 0.818,"2400": 0.755,"2425": 0.734,"2450": 0.839,"2475": 0.713,"2500": 0.734,"2525": 0.587,"2550": 0.671,"2575": 0.671,"2600": 0.566,"2625": 0.839,"2650": 0.482,"2675": 0.755,"2700": 0.755,"2725": 0.503,"2750": 0.545,"2775": 0.252,"2800": 0.419,"2825": 0.273,"2850": 0.566,"2875": 0.461,"2900": 0.168,"2925": 0.189,"2950": 0.273,"2975": 0.147,"3000": 0.105,"3025": 0.105,"3050": 0.063,"3075": 0.042}}}