{"type": "Feature","bbox": [-69.4045,9.4865,-69.0217,9.9369],"geometry": {"type": "MultiPolygon","coordinates": [[[[-69.4045,9.6321,917.8254],[-69.3953,9.6268,649.0923],[-69.3842,9.6173,776.7919],[-69.3768,9.6036,624.0155],[-69.3735,9.5901,676.5467],[-69.371,9.5677,474.9135],[-69.3676,9.5566,590.824],[-69.3622,9.5509,542.8343],[-69.3431,9.5372,373.3803],[-69.3275,9.5219,303.6893],[-69.3126,9.5006,248.0343],[-69.2939,9.4865,223.1195],[-69.2889,9.5,226.9721],[-69.28,9.5126,231.0359],[-69.2445,9.5421,222.9838],[-69.2323,9.5502,226.0504],[-69.224,9.5596,228.8417],[-69.2175,9.573,200.2765],[-69.1952,9.6421,210.3381],[-69.1894,9.6522,209.529],[-69.1842,9.6537,204.7669],[-69.1747,9.6533,201.9109],[-69.1429,9.6312,180.0333],[-69.1206,9.6214,166.973],[-69.0897,9.6005,157.8485],[-69.0523,9.5837,146.6933],[-69.0407,9.5804,145.949],[-69.0321,9.5806,142.5849],[-69.0256,9.5832,142.4088],[-69.0217,9.5899,142.2969],[-69.0252,9.5999,144.6587],[-69.0351,9.6088,148.0476],[-69.0438,9.6211,151.7495],[-69.0597,9.6368,160.5],[-69.0666,9.6563,161.2481],[-69.0735,9.6658,166.7571],[-69.1161,9.6953,496.5479],[-69.1442,9.7077,231.5838],[-69.156,9.7142,217.4167],[-69.1645,9.7211,224.5023],[-69.1701,9.7286,231.3659],[-69.1744,9.7448,254.612],[-69.1705,9.7664,256.2884],[-69.1973,9.7764,357.2495],[-69.2112,9.7857,570.5632],[-69.2216,9.8007,658.1218],[-69.2232,9.8111,513.7411],[-69.2193,9.8216,514.0043],[-69.2107,9.8331,439.4714],[-69.2027,9.8475,479.007],[-69.204,9.86,410.834],[-69.2165,9.8789,485.0396],[-69.2181,9.8875,548.0216],[-69.2175,9.9029,526.2842],[-69.2128,9.9166,428.8983],[-69.211,9.9304,466.3483],[-69.2185,9.9369,463.3289],[-69.2314,9.9363,706.6683],[-69.2364,9.9332,791.7607],[-69.2418,9.9234,968.8289],[-69.2485,9.901,895.6622],[-69.2546,9.8895,949.3863],[-69.2728,9.8693,1335.1581],[-69.3135,9.847,1449.7269],[-69.3204,9.8413,1264.819],[-69.3261,9.8318,1239.4485],[-69.3266,9.82,1067.1008],[-69.3251,9.8045,987.4608],[-69.3199,9.7789,754.2651],[-69.3193,9.7658,912.7898],[-69.329,9.7432,782.1808],[-69.3306,9.7056,878.5198],[-69.3346,9.6916,924.95],[-69.3463,9.6666,672.9262],[-69.3597,9.6589,622.358],[-69.3718,9.655,387.0055],[-69.3834,9.6491,467.4831],[-69.3934,9.6390999999999991,655.067],[-69.4045,9.6321,917.8254]]]]}
,"properties": {"GID_2": "VEN.19.2_1","GID_0": "VEN","country": "Venezuela","GID_1": "VEN.19_1","province": "Portuguesa","NL_NAME_1": "NA","county": "Araure","VARNAME_2": "NA","NL_NAME_2": "NA","TYPE_2": "Municipio","ENGTYPE_2": "Municipality","CC_2": "NA","HASC_2": "NA","name": "Araure.county","area_km2": 763.956,"hist_schema_id": "Elevation0-9000","hist_area_km2": {"150": 35.078,"175": 43.4351,"200": 29.3047,"225": 77.7421,"250": 85.8947,"275": 56.6252,"300": 41.176,"325": 30.6211,"350": 21.5712,"375": 16.0112,"400": 14.0673,"425": 13.2303,"450": 14.9642,"475": 15.2148,"500": 15.9459,"525": 14.5246,"550": 14.1272,"575": 14.1892,"600": 15.484,"625": 13.3529,"650": 13.4985,"675": 12.0359,"700": 11.3875,"725": 10.8439,"750": 10.0915,"775": 8.6291,"800": 7.5636,"825": 6.3937,"850": 6.4563,"875": 6.6652,"900": 5.8711,"925": 5.1398,"950": 5.9337,"975": 5.3486,"1000": 5.2441,"1025": 4.9098,"1050": 4.5338,"1075": 4.2621,"1100": 5.0559,"1125": 4.9097,"1150": 4.6589,"1175": 4.9304,"1200": 4.4499,"1225": 4.3245,"1250": 4.1156,"1275": 2.8412,"1300": 2.5069,"1325": 2.3189,"1350": 1.5668,"1375": 1.525,"1400": 1.0863,"1425": 0.9192,"1450": 0.5223,"1475": 0.6267,"1500": 0.1253,"1525": 0.1045}}}