{"type":"Feature","properties":{"GID_2":"VEN.20.6_1","GID_0":"VEN","country":"Venezuela","GID_1":"VEN.20_1","province":"Sucre","NL_NAME_1":"NA","county":"Bolívar","VARNAME_2":"NA","NL_NAME_2":"NA","TYPE_2":"Municipio","ENGTYPE_2":"Municipality","CC_2":"NA","HASC_2":"NA","name":"Bolívar.county"},
"geometry":{"type": "MultiPolygon","coordinates": [[[[-63.84,10.4468,4.3214],[-63.8499,10.4454,1.9758],[-63.8546,10.4421,0.0],[-63.8696,10.4438,0.0],[-63.8737,10.4421,0.0],[-63.8832,10.4438,0.0],[-63.8865,10.4471,0.0],[-63.8915,10.4457,0.0],[-63.8957,10.4479,1.2082],[-63.8976,10.4518,0.0],[-63.9087,10.4551,0.4496],[-63.914,10.4485,27.0319],[-63.9251,10.4504,25.6505],[-63.9362,10.4479,5.443],[-63.936,10.451,0.0],[-63.9415,10.4463,16.5915],[-63.9426,10.4468,16.5915],[-63.9404,10.4501,0.0],[-63.9415,10.4518,19.8649],[-63.9437,10.4524,0.0],[-63.9463,10.4507,3.1928],[-63.9474,10.4529,0.0],[-63.9512,10.4512,2.4716],[-63.9529,10.4532,0.521],[-63.9576,10.4532,1.3913],[-63.9651,10.4474,4.462],[-63.9701,10.4471,0.0],[-63.9718,10.4451,7.275],[-63.976,10.4449,6.1797],[-63.976,10.4465,0.0],[-63.9793,10.4482,0.3232],[-63.9832,10.4443,9.7768],[-63.9871,10.4463,0.0],[-63.9876,10.4451,37.5758],[-63.9915,10.4457,2.6161],[-63.9949,10.4429,1.8876],[-64.0071,10.444,0.0],[-64.011,10.4426,8.999],[-64.0124,10.4404,6.2425],[-64.016,10.4415,11.3122],[-64.021,10.4404,0.0],[-64.0215,10.4368,31.3707],[-64.024,10.4357,0.0],[-64.0274,10.4379,0.0],[-64.0279,10.4432,0.0],[-64.0318,10.4446,0.9706],[-64.0332,10.4432,12.0195],[-64.034,10.4446,5.125],[-64.0365,10.4438,0.0],[-64.0385,10.4415,0.0],[-64.0379,10.4388,14.8108],[-64.0421,10.441,0.0],[-64.0446,10.4401,2.618],[-64.0451,10.4415,0.0],[-64.0568,10.4407,3.4653],[-64.062,10.4426,0.0],[-64.0521,10.4324,71.8309],[-64.0548,10.4239,264.0988],[-64.0417,10.4057,407.2529],[-64.0361,10.395,405.8271],[-64.0263,10.3676,549.5289],[-64.0259,10.3591,397.1666],[-64.0271,10.3571,360.4697],[-64.0088,10.3498,492.4522],[-63.9984,10.3396,287.1945],[-63.9914,10.3368,318.3695],[-63.9308,10.3402,943.6122],[-63.9072,10.335,732.9759],[-63.8921,10.3392,637.6015],[-63.8755,10.3542,399.345],[-63.8668,10.3737,211.3428],[-63.8554,10.4178,336.0563],[-63.84,10.4468,4.3214]]]]}}