{"type":"Feature","properties":{"GID_2":"VEN.17.5_1","GID_0":"VEN","country":"Venezuela","GID_1":"VEN.17_1","province":"Monagas","NL_NAME_1":"NA","county":"Cedeño","VARNAME_2":"NA","NL_NAME_2":"NA","TYPE_2":"Municipio","ENGTYPE_2":"Municipality","CC_2":"NA","HASC_2":"NA","name":"Cedeño.county"},
"geometry":{"type": "MultiPolygon","coordinates": [[[[-63.8339,9.5435,208.6684],[-63.7651,9.625,257.7071],[-63.7111,9.6985,182.7535],[-63.7067,9.7024,194.9109],[-63.6984,9.6907,168.561],[-63.6906,9.6895,169.0558],[-63.6864,9.697,197.6666],[-63.6836,9.7146,212.9273],[-63.687,9.7385,271.183],[-63.6823,9.7436,270.6301],[-63.6712,9.7414,264.4687],[-63.6569,9.7426,255.8519],[-63.6169,9.7418,252.8295],[-63.5986,9.7398,243.2894],[-63.5912,9.7371,244.0714],[-63.5786,9.7267,236.4857],[-63.5497,9.683,196.9006],[-63.4541,9.7197,91.8871],[-63.456,9.7201,89.4064],[-63.4882,9.8435,199.8098],[-63.4971,9.8699,224.1667],[-63.5123,9.8896,251.3411],[-63.5187,9.8938,248.1078],[-63.5473,9.9231,314.3899],[-63.5583,9.9285,316.9222],[-63.5624,9.9366,350.7051],[-63.5612,9.9531,446.3515],[-63.5649,9.9807,369.8244],[-63.57,9.9939,315.8672],[-63.5817,10.0088,352.0334],[-63.589,10.0142,373.1531],[-63.6032,10.0176,361.4835],[-63.6094,10.0224,413.5622],[-63.6149,10.0438,635.9691],[-63.6206,10.0569,683.0894],[-63.6272,10.0592,730.8555],[-63.634,10.0574,861.219],[-63.6477,10.0479,836.9191],[-63.666,10.0322,598.7504],[-63.6828,10.0221,434.5242],[-63.6976,10.0109,333.4946],[-63.7063,10.0075,499.5576],[-63.7135,10.0086,447.1992],[-63.7368,10.0228,563.5095],[-63.7564,10.0194,664.4749],[-63.8046,10.0019,709.2459],[-63.8144,10.002,749.8607],[-63.838,10.0124,787.8436],[-63.8461,10.0134,884.8026],[-63.8698,10.0095,962.9457],[-63.8857,10.0011,838.0676],[-63.8934,9.9997,904.3962],[-63.901,10.0055,1083.2781],[-63.9098,10.018,1197.9675],[-63.9245,10.0288,885.6674],[-63.9354,10.0425,1400.6853],[-63.9396,10.0452,1481.0045],[-63.9468,10.045,1674.9539],[-63.9603,10.0393,1621.6716],[-63.9733,10.0251,1714.5234],[-63.9839,10.017,1640.6658],[-63.9934,10.0135,1291.3539],[-64.0301,10.0108,1072.396],[-64.0437,10.0064,994.975],[-64.0497,10.0025,1076.1023],[-64.0565,9.9901,684.6345],[-64.0587,9.9728,733.5135],[-64.0564,9.9426,565.5073],[-64.0514,9.9283,869.9126],[-64.0437,9.9153,700.3162],[-64.0343,9.9038,566.9294],[-64.029,9.8995,554.9983],[-64.0226,9.8974,509.2885],[-64.0103,9.8961,642.931],[-63.9856,9.9008,690.9449],[-63.9814,9.8999,764.8143],[-63.9783,9.897,769.4951],[-63.975,9.8863,584.1519],[-63.9721,9.8836,543.8703],[-63.9554,9.877,378.5181],[-63.932,9.8548,450.3605],[-63.9266,9.8463,619.0372],[-63.9266,9.8374,459.904],[-63.9293,9.8306,363.5679],[-63.942,9.817,454.2789],[-63.946,9.8064,561.7692],[-63.949,9.7765,332.2557],[-63.9544,9.7517,292.7459],[-63.9543,9.7132,223.4506],[-63.9518,9.6986,283.0396],[-63.9487,9.6897,274.4122],[-63.8339,9.5435,208.6684]]]]}}