{"type":"Feature","properties":{"GID_2":"VEN.25.5_1","GID_0":"VEN","country":"Venezuela","GID_1":"VEN.25_1","province":"Zulia","NL_NAME_1":"NA","county":"Colón","VARNAME_2":"NA","NL_NAME_2":"NA","TYPE_2":"Municipio","ENGTYPE_2":"Municipality","CC_2":"NA","HASC_2":"NA","name":"Colón.county"},
"geometry":{"type": "MultiPolygon","coordinates": [[[[-71.6836,8.7057,52.7885],[-71.6889,8.7809,36.8495],[-71.7022,8.8246,31.8075],[-71.7022,8.8454,28.8703],[-71.7003,8.8701,24.3992],[-71.6965,8.8796,20.4863],[-71.6908,8.8815,19.3876],[-71.6851,8.8872,16.3663],[-71.6794,8.9043,15.051],[-71.6794,8.9689,5.8933],[-71.6775,8.984,4.8025],[-71.6813,9.003,4.3953],[-71.6726,9.0668,0.0],[-71.6865,9.0638,0.0],[-71.6926,9.0599,0.3529],[-71.6929,9.0579,0.204],[-71.691,9.0571,0.2054],[-71.6951,9.0576,0.6919],[-71.7021,9.0629,0.2922],[-71.701,9.0671,0.1457],[-71.7032,9.069,0.0783],[-71.7074,9.0685,2.6591],[-71.7065,9.0718,0.0],[-71.711,9.0726,0.1334],[-71.7176,9.0796,2.1051],[-71.7174,9.0843,0.0],[-71.7124,9.0907,0.5302],[-71.7143,9.0924,0.0],[-71.7151,9.0971,0.0],[-71.7171,9.096,0.0],[-71.7154,9.0924,0.0],[-71.7213,9.0915,4.6672],[-71.7376,9.0971,0.0],[-71.7454,9.1038,0.4774],[-71.7524,9.1168,0.0],[-71.7593,9.111,0.0],[-71.7596,9.1082,0.3671],[-71.7618,9.1113,0.3483],[-71.7679,9.1096,0.688],[-71.7607,9.1132,0.0],[-71.7596,9.1193,1.8311],[-71.756,9.1238,2.2271],[-71.7565,9.1462,0.3429],[-71.754,9.1474,5.6991],[-71.7529,9.1443,2.6321],[-71.7549,9.1338,2.3316],[-71.7524,9.1282,0.0],[-71.746,9.1368,0.0],[-71.7471,9.1388,6.4416],[-71.7457,9.1429,0.0],[-71.7407,9.1474,2.8347],[-71.7396,9.1518,0.0],[-71.7393,9.1599,0.0],[-71.7499,9.181,0.0],[-71.7551,9.1874,4.1632],[-71.7549,9.1899,0.963],[-71.7535,9.1901,0.5386],[-71.7529,9.1854,1.8288],[-71.7493,9.1868,0.976],[-71.7479,9.1915,0.0],[-71.749,9.1915,2.4285],[-71.7496,9.1962,1.081],[-71.7465,9.1985,3.0282],[-71.7471,9.1999,1.3252],[-71.7501,9.1993,0.0],[-71.7524,9.2129,0.0],[-71.7518,9.2201,0.0],[-71.7476,9.2251,0.0],[-71.749,9.236,0.0],[-71.7549,9.236,0.0],[-71.7557,9.2332,0.0],[-71.7593,9.2318,0.0],[-71.7635,9.226,0.0],[-71.7685,9.2262,0.0],[-71.774,9.2238,0.0],[-71.7738,9.2199,0.0],[-71.7676,9.2157,0.8465],[-71.7676,9.2104,0.0],[-71.7765,9.219,0.0],[-71.784,9.2363,0.4335],[-71.7901,9.2399,0.5161],[-71.7929,9.2385,0.5877],[-71.8015,9.2251,1.5522],[-71.809,9.2271,0.1443],[-71.8135,9.2221,2.3743],[-71.819,9.2232,0.0],[-71.8207,9.2168,0.9368],[-71.8274,9.2121,0.1906],[-71.8285,9.2149,0.3205],[-71.8235,9.216,0.4281],[-71.8204,9.2204,1.0741],[-71.8201,9.2279,0.5229],[-71.8421,9.2289,12.725],[-71.8876,9.1915,2.8925],[-71.9728,9.1172,1.7609],[-71.986,9.1073,0.5],[-71.9959,9.1024,0.5],[-72.0085,9.1012,0.7128],[-72.0215,9.1039,2.4182],[-72.0257,9.1084,1.6519],[-72.0334,9.1241,2.5775],[-72.043,9.1293,4.7126],[-72.0926,9.1326,4.5008],[-72.095,9.1361,4.1609],[-72.0983,9.1534,4.0715],[-72.1028,9.1583,2.0],[-72.115,9.162,2.7078],[-72.1221,9.1601,2.0],[-72.1298,9.1513,3.1836],[-72.1323,9.1433,3.7678],[-72.1337,9.1216,3.0248],[-72.1281,9.1028,2.241],[-72.1284,9.0995,2.105],[-72.1509,9.0928,3.4605],[-72.1558,9.0854,3.1226],[-72.1551,9.0767,3.0066],[-72.1516,9.0683,4.4781],[-72.1389,9.0569,2.9201],[-72.1363,9.0496,3.54],[-72.1403,8.942,7.7185],[-72.133,8.8749,8.57],[-72.1301,8.8308,16.3145],[-72.1374,8.7575,12.7387],[-72.16,8.6291,18.6636],[-72.163,8.5958,20.4061],[-72.1638,8.5602,22.6486],[-72.098,8.5658,23.5555],[-72.0425,8.5662,21.23],[-72.0176,8.5694,20.2484],[-72.0034,8.5743,20.3314],[-71.9975,8.5868,13.6976],[-71.9961,8.6285,10.3972],[-72.004,8.6595,10.3612],[-72.0016,8.6638,12.1938],[-71.9966,8.6654,10.7567],[-71.9909,8.665,9.641],[-71.9827,8.6591,10.5058],[-71.9705,8.6356,13.221],[-71.969,8.6459,12.039],[-71.9653,8.652,10.6795],[-71.9588,8.6588,10.8433],[-71.9505,8.6633,11.0809],[-71.9367,8.6675,15.2646],[-71.898,8.6734,19.5148],[-71.8814,8.6826,22.4604],[-71.8709,8.6922,25.0887],[-71.8542,8.7001,28.0972],[-71.8326,8.7031,30.1123],[-71.8184,8.7024,33.6835],[-71.8067,8.6951,37.0545],[-71.7864,8.6719,41.6179],[-71.776,8.6631,43.7311],[-71.7645,8.6584,46.9679],[-71.7564,8.6578,49.3829],[-71.7436,8.6609,52.3325],[-71.7324,8.6676,55.5225],[-71.6836,8.7057,52.7885]]]]}}