{"type":"Feature","properties":{"GID_2":"VEN.18.2_1","GID_0":"VEN","country":"Venezuela","GID_1":"VEN.18_1","province":"NuevaEsparta","NL_NAME_1":"NA","county":"Arismendi","VARNAME_2":"NA","NL_NAME_2":"NA","TYPE_2":"Municipio","ENGTYPE_2":"Municipality","CC_2":"NA","HASC_2":"NA","name":"Arismendi.county"},
"geometry":{"type": "MultiPolygon","coordinates": [[[[-63.8739,11.0734,77.2731],[-63.8703,11.0467,44.4257],[-63.8785,11.0392,132.9069],[-63.8828,11.0312,191.6643],[-63.8922,10.9971,267.5529],[-63.8763,11.0012,173.197],[-63.8683,11.0051,111.9904],[-63.8619,11.0086,108.7459],[-63.8557,11.0149,42.4449],[-63.853,11.0151,45.8713],[-63.8482,11.0101,84.856],[-63.8458,11.0098,74.4536],[-63.8371,11.0186,63.5931],[-63.8337,11.0198,30.9989],[-63.8296,11.0283,9.5013],[-63.8245,11.0321,13.7267],[-63.8153,11.0298,7.0172],[-63.8023,11.0342,0.0046],[-63.8162,11.0557,0.0],[-63.8221,11.0689,11.3374],[-63.8296,11.0675,152.1603],[-63.8313,11.0702,106.0259],[-63.8388,11.0731,162.4263],[-63.8739,11.0734,77.2731]]]]}}