{"type": "Feature","bbox": [-68.8674,10.4879,-68.5829,10.7687],"geometry": {"type": "MultiPolygon","coordinates": [[[[-68.8674,10.7078,113.8403],[-68.839,10.6597,143.6474],[-68.8176,10.632,132.9141],[-68.772,10.6419,136.7939],[-68.7436,10.6455,108.1139],[-68.7136,10.6547,120.5433],[-68.6987,10.6533,110.1641],[-68.7015,10.6198,59.7001],[-68.7015,10.5942,66.4819],[-68.698,10.5849,86.1719],[-68.673,10.5507,76.3447],[-68.6616,10.5379,113.6646],[-68.6652,10.5237,290.0739],[-68.6646,10.4879,371.2228],[-68.6442,10.4933,207.35],[-68.6412,10.4967,296.1508],[-68.6447,10.5113,158.0599],[-68.6443,10.5251,98.8894],[-68.6416,10.5333,109.3934],[-68.614,10.578,60.0068],[-68.6119,10.5853,54.599],[-68.6127,10.5929,49.1091],[-68.6213,10.6179,46.375],[-68.6236,10.6362,53.7894],[-68.6227,10.6474,59.1653],[-68.617,10.661,69.8412],[-68.6083,10.6564,59.6775],[-68.5981,10.6562,58.6386],[-68.5829,10.6617,69.8139],[-68.5888,10.6671,66.2538],[-68.5929,10.6761,68.9464],[-68.5946,10.7211,124.5447],[-68.5993,10.7633,266.7416],[-68.6022,10.7687,371.7736],[-68.6091,10.7679,445.2087],[-68.6328,10.76,399.5359],[-68.6702,10.755,194.8159],[-68.7098,10.7566,201.3329],[-68.7502,10.7638,151.0315],[-68.7641,10.7601,189.355],[-68.7864,10.7392,302.0747],[-68.8051,10.725,332.6023],[-68.8247,10.7159,149.2364],[-68.8407,10.7111,129.0399],[-68.8674,10.7078,113.8403]]]]}
,"properties": {"GID_2": "VEN.24.8_1","GID_0": "VEN","country": "Venezuela","GID_1": "VEN.24_1","province": "Yaracuy","NL_NAME_1": "NA","county": "ManuelMonge","VARNAME_2": "NA","NL_NAME_2": "NA","TYPE_2": "Municipio","ENGTYPE_2": "Municipality","CC_2": "NA","HASC_2": "NA","name": "Manuel_Monge.county","area_km2": 425.0649,"hist_schema_id": "Elevation0-9000","hist_area_km2": {"50": 47.6398,"75": 50.681,"100": 35.5499,"125": 40.1504,"150": 41.4831,"175": 37.4389,"200": 31.1668,"225": 28.2913,"250": 24.7497,"275": 19.7082,"300": 16.5621,"325": 14.6871,"350": 12.0205,"375": 9.687,"400": 7.2913,"425": 4.708,"450": 1.8957,"475": 0.7916,"500": 0.375,"525": 0.1667,"550": 0.0208}}}