{"type":"Feature","properties":{"GID_2":"VEN.22.9_1","GID_0":"VEN","country":"Venezuela","GID_1":"VEN.22_1","province":"Trujillo","NL_NAME_1":"NA","county":"LaCeiba","VARNAME_2":"NA","NL_NAME_2":"NA","TYPE_2":"Municipio","ENGTYPE_2":"Municipality","CC_2":"NA","HASC_2":"NA","name":"La_Ceiba.county"},
"geometry":{"type": "MultiPolygon","coordinates": [[[[-70.9055,9.4519,19.079],[-70.9045,9.5929,18.0469],[-70.9454,9.599,12.5731],[-70.9764,9.5991,7.9686],[-70.9991,9.601,7.2978],[-71.0607,9.6131,1.2959],[-71.0599,9.6001,3.4952],[-71.0676,9.5765,0.6185],[-71.0704,9.5704,0.5691],[-71.0774,9.5632,0.3673],[-71.0799,9.5565,0.0],[-71.0854,9.5485,1.9191],[-71.0849,9.5249,0.0],[-71.0779,9.509,1.8406],[-71.0765,9.5018,1.1723],[-71.0774,9.4985,1.4059],[-71.0824,9.4946,1.2473],[-71.0907,9.494,0.0],[-71.0974,9.4896,0.0],[-71.096,9.4874,0.0],[-71.0899,9.4868,0.0],[-71.089,9.4901,0.0],[-71.0851,9.4888,0.7675],[-71.0818,9.4896,0.2861],[-71.0807,9.4915,1.4171],[-71.0779,9.4913,1.1245],[-71.0685,9.481,3.0501],[-71.0685,9.4674,1.5471],[-71.0704,9.4663,0.0],[-71.0679,9.4646,1.053],[-71.0676,9.4554,0.7517],[-71.0718,9.4074,0.0],[-71.0704,9.3818,1.2895],[-71.0525,9.386,-0.1047],[-71.0418,9.3919,1.4934],[-71.0263,9.4037,4.1605],[-71.0098,9.4121,5.9122],[-70.9905,9.4132,7.8011],[-70.9809,9.412,8.389],[-70.9774,9.4079,9.268],[-70.9686,9.3886,12.983],[-70.9311,9.3727,21.4477],[-70.9086,9.3689,29.0914],[-70.9063,9.3935,21.4378],[-70.9055,9.4519,19.079]]]]}}