{"type":"Feature","properties":{"GID_2":"VEN.12.23_1","GID_0":"VEN","country":"Venezuela","GID_1":"VEN.12_1","province":"Falcón","NL_NAME_1":"NA","county":"Unión","VARNAME_2":"NA","NL_NAME_2":"NA","TYPE_2":"Municipio","ENGTYPE_2":"Municipality","CC_2":"NA","HASC_2":"NA","name":"Unión.county"},
"geometry":{"type": "MultiPolygon","coordinates": [[[[-69.235,10.7369,425.5917],[-69.1974,10.735,289.8202],[-69.1302,10.723,150.6404],[-69.0897,10.7176,193.0511],[-69.0732,10.7141,189.712],[-69.0537,10.7044,134.7852],[-69.0348,10.7076,117.143],[-68.988,10.7222,141.5793],[-68.9545,10.7289,105.9443],[-68.9175,10.7282,62.093],[-68.9339,10.757,148.0567],[-68.9354,10.7635,210.0596],[-68.9347,10.7841,170.383],[-68.938,10.7979,142.3866],[-68.9375,10.822,357.9672],[-68.9402,10.8312,569.8291],[-68.9504,10.8431,900.9308],[-68.9696,10.8505,583.4139],[-69.0071,10.8545,367.2133],[-69.0332,10.8626,977.5487],[-69.0518,10.8708,1068.1819],[-69.0915,10.8751,648.9637],[-69.099,10.8828,596.9435],[-69.1192,10.9437,223.0971],[-69.1713,11.0737,64.2893],[-69.1975,11.0529,69.7206],[-69.2117,11.0369,73.0509],[-69.2167,11.0246,72.5059],[-69.2212,11.0012,90.0989],[-69.244,10.9668,103.0637],[-69.249,10.9622,130.5992],[-69.2909,10.9486,113.4387],[-69.3112,10.9477,130.7901],[-69.3193,10.9434,124.6775],[-69.3267,10.9315,170.6618],[-69.3183,10.9249,194.9734],[-69.3155,10.9196,135.2685],[-69.3199,10.8944,185.5962],[-69.3267,10.881,252.1364],[-69.3305,10.8631,464.5413],[-69.3257,10.8455,643.6746],[-69.3259,10.8094,951.775],[-69.3235,10.802,773.1073],[-69.3169,10.7958,882.8951],[-69.3088,10.7936,901.4336],[-69.2977,10.7938,926.5114],[-69.28,10.7906,881.1398],[-69.2647,10.7777,856.0956],[-69.2572,10.7778,788.2224],[-69.2493,10.759,569.0736],[-69.2412,10.7446,578.4498],[-69.235,10.7369,425.5917]]]]}}