{"type":"Feature","properties":{"GID_2":"VEN.12.18_1","GID_0":"VEN","country":"Venezuela","GID_1":"VEN.12_1","province":"Falcón","NL_NAME_1":"NA","county":"Píritu","VARNAME_2":"NA","NL_NAME_2":"NA","TYPE_2":"Municipio","ENGTYPE_2":"Municipality","CC_2":"NA","HASC_2":"NA","name":"Píritu.county"},
"geometry":{"type": "MultiPolygon","coordinates": [[[[-68.7568,11.369,3.6998],[-68.7599,11.3718,1.9966],[-68.7665,11.3737,11.1307],[-68.7787,11.3871,0.0],[-68.7951,11.3985,4.6732],[-68.8082,11.4143,8.215],[-68.8121,11.4215,0.0],[-68.8251,11.4362,0.0],[-68.8288,11.4438,0.0],[-68.8351,11.4424,0.0],[-68.8371,11.439,0.0],[-68.8407,11.4382,7.3874],[-68.8507,11.4429,0.0],[-68.8599,11.4507,0.0],[-68.8632,11.449,4.7399],[-68.8693,11.4499,7.8729],[-68.874,11.446,3.1993],[-68.8857,11.4485,18.2972],[-68.8854,11.4435,0.3105],[-68.8913,11.4415,2.0379],[-68.904,11.4454,15.3431],[-68.9063,11.4482,0.0],[-68.9099,11.4485,2.2551],[-68.9193,11.4454,21.0258],[-68.9282,11.4468,0.0],[-68.9337,11.446,0.0],[-68.9485,11.451,0.0],[-68.9543,11.4476,0.0],[-68.9599,11.4476,0.0],[-68.9651,11.4429,6.7048],[-68.969,11.4424,0.0],[-68.9693,11.4404,0.0],[-68.9671,11.4388,0.0],[-68.9732,11.4376,0.0],[-68.9796,11.4401,2.7062],[-68.9865,11.4376,0.0],[-68.9882,11.4349,0.0],[-69.0021,11.4393,8.6903],[-69.0079,11.4432,0.0],[-69.0188,11.4388,0.0],[-69.0182,11.4365,3.5972],[-69.0212,11.4354,33.8298],[-69.0293,11.4365,10.6009],[-69.0421,11.4438,0.0],[-69.0512,11.4393,0.0],[-69.0632,11.4462,30.8747],[-69.0726,11.4546,10.4817],[-69.0979,11.4865,0.0],[-69.101,11.4893,0.0],[-69.1035,11.489,0.0],[-69.1071,11.4937,8.2493],[-69.1118,11.4915,9.0488],[-69.1101,11.4874,10.4522],[-69.1149,11.4838,0.0],[-69.1226,11.4846,0.5034],[-69.1335,11.4913,12.7891],[-69.1358,11.4913,11.826599999999999],[-69.1347,11.4719,12.5166],[-69.1377,11.4641,11.6541],[-69.1434,11.4594,38.6458],[-69.1462,11.4413,51.7992],[-69.1714,11.4402,68.763],[-69.1895,11.4455,185.287],[-69.216,11.4679,8.1748],[-69.2169,11.4603,10.7795],[-69.2048,11.4461,109.2095],[-69.1888,11.4214,151.9249],[-69.1869,11.409,44.9124],[-69.199,11.3902,28.0576],[-69.2032,11.3788,43.2219],[-69.2041,11.3658,65.831],[-69.2056,11.2212,65.5115],[-69.2045,11.1788,44.8129],[-69.2028,11.1626,44.7919],[-69.194,11.1294,51.4726],[-69.1768,11.1335,48.8743],[-69.1514,11.1428,44.3103],[-69.1058,11.1627,34.0494],[-69.0607,11.1755,33.062],[-68.9994,11.196,23.6203],[-68.9849,11.1975,30.7161],[-68.9464,11.195,56.0495],[-68.9404,11.1987,49.86],[-68.9278,11.2173,40.1938],[-68.9215,11.2225,39.3418],[-68.912,11.2273,58.3908],[-68.8235,11.2591,83.3398],[-68.7749,11.2739,55.1915],[-68.7568,11.369,3.6998]]]]}}