{"type":"Feature","properties":{"GID_2":"VEN.24.7_1","GID_0":"VEN","country":"Venezuela","GID_1":"VEN.24_1","province":"Yaracuy","NL_NAME_1":"NA","county":"LaTrinidad","VARNAME_2":"NA","NL_NAME_2":"NA","TYPE_2":"Municipio","ENGTYPE_2":"Municipality","CC_2":"NA","HASC_2":"NA","name":"La_Trinidad.county"},
"geometry":{"type": "MultiPolygon","coordinates": [[[[-68.715,10.3181,161.7878],[-68.72,10.2936,164.008],[-68.6737,10.2701,331.8937],[-68.6431,10.248,889.2055],[-68.6289,10.2565,1215.6078],[-68.6291,10.2685,929.0082],[-68.6338,10.2796,625.1337],[-68.6557,10.2921,113.4829],[-68.6981,10.3088,130.1083],[-68.715,10.3181,161.7878]]]]}}