{"type":"Feature","properties":{"GID_2":"VEN.2.11_1","GID_0":"VEN","country":"Venezuela","GID_1":"VEN.2_1","province":"Anzoátegui","NL_NAME_1":"NA","county":"Guanta","VARNAME_2":"NA","NL_NAME_2":"NA","TYPE_2":"Municipio","ENGTYPE_2":"Municipality","CC_2":"NA","HASC_2":"NA","name":"Guanta.county"},
"geometry":{"type": "MultiPolygon","coordinates": [[[[-64.6171,10.2424,0.0],[-64.6115,10.2317,108.228],[-64.6013,10.2001,166.1005],[-64.5961,10.1895,415.5548],[-64.5736,10.1763,468.054],[-64.5577,10.172,693.6075],[-64.5216,10.1771,422.7622],[-64.5021,10.1845,533.8711],[-64.495,10.1891,521.1673],[-64.4908,10.1954,434.7469],[-64.4883,10.2074,495.0771],[-64.4883,10.2222,530.9604],[-64.4855,10.2396,64.4585],[-64.488,10.2426,0.0],[-64.4935,10.2418,5.4954],[-64.5129,10.2507,0.0],[-64.5212,10.2504,89.4836],[-64.5285,10.2529,0.0],[-64.5315,10.2493,3.3991],[-64.5276,10.2446,3.8094],[-64.5365,10.2429,0.0],[-64.539,10.2407,0.0],[-64.5387,10.2379,0.0],[-64.5421,10.2374,0.0],[-64.5432,10.2407,0.0],[-64.5468,10.2438,36.6476],[-64.5471,10.2476,21.0312],[-64.5446,10.2501,3.0845],[-64.5468,10.2529,0.0],[-64.5488,10.2504,33.5879],[-64.556,10.2499,8.3815],[-64.5576,10.2435,3.5845],[-64.561,10.2438,0.0],[-64.5612,10.241,0.0],[-64.569,10.2418,1.2635],[-64.571,10.2385,5.5731],[-64.574,10.2407,0.0],[-64.5743,10.2387,20.522],[-64.5779,10.2379,2.2062],[-64.5813,10.2399,26.979],[-64.5779,10.2424,0.0],[-64.5821,10.2426,9.8164],[-64.5832,10.2449,3.4863],[-64.5826,10.2463,4.8044],[-64.579,10.2468,0.0],[-64.5768,10.2551,0.0],[-64.5793,10.2565,24.7952],[-64.5899,10.254,0.0],[-64.5918,10.2504,0.0],[-64.5893,10.2496,15.604],[-64.5904,10.2468,0.0],[-64.5888,10.2465,2.5302],[-64.5885,10.2435,3.6883],[-64.5896,10.2432,2.1132],[-64.5924,10.2468,0.0],[-64.6012,10.2468,1.9231],[-64.5957,10.2549,0.4796],[-64.5974,10.2571,0.0],[-64.6012,10.2576,0.0],[-64.6057,10.2565,19.4895],[-64.606,10.254,0.0],[-64.6076,10.2535,19.8611],[-64.6207,10.2554,7.7081],[-64.6254,10.2535,0.0],[-64.6276,10.2499,0.0],[-64.6251,10.2518,10.4318],[-64.6237,10.2488,1.3669],[-64.6215,10.2493,2.6327],[-64.6199,10.2479,0.0],[-64.6179,10.2507,4.4453],[-64.6124,10.2524,23.9373],[-64.6085,10.2504,0.0],[-64.6087,10.2471,0.0],[-64.6157,10.2476,0.0],[-64.6168,10.246,0.0],[-64.6129,10.2443,2.6316],[-64.6146,10.2421,1.1081],[-64.6171,10.2424,0.0]]],
[[[-64.5679,10.2507,2.3754],[-64.5704,10.2499,3.48],[-64.5687,10.2487,0.0],[-64.5665,10.2501,0.0],[-64.5679,10.2507,2.3754]]]]}}