{"type": "Feature","bbox": [-70.9954,9.0583,-70.8025,9.3499],"geometry": {"type": "MultiPolygon","coordinates": [[[[-70.9941,9.3475,8.9816],[-70.9918,9.3465,9.8919],[-70.9915,9.3224,12.1442],[-70.9954,9.2569,35.3138],[-70.9904,9.1996,104.0399],[-70.9838,9.2002,112.7219],[-70.9753,9.1978,129.3642],[-70.9654,9.1883,221.5364],[-70.9547,9.1625,471.2993],[-70.9459,9.1309,1225.9618],[-70.9408,9.12,1134.2035],[-70.9361,9.1131,777.7485],[-70.9251,9.1026,1406.8049],[-70.9194,9.1003,1851.2136],[-70.9155,9.1005,1814.4901],[-70.9041,9.1115,1700.9564],[-70.8542,9.0698,3007.6882],[-70.8375,9.0598,3419.8276],[-70.831,9.0583,3492.1675],[-70.8136,9.0867,3448.2036],[-70.8097,9.098,3073.7192],[-70.8025,9.1116,2986.0383],[-70.8173,9.1144,2666.4561],[-70.8305,9.1126,2599.3208],[-70.8458,9.1223,2321.0364],[-70.872,9.1201,1696.5012],[-70.879,9.1249,1682.9475],[-70.882,9.1305,1646.4141],[-70.8842,9.1415,1085.0121],[-70.887,9.1774,657.8624],[-70.8899,9.1916,545.9291],[-70.9198,9.3023,39.085],[-70.9279,9.3133,30.0658],[-70.952,9.3264,23.7756],[-70.9739,9.3492,12.7215],[-70.9815,9.3499,12.1968],[-70.9941,9.3475,8.9816]]]]}
,"properties": {"GID_2": "VEN.15.10_1","GID_0": "VEN","country": "Venezuela","GID_1": "VEN.15_1","province": "Mérida","NL_NAME_1": "NA","county": "JulioCésarSalas","VARNAME_2": "NA","NL_NAME_2": "NA","TYPE_2": "Municipio","ENGTYPE_2": "Municipality","CC_2": "NA","HASC_2": "NA","name": "Julio_César_Salas.county","area_km2": 253.5794,"hist_schema_id": "Elevation0-9000","hist_area_km2": {"0": 2.4269,"25": 44.2738,"50": 33.4395,"75": 10.9659,"100": 6.2155,"125": 5.211,"150": 7.5549,"175": 6.9481,"200": 7.2413,"225": 6.8438,"250": 5.4416,"275": 4.1022,"300": 3.4325,"325": 2.9302,"350": 2.5116,"375": 2.1977,"400": 2.2396,"425": 2.1558,"450": 1.9466,"475": 2.0722,"500": 1.9675,"525": 1.8419,"550": 1.9675,"575": 1.6954,"600": 1.7582,"625": 1.3606,"650": 1.1303,"675": 0.8582,"700": 0.7117,"725": 0.607,"750": 0.6489,"775": 0.5233,"800": 0.7536,"825": 0.7745,"850": 0.5652,"875": 0.7117,"900": 0.6908,"925": 0.8164,"950": 0.8583,"975": 0.6699,"1000": 0.942,"1025": 0.9001,"1050": 0.7745,"1075": 0.8583,"1100": 1.0048,"1125": 0.7327,"1150": 0.7327,"1175": 0.7117,"1200": 0.7955,"1225": 0.7327,"1250": 0.8164,"1275": 0.7117,"1300": 0.6489,"1325": 1.0048,"1350": 0.6071,"1375": 0.8792,"1400": 0.5652,"1425": 0.7745,"1450": 0.8792,"1475": 0.7327,"1500": 1.0258,"1525": 1.0048,"1550": 0.7955,"1575": 0.8374,"1600": 0.9002,"1625": 0.8792,"1650": 1.0886,"1675": 1.1932,"1700": 0.8583,"1725": 1.2561,"1750": 1.0886,"1775": 0.9211,"1800": 0.8374,"1825": 1.0676,"1850": 1.2142,"1875": 1.0258,"1900": 1.1095,"1925": 0.963,"1950": 0.9839,"1975": 0.8583,"2000": 1.1514,"2025": 0.8793,"2050": 0.8583,"2075": 0.9421,"2100": 0.8374,"2125": 0.8374,"2150": 0.7537,"2175": 1.0049,"2200": 0.9211,"2225": 0.649,"2250": 0.7537,"2275": 0.6281,"2300": 1.1305,"2325": 0.649,"2350": 0.984,"2375": 0.7955,"2400": 0.6909,"2425": 0.8584,"2450": 0.8793,"2475": 0.7537,"2500": 0.8374,"2525": 0.8165,"2550": 0.6909,"2575": 0.5862,"2600": 0.649,"2625": 0.5862,"2650": 0.5234,"2675": 0.5862,"2700": 0.6909,"2725": 0.5653,"2750": 0.5862,"2775": 0.7328,"2800": 0.6281,"2825": 0.6071,"2850": 0.6281,"2875": 0.6281,"2900": 0.4397,"2925": 0.7746,"2950": 0.5443,"2975": 0.6281,"3000": 0.6909,"3025": 0.67,"3050": 0.5653,"3075": 0.7537,"3100": 0.67,"3125": 0.3559,"3150": 0.3769,"3175": 0.4606,"3200": 0.314,"3225": 0.2722,"3250": 0.335,"3275": 0.2303,"3300": 0.2722,"3325": 0.2303,"3350": 0.1675,"3375": 0.1884,"3400": 0.0628,"3425": 0.1256,"3450": 0.0419,"3475": 0.0837,"3500": 0.1256,"3525": 0.0419,"3550": 0.0419,"3575": 0.0419}}}