{"type": "Feature","bbox": [-71.3383,7.9001,-70.9054,8.3561],"geometry": {"type": "MultiPolygon","coordinates": [[[[-70.9054,8.2652,909.9564],[-70.9242,8.2709,1456.8077],[-70.9359,8.2764,1238.0464],[-70.9686,8.3032,1224.1012],[-70.9807,8.3109,1234.4574],[-71.0115,8.3249,2166.2712],[-71.0474,8.3365,2743.8301],[-71.0746,8.3534,3406.1309],[-71.0866,8.3561,3257.0022],[-71.1171,8.3496,2737.9453],[-71.1278,8.3265,1784.0496],[-71.1568,8.2866,2282.8206],[-71.1653,8.2786,1843.1172],[-71.1849,8.2494,1936.9563],[-71.2044,8.2279,2276.6914],[-71.2319,8.2056,2451.9622],[-71.2437,8.1905,2681.2781],[-71.2607,8.1566,2498.0923],[-71.2788,8.1428,2345.9646],[-71.2676,8.1368,2178.0],[-71.2469,8.1171,1213.5496],[-71.232,8.0949,703.5015],[-71.2314,8.0813,615.4681],[-71.2345,8.0691,574.7084],[-71.2438,8.0505,501.6791],[-71.246,8.0359,713.5892],[-71.2513,8.0169,702.7819],[-71.2589,8.007,491.085],[-71.2791,7.9941,445.0258],[-71.2962,7.9872,639.5676],[-71.3119,7.9748,523.2318],[-71.3277,7.9656,899.7316],[-71.335,7.9544,805.2737],[-71.3383,7.9449,1017.8884],[-71.3322,7.9225,519.6228],[-71.3335,7.9001,496.0122],[-71.3136,7.9139,611.9603],[-71.2784,7.925,417.7458],[-71.2428,7.944,486.2991],[-71.2143,7.9538,514.4706],[-71.1897,7.9661,392.8618],[-71.1528,7.9944,449.2083],[-71.1397,8.0013,546.5287],[-71.1205,8.0037,579.4536],[-71.1056,8.0109,595.5914],[-71.0654,8.0457,875.2199],[-71.0483,8.0634,788.9766],[-71.0363,8.0807,968.2171],[-71.0262,8.1078,908.5892],[-71.0159,8.1444,1633.3893],[-71.0011,8.1755,1372.309],[-70.9958,8.1942,1559.8193],[-70.9971,8.2084,1549.7007],[-71.0057,8.2316,1947.1097],[-71.0046,8.2408,1750.4106],[-71.0013,8.2463,1515.8342],[-70.9949,8.2526,1460.6259],[-70.9758,8.2605,1386.1841],[-70.9647,8.2572,1550.5471],[-70.9535,8.248,1312.5197],[-70.9424,8.2438,1235.9836],[-70.9206,8.2507,839.7771],[-70.9054,8.2652,909.9564]]]]}
,"properties": {"GID_2": "VEN.15.4_1","GID_0": "VEN","country": "Venezuela","GID_1": "VEN.15_1","province": "Mérida","NL_NAME_1": "NA","county": "Aricagua","VARNAME_2": "NA","NL_NAME_2": "NA","TYPE_2": "Municipio","ENGTYPE_2": "Municipality","CC_2": "NA","HASC_2": "NA","name": "Aricagua.county","area_km2": 964.0279,"hist_schema_id": "Elevation0-9000","hist_area_km2": {"300": 3.1498,"325": 3.3386,"350": 5.5223,"375": 6.7401,"400": 8.5457,"425": 9.9313,"450": 11.5689,"475": 12.7655,"500": 13.9833,"525": 14.466,"550": 16.8592,"575": 15.7253,"600": 15.1792,"625": 15.2421,"650": 13.9192,"675": 13.1002,"700": 12.5752,"725": 13.1209,"750": 11.756,"775": 12.8474,"800": 11.2518,"825": 12.0703,"850": 12.3849,"875": 12.3218,"900": 12.7625,"925": 12.8673,"950": 13.5596,"975": 13.6437,"1000": 13.4754,"1025": 13.4752,"1050": 13.5381,"1075": 13.1813,"1100": 14.5662,"1125": 12.866,"1150": 14.0202,"1175": 13.4952,"1200": 13.8311,"1225": 14.1876,"1250": 13.7048,"1275": 13.7256,"1300": 13.7045,"1325": 14.4179,"1350": 12.949,"1375": 13.0536,"1400": 13.2843,"1425": 13.1793,"1450": 12.5707,"1475": 12.2138,"1500": 12.3395,"1525": 12.4234,"1550": 11.416,"1575": 11.1221,"1600": 10.5975,"1625": 10.4714,"1650": 10.8281,"1675": 9.7368,"1700": 10.0306,"1725": 10.1354,"1750": 9.7157,"1775": 10.2822,"1800": 8.6244,"1825": 8.3935,"1850": 9.0021,"1875": 9.065,"1900": 9.0021,"1925": 8.1627,"1950": 7.8269,"1975": 8.6243,"2000": 7.8689,"2025": 7.1343,"2050": 7.0504,"2075": 6.9454,"2100": 5.7074,"2125": 6.169,"2150": 5.3507,"2175": 5.3507,"2200": 5.2038,"2225": 4.6792,"2250": 4.7002,"2275": 4.5323,"2300": 4.5533,"2325": 4.5743,"2350": 4.3225,"2375": 4.0916,"2400": 4.1756,"2425": 4.0077,"2450": 3.8188,"2475": 3.7979,"2500": 3.567,"2525": 3.2733,"2550": 3.2103,"2575": 2.7277,"2600": 2.7696,"2625": 2.5388,"2650": 2.287,"2675": 2.266,"2700": 2.1191,"2725": 1.8044,"2750": 1.7834,"2775": 1.7414,"2800": 1.4476,"2825": 1.4476,"2850": 1.2798,"2875": 1.3007,"2900": 1.1119,"2925": 1.2168,"2950": 1.3847,"2975": 0.986,"3000": 1.1748,"3025": 0.944,"3050": 1.1119,"3075": 0.7552,"3100": 0.7972,"3125": 0.9021,"3150": 1.0909,"3175": 0.8391,"3200": 1.0699,"3225": 1.007,"3250": 0.8811,"3275": 1.0279,"3300": 1.0279,"3325": 0.9231,"3350": 1.2587,"3375": 0.944,"3400": 1.007,"3425": 0.9021,"3450": 1.0909,"3475": 0.944,"3500": 0.8182,"3525": 0.4405,"3550": 0.2098,"3575": 0.1049,"3600": 0.021}}}