{"type": "Feature","bbox": [-72.3365,7.694,-72.2761,7.8517],"geometry": {"type": "MultiPolygon","coordinates": [[[[-72.2842,7.7967,1228.9294],[-72.2815,7.8426,1349.5562],[-72.2906,7.8416,1241.7216],[-72.3106,7.8443,1397.3877],[-72.3326,7.8517,1376.8251],[-72.3354,7.8398,1115.5789],[-72.3365,7.8235,1358.5566],[-72.3357,7.8038,1573.2317],[-72.3307,7.7857,1719.0999],[-72.3097,7.7386,1194.7903],[-72.3024,7.7254,1009.5441],[-72.2973,7.717,820.8029],[-72.2761,7.694,648.9894],[-72.2913,7.7201,929.5894],[-72.3009,7.7408,1328.7489],[-72.3025,7.7475,1168.2397],[-72.3026,7.7537,1047.1029],[-72.3002,7.7577,1146.8853],[-72.295,7.7619,1180.4353],[-72.2871,7.7644,1126.4146],[-72.2929,7.772,1323.5619],[-72.2935,7.7843,1392.2314],[-72.2899,7.795,1402.1356],[-72.2842,7.7967,1228.9294]]]]}
,"properties": {"GID_2": "VEN.21.11_1","GID_0": "VEN","country": "Venezuela","GID_1": "VEN.21_1","province": "Táchira","NL_NAME_1": "NA","county": "Independencia","VARNAME_2": "NA","NL_NAME_2": "NA","TYPE_2": "Municipio","ENGTYPE_2": "Municipality","CC_2": "NA","HASC_2": "NA","name": "Independencia.county","area_km2": 54.2168,"hist_schema_id": "Elevation0-9000","hist_area_km2": {"675": 0.08404,"700": 0.12606,"725": 0.27314,"750": 0.10505,"775": 0.18909,"800": 0.18909,"825": 0.12606,"850": 0.18909,"875": 0.12606,"900": 0.16808,"925": 0.18909,"950": 0.12606,"975": 0.14707,"1000": 0.14707,"1025": 0.48319,"1050": 0.86127,"1075": 0.86127,"1100": 1.19737,"1125": 1.26036,"1150": 1.4284,"1175": 1.55444,"1200": 2.18461,"1225": 2.41565,"1250": 2.45765,"1275": 2.47868,"1300": 2.6047,"1325": 2.47864,"1350": 2.26861,"1375": 1.70148,"1400": 1.84852,"1425": 2.26864,"1450": 1.95354,"1475": 2.26862,"1500": 1.91154,"1525": 2.05857,"1550": 1.7015,"1575": 1.57548,"1600": 1.72251,"1625": 1.82753,"1650": 1.95357,"1675": 1.74351,"1700": 1.40741,"1725": 0.6722,"1750": 0.6722,"1775": 0.10503,"1800": 0.10503}}}