{"type":"Feature","properties":{"GID_2":"VEN.2.10_1","GID_0":"VEN","country":"Venezuela","GID_1":"VEN.2_1","province":"Anzoátegui","NL_NAME_1":"NA","county":"Guanipa","VARNAME_2":"NA","NL_NAME_2":"NA","TYPE_2":"Municipio","ENGTYPE_2":"Municipality","CC_2":"NA","HASC_2":"NA","name":"Guanipa.county"},
"geometry":{"type": "MultiPolygon","coordinates": [[[[-64.2143,8.8637,264.0799],[-64.0354,8.7181,215.7738],[-64.0278,8.7131,189.63],[-63.9979,8.7046,196.8587],[-63.9895,8.693,211.8041],[-63.9744,8.6618,153.6155],[-63.9657,8.6496,190.8807],[-63.9621,8.6368,181.1504],[-63.963,8.6035,163.4169],[-63.952,8.5645,92.4361],[-63.8683,8.6018,132.3579],[-63.8577,8.6098,161.569],[-63.8467,8.6212,176.8382],[-63.8229,8.6572,185.877],[-63.8097,8.6673,182.6782],[-63.7944,8.6711,183.4106],[-63.7791,8.6773,181.1662],[-63.7607,8.6883,162.5996],[-63.7476,8.6924,139.4707],[-63.7236,8.693,146.8981],[-63.7132,8.6948,142.4465],[-63.6866,8.7026,133.0169],[-63.6541,8.7162,150.6284],[-63.6057,8.7393,168.3423],[-63.5413,8.7867,145.3799],[-63.569,8.8007,160.319],[-63.605,8.8147,166.3365],[-63.6522,8.8247,160.5045],[-63.684,8.8349,148.0382],[-63.6993,8.8368,161.3308],[-63.721,8.8361,148.1368],[-63.7327,8.8381,151.1494],[-63.7562,8.8505,159.9511],[-63.7638,8.8523,157.0069],[-63.8009,8.8472,157.5536],[-63.8177,8.8471,156.6642],[-63.8682,8.8533,182.2961],[-63.9088,8.8642,201.166],[-63.9193,8.8652,200.994],[-63.9629,8.8553,192.3044],[-63.9701,8.8553,195.5988],[-64.0212,8.8653,217.4692],[-64.0737,8.8706,216.9675],[-64.0882,8.8748,217.6112],[-64.1065,8.8827,235.4382],[-64.1096,8.8808,229.7166],[-64.1206,8.8628,250.1308],[-64.1256,8.8595,253.5995],[-64.1363,8.8663,261.5352],[-64.146,8.8698,247.0647],[-64.1607,8.8717,259.9991],[-64.1867,8.87,264.7291],[-64.2143,8.8637,264.0799]]]]}}