{"type":"Feature","properties":{"GID_2":"VEN.22.17_1","GID_0":"VEN","country":"Venezuela","GID_1":"VEN.22_1","province":"Trujillo","NL_NAME_1":"NA","county":"Sucre","VARNAME_2":"NA","NL_NAME_2":"NA","TYPE_2":"Municipio","ENGTYPE_2":"Municipality","CC_2":"NA","HASC_2":"NA","name":"Sucre.county"},
"geometry":{"type": "MultiPolygon","coordinates": [[[[-70.8236,9.6312,26.9235],[-70.8401,9.6136,26.7542],[-70.858,9.6015,26.8671],[-70.8761,9.5963,24.3882],[-70.9045,9.5929,18.0469],[-70.9055,9.4519,19.079],[-70.875,9.4785,26.4537],[-70.8418,9.5047,31.5791],[-70.8347,9.5081,32.8038],[-70.8247,9.5083,35.3841],[-70.8145,9.5029,37.3566],[-70.803,9.4931,41.1419],[-70.7817,9.4691,67.979],[-70.7693,9.4596,96.2307],[-70.7565,9.4512,130.6537],[-70.7408,9.4444,227.7431],[-70.7271,9.4403,251.32],[-70.6924,9.4388,471.724],[-70.6697,9.4421,671.6036],[-70.6611,9.4449,680.386],[-70.6549,9.4488,606.7453],[-70.6516,9.4539,555.1685],[-70.6511,9.4601,546.2363],[-70.6548,9.4698,568.7698],[-70.6588,9.4733,533.1141],[-70.6668,9.4741,459.4949],[-70.691,9.4678,372.0014],[-70.7033,9.4691,276.3629],[-70.734,9.4948,93.9983],[-70.7579,9.5053,49.3695],[-70.7697,9.5189,49.8607],[-70.779,9.5361,47.9141],[-70.7874,9.546,44.7932],[-70.8058,9.55,38.2864],[-70.8077,9.5532,38.5627],[-70.8076,9.5606,37.9429],[-70.8024,9.5746,37.1225],[-70.8002,9.5964,36.1182],[-70.8021,9.6046,33.5424],[-70.8074,9.6163,31.8744],[-70.8174,9.6272,29.4567],[-70.8236,9.6312,26.9235]]]]}}