{"type": "Feature","bbox": [-66.8898,10.3486,-66.7256,10.4878],"geometry": {"type": "MultiPolygon","coordinates": [[[[-66.8898,10.4323,1086.6764],[-66.8815,10.4226,1134.4629],[-66.8791,10.401,1155.3704],[-66.8772,10.3943,897.1328],[-66.874,10.3905,938.819],[-66.863,10.3896,927.1428],[-66.8619,10.3768,901.2332],[-66.8341,10.3646,1227.2295],[-66.8276,10.3549,841.0623],[-66.8186,10.3486,750.3573],[-66.7984,10.356,938.074],[-66.7646,10.3607,803.8574],[-66.747,10.3649,1078.9016],[-66.7256,10.3817,783.332],[-66.7682,10.3821,769.4432],[-66.7877,10.3857,1055.4385],[-66.8156,10.3883,1051.5471],[-66.8179,10.3907,938.611],[-66.8215,10.4033,1048.7449],[-66.8275,10.4112,1156.2987],[-66.8295,10.4165,1177.4],[-66.8305,10.427,1151.4539],[-66.8203,10.441,1075.2476],[-66.812,10.4556,878.6192],[-66.8059,10.4595,834.4437],[-66.7972,10.4622,974.6153],[-66.7919,10.467,1025.177],[-66.7907,10.4711,1075.5594],[-66.7924,10.4801,926.5502],[-66.8007,10.4878,897.5748],[-66.8522,10.4867,848.9729],[-66.8578,10.4688,903.6951],[-66.8667,10.4559,913.8679],[-66.8863,10.4332,1054.4691],[-66.8898,10.4323,1086.6764]]]]}
,"properties": {"GID_2": "VEN.16.3_1","GID_0": "VEN","country": "Venezuela","GID_1": "VEN.16_1","province": "Miranda","NL_NAME_1": "NA","county": "Baruta","VARNAME_2": "NA","NL_NAME_2": "NA","TYPE_2": "Municipio","ENGTYPE_2": "Municipality","CC_2": "NA","HASC_2": "NA","name": "Baruta.county","area_km2": 108.03855,"hist_schema_id": "Elevation0-9000","hist_area_km2": {"650": 0.04171,"675": 0.16684,"700": 0.22941,"725": 0.3754,"750": 0.85508,"775": 0.68823,"800": 1.43904,"825": 3.08615,"850": 7.6938,"875": 6.40143,"900": 7.15215,"925": 6.83958,"950": 7.36094,"975": 8.34103,"1000": 8.21614,"1025": 6.98577,"1050": 6.92342,"1075": 5.94334,"1100": 5.90167,"1125": 4.98407,"1150": 4.27497,"1175": 3.31569,"1200": 2.71089,"1225": 1.77252,"1250": 1.66824,"1275": 1.12605,"1300": 0.95923,"1325": 0.83411,"1350": 0.58388,"1375": 0.41706,"1400": 0.25023,"1425": 0.18768,"1450": 0.18767,"1475": 0.10426,"1500": 0.02085}}}