{"type": "Feature","bbox": [-67.8586,2.5703,-65.601,4.8958],"geometry": {"type": "MultiPolygon","coordinates": [[[[-67.4046,3.2489,99.3808],[-67.3794,3.1726,93.1107],[-67.3514,3.1153,102.3593],[-67.3414,3.1024,117.6816],[-67.3251,3.0867,107.3345],[-67.3011,3.0753,113.9387],[-67.2764,3.0691,120.5282],[-67.2579,3.0697,115.4052],[-67.2366,3.0746,102.3081],[-67.2248,3.0819,121.2407],[-67.2028,3.118,88.0663],[-67.1871,3.1342,89.4735],[-67.1622,3.1479,107.7757],[-67.1411,3.1512,110.6533],[-67.1331,3.1506,113.3373],[-67.1198,3.1468,109.7152],[-67.0517,3.1219,96.2201],[-67.0362,3.1188,94.2313],[-67.0225,3.1206,97.1663],[-67.0046,3.1281,89.746],[-66.9855,3.139,94.1259],[-66.9603,3.1407,116.5134],[-66.9506,3.1432,116.0608],[-66.9351,3.1427,95.2717],[-66.929,3.1411,113.2144],[-66.9104,3.1305,105.5569],[-66.8876,3.1227,97.1496],[-66.858,3.117,115.5746],[-66.8321,3.1151,113.6095],[-66.7861,3.1171,118.3156],[-66.7335,3.1136,119.8209],[-66.6404,3.1124,116.5048],[-66.5787,3.1063,113.6809],[-66.5445,3.1047,127.4772],[-66.5151,3.1054,116.4451],[-66.4658,3.1154,111.4901],[-66.4503,3.1165,107.4741],[-66.4243,3.1134,111.5858],[-66.4048,3.1077,106.2798],[-66.3977,3.1037,107.279],[-66.3648,3.082,103.9121],[-66.3335,3.0461,119.9712],[-66.314,3.0263,103.5],[-66.2841,3.0081,120.942],[-66.266,3.0003,115.5071],[-66.2375,2.9919,118.6317],[-66.2023,2.9885,125.8989],[-66.1759,2.991,123.5594],[-66.1418,2.9975,300.4228],[-66.1169,2.9967,195.2532],[-66.073,2.9878,146.046],[-65.9406,2.5703,143.7387],[-65.9358,2.582,136.1845],[-65.9439,2.6305,255.6027],[-65.94,2.6503,179.7181],[-65.9333,2.6635,150.4192],[-65.9258,2.6712,139.0002],[-65.9113,2.6751,137.8757],[-65.8766,2.6758,157.1848],[-65.8451,2.6795,139.0548],[-65.8324,2.6851,132.1769],[-65.8178,2.6949,135.6101],[-65.7961,2.7034,121.6299],[-65.7733,2.7069,147.3646],[-65.7515,2.7064,128.7191],[-65.7182,2.6995,126.5427],[-65.6864,2.6955,133.719],[-65.6574,2.7027,133.827],[-65.6391,2.7122,172.197],[-65.6281,2.7221,158.9487],[-65.6203,2.7367,147.0518],[-65.6409,2.7987,162.6704],[-65.658,2.8841,174.6969],[-65.658,2.924,153.5433],[-65.6409,2.9468,147.1822],[-65.6238,2.9639,144.4143],[-65.601,3.0209,140.5139],[-65.6352,3.0437,134.1215],[-65.658,3.0323,151.7202],[-65.715,3.0494,127.898],[-65.7492,3.0893,123.451],[-65.7663,3.1121,124.8142],[-65.7663,3.3628,488.5911],[-65.7492,3.5053,522.439],[-65.7777,3.5908,646.995],[-65.829,3.6421,227.5988],[-65.8973,3.7731,406.6259],[-65.9201,3.8073,435.5341],[-65.9201,3.8814,382.5154],[-65.8802,3.9498,419.7898],[-65.7509,4.1481,406.0442],[-65.829,4.1265,485.7181],[-65.9429,4.1379,359.9961],[-65.9999,4.1891,224.256],[-66.1025,4.3544,144.6877],[-66.1538,4.3943,136.5161],[-66.2279,4.5026,123.0831],[-66.3589,4.571,159.1548],[-66.4045,4.702,110.632],[-66.4758,4.8189,548.8284],[-66.4815,4.8587,375.5253],[-66.4957,4.8815,829.2363],[-66.5185,4.8958,470.3329],[-66.5584,4.8587,436.5429],[-66.5664,4.8624,682.6],[-66.5812,4.8388,608.4301],[-66.6667,4.8103,1456.4216],[-66.7237,4.7875,1391.6288],[-66.7408,4.7647,1630.0514],[-66.7408,4.759,1511.1354],[-66.7351,4.7419,1415.3248],[-66.718,4.7305,1342.7312],[-66.6781,4.7305,1071.3005],[-66.6325,4.7533,953.5251],[-66.6268,4.7533,903.1459],[-66.6211,4.7419,495.8048],[-66.604,4.6906,184.4473],[-66.6895,4.6051,301.1091],[-66.8205,4.5539,1119.1493],[-66.8604,4.4912,872.6693],[-66.9231,4.4114,358.3814],[-67.0086,4.2689,229.9601],[-67.1169,4.2062,264.7944],[-67.2252,4.1379,147.1242],[-67.2764,4.1493,127.0696],[-67.3619,4.2062,112.1483],[-67.4303,4.2632,105.2414],[-67.4873,4.3601,140.4144],[-67.5101,4.4057,105.5013],[-67.607,4.4798,106.5193],[-67.7038,4.514,105.356],[-67.8434,4.5744,78.0],[-67.8428,4.5609,78.0],[-67.8493,4.5461,78.0],[-67.8568,4.5382,78.0],[-67.8586,4.5308,78.0],[-67.8582,4.5203,78.0],[-67.8477,4.5084,78.0],[-67.8124,4.4883,78.0],[-67.8074,4.4836,78.0],[-67.7971,4.4691,78.0],[-67.7948,4.4606,78.0],[-67.7984,4.4486,78.0],[-67.7989,4.435,78.0],[-67.791,4.4274,78.0],[-67.7789,4.4212,78.0],[-67.7754,4.4176,78.0],[-67.7757,4.4116,78.0],[-67.7832,4.407,78.0],[-67.7868,4.402,78.0],[-67.7884,4.3957,78.0],[-67.7877,4.3896,78.0],[-67.7818,4.3785,78.0],[-67.7708,4.366,78.0],[-67.7663,4.3566,78.0],[-67.7658,4.3523,78.0],[-67.7661,4.3429,78.0],[-67.7682,4.3394,78.0],[-67.7777,4.3385,78.0],[-67.7871,4.3408,78.0],[-67.7958,4.3388,79.7657],[-67.8017,4.333,78.0],[-67.8061,4.3239,78.0],[-67.8064,4.3146,78.0],[-67.8046,4.3072,78.0],[-67.7942,4.2832,78.0],[-67.7932,4.2777,78.0],[-67.7938,4.2689,78.0],[-67.8054,4.2519,94.274],[-67.8057,4.24,78.0],[-67.7999,4.2272,78.0],[-67.7923,4.219,78.0],[-67.7875,4.2094,78.0],[-67.7798,4.1788,78.0],[-67.7741,4.1665,78.0],[-67.7479,4.1445,78.0],[-67.7435,4.139,78.0],[-67.7262,4.1023,78.0],[-67.7217,4.0707,78.0],[-67.7176,4.0572,78.0],[-67.7106,4.0452,78.0],[-67.7056,4.0425,78.0],[-67.6992,4.0351,78.0],[-67.6989,4.032,78.0],[-67.702,4.0271,78.0],[-67.702,4.0201,78.0],[-67.6991,4.011,78.0],[-67.7005,4.0038,78.0],[-67.6975,4.0009,78.0],[-67.6992,3.9957,78.0],[-67.6966,3.9926,78.0],[-67.6957,3.9872,78.0],[-67.698,3.9741,78.0],[-67.6961,3.9661,78.0],[-67.6894,3.9559,78.0],[-67.6904,3.942,78.0],[-67.6921,3.9394,78.0],[-67.6913,3.9333,79.3986],[-67.6828,3.9231,78.0],[-67.6804,3.9131,78.0],[-67.6762,3.9063,83.4959],[-67.6648,3.898,78.0],[-67.661,3.8807,78.0],[-67.6532,3.871,78.0],[-67.6495,3.8639,78.0],[-67.6497,3.8603,78.0],[-67.6466,3.855,78.0],[-67.648,3.8469,79.3359],[-67.6465,3.8414,78.0],[-67.6434,3.8383,78.0],[-67.644,3.8327,78.0],[-67.6483,3.8258,78.0],[-67.6481,3.8219,78.0],[-67.6361,3.794,78.0],[-67.6348,3.7887,78.0],[-67.6357,3.7838,78.0],[-67.6335,3.7819,83.7172],[-67.6263,3.7803,78.0],[-67.6263,3.7755,78.0],[-67.6205,3.7708,78.0],[-67.6149,3.7568,78.0],[-67.6093,3.7533,79.7349],[-67.5963,3.7493,81.0881],[-67.5563,3.7588,87.6214],[-67.547,3.7574,87.6492],[-67.5407,3.7586,82.7664],[-67.5214,3.7781,88.4827],[-67.514,3.7782,85.139],[-67.4976,3.7705,85.9665],[-67.4895,3.7548,88.118],[-67.4827,3.7465,86.1613],[-67.4813,3.7398,84.3926],[-67.4817,3.7273,85.2664],[-67.4779,3.7142,85.7146],[-67.4659,3.6961,90.1619],[-67.4621,3.6859,90.6374],[-67.4478,3.684,98.5111],[-67.4431,3.6788,86.0914],[-67.4436,3.6703,84.0806],[-67.4475,3.6607,85.4543],[-67.4466,3.655,85.2285],[-67.4374,3.6433,84.5162],[-67.4356,3.6375,85.3309],[-67.4367,3.6281,85.2535],[-67.4427,3.6089,87.5811],[-67.4398,3.5907,87.3466],[-67.4392,3.5885,99.343],[-67.4266,3.5797,111.4643],[-67.4234,3.5616,92.2873],[-67.4049,3.5402,92.8863],[-67.4009,3.5177,86.5603],[-67.4045,3.5135,82.5269],[-67.4065,3.5062,83.8751],[-67.4051,3.4934,83.3796],[-67.4018,3.482,82.0],[-67.3915,3.4726,87.4263],[-67.3724,3.4701,85.8492],[-67.3613,3.4663,85.7556],[-67.337,3.4536,95.9317],[-67.332,3.4466,105.9832],[-67.3244,3.4249,86.9664],[-67.3103,3.3985,99.7691],[-67.3077,3.386,101.3599],[-67.3079,3.378,84.6756],[-67.3197,3.3657,85.2057],[-67.3207,3.3567,86.9603],[-67.3261,3.3471,86.1955],[-67.3266,3.3402,98.2835],[-67.3284,3.337,88.5847],[-67.3366,3.3238,91.2724],[-67.3398,3.3222,99.1494],[-67.3451,3.3151,90.884],[-67.3509,3.3099,88.7308],[-67.3662,3.3027,86.8966],[-67.3743,3.2949,103.9905],[-67.3751,3.2729,113.649],[-67.3772,3.2661,94.3894],[-67.3736,3.25,95.1936],[-67.3912,3.2506,89.017],[-67.3919,3.2488,87.6667],[-67.4046,3.2489,99.3808]]]]}
,"properties": {"GID_2": "VEN.1.2_1","GID_0": "VEN","country": "Venezuela","GID_1": "VEN.1_1","province": "Amazonas","NL_NAME_1": "NA","county": "Atabapo","VARNAME_2": "NA","NL_NAME_2": "NA","TYPE_2": "Municipio","ENGTYPE_2": "Municipality","CC_2": "NA","HASC_2": "NA","name": "Atabapo.county","area_km2": 30719.35,"hist_schema_id": "Elevation0-9000","hist_area_km2": {"75": 365.03,"100": 9587.66,"125": 11074.48,"150": 3480.52,"175": 1290.06,"200": 762.59,"225": 534.46,"250": 429.98,"275": 352.56,"300": 293.18,"325": 247.79,"350": 226.43,"375": 220.47,"400": 220.15,"425": 229.51,"450": 224.97,"475": 188.9,"500": 147.98,"525": 105.83,"550": 76.85,"575": 62.41,"600": 48.85,"625": 40.6,"650": 36.49,"675": 31.76,"700": 28.65,"725": 26.83,"750": 26.02,"775": 22.91,"800": 21.94,"825": 19.93,"850": 17.86,"875": 16.57,"900": 15.26,"925": 15.18,"950": 13.34,"975": 12.62,"1000": 11.16,"1025": 10.49,"1050": 10.91,"1075": 9.58,"1100": 10.36,"1125": 9.16,"1150": 8.14,"1175": 7.89,"1200": 8.2,"1225": 9.92,"1250": 9.51,"1275": 8.05,"1300": 8.33,"1325": 7.78,"1350": 7.55,"1375": 5.98,"1400": 6.3,"1425": 6.38,"1450": 6.38,"1475": 5.94,"1500": 5.86,"1525": 4.86,"1550": 4.21,"1575": 4.63,"1600": 3.93,"1625": 2.85,"1650": 1.88,"1675": 1.08,"1700": 0.66,"1725": 0.63,"1750": 0.55,"1775": 0.61,"1800": 0.34,"1825": 0.36,"1850": 0.42,"1875": 0.4,"1900": 0.25,"1925": 0.25,"1950": 0.25}}}