{"type": "Feature","bbox": [-64.0149,11.0245,-63.9309,11.114],"geometry": {"type": "MultiPolygon","coordinates": [[[[-63.9357,11.0432,163.788],[-63.9309,11.0579,28.8335],[-63.9562,11.1129,0.0],[-63.9576,11.1115,6.9207],[-63.9649,11.1129,0.0],[-63.9671,11.1118,2.7253],[-63.9701,11.114,0.0],[-63.9688,11.1107,0.0],[-63.9776,11.111,0.0],[-63.9801,11.1054,19.8222],[-63.9818,11.1051,5.6295],[-63.9829,11.0985,0.0],[-63.9818,11.096,17.898],[-63.9768,11.0949,0.0],[-63.9762,11.0935,0.7304],[-63.9765,11.0904,0.0],[-63.9799,11.0857,0.0],[-63.974,11.086,1.9635],[-63.9721,11.0824,4.5139],[-63.9785,11.0746,1.8292],[-63.9871,11.0701,4.9384],[-63.9963,11.0679,7.2915],[-64.0004,11.0676,9.2978],[-64.0007,11.0696,0.0],[-64.0068,11.0676,0.0],[-64.0115,11.0688,0.0],[-64.0135,11.0654,0.0],[-64.0129,11.0604,16.2872],[-64.0149,11.0574,1.3059],[-63.9933,11.0518,48.3062],[-63.993,11.0531,61.95],[-63.9576,11.0245,60.0479],[-63.9464,11.0328,156.5066],[-63.9398,11.0336,251.0454],[-63.9376,11.0356,307.3033],[-63.9357,11.0432,163.788]]]]}
,"properties": {"GID_2": "VEN.18.8_1","GID_0": "VEN","country": "Venezuela","GID_1": "VEN.18_1","province": "NuevaEsparta","NL_NAME_1": "NA","county": "Marcano","VARNAME_2": "NA","NL_NAME_2": "NA","TYPE_2": "Municipio","ENGTYPE_2": "Municipality","CC_2": "NA","HASC_2": "NA","name": "Marcano.county","area_km2": 44.23767,"hist_schema_id": "Elevation0-9000","hist_area_km2": {"0": 15.39699,"25": 14.25358,"50": 5.70161,"75": 2.93406,"100": 1.8104,"125": 1.31099,"150": 1.01965,"175": 0.95721,"200": 0.39538,"225": 0.16648,"250": 0.12486,"275": 0.06243,"300": 0.08324,"325": 0.02081}}}