{"type": "Feature","bbox": [-67.1276,10.404,-66.8443,10.5606],"geometry": {"type": "MultiPolygon","coordinates": [[[[-66.8443,10.5442,1924.5641],[-66.8547,10.5502,1989.4072],[-66.868,10.554,1913.7689],[-66.9013,10.5542,1639.5822],[-66.9298,10.5512,1633.6201],[-66.9463,10.5539,1071.4169],[-66.9677,10.5599,943.2719],[-66.9893,10.5606,920.3165],[-67.0019,10.5505,415.1404],[-67.0268,10.5218,626.5851],[-67.0283,10.5114,898.3748],[-67.027,10.4948,1351.9646],[-67.0368,10.477,1535.6675],[-67.0455,10.4737,1652.837],[-67.0761,10.4697,1688.8387],[-67.1001,10.4635,2125.5635],[-67.1133,10.458,2072.3958],[-67.1276,10.4473,1912.8929],[-67.1166,10.4429,1665.1963],[-67.1076,10.4363,1776.2333],[-67.0597,10.4175,1189.8485],[-67.0228,10.4074,1210.7085],[-67.0034,10.4043,1271.8246],[-66.9863,10.404,1463.1787],[-66.9703,10.4068,1538.5647],[-66.9246,10.4241,914.9559],[-66.8863,10.4332,1054.4691],[-66.8667,10.4559,913.8679],[-66.8578,10.4688,903.6951],[-66.8525,10.4826,849.2902],[-66.8517,10.529,1860.1714],[-66.8484,10.5388,2223.4561],[-66.8443,10.5442,1924.5641]]]]}
,"properties": {"GID_1": "VEN.11_1","GID_0": "VEN","country": "Venezuela","province": "DistritoCapital","VARNAME_1": "NA","NL_NAME_1": "NA","TYPE_1": "Estado","ENGTYPE_1": "State","CC_1": "NA","HASC_1": "NA","ISO_1": "VE-A","name": "Distrito_Capital.province","area_km2": 328.2598,"hist_schema_id": "Elevation0-9000","hist_area_km2": {"400": 0.0834,"425": 0.1459,"450": 0.2501,"475": 0.5003,"500": 0.5211,"525": 0.5836,"550": 0.9797,"575": 1.1256,"600": 1.3341,"625": 1.4383,"650": 1.3758,"675": 1.6051,"700": 1.6676,"725": 1.8136,"750": 1.8136,"775": 1.7719,"800": 1.7093,"825": 1.751,"850": 4.5446,"875": 14.4684,"900": 22.7454,"925": 19.1807,"950": 17.2623,"975": 15.9072,"1000": 14.0312,"1025": 12.5929,"1050": 11.5922,"1075": 11.1337,"1100": 9.8409,"1125": 9.8619,"1150": 9.4866,"1175": 9.8827,"1200": 8.5484,"1225": 8.1522,"1250": 7.6519,"1275": 7.1305,"1300": 6.2131,"1325": 6.651,"1350": 5.0038,"1375": 5.2957,"1400": 5.0663,"1425": 4.2948,"1450": 4.0029,"1475": 4.1698,"1500": 3.6694,"1525": 3.3983,"1550": 2.752,"1575": 2.9396,"1600": 2.335,"1625": 2.1891,"1650": 2.2725,"1675": 2.0431,"1700": 2.0222,"1725": 1.8972,"1750": 2.2307,"1775": 1.8138,"1800": 2.0848,"1825": 1.918,"1850": 2.2099,"1875": 2.1265,"1900": 2.46,"1925": 2.1891,"1950": 1.5428,"1975": 1.3968,"2000": 0.9381,"2025": 0.9382,"2050": 0.6671,"2075": 0.7505,"2100": 0.7713,"2125": 0.5837,"2150": 0.4795,"2175": 0.542,"2200": 0.2918,"2225": 0.1876,"2250": 0.1876,"2275": 0.3127,"2300": 0.1668,"2325": 0.2293,"2350": 0.0625,"2375": 0.2084,"2400": 0.1042,"2425": 0.1042,"2450": 0.0417,"2475": 0.0208}}}