{"type":"Feature","properties":{"ISO3166-1-Alpha-3":"VEN","country":"Venezuela","fill":"#F0F","id":"43","name":"Distrito Capital"},
"geometry":{"type": "Polygon","coordinates": [[[-66.94903,10.54928,1211.9725],[-66.95149,10.54951,1268.2163],[-66.95229,10.5506,1247.9795],[-66.95327,10.5516,1247.9795],[-66.95536,10.55323,1230.6567],[-66.95661,10.55385,1180.4575],[-66.96428,10.5554,1163.5685],[-66.96598,10.55595,1104.2454],[-66.97118,10.55858,974.6083],[-66.97273,10.55899,837.1655],[-66.97554,10.55954,835.303],[-66.97826,10.55977,883.6207],[-66.97965,10.56008,919.4414],[-66.98632,10.56264,857.1452],[-66.9919,10.56644,742.8404],[-66.99624,10.56876,641.2131],[-66.99888,10.5707,575.0412],[-67.00216,10.57372,477.0808],[-67.00324,10.5745,398.0215],[-67.0042,10.57496,398.0215],[-67.00536,10.57519,380.3964],[-67.00683,10.57512,380.3964],[-67.00937,10.57318,387.2382],[-67.01267,10.56977,421.308],[-67.01851,10.56093,599.965],[-67.02068,10.55667,774.8816],[-67.02174,10.5537,881.6614],[-67.0212,10.55269,794.9614],[-67.01717,10.54881,705.0896],[-67.01639,10.54773,795.1893],[-67.01588,10.546569999999999,827.848],[-67.01572,10.54525,805.8944],[-67.0158,10.54432,805.8944],[-67.0174,10.543,783.2266],[-67.02027,10.54153,743.4811],[-67.03497,10.53664,794.7745],[-67.04203,10.53285,855.6787],[-67.04319,10.53254,881.0563],[-67.04412,10.53246,881.0563],[-67.04541,10.53223,874.4405],[-67.04699,10.53168,955.0933],[-67.05048,10.52902,960.4919],[-67.05324,10.52546,961.1893],[-67.05624,10.51848,1121.651],[-67.05639,10.51484,1146.0913],[-67.05613,10.51228,1143.0471],[-67.05329,10.50856,1033.1395],[-67.05267,10.50724,1033.1395],[-67.05246,10.506,1138.5598],[-67.05257,10.50491,1206.2434],[-67.05518,10.49574,1375.8005],[-67.05567,10.49117,1350.6906],[-67.05564,10.49001,1342.3997],[-67.05495,10.4876,1367.7556],[-67.05474,10.48652,1402.3926],[-67.05479,10.48404,1458.151],[-67.05448,10.48287,1421.0911],[-67.05365,10.48086,1410.0646],[-67.05345,10.4797,1422.7224],[-67.05334,10.47877,1422.7224],[-67.05533,10.47776,1549.4578],[-67.05903,10.47667,1630.9998],[-67.07753,10.47471,1610.8474],[-67.08104,10.47347,1688.5006],[-67.08195,10.47052,1740.2021],[-67.08368,10.46866,1811.8358],[-67.08512,10.4668,1866.4446],[-67.09202,10.46254,1987.2871],[-67.09456,10.46138,2038.9072],[-67.09732,10.46114,2043.4458],[-67.10213,10.46246,2073.5889],[-67.10499,10.46363,2030.7197],[-67.10763,10.46432,1976.7872],[-67.1106,10.46401,1905.7903],[-67.11466,10.46401,1920.9072],[-67.11675,10.46378,1797.9829],[-67.12693,10.45882,1855.8533],[-67.15318,10.44073,1994.7018],[-67.15181,10.43143,1851.3137],[-67.15112,10.4305,1745.0667],[-67.14755,10.42872,1714.823],[-67.14447,10.42818,1662.814],[-67.12024,10.42104,1267.3818],[-67.07453,10.4011,1499.3601],[-67.05148,10.39451,1611.2777],[-67.02973,10.39304,1299.2473],[-67.01748,10.3935,1110.9375],[-67.00766,10.39521,1263.7738],[-66.9826,10.40474,1601.4991],[-66.96379,10.41554,1218.8688],[-66.95619,10.41823,1302.6941],[-66.94369,10.42143,1098.5652],[-66.92725,10.42174,971.4211],[-66.89744,10.41621,1304.1692],[-66.88775,10.46541,1068.3566],[-66.88103,10.4814,927.8828],[-66.86896,10.4921,875.2849],[-66.8563,10.50569,934.1865],[-66.85429,10.5115,973.1029],[-66.85364,10.5146,1040.2485],[-66.86134,10.52724,1482.0706],[-66.87377,10.54703,1912.2104],[-66.88457,10.54788,1762.4608],[-66.88891,10.54936,1773.1052],[-66.89028,10.55029,1828.0688],[-66.89415,10.5523,1740.8584],[-66.90622,10.55589,1798.4893],[-66.9125,10.55698,1729.1519],[-66.91454,10.55703,1724.4639],[-66.9156,10.55698,1677.3105],[-66.91676,10.55672,1677.3105],[-66.92172,10.55525,1659.307],[-66.92449,10.5547,1606.2725],[-66.92922,10.55432,1488.1447],[-66.94516,10.54974,1280.2239],[-66.94903,10.54928,1211.9725]]]}}