{"type":"Feature","properties":{"GID_2":"VEN.19.4_1","GID_0":"VEN","country":"Venezuela","GID_1":"VEN.19_1","province":"Portuguesa","NL_NAME_1":"NA","county":"Guanare","VARNAME_2":"NA","NL_NAME_2":"NA","TYPE_2":"Municipio","ENGTYPE_2":"Municipality","CC_2":"NA","HASC_2":"NA","name":"Guanare.county"},
"geometry":{"type": "MultiPolygon","coordinates": [[[[-69.8847,9.4744,1010.6764],[-69.9078,9.4628,827.3609],[-69.9153,9.4568,784.5419],[-69.9202,9.4513,782.5192],[-69.9329,9.4276,845.4285],[-69.9376,9.4221,835.9425],[-69.9213,9.4065,1391.8354],[-69.916,9.3993,1565.1692],[-69.9114,9.3784,1224.7725],[-69.8977,9.3542,1318.5957],[-69.8921,9.3347,1403.714],[-69.8752,9.3077,587.9089],[-69.8759,9.2901,544.8353],[-69.904,9.2547,587.1212],[-69.9116,9.2495,424.5374],[-69.9357,9.2419,462.6747],[-69.9442,9.243,566.8623],[-69.9612,9.2527,508.427],[-69.9711,9.2565,774.2079],[-69.9876,9.2608,1048.4333],[-70.0069,9.2612,1015.8658],[-69.8816,8.9832,189.2293],[-69.8759,8.9668,218.1436],[-69.8761,8.9587,235.3198],[-69.8706,8.9585,214.8398],[-69.8646,8.9541,206.3071],[-69.8594,8.941,219.3184],[-69.854,8.9201,163.2992],[-69.8475,8.9151,154.6875],[-69.8336,8.9152,146.9343],[-69.7987,8.9332,143.2096],[-69.7402,8.9565,138.6473],[-69.7264,8.9704,136.7258],[-69.6849,8.9662,129.5003],[-69.6682,8.9661,126.9485],[-69.6343,8.979,124.2933],[-69.6049,8.9845,125.5902],[-69.5974,8.9914,117.2048],[-69.5961,8.9968,117.5658],[-69.6002,9.0033,119.0173],[-69.6004,9.0087,121.055],[-69.5952,9.0081,118.8073],[-69.579,8.9948,121.157],[-69.5708,8.9908,121.0849],[-69.5592,8.9875,115.0486],[-69.5495,8.9867,112.2029],[-69.5439,8.9901,114.2314],[-69.5462,8.995,115.8977],[-69.5555,9.002,114.8597],[-69.5624,9.0096,115.2467],[-69.5635,9.0165,115.871],[-69.5625,9.0195,115.8898],[-69.5547,9.0236,115.9018],[-69.5477,9.0233,115.5932],[-69.528,9.0157,116.1607],[-69.5188,9.0153,112.5677],[-69.5144,9.0202,111.9023],[-69.5172,9.029,113.0659],[-69.522,9.0367,119.6278],[-69.5191,9.0417,118.6883],[-69.5021,9.046,112.4067],[-69.4937,9.0501,112.7214],[-69.4917,9.0575,109.2335],[-69.4914,9.0716,113.7862],[-69.4799,9.0758,113.3903],[-69.438,9.0673,112.0489],[-69.4287,9.0704,109.2684],[-69.4119,9.0849,114.921],[-69.4224,9.1046,113.5395],[-69.424,9.1122,117.3618],[-69.4231,9.1245,119.5906],[-69.4199,9.1306,117.6133],[-69.4207,9.1459,119.8725],[-69.4366,9.1644,124.0129],[-69.4426,9.1809,129.798],[-69.4632,9.2194,142.7611],[-69.4678,9.231,148.3016],[-69.4695,9.2481,158.2021],[-69.4686,9.2726,170.7298],[-69.4707,9.2874,221.6421],[-69.4769,9.2972,220.153],[-69.494,9.3133,246.0658],[-69.5109,9.3242,225.0703],[-69.5444,9.3377,247.7615],[-69.5884,9.3427,382.408],[-69.599,9.3369,347.942],[-69.6092,9.3338,507.3032],[-69.6397,9.3363,375.6428],[-69.651,9.3379,487.8096],[-69.6591,9.3448,475.6281],[-69.6626,9.3512,398.2793],[-69.6705,9.3783,478.5329],[-69.6789,9.3947,651.7189],[-69.6791,9.4007,554.0916],[-69.6554,9.4289,848.6743],[-69.6382,9.4341,859.231],[-69.6278,9.4432,1140.5425],[-69.6098,9.4543,1115.0942],[-69.6057,9.4592,1256.479],[-69.6056,9.4637,1377.9373],[-69.6124,9.4723,1472.5149],[-69.6251,9.4823,1579.0144],[-69.6481,9.4749,1005.0933],[-69.6881,9.4685,928.6733],[-69.6989,9.4739,884.744],[-69.7109,9.486,858.3764],[-69.7217,9.4935,1026.6219],[-69.7438,9.4996,1009.7294],[-69.7567,9.4971,1066.6565],[-69.7971,9.4792,1030.9674],[-69.8136,9.4739,986.1395],[-69.8578,9.4711,1470.868],[-69.8847,9.4744,1010.6764]]]]}}