{"type": "Feature","bbox": [-69.0476,9.6338,-68.8983,9.8017],"geometry": {"type": "MultiPolygon","coordinates": [[[[-68.9749,9.7913,214.922],[-68.9871,9.8007,268.843],[-69.0021,9.8017,268.4063],[-69.0083,9.7978,271.2173],[-69.032,9.7632,344.7256],[-69.0476,9.7615,364.6407],[-69.0465,9.7589,429.9023],[-69.0241,9.7167,259.9852],[-69.0164,9.705,376.8705],[-69.0089,9.6969,235.7479],[-68.9856,9.6797,161.391],[-68.9643,9.6709,151.5323],[-68.9598,9.6674,150.2306],[-68.956,9.6577,149.4371],[-68.9541,9.6338,146.8794],[-68.8983,9.6429,139.4541],[-68.9072,9.675,176.2842],[-68.9145,9.6915,175.1037],[-68.9412,9.7345,255.4341],[-68.9448,9.7553,467.0323],[-68.9522,9.7666,440.2187],[-68.9749,9.7913,214.922]]]]}
,"properties": {"GID_2": "VEN.19.11_1","GID_0": "VEN","country": "Venezuela","GID_1": "VEN.19_1","province": "Portuguesa","NL_NAME_1": "NA","county": "SanRafaeldeOnoto","VARNAME_2": "NA","NL_NAME_2": "NA","TYPE_2": "Municipio","ENGTYPE_2": "Municipality","CC_2": "NA","HASC_2": "NA","name": "San_Rafaelde_Onoto.county","area_km2": 147.1838,"hist_schema_id": "Elevation0-9000","hist_area_km2": {"150": 27.778,"175": 26.2072,"200": 16.7601,"225": 12.0158,"250": 10.1139,"275": 9.3404,"300": 10.3225,"325": 7.5227,"350": 5.5375,"375": 4.1583,"400": 4.2001,"425": 3.6359,"450": 3.0508,"475": 2.6538,"500": 1.3373,"525": 0.9403,"550": 0.6269,"575": 0.4179,"600": 0.3552,"625": 0.1672,"650": 0.0418}}}