{"type": "Feature","bbox": [-70.4631,7.9493,-69.4768,8.8001],"geometry": {"type": "MultiPolygon","coordinates": [[[[-69.4768,8.0695,82.721],[-69.483,8.0852,84.9374],[-69.4938,8.1031,97.9952],[-69.509,8.1163,93.5197],[-69.5202,8.1214,88.0621],[-69.5629,8.1328,88.7942],[-69.5746,8.1391,97.9723],[-69.5928,8.1585,91.1004],[-69.6054,8.1679,98.2629],[-69.6159,8.1717,92.849],[-69.6528,8.1766,100.4188],[-69.6702,8.1828,95.755],[-69.683,8.2038,96.9101],[-69.6907,8.212,98.2003],[-69.7371,8.2394,100.6058],[-69.7863,8.272,106.1051],[-69.7965,8.2751,108.098],[-69.8052,8.2742,108.4009],[-69.8174,8.277,106.8955],[-69.835,8.3011,110.617],[-69.8501,8.3165,111.7968],[-69.8832,8.3282,114.6777],[-69.8999,8.3421,116.4383],[-69.9531,8.4042,123.7261],[-69.962,8.4193,124.853],[-69.9664,8.4368,126.272],[-69.9672,8.448,125.4508],[-69.9659,8.4753,126.3327],[-69.9754,8.4893,131.2006],[-70.0004,8.5005,134.2066],[-70.017,8.5119,137.0361],[-70.0274,8.5221,137.3869],[-70.051,8.5536,141.2826],[-70.0733,8.5714,144.432],[-70.0827,8.5837,148.2213],[-70.088,8.5944,149.7829],[-70.0957,8.6025,154.0268],[-70.1067,8.6078,155.5254],[-70.1179,8.6256,163.3257],[-70.1317,8.6419,164.1207],[-70.1769,8.6807,179.6543],[-70.2098,8.6948,208.4431],[-70.2219,8.7031,233.2128],[-70.2575,8.7361,282.0282],[-70.3001,8.7842,455.4921],[-70.3166,8.7951,470.3255],[-70.3332,8.8001,463.9554],[-70.3587,8.78,324.6434],[-70.3699,8.7755,394.54],[-70.3944,8.7743,356.914],[-70.4117,8.7819,410.2048],[-70.4182,8.7819,386.0084],[-70.4273,8.7785,568.354],[-70.4321,8.7746,601.3051],[-70.438,8.7646,695.2582],[-70.4418,8.7489,580.3646],[-70.4495,8.7402,601.1154],[-70.459,8.7325,487.444],[-70.4631,8.7242,657.087],[-70.4627,8.7166,548.1013],[-70.4605,8.71,408.1331],[-70.4575,8.7064,433.8933],[-70.4452,8.7011,320.5724],[-70.4428,8.6968,313.0322],[-70.4423,8.6836,310.842],[-70.4445,8.6696,302.6749],[-70.4438,8.6051,433.4073],[-70.4383,8.5835,323.4233],[-70.433,8.5476,322.697],[-70.423,8.5242,199.6907],[-70.4068,8.5143,173.9455],[-70.3979,8.5065,164.0945],[-70.378,8.4819,160.2331],[-70.362,8.4713,160.35],[-70.351,8.4682,156.4332],[-70.34,8.4606,156.4696],[-70.3213,8.4393,153.3922],[-70.3101,8.4349,149.6435],[-70.2997,8.4419,149.8153],[-70.2912,8.4532,150.7389],[-70.284,8.4522,151.3555],[-70.2611,8.4336,145.3295],[-70.2361,8.4159,142.8924],[-70.2091,8.3862,137.3335],[-70.1978,8.3818,136.2701],[-70.1893,8.3808,135.5909],[-70.1868,8.3787,136.099],[-70.1829,8.3675,135.0833],[-70.1544,8.2482,125.1122],[-70.1446,8.1773,119.3702],[-70.1395,8.1594,117.9527],[-70.1173,8.1379,114.9543],[-70.1041,8.1278,113.7527],[-70.0806,8.1139,112.5174],[-70.0389,8.0998,111.1484],[-70.021,8.0889,109.1436],[-70.0033,8.084,107.2335],[-69.9949,8.0786,106.5314],[-69.976,8.0504,104.8677],[-69.9608,8.0309,103.1518],[-69.9341,7.9988,104.5831],[-69.9226,7.9891,102.0139],[-69.9052,7.9813,99.1741],[-69.8854,7.9784,99.4238],[-69.867,7.9796,97.231],[-69.8471,7.9857,95.6721],[-69.822,7.9853,96.0382],[-69.7974,7.9803,93.2111],[-69.6711,7.9737,87.4567],[-69.6499,7.9689,88.4704],[-69.6323,7.9618,86.7719],[-69.6171,7.9493,85.2849],[-69.6007,7.9548,86.0848],[-69.5923,7.9611,87.1416],[-69.5887,7.9668,85.4945],[-69.5755,8.0098,85.9679],[-69.5658,8.0243,92.1599],[-69.5487,8.0351,89.6543],[-69.5291,8.04,83.7306],[-69.512,8.0407,82.7306],[-69.4908,8.0497,82.1318],[-69.4768,8.0695,82.721]]]]}
,"properties": {"GID_2": "VEN.5.5_1","GID_0": "VEN","country": "Venezuela","GID_1": "VEN.5_1","province": "Barinas","NL_NAME_1": "NA","county": "Barinas","VARNAME_2": "NA","NL_NAME_2": "NA","TYPE_2": "Municipio","ENGTYPE_2": "Municipality","CC_2": "NA","HASC_2": "NA","name": "Barinas.county","area_km2": 3589.622,"hist_schema_id": "Elevation0-9000","hist_area_km2": {"75": 84.059,"100": 1325.113,"125": 911.931,"150": 430.169,"175": 241.799,"200": 99.85,"225": 51.378,"250": 41.944,"275": 49.593,"300": 54.727,"325": 61.768,"350": 57.869,"375": 53.005,"400": 38.249,"425": 26.994,"450": 17.646,"475": 13.056,"500": 8.467,"525": 7.398,"550": 4.946,"575": 4.275,"600": 2.033,"625": 1.362,"650": 0.754,"675": 0.377,"700": 0.356,"725": 0.231,"750": 0.231}}}