{"type":"Feature","properties":{"GID_2":"VEN.19.9_1","GID_0":"VEN","country":"Venezuela","GID_1":"VEN.19_1","province":"Portuguesa","NL_NAME_1":"NA","county":"Papelón","VARNAME_2":"NA","NL_NAME_2":"NA","TYPE_2":"Municipio","ENGTYPE_2":"Municipality","CC_2":"NA","HASC_2":"NA","name":"Papelón.county"},
"geometry":{"type": "MultiPolygon","coordinates": [[[[-69.5576,8.7501,111.9115],[-69.5477,8.7508,108.218],[-69.5331,8.747,109.067],[-69.5189,8.7406,104.7895],[-69.494,8.7339,104.4854],[-69.4628,8.7301,101.8868],[-69.4483,8.723,100.6217],[-69.4369,8.7239,99.0707],[-69.4086,8.7314,99.812],[-69.3933,8.7321,96.6096],[-69.3807,8.7299,101.9979],[-69.3712,8.7312,97.1892],[-69.3619,8.7355,99.0762],[-69.2911,8.7303,94.953],[-69.2585,8.7323,91.4513],[-69.2351,8.7309,90.3107],[-69.191,8.7226,90.3191],[-69.1804,8.718,89.5667],[-69.1507,8.7111,87.8488],[-69.137,8.7046,86.9693],[-69.1253,8.6963,86.5422],[-69.0998,8.6738,85.5452],[-69.0777,8.6792,84.1456],[-69.0532,8.6884,82.3601],[-69.0162,8.7046,86.9841],[-68.9966,8.7149,89.5151],[-69.0531,8.8151,87.7133],[-69.0391,8.8199,85.7058],[-69.0292,8.8211,84.1111],[-69.0093,8.8166,83.8107],[-68.9597,8.798,85.6134],[-68.9475,8.7964,78.4041],[-68.9283,8.7904,79.986],[-68.9065,8.7779,82.3669],[-68.8952,8.7755,81.4052],[-68.867,8.7754,77.8331],[-68.8399,8.7811,75.4798],[-68.8071,8.7838,74.2869],[-68.7834,8.7776,77.012],[-68.7733,8.7789,74.1833],[-68.7437,8.8006,75.0734],[-68.7273,8.8085,68.7529],[-68.7134,8.8142,68.5603],[-68.7009,8.8169,67.8428],[-68.6544,8.8155,67.1247],[-68.6391,8.8105,67.0061],[-68.6376,8.8086,73.5204],[-68.6376,8.8013,72.5372],[-68.5289,8.8174,64.1876],[-68.5199,8.8246,64.0677],[-68.5163,8.8378,64.0002],[-68.5164,8.8457,65.1064],[-68.5194,8.8499,68.5191],[-68.5274,8.8486,73.4682],[-68.5711,8.8483,65.997],[-68.5822,8.8515,65.994],[-68.5885,8.8536,66.0353],[-68.6282,8.8751,67.0053],[-68.6622,8.8864,68.0213],[-68.6754,8.8955,68.388],[-68.7024,8.909,69.7424],[-68.7112,8.9094,69.8658],[-68.7268,8.8966,70.2543],[-68.7412,8.8934,71.5554],[-68.7708,8.8956,72.0752],[-68.7822,8.8898,73.2158],[-68.8016,8.8872,72.5173],[-68.811,8.8799,76.0506],[-68.8236,8.864,79.3738],[-68.8352,8.8555,76.1257],[-68.8488,8.8515,83.5018],[-68.8784,8.8555,79.0468],[-68.8817,8.8582,79.2407],[-68.8905,8.8723,79.7935],[-68.9319,8.9121,78.0024],[-68.9461,8.919,79.3501],[-68.9991,8.9407,83.2179],[-69.0113,8.9427,83.0643],[-69.0379,8.9376,87.4518],[-69.0576,8.9378,92.6418],[-69.0998,8.9506,93.1297],[-69.1442,8.9486,96.0251],[-69.1774,8.9524,97.566],[-69.1872,8.9551,94.4527],[-69.1944,8.9615,96.6785],[-69.2079,8.9779,97.2233],[-69.2158,8.9826,95.3812],[-69.235,8.99,96.1789],[-69.254,9.0044,99.1699],[-69.2803,9.0149,102.3887],[-69.2977,9.0201,101.0332],[-69.3066,9.0203,108.0745],[-69.3187,9.0164,101.6915],[-69.3267,9.0166,100.8483],[-69.3319,9.019,102.0248],[-69.3482,9.0322,105.3093],[-69.361,9.0377,105.7582],[-69.3937,9.0449,105.1512],[-69.397,9.0483,105.1839],[-69.4119,9.0849,114.921],[-69.4287,9.0704,109.2684],[-69.438,9.0673,112.0489],[-69.4799,9.0758,113.3903],[-69.4914,9.0716,113.7862],[-69.4917,9.0575,109.2335],[-69.4937,9.0501,112.7214],[-69.5021,9.046,112.4067],[-69.5191,9.0417,118.6883],[-69.522,9.0367,119.6278],[-69.5172,9.029,113.0659],[-69.5144,9.0202,111.9023],[-69.5188,9.0153,112.5677],[-69.528,9.0157,116.1607],[-69.5477,9.0233,115.5932],[-69.5547,9.0236,115.9018],[-69.5625,9.0195,115.8898],[-69.5635,9.0165,115.871],[-69.5624,9.0096,115.2467],[-69.5555,9.002,114.8597],[-69.5462,8.995,115.8977],[-69.5439,8.9901,114.2314],[-69.5495,8.9867,112.2029],[-69.5592,8.9875,115.0486],[-69.5708,8.9908,121.0849],[-69.579,8.9948,121.157],[-69.5952,9.0081,118.8073],[-69.6004,9.0087,121.055],[-69.6002,9.0033,119.0173],[-69.5961,8.9968,117.5658],[-69.5974,8.9914,117.2048],[-69.6049,8.9845,125.5902],[-69.6343,8.979,124.2933],[-69.6682,8.9661,126.9485],[-69.7155,8.9691,136.3733],[-69.7088,8.9636,132.7763],[-69.7023,8.9522,135.4727],[-69.7035,8.9387,134.6022],[-69.7018,8.9293,128.9156],[-69.6947,8.9227,127.4019],[-69.6771,8.9171,126.4175],[-69.6687,8.9111,127.2682],[-69.6667,8.9043,122.8406],[-69.6634,8.9009,121.2065],[-69.6489,8.8936,120.3852],[-69.643,8.8879,120.002],[-69.6398,8.8791,120.0632],[-69.639,8.87,129.8937],[-69.6426,8.8617,119.5539],[-69.6424,8.8539,120.6618],[-69.6365,8.8313,118.8974],[-69.6381,8.8272,118.5563],[-69.648,8.8165,119.3592],[-69.6472,8.8116,120.5059],[-69.6415,8.8074,122.9163],[-69.6129,8.8022,115.3966],[-69.5954,8.7944,113.2421],[-69.5876,8.7892,113.0947],[-69.5819,8.7814,111.5067],[-69.5847,8.7624,120.5637],[-69.561,8.7569,109.5643],[-69.5576,8.7501,111.9115]]]]}}