{"type": "Feature","bbox": [-72.4839,11.0005,-70.8985,12.359],"geometry": {"type": "MultiPolygon","coordinates": [[[[-71.8035,11.1243,0.7552],[-71.8038,11.1243,0.7552],[-71.8035,11.1242,0.7552],[-71.8035,11.1243,0.7552]]],
[[[-72.4839,11.099,846.1235],[-72.4331,11.1012,440.2747],[-72.3669,11.1119,365.5314],[-72.3617,11.1117,351.8676],[-72.3555,11.0984,279.47],[-72.3522,11.0954,266.7372],[-72.3463,11.0941,184.2121],[-72.3416,11.0979,128.0641],[-72.3417,11.1128,332.6859],[-72.3399,11.1152,264.1618],[-72.332,11.1164,132.701],[-72.324,11.1153,198.5313],[-72.2994,11.1076,448.6322],[-72.2902,11.102,372.7041],[-72.2736,11.0992,235.3503],[-72.2523,11.0893,81.9155],[-72.2372,11.0888,89.7237],[-72.2191,11.0827,56.5607],[-72.212,11.085,36.1595],[-72.2078,11.0887,51.3325],[-72.2002,11.1042,61.3308],[-72.1907,11.107,46.0991],[-72.1821,11.1054,42.2627],[-72.1614,11.0942,17.4666],[-72.1533,11.0919,19.9703],[-72.143,11.0914,14.3441],[-72.1066,11.1009,16.828],[-72.0928,11.106,14.7126],[-72.0719,11.117,22.414],[-72.0631,11.1188,37.2379],[-72.0537,11.1182,37.9302],[-72.0464,11.1149,6.8261],[-72.042,11.1098,8.6677],[-72.0037,11.0865,1.7687],[-71.9954,11.086,1.7333],[-71.9892,11.0885,2.7253],[-71.9868,11.0913,4.1099],[-71.973,11.1176,3.0923],[-71.9695,11.1209,2.6047],[-71.964,11.1213,3.14],[-71.9469,11.1159,0.0095],[-71.9239,11.1034,1.5903],[-71.9059,11.1008,2.4448],[-71.8982,11.0975,1.1186],[-71.8566,11.0699,17.6316],[-71.8505,11.0625,17.05],[-71.8475,11.0511,4.8967],[-71.8483,11.0378,18.1926],[-71.8463,11.0341,17.0177],[-71.8405,11.0308,8.333],[-71.825,11.0284,16.8518],[-71.8142,11.0246,1.6199],[-71.7988,11.0142,5.9577],[-71.7922,11.0117,12.6298],[-71.7804,11.0005,0.0],[-71.7768,11.0026,2.2334],[-71.7721,11.0013,0.0],[-71.769,11.0029,2.3399],[-71.7646,11.0114,4.4362],[-71.7675,11.0135,9.2943],[-71.7701,11.0246,15.3701],[-71.7787,11.0264,7.5293],[-71.7884,11.0544,1.7729],[-71.7873,11.0668,0.4857],[-71.773,11.0785,-0.5],[-71.7711,11.0848,4.2398],[-71.7725,11.0883,3.1509],[-71.7862,11.0959,1.7555],[-71.8052,11.1034,3.5598],[-71.8101,11.1103,3.5803],[-71.8134,11.1186,3.581],[-71.8065,11.1252,4.1261],[-71.8037,11.1246,0.7552],[-71.8132,11.1357,0.0],[-71.8138,11.1349,1.309],[-71.8129,11.1315,1.591],[-71.8143,11.1315,1.9503],[-71.8187,11.136,2.6347],[-71.8179,11.1376,1.79],[-71.8154,11.136,1.3164],[-71.8146,11.1374,0.0],[-71.834,11.159,3.5872],[-71.8562,11.1893,1.22],[-71.8962,11.2526,2.0498],[-71.9118,11.2837,1.5376],[-71.9332,11.3343,0.869],[-71.9365,11.3471,0.0],[-71.9493,11.3807,0.6778],[-71.949,11.3838,0.6012],[-71.9604,11.4254,0.3922],[-71.9643,11.4482,0.0],[-71.9687,11.5026,1.9884],[-71.969,11.521,1.7378],[-71.9654,11.5574,2.0909],[-71.9618,11.5732,0.2105],[-71.9574,11.5846,2.4712],[-71.9474,11.5979,0.0],[-71.9415,11.6013,0.0],[-71.9246,11.6018,0.0],[-71.9085,11.6051,0.0],[-71.9026,11.6088,3.702],[-71.8985,11.6088,2.439],[-71.8949,11.6107,3.0983],[-71.8932,11.614,3.574],[-71.8876,11.6176,3.8849],[-71.874,11.624,3.6874],[-71.864,11.6246,1.7066],[-71.8538,11.6293,8.068],[-71.8476,11.6299,0.8245],[-71.8451,11.6329,1.218],[-71.8421,11.6321,1.3849],[-71.839,11.6371,7.9342],[-71.8238,11.6399,0.9812],[-71.8187,11.6382,0.0],[-71.8171,11.6421,7.0728],[-71.8096,11.646,4.0363],[-71.7893,11.6468,0.0],[-71.7651,11.6554,0.0],[-71.7613,11.659,3.8991],[-71.7246,11.6601,0.0],[-71.7029,11.6657,0.0],[-71.7026,11.6676,3.554],[-71.6951,11.6701,1.1855],[-71.6885,11.6704,0.0],[-71.6826,11.6751,4.5595],[-71.6762,11.676,0.0],[-71.6707,11.6793,1.9495],[-71.6604,11.6824,3.343],[-71.6443,11.6826,0.6782],[-71.6376,11.6871,6.1012],[-71.6299,11.6879,0.0],[-71.6293,11.6893,0.5108],[-71.6335,11.6888,4.4295],[-71.629,11.6915,2.1117],[-71.6274,11.691,2.1117],[-71.6279,11.6888,0.6115],[-71.6226,11.6896,1.5367],[-71.6135,11.6882,0.0],[-71.6068,11.6915,0.7791],[-71.601,11.6899,0.0],[-71.5946,11.6929,0.4411],[-71.5862,11.6943,0.7479],[-71.5757,11.6932,0.0],[-71.5704,11.6957,0.4649],[-71.554,11.6976,1.1416],[-71.5474,11.7013,0.6518],[-71.5426,11.7004,0.0],[-71.5312,11.7051,0.1564],[-71.5276,11.7043,0.0],[-71.5126,11.7068,0.6658],[-71.5082,11.7054,0.0],[-71.501,11.7088,0.6167],[-71.4982,11.7082,0.0],[-71.4985,11.7099,0.5938],[-71.4885,11.7096,0.0],[-71.4874,11.7143,1.3392],[-71.4779,11.7151,0.717],[-71.4846,11.7129,0.3419],[-71.4818,11.7118,0.0],[-71.4746,11.7151,0.0],[-71.4687,11.7143,0.0763],[-71.4699,11.7163,-0.1939],[-71.4624,11.7165,0.4331],[-71.4665,11.7154,0.1489],[-71.4626,11.7143,0.1191],[-71.4479,11.7207,0.9145],[-71.4393,11.7187,0.0],[-71.4382,11.7224,2.1592],[-71.441,11.7235,4.9399],[-71.439,11.7243,3.7861],[-71.4407,11.7265,6.9048],[-71.4343,11.7276,1.4164],[-71.4337,11.7332,5.2248],[-71.4315,11.7357,6.2018],[-71.4346,11.736,7.333],[-71.4285,11.7399,0.0],[-71.4279,11.7432,0.758],[-71.4151,11.7457,2.4372],[-71.4112,11.7424,1.1168],[-71.4079,11.7432,2.112],[-71.4079,11.741,0.0],[-71.3999,11.7499,0.241],[-71.3968,11.7482,0.0],[-71.3896,11.7501,0.3999],[-71.3871,11.7518,3.2916],[-71.3876,11.7565,7.5951],[-71.384,11.7582,0.4061],[-71.3851,11.761,6.8888],[-71.379,11.7651,2.9904],[-71.3821,11.7665,8.9307],[-71.3771,11.7729,0.7749],[-71.3782,11.7749,6.4082],[-71.366,11.7801,0.0],[-71.3568,11.781,0.0],[-71.3382,11.794,0.0],[-71.3407,11.799,0.0],[-71.3426,11.8096,0.0],[-71.3385,11.834,0.0],[-71.341,11.8343,0.4003],[-71.3429,11.8318,0.4042],[-71.3474,11.8118,0.6237],[-71.3515,11.8054,-0.1026],[-71.3493,11.7999,0.1023],[-71.3457,11.8001,0.5382],[-71.3449,11.7937,3.1703],[-71.3482,11.794,1.0315],[-71.3482,11.7954,1.0315],[-71.3463,11.7954,0.6485],[-71.349,11.7979,0.2623],[-71.3557,11.7968,11.375],[-71.3604,11.8001,4.9882],[-71.3662,11.801,0.8073],[-71.3665,11.8046,0.8461],[-71.3701,11.8063,0.4702],[-71.3718,11.804,3.6407],[-71.3743,11.8076,2.484],[-71.3793,11.8074,1.2978],[-71.3779,11.8124,0.0],[-71.3863,11.8141,17.169],[-71.4957,11.7784,24.67],[-71.4997,11.7787,26.3617],[-71.6107,11.7473,26.1837],[-71.7292,11.7076,22.0018],[-71.7775,11.6945,44.1045],[-71.9661,11.6501,21.3933],[-71.9695,11.6441,20.5899],[-71.9718,11.6435,19.8275],[-72.1259,11.3629,34.9407],[-72.1324,11.3621,34.9936],[-72.1328,11.3602,31.3482],[-72.1281,11.3588,30.4879],[-72.249,11.1397,576.0551],[-72.2541,11.1404,611.8831],[-72.2595,11.1381,702.3926],[-72.2731,11.138,716.4268],[-72.2869,11.1429,723.062],[-72.2997,11.1445,760.5271],[-72.3146,11.1437,704.8029],[-72.3216,11.1465,573.3149],[-72.3315,11.1439,505.9096],[-72.3343,11.145,503.9756],[-72.3335,11.1476,499.1514],[-72.3438,11.151,507.7424],[-72.3491,11.1509,522.4678],[-72.3578,11.1456,621.8136],[-72.3604,11.1414,618.8337],[-72.3655,11.139099999999999,549.715],[-72.3739,11.1358,567.355],[-72.3875,11.1335,562.7269],[-72.4076,11.1261,566.6266],[-72.4236,11.1249,573.5693],[-72.4252,11.1214,488.6476],[-72.4295,11.1216,562.259],[-72.4375,11.1151,527.7714],[-72.439,11.1158,563.4004],[-72.442,11.1224,735.7919],[-72.4419,11.1268,812.8377],[-72.4432,11.1272,821.4631],[-72.4563,11.1194,760.5317],[-72.4579,11.1143,802.3133],[-72.4639,11.1132,833.4167],[-72.4777,11.1019,824.0302],[-72.4839,11.099,846.1235]]],
[[[-71.3526,11.8288,0.9014],[-71.3546,11.8293,1.332],[-71.3554,11.8268,0.5303],[-71.3524,11.8282,0.412],[-71.3526,11.8288,0.9014]]],
[[[-71.3784,11.8375,10.4009],[-71.3834,11.8335,2.001],[-71.3849,11.8296,0.0],[-71.381,11.8301,0.0],[-71.381,11.8338,3.4097],[-71.3763,11.8324,0.853],[-71.371,11.8332,1.0057],[-71.3654,11.8424,0.8326],[-71.366,11.8424,1.2914],[-71.3784,11.8375,10.4009]]],
[[[-71.3527,11.8474,5.996],[-71.3604,11.8446,0.6923],[-71.3596,11.8418,1.1112],[-71.3487,11.8432,1.435],[-71.349,11.8478,0.5149],[-71.3527,11.8474,5.996]]],
[[[-71.3379,11.8401,0.6084],[-71.3382,11.8396,0.6084],[-71.3415,11.8379,0.6409],[-71.3432,11.8379,0.7079],[-71.3432,11.8365,0.5427],[-71.3335,11.8418,0.5775],[-71.3379,11.8401,0.6084]]],
[[[-71.3443,11.8504,1.109],[-71.3454,11.8462,0.8218],[-71.3479,11.8443,0.6755],[-71.3476,11.8421,1.435],[-71.3579,11.8379,1.0497],[-71.3626,11.8415,0.6095],[-71.3654,11.8401,1.2778],[-71.3649,11.8385,3.1437],[-71.3671,11.8376,0.825],[-71.3693,11.8326,1.8135],[-71.3796,11.8321,1.0865],[-71.3749,11.8307,0.5434],[-71.3693,11.8315,3.8357],[-71.3701,11.8279,0.0],[-71.3674,11.8282,0.4377],[-71.3607,11.8251,0.0],[-71.3615,11.8285,0.9302],[-71.3651,11.8296,1.5348],[-71.3654,11.8315,0.0],[-71.3587,11.8329,1.7714],[-71.3604,11.8304,0.0],[-71.3587,11.8271,1.8424],[-71.356,11.8262,0.5303],[-71.3551,11.8296,1.332],[-71.3512,11.8296,0.4217],[-71.354,11.836,0.8925],[-71.3574,11.834,0.3601],[-71.3621,11.834,4.3906],[-71.3635,11.8354,4.3906],[-71.3635,11.8399,0.0],[-71.3613,11.8396,0.5112],[-71.3599,11.8346,0.5896],[-71.354,11.8374,1.2937],[-71.3521,11.8368,0.0],[-71.3524,11.8335,0.8001],[-71.3504,11.8304,0.4217],[-71.3451,11.8363,2.3268],[-71.3521,11.8374,1.5971],[-71.3482,11.8376,0.2588],[-71.3449,11.8368,0.5427],[-71.3424,11.8396,0.0],[-71.3388,11.8396,0.6084],[-71.3393,11.8429,1.4258],[-71.3415,11.8429,1.2889],[-71.3424,11.841,1.4972],[-71.3463,11.841,2.89],[-71.3421,11.849,0.9469],[-71.3335,11.8501,0.536],[-71.3326,11.8465,1.0898],[-71.3301,11.8476,2.5136],[-71.3253,11.8468,0.6084],[-71.331,11.8515,-0.2594],[-71.3365,11.8535,0.5157],[-71.3443,11.8504,1.109]]],
[[[-71.3314,11.8432,0.0],[-71.3299,11.8443,1.763],[-71.3304,11.8465,0.7202],[-71.3346,11.8446,2.6182],[-71.3335,11.8435,0.0],[-71.3314,11.8432,0.0]]],
[[[-70.9021,12.3585,29.9443],[-70.9043,12.359,20.8598],[-70.9024,12.3565,0.0],[-70.8985,12.3568,0.0],[-70.899,12.3582,12.1867],[-70.9021,12.3585,29.9443]]]]}
,"properties": {"GID_2": "VEN.25.7_1","GID_0": "VEN","country": "Venezuela","GID_1": "VEN.25_1","province": "Zulia","NL_NAME_1": "NA","county": "Guajira","VARNAME_2": "NA","NL_NAME_2": "NA","TYPE_2": "Municipio","ENGTYPE_2": "Municipality","CC_2": "NA","HASC_2": "NA","name": "Guajira.county","area_km2": 1879.826,"hist_schema_id": "Elevation0-9000","hist_area_km2": {"0": 1014.67,"25": 541.757,"50": 144.227,"75": 49.816,"100": 16.08,"125": 8.55,"150": 5.908,"175": 5.388,"200": 4.66,"225": 4.847,"250": 4.535,"275": 4.577,"300": 4.764,"325": 4.951,"350": 5.076,"375": 5.575,"400": 6.262,"425": 6.283,"450": 5.534,"475": 6.387,"500": 6.304,"525": 6.096,"550": 4.702,"575": 2.767,"600": 1.852,"625": 1.29,"650": 1.082,"675": 0.999,"700": 1.165,"725": 1.144,"750": 0.957,"775": 0.541,"800": 0.374,"825": 0.52,"850": 0.125,"875": 0.062}}}