{"type":"Feature","properties":{"GID_2":"VEN.14.1_1","GID_0":"VEN","country":"Venezuela","GID_1":"VEN.14_1","province":"Lara","NL_NAME_1":"NA","county":"AndrésEloyBlanco","VARNAME_2":"NA","NL_NAME_2":"NA","TYPE_2":"Municipio","ENGTYPE_2":"Municipality","CC_2":"NA","HASC_2":"NA","name":"Andrés_Eloy_Blanco.county"},
"geometry":{"type": "MultiPolygon","coordinates": [[[[-69.4381,9.803,1303.0325],[-69.4556,9.7912,1669.4089],[-69.4814,9.777,2097.3586],[-69.5117,9.7667,1938.6201],[-69.5173,9.7628,1914.8804],[-69.5155,9.7571,1944.2473],[-69.5598,9.7454,1722.1772],[-69.5699,9.7461,1678.9073],[-69.5868,9.755,1786.9833],[-69.5945,9.7762,1682.861],[-69.6042,9.7898,1317.1853],[-69.6048,9.8022,1140.3353],[-69.5978,9.8255,1152.0624],[-69.6009,9.8341,948.2674],[-69.6075,9.8416,898.9575],[-69.6217,9.8337,901.275],[-69.6383,9.8305,852.5228],[-69.6518,9.8301,870.1145],[-69.7019,9.8383,837.1587],[-69.713,9.8416,790.2516],[-69.7202,9.8169,812.3466],[-69.728,9.8013,861.9878],[-69.7467,9.7722,1048.1892],[-69.7479,9.7637,972.6859],[-69.7461,9.7513,834.5719],[-69.738,9.7363,1078.1621],[-69.7156,9.7055,1221.8389],[-69.6972,9.6842,1787.2531],[-69.6923,9.6746,2118.1826],[-69.691,9.6648,2058.1472],[-69.6926,9.6419,1907.713],[-69.6906,9.6362,1824.3998],[-69.6825,9.6309,1805.3154],[-69.6695,9.6257,1492.8431],[-69.6362,9.6235,1375.616],[-69.6082,9.6177,1161.3505],[-69.5923,9.6125,1124.1897],[-69.5803,9.6201,956.8499],[-69.5622,9.6232,1226.1732],[-69.4384,9.6246,1409.4783],[-69.4211,9.6274,1259.0959],[-69.4013,9.633,925.4827],[-69.3834,9.6491,467.4831],[-69.3718,9.655,387.0055],[-69.3597,9.6589,622.358],[-69.3463,9.6666,672.9262],[-69.3346,9.6916,924.95],[-69.3306,9.7056,878.5198],[-69.329,9.7432,782.1808],[-69.3271,9.7481,982.0732],[-69.3627,9.7712,838.7285],[-69.3748,9.7942,1110.4165],[-69.3793,9.7974,1038.9426],[-69.394,9.7998,775.8953],[-69.4381,9.803,1303.0325]]]]}}