{"type":"Feature","properties":{"GID_2":"VEN.4.10_1","GID_0":"VEN","country":"Venezuela","GID_1":"VEN.4_1","province":"Aragua","NL_NAME_1":"NA","county":"OcumaredelaCostadeOro","VARNAME_2":"NA","NL_NAME_2":"NA","TYPE_2":"Municipio","ENGTYPE_2":"Municipality","CC_2":"NA","HASC_2":"NA","name":"Ocumaredela_Costade_Oro.county"},
"geometry":{"type": "MultiPolygon","coordinates": [[[[-67.5947,10.5074,4.8323],[-67.5982,10.5079,8.4446],[-67.5985,10.5118,45.4924],[-67.604,10.5124,0.0],[-67.6099,10.5093,0.0],[-67.6118,10.5065,16.8581],[-67.616,10.5057,17.7738],[-67.6176,10.5024,0.0],[-67.6351,10.5026,0.0],[-67.6379,10.501,0.0],[-67.646,10.5026,0.0],[-67.6574,10.5001,27.8885],[-67.6624,10.4968,10.7023],[-67.6696,10.4999,0.0],[-67.6846,10.4996,4.7068],[-67.6851,10.4971,10.1819],[-67.6893,10.4968,3.483],[-67.6946,10.4999,0.0],[-67.6954,10.5021,0.0],[-67.711,10.504,0.0],[-67.7115,10.5018,26.6353],[-67.7165,10.4985,69.0503],[-67.7299,10.4982,29.9883],[-67.7351,10.501,0.0],[-67.7326,10.4979,0.0],[-67.7365,10.4929,1.7168],[-67.7443,10.4946,2.004],[-67.7435,10.4996,0.0],[-67.7518,10.4996,11.4712],[-67.7549,10.4968,48.6399],[-67.7632,10.4954,0.0],[-67.7624,10.4935,21.386],[-67.7637,10.4896,3.1644],[-67.7679,10.4879,1.714],[-67.7771,10.4893,1.5602],[-67.7796,10.4913,0.0],[-67.7871,10.4907,0.0],[-67.7871,10.4879,11.3327],[-67.7885,10.4874,0.0],[-67.7946,10.4899,0.0],[-67.8021,10.4893,0.0],[-67.8046,10.4862,0.0],[-67.8032,10.4835,5.8848],[-67.8057,10.4818,7.8154],[-67.8074,10.4776,0.7367],[-67.804,10.4712,0.0],[-67.8076,10.4707,0.0],[-67.8104,10.4671,0.0],[-67.8132,10.4685,2.5081],[-67.8138,10.4751,0.0],[-67.8126,10.4754,0.0],[-67.8121,10.4726,0.0],[-67.8101,10.4732,0.917],[-67.8093,10.4801,0.727],[-67.8115,10.4796,0.6403],[-67.8118,10.4818,0.6334],[-67.8165,10.4829,0.2381],[-67.8163,10.4854,0.0],[-67.8199,10.4835,28.7698],[-67.821,10.4857,3.8882],[-67.8235,10.486,7.5288],[-67.8229,10.4832,7.8357],[-67.8246,10.481,2.135],[-67.8307,10.4801,53.7008],[-67.8315,10.4687,265.8914],[-67.8308,10.4094,668.1802],[-67.8276,10.3931,1163.9872],[-67.8172,10.3799,810.2262],[-67.7878,10.362,967.128],[-67.7725,10.3559,1232.3115],[-67.7536,10.3598,1026.0625],[-67.7341,10.3718,480.7046],[-67.7134,10.378,458.9189],[-67.6934,10.3683,809.0125],[-67.6549,10.3616,1735.3265],[-67.6477,10.356,1218.0792],[-67.6191,10.3705,1491.4097],[-67.5991,10.3757,949.6963],[-67.5842,10.3769,912.8636],[-67.5644,10.3712,1800.1572],[-67.5649,10.3934,1468.7939],[-67.5707,10.4144,1439.8323],[-67.5778,10.4227,1202.0671],[-67.6042,10.4426,624.9286],[-67.6131,10.4595,576.673],[-67.6124,10.4677,590.566],[-67.604,10.48,171.8687],[-67.5956,10.4969,92.6091],[-67.5947,10.5074,4.8323]]]]}}