{"type": "Feature","bbox": [-67.1238478979578,9.7659380597923189,-66.935307674529966,9.88809917255196],"geometry": {"type": "Polygon","coordinates": [[[-67.108688145410525,9.8489487436434615,367.283],[-67.1019177704865,9.84217836871943,340.6094],[-67.095883305880292,9.8389403633209724,319.5242],[-67.078074276188829,9.8433558252279454,382.2575],[-67.072481357773327,9.8436501893550883,427.5467],[-67.0670356214214,9.8424727328465451,417.7285],[-67.062767341577981,9.8392347274481153,372.54],[-67.060412428560923,9.834524901414,434.1818],[-67.062031431260152,9.826282705854311,454.3277],[-67.066005346976425,9.8221616080744525,455.9521],[-67.0764552734896,9.81774614616748,371.8296],[-67.0782214582524,9.8148025048961642,337.3819],[-67.076602455553171,9.8112701353705916,325.3076],[-67.067477167612083,9.8080321299721334,378.5139],[-67.059970882370237,9.8071490375907615,359.1427],[-67.052611779191935,9.8071490375907615,341.2813],[-67.047460406967133,9.80862085822642,366.952],[-67.038923847280316,9.8133306842605066,413.0378],[-67.0350971136276,9.81362504838765,349.5457],[-67.031859108229156,9.8106814071163342,335.1907],[-67.02965137727567,9.7933139236155569,348.199],[-67.020378907271024,9.7659380597923189,332.8586],[-67.0062494291687,9.77182534233495,359.6793],[-66.989323491858627,9.775946440114808,334.5196],[-66.984908029951654,9.7783013531318375,342.3971],[-66.973722193120651,9.7880153693271836,340.1485],[-66.965479997560962,9.7933139236155569,310.8],[-66.9584152585098,9.8000842985395877,305.8013],[-66.941930867390425,9.8112701353705916,265.3726],[-66.938398497864853,9.8148025048961642,260.4425],[-66.9360435848478,9.8192179668031372,305.2714],[-66.935307674529966,9.823927792837253,342.5971],[-66.937515405483452,9.828343254744226,298.0],[-66.945316054852441,9.8292263471256263,299.5146],[-66.964155358988876,9.82127851569308,355.565],[-66.96651027200592,9.8224559722015954,298.0],[-66.966363089942362,9.8256939776000536,303.2843],[-66.960622989463289,9.8339361731597421,298.0],[-66.953558250412129,9.840706548083773,298.0],[-66.945904783106712,9.8468881947535181,319.4902],[-66.9429611418354,9.85042056427912,329.615],[-66.942225231517568,9.85542475444035,323.1475],[-66.943844234216783,9.85954585222018,298.0],[-66.9481125140602,9.861606401110123,329.4005],[-66.953852614539258,9.861606401110123,334.3531],[-66.95988707914546,9.8589571239659222,333.7111],[-66.972397554548564,9.8489487436434615,329.1748],[-66.976813016455537,9.8460051023721178,298.0],[-66.979020747409024,9.8489487436434615,298.0],[-66.98122847836251,9.8527754772961487,298.0],[-66.984466483760954,9.85542475444035,298.0],[-66.989617855985756,9.8551303903132066,309.6128],[-66.996976959164058,9.849243107770576,300.6327],[-67.0010980569439,9.847182558880661,298.0],[-67.005955065041576,9.8468881947535181,298.0],[-67.00963461663072,9.849243107770576,298.0],[-67.021114817588852,9.8586627598388077,298.0],[-67.025530279495825,9.8607233087287227,321.2377],[-67.0303872875935,9.861606401110123,305.2872],[-67.034655567436914,9.8601345804744653,318.4138],[-67.04716604284,9.8524811131690342,400.7947],[-67.052611779191935,9.8518923849147768,358.9923],[-67.070126444756269,9.8542472979318063,366.1908],[-67.087493928257047,9.8542472979318063,349.7184],[-67.091615026036891,9.85630784682175,448.3323],[-67.093381210799677,9.86042894460158,489.8711],[-67.093086846672549,9.86543313476281,518.6699],[-67.090879115719062,9.8695542325426686,482.3238],[-67.086905200002775,9.8727922379411268,539.4707],[-67.076160909362471,9.8754415150853,548.5947],[-67.0717454474555,9.8777964281023571,418.4203],[-67.06939053443844,9.88132879762793,344.4067],[-67.069979262692712,9.8854498954077883,321.3177],[-67.0726285398369,9.88809917255196,319.2121],[-67.077191183807429,9.88809917255196,330.9745],[-67.082636920159374,9.8860386236620457,314.688],[-67.087346746193475,9.8860386236620457,315.3991],[-67.091615026036891,9.8869217160434459,311.6178],[-67.095883305880292,9.88721608017056,316.3582],[-67.099268493342308,9.8869217160434459,313.2617],[-67.101770588422923,9.8851555312806454,345.0041],[-67.105155775884938,9.8819175258821872,330.5078],[-67.107805053029125,9.8751471509581563,320.9208],[-67.110601512236883,9.8704373249240689,327.4279],[-67.114133881762456,9.86719931952561,327.097],[-67.12370071589423,9.8648444065085528,323.1656],[-67.1238478979578,9.8610176728558372,325.8155],[-67.1195796181144,9.8560134826946069,316.8187],[-67.108688145410525,9.8489487436434615,367.283]]]}
,"properties": {"featurecla": "Reservoir","scalerank": 8,"name": "Camatague","name_abb": "Camatague","name_alt": null,"note": null,"delta": null,"dam_name": "Embalse de Guarico","year": 1967,"admin": null,"min_zoom": 6.0,"min_label": 7.0,"area_km2": 110.57653,"hist_schema_id": "Elevation0-9000","hist_area_km2": {"250": 0.18803,"275": 0.2716,"300": 71.2814,"325": 17.71528,"350": 9.44258,"375": 4.55412,"400": 3.07088,"425": 1.98457,"450": 1.29519,"475": 0.43868,"500": 0.10444,"525": 0.12533,"550": 0.08355,"600": 0.02089}}}