{"type":"Feature","properties":{"GID_2":"VEN.2.12_1","GID_0":"VEN","country":"Venezuela","GID_1":"VEN.2_1","province":"Anzoátegui","NL_NAME_1":"NA","county":"Independencia","VARNAME_2":"NA","NL_NAME_2":"NA","TYPE_2":"Municipio","ENGTYPE_2":"Municipality","CC_2":"NA","HASC_2":"NA","name":"Independencia.county"},
"geometry":{"type": "MultiPolygon","coordinates": [[[[-63.5413,8.7867,145.3799],[-63.6057,8.7393,168.3423],[-63.6541,8.7162,150.6284],[-63.6866,8.7026,133.0169],[-63.7132,8.6948,142.4465],[-63.7236,8.693,146.8981],[-63.7476,8.6924,139.4707],[-63.7607,8.6883,162.5996],[-63.7791,8.6773,181.1662],[-63.7944,8.6711,183.4106],[-63.8097,8.6673,182.6782],[-63.8229,8.6572,185.877],[-63.8467,8.6212,176.8382],[-63.8577,8.6098,161.569],[-63.8683,8.6018,132.3579],[-63.952,8.5645,92.4361],[-63.9509,8.5553,93.8257],[-63.9535,8.5152,175.8446],[-63.9573,8.4825,177.3172],[-63.9603,8.4716,174.1779],[-63.9599,8.4586,175.3723],[-63.9649,8.4265,167.272],[-63.9647,8.3925,156.6599],[-63.9599,8.3817,159.4434],[-63.9425,8.3638,154.6538],[-63.9367,8.3503,122.6469],[-63.9333,8.3348,97.2687],[-63.93,8.3281,127.4004],[-63.9022,8.3042,131.2371],[-63.8849,8.2769,120.4815],[-63.8723,8.2461,53.4551],[-63.8616,8.231,81.7144],[-63.831,8.1985,25.9627],[-63.8212,8.1698,17.039],[-63.8169,8.1615,17.1272],[-63.8023,8.1439,13.0],[-63.7892,8.1248,13.0],[-63.7707,8.0826,62.4475],[-63.7465,8.0861,64.4799],[-63.7158,8.1028,27.6114],[-63.7068,8.1066,19.8555],[-63.693,8.1093,15.708],[-63.6763,8.1104,13.0],[-63.6636,8.1092,16.8226],[-63.6459,8.1133,18.3629],[-63.626,8.1123,35.0587],[-63.6023,8.109,83.119],[-63.5849,8.1123,57.6741],[-63.5753,8.1121,53.0568],[-63.5364,8.1074,63.4029],[-63.5245,8.1102,67.3065],[-63.5037,8.1192,36.7948],[-63.4856,8.1233,24.8834],[-63.4702,8.1238,28.7707],[-63.4524,8.1182,23.2856],[-63.4443,8.1175,40.1279],[-63.4021,8.1238,54.2814],[-63.3924,8.1271,45.307],[-63.3843,8.1321,54.6198],[-63.3705,8.1459,85.3762],[-63.3601,8.1592,32.375],[-63.3514,8.1647,42.9915],[-63.3411,8.1668,75.9342],[-63.3193,8.1607,97.8925],[-63.3079,8.1603,102.2276],[-63.2865,8.1643,96.4674],[-63.2654,8.1717,90.7463],[-63.2468,8.1866,122.2614],[-63.2226,8.2129,112.22],[-63.2071,8.224,91.7631],[-63.1944,8.2404,90.271],[-63.1861,8.2461,69.9876],[-63.1618,8.2511,96.4522],[-63.1412,8.2608,96.7487],[-63.1239,8.2629,90.9012],[-63.0939,8.2611,91.3758],[-63.0624,8.265,85.2421],[-63.0566,8.2645,94.1984],[-63.0264,8.2547,87.5972],[-63.0087,8.2535,74.2704],[-62.9854,8.2545,58.2028],[-62.9675,8.2588,22.9499],[-62.9675,8.2897,9.4244],[-62.9407,8.28,3.0],[-62.9205,8.2801,3.0],[-62.9055,8.2761,3.5552],[-62.8959,8.2698,3.0],[-62.868899999999996,8.244,95.5438],[-62.848,8.2291,118.1917],[-62.8346,8.225,113.8061],[-62.8253,8.2255,114.5433],[-62.8088,8.2329,117.5408],[-62.7909,8.2473,125.9007],[-62.7488,8.3093,85.2707],[-62.7294,8.3254,36.4784],[-62.7172,8.3286,9.2439],[-62.6926,8.3243,7.5563],[-62.6688,8.3245,27.7321],[-62.6494,8.3225,75.4402],[-62.6574,8.3345,88.241],[-62.666,8.3416,100.005],[-62.674,8.3528,41.9912],[-62.6789,8.3683,3.0],[-62.681399999999996,8.3837,3.0],[-62.6911,8.4021,9.158],[-62.699,8.4089,8.449],[-62.7406,8.4225,11.8995],[-62.7894,8.4333,10.1808],[-62.8294,8.4503,49.9404],[-62.8586,8.4601,65.5217],[-62.9225,8.4773,83.735],[-62.9693,8.4919,88.586],[-62.9874,8.4997,83.9466],[-63.0052,8.5097,89.4673],[-63.0223,8.5269,92.5594],[-63.0318,8.5435,94.0439],[-63.0468,8.5798,94.1464],[-63.0582,8.6247,96.8034],[-63.0652,8.6415,95.2798],[-63.065,8.6499,97.2136],[-63.0567,8.6587,95.0657],[-63.0486,8.6645,84.726],[-63.0325,8.6855,94.4036],[-63.0256,8.6911,86.052],[-63.0077,8.6949,87.8611],[-62.9768,8.6929,79.3675],[-62.9624,8.6988,82.8244],[-62.954,8.7069,76.9507],[-62.9482,8.7175,75.5965],[-62.946,8.7287,75.6304],[-63.2924,8.7411,143.7041],[-63.2947,8.7521,129.9526],[-63.3705,8.9264,125.955],[-63.3954,8.9073,130.4924],[-63.4232,8.8813,134.635],[-63.4745,8.8373,111.6763],[-63.5413,8.7867,145.3799]]]]}}