{"type":"Feature","properties":{"GID_1":"VEN.23_1","GID_0":"VEN","country":"Venezuela","province":"Vargas","VARNAME_1":"NA","NL_NAME_1":"NA","TYPE_1":"Estado","ENGTYPE_1":"State","CC_1":"NA","HASC_1":"NA","ISO_1":"NA","name":"Vargas.province"},
"geometry":{"type": "MultiPolygon","coordinates": [[[[-67.1756,10.4225,1871.2772],[-67.1674,10.4137,1979.0769],[-67.1717,10.4187,1859.4548],[-67.1388,10.4457,1881.3674],[-67.1276,10.4473,1912.8929],[-67.1133,10.458,2072.3958],[-67.1001,10.4635,2125.5635],[-67.0761,10.4697,1688.8387],[-67.0455,10.4737,1652.837],[-67.0368,10.477,1535.6675],[-67.027,10.4948,1351.9646],[-67.0283,10.5114,898.3748],[-67.0268,10.5218,626.5851],[-67.0019,10.5505,415.1404],[-66.9893,10.5606,920.3165],[-66.9677,10.5599,943.2719],[-66.9463,10.5539,1071.4169],[-66.9298,10.5512,1633.6201],[-66.9013,10.5542,1639.5822],[-66.868,10.554,1913.7689],[-66.8547,10.5502,1989.4072],[-66.8443,10.5442,1924.5641],[-66.8423,10.5467,1904.428],[-66.8298,10.554,1641.4141],[-66.8144,10.5579,1694.8011],[-66.7761,10.5605,1690.2012],[-66.7163,10.5547,1512.4918],[-66.6987,10.5545,1575.2089],[-66.6803,10.5604,1443.5935],[-66.6629,10.5634,1120.4078],[-66.5964,10.5686,837.0955],[-66.5512,10.5663,1023.838],[-66.5288,10.5633,1424.2964],[-66.4677,10.5457,1053.624],[-66.4102,10.5422,1069.5044],[-66.3813,10.5352,973.6453],[-66.3489,10.5346,877.1588],[-66.3488,10.563,446.8648],[-66.359,10.5674,572.5801],[-66.356,10.5757,432.1155],[-66.3381,10.6038,119.2925],[-66.3418,10.6096,0.0],[-66.3496,10.6068,3.1889],[-66.3646,10.6099,8.3239],[-66.3768,10.6162,1.5644],[-66.3812,10.6204,15.3881],[-66.3915,10.6215,9.7614],[-66.411,10.6313,0.0],[-66.416,10.631,0.0],[-66.4187,10.6276,24.7378],[-66.4332,10.629,0.0],[-66.4351,10.6282,2.1597],[-66.4354,10.6257,0.0],[-66.4449,10.6276,0.0],[-66.4488,10.6304,0.0],[-66.459,10.6287,5.3127],[-66.4687,10.6315,0.0],[-66.4807,10.6296,11.2914],[-66.4949,10.6321,0.0],[-66.496,10.631,3.6199],[-66.5051,10.6318,31.2008],[-66.5088,10.6299,27.3981],[-66.5149,10.6318,13.4112],[-66.5263,10.629,0.0],[-66.5285,10.6301,0.0],[-66.5415,10.6296,0.0],[-66.5585,10.6276,0.0],[-66.5604,10.6262,41.6252],[-66.571,10.6299,0.0],[-66.5813,10.6271,0.0],[-66.5896,10.6285,0.0],[-66.5929,10.6262,14.532],[-66.5993,10.6276,0.0],[-66.6062,10.6251,13.3302],[-66.6268,10.6262,0.656],[-66.6487,10.6235,29.1066],[-66.6515,10.6251,0.0],[-66.6562,10.6224,0.9866],[-66.6654,10.6218,38.9527],[-66.691,10.6235,2.425],[-66.6965,10.6215,14.6549],[-66.6985,10.6229,0.0],[-66.7085,10.6218,8.1842],[-66.7126,10.6249,0.0],[-66.7179,10.6257,0.0],[-66.7207,10.6246,2.1794],[-66.7193,10.6215,1.5826],[-66.7215,10.6199,2.2776],[-66.7318,10.6215,7.1256],[-66.734,10.624,0.0],[-66.7387,10.6254,2.7076],[-66.7435,10.6243,2.9001],[-66.744,10.6226,3.0101],[-66.7468,10.6235,1.7061],[-66.7485,10.6204,0.0],[-66.7465,10.6182,2.847],[-66.7496,10.6162,2.0659],[-66.7601,10.6149,5.8408],[-66.7657,10.6176,0.0],[-66.7699,10.614,0.0],[-66.7826,10.6146,0.2076],[-66.7874,10.6121,0.0],[-66.8018,10.611,5.4614],[-66.8199,10.6115,3.7364],[-66.8254,10.6149,0.6454],[-66.8274,10.6132,7.8963],[-66.8318,10.6135,7.3286],[-66.8365,10.616,0.9122],[-66.8412,10.6215,0.0],[-66.846,10.6226,0.0],[-66.8457,10.6204,4.2973],[-66.8587,10.6179,3.3734],[-66.864,10.6124,1.4736],[-66.8715,10.6124,1.4606],[-66.8751,10.6082,37.2795],[-66.8851,10.6126,0.365],[-66.8887,10.6121,0.0],[-66.8932,10.6071,1.976],[-66.8999,10.6071,0.0],[-66.9026,10.6046,4.2219],[-66.9062,10.6043,0.8041],[-66.9076,10.6021,2.8816],[-66.9099,10.6032,9.6354],[-66.9112,10.6018,124.3488],[-66.9126,10.6046,0.0],[-66.9168,10.6071,0.0],[-66.9201,10.6046,4.4711],[-66.9296,10.6024,2.4399],[-66.9329,10.6046,0.0],[-66.939,10.6032,3.0485],[-66.9465,10.6071,0.0],[-66.9449,10.6032,0.0],[-66.9379,10.6004,1.2907],[-66.9421,10.599,0.6585],[-66.9429,10.5999,0.6585],[-66.9418,10.6015,0.0],[-66.9474,10.6015,1.6968],[-66.9474,10.6032,0.3785],[-66.9599,10.6004,5.6128],[-66.9701,10.6074,0.0],[-66.9743,10.6082,3.6932],[-66.9788,10.6068,9.3293],[-66.9879,10.6124,0.0],[-66.9968,10.6104,15.0689],[-66.9971,10.6124,0.0],[-67.0024,10.6126,0.0],[-67.0049,10.611,0.0],[-67.0163,10.6154,0.1212],[-67.0182,10.614,0.0],[-67.0235,10.6143,0.0],[-67.0271,10.6107,6.0862],[-67.0287,10.611,1.4124],[-67.0285,10.6129,0.4285],[-67.0301,10.6126,0.2882],[-67.0315,10.6101,5.0364],[-67.0374,10.6074,0.0],[-67.0401,10.6015,5.5904],[-67.044,10.6007,0.0],[-67.0454,10.5974,3.7787],[-67.0529,10.5935,35.0905],[-67.0582,10.5932,1.7198],[-67.0696,10.5885,45.509],[-67.0729,10.5901,13.2707],[-67.076,10.5871,0.0],[-67.0774,10.5899,0.0],[-67.0815,10.5893,0.0],[-67.0832,10.5888,0.0],[-67.0835,10.5851,2.3348],[-67.0938,10.5796,1.9193],[-67.1007,10.581,0.8307],[-67.1229,10.5721,0.0],[-67.1407,10.5701,4.1281],[-67.1413,10.5665,16.8909],[-67.1476,10.5674,0.0],[-67.1507,10.5643,10.2956],[-67.1543,10.5649,0.0],[-67.1593,10.5599,74.4199],[-67.171,10.561,0.0],[-67.1854,10.5554,9.6513],[-67.2071,10.5574,0.0],[-67.2096,10.5565,3.4213],[-67.2115,10.5521,0.0],[-67.221,10.551,11.645],[-67.2285,10.5532,0.0],[-67.2343,10.5529,16.004],[-67.2374,10.556,0.0],[-67.2393,10.5543,0.0],[-67.2382,10.5524,0.0],[-67.2393,10.5507,0.0],[-67.2432,10.5515,2.5239],[-67.2435,10.5501,46.1229],[-67.2479,10.5496,10.4328],[-67.2513,10.551,0.0],[-67.2557,10.5471,6.7703],[-67.2637,10.5463,11.9858],[-67.2671,10.5476,0.0],[-67.2726,10.5463,4.0348],[-67.2771,10.5482,0.0],[-67.2821,10.5463,28.8039],[-67.2882,10.5468,16.1414],[-67.296,10.5432,46.8418],[-67.3046,10.5429,0.0],[-67.3099,10.5404,36.7942],[-67.3135,10.5424,0.0],[-67.3193,10.5407,0.0],[-67.3229,10.5429,0.0],[-67.3262,10.5421,0.0],[-67.3288,10.544,0.0],[-67.3399,10.5449,0.0],[-67.3421,10.5443,0.0],[-67.3407,10.5415,2.2307],[-67.3429,10.5393,39.3447],[-67.3457,10.5438,0.0],[-67.3482,10.544,0.0],[-67.3518,10.5429,4.4599],[-67.3526,10.5404,165.0116],[-67.3646,10.5382,23.0818],[-67.3539,10.5023,681.065],[-67.3457,10.4905,602.7614],[-67.3357,10.4815,777.9857],[-67.3272,10.4709,766.7346],[-67.3222,10.4582,649.3363],[-67.3186,10.4149,1841.4752],[-67.314,10.4063,2165.2124],[-67.3022,10.4015,2164.2073],[-67.2933,10.4022,1917.4675],[-67.2862,10.4146,1975.0883],[-67.2767,10.4258,1945.616],[-67.2637,10.4358,1509.6777],[-67.2407,10.443,1538.0811],[-67.2181,10.4425,1685.3621],[-67.204,10.4388,1724.7705],[-67.1756,10.4225,1871.2772]]],
[[[-67.0001,10.9999,0.0],[-66.9999,10.9999,0.0],[-66.9999,11.0001,0.0],[-67.0001,11.0001,0.0],[-67.0001,10.9999,0.0]]]]}}