{"type": "Feature","id": "42","bbox": [-67.40513,10.3959,-66.30799,10.63272],"geometry": {"type": "Polygon","coordinates": [[[-66.31361,10.62949,0.0],[-66.3216,10.62043,0.0],[-66.33397,10.61123,21.0388],[-66.35045,10.61115,0.0],[-66.40486,10.62084,11.5764],[-66.41649,10.628,59.1696],[-66.42785,10.63085,0.0],[-66.54157,10.63272,0.0],[-66.7766,10.61905,0.0],[-66.88585,10.60952,27.157],[-67.01236,10.61123,31.9159],[-67.03466,10.60798,4.6673],[-67.07409,10.59341,0.0],[-67.11303,10.58552,0.0],[-67.17003,10.55598,213.0889],[-67.2434,10.54662,30.6405],[-67.32608,10.54995,0.0],[-67.39173,10.54308,0.0],[-67.39219,10.53897,0.0],[-67.40343,10.5198,79.9132],[-67.40513,10.5153,166.4146],[-67.40389,10.51391,225.1133],[-67.40319,10.51197,381.741],[-67.40273,10.51112,381.741],[-67.40234,10.51065,433.7211],[-67.402,10.51057,433.7211],[-67.40159,10.51057,433.7211],[-67.40118,10.5105,433.7211],[-67.40066,10.51026,418.1181],[-67.39888,10.50871,388.0524],[-67.39818,10.50794,433.8882],[-67.39663,10.50678,388.0429],[-67.39593,10.50639,510.8057],[-67.39547,10.50592,510.8057],[-67.39394,10.50375,469.2588],[-67.39299,10.50174,429.352],[-67.39252,10.50101,429.352],[-67.39203,10.50055,469.6675],[-67.39141,10.50034,365.7037],[-67.39082,10.50019,365.7037],[-67.38996,10.49923,386.5159],[-67.38893,10.4976,331.5988],[-67.38722,10.4928,317.6851],[-67.37477,10.47029,662.7837],[-67.37015,10.45851,781.9251],[-67.35834,10.44851,992.0869],[-67.35679,10.44655,987.6511],[-67.34185,10.39986,1981.5726],[-67.33961,10.3959,2165.9004],[-67.33371,10.40164,2323.5435],[-67.33271,10.40234,2352.6851],[-67.33178,10.40319,2277.1233],[-67.331,10.40412,2295.0674],[-67.33038,10.40513,2248.4346],[-67.32886,10.40885,2057.262],[-67.32824,10.40993,2118.4517],[-67.32751,10.41071,1980.8904],[-67.32645,10.41133,1980.8904],[-67.32405,10.41234,1942.2468],[-67.32273,10.41272,1942.2468],[-67.31705,10.41373,2101.2146],[-67.30738,10.41683,2294.7534],[-67.30604,10.4174,2216.6118],[-67.30387,10.41869,2229.8289],[-67.30139,10.42073,2047.134],[-67.29958,10.42197,2047.134],[-67.2962,10.42352,2145.0513],[-67.28945,10.4281,2060.6343],[-67.28754,10.42841,2029.6603],[-67.28511,10.42825,1950.9272],[-67.27798,10.42647,1903.0393],[-67.27638,10.42624,1945.616],[-67.2756,10.42647,1945.616],[-67.27323,10.42771,1907.0699],[-67.2723,10.42802,1951.4613],[-67.27018,10.42825,1925.7134],[-67.26692,10.4281,1911.3771],[-67.26602,10.42818,1920.8286],[-67.26274,10.42872,1905.9865],[-67.25734,10.42872,1929.0016],[-67.24418,10.43081,2061.1201],[-67.24095,10.43089,2018.7339],[-67.23866,10.43058,2044.2177],[-67.23421,10.42647,2060.8618],[-67.22015,10.41668,2294.2288],[-67.15318,10.44073,1994.7018],[-67.12693,10.45882,1855.8533],[-67.11675,10.46378,1797.9829],[-67.11466,10.46401,1920.9072],[-67.1106,10.46401,1905.7903],[-67.10763,10.46432,1976.7872],[-67.10499,10.46363,2030.7197],[-67.10213,10.46246,2073.5889],[-67.09732,10.46114,2043.4458],[-67.09456,10.46138,2038.9072],[-67.09202,10.46254,1987.2871],[-67.08512,10.4668,1866.4446],[-67.08368,10.46866,1811.8358],[-67.08195,10.47052,1740.2021],[-67.08104,10.47347,1688.5006],[-67.07753,10.47471,1610.8474],[-67.05903,10.47667,1630.9998],[-67.05533,10.47776,1549.4578],[-67.05334,10.47877,1422.7224],[-67.05345,10.4797,1422.7224],[-67.05365,10.48086,1410.0646],[-67.05448,10.48287,1421.0911],[-67.05479,10.48404,1458.151],[-67.05474,10.48652,1402.3926],[-67.05495,10.4876,1367.7556],[-67.05564,10.49001,1342.3997],[-67.05567,10.49117,1350.6906],[-67.05518,10.49574,1375.8005],[-67.05257,10.50491,1206.2434],[-67.05246,10.506,1138.5598],[-67.05267,10.50724,1033.1395],[-67.05329,10.50856,1033.1395],[-67.05613,10.51228,1143.0471],[-67.05639,10.51484,1146.0913],[-67.05624,10.51848,1121.651],[-67.05324,10.52546,961.1893],[-67.05048,10.52902,960.4919],[-67.04699,10.53168,955.0933],[-67.04541,10.53223,874.4405],[-67.04412,10.53246,881.0563],[-67.04319,10.53254,881.0563],[-67.04203,10.53285,855.6787],[-67.03497,10.53664,794.7745],[-67.02027,10.54153,743.4811],[-67.0174,10.543,783.2266],[-67.0158,10.54432,805.8944],[-67.01572,10.54525,805.8944],[-67.01588,10.546569999999999,827.848],[-67.01639,10.54773,795.1893],[-67.01717,10.54881,705.0896],[-67.0212,10.55269,794.9614],[-67.02174,10.5537,881.6614],[-67.02068,10.55667,774.8816],[-67.01851,10.56093,599.965],[-67.01267,10.56977,421.308],[-67.00937,10.57318,387.2382],[-67.00683,10.57512,380.3964],[-67.00536,10.57519,380.3964],[-67.0042,10.57496,398.0215],[-67.00324,10.5745,398.0215],[-67.00216,10.57372,477.0808],[-66.99888,10.5707,575.0412],[-66.99624,10.56876,641.2131],[-66.9919,10.56644,742.8404],[-66.98632,10.56264,857.1452],[-66.97965,10.56008,919.4414],[-66.97826,10.55977,883.6207],[-66.97554,10.55954,835.303],[-66.97273,10.55899,837.1655],[-66.97118,10.55858,974.6083],[-66.96598,10.55595,1104.2454],[-66.96428,10.5554,1163.5685],[-66.95661,10.55385,1180.4575],[-66.95536,10.55323,1230.6567],[-66.95327,10.5516,1247.9795],[-66.95229,10.5506,1247.9795],[-66.95149,10.54951,1268.2163],[-66.94903,10.54928,1211.9725],[-66.94516,10.54974,1280.2239],[-66.92922,10.55432,1488.1447],[-66.92449,10.5547,1606.2725],[-66.92172,10.55525,1659.307],[-66.91676,10.55672,1677.3105],[-66.9156,10.55698,1677.3105],[-66.91454,10.55703,1724.4639],[-66.9125,10.55698,1729.1519],[-66.90622,10.55589,1798.4893],[-66.89415,10.5523,1740.8584],[-66.89028,10.55029,1828.0688],[-66.88891,10.54936,1773.1052],[-66.88457,10.54788,1762.4608],[-66.87377,10.54703,1912.2104],[-66.8632,10.55284,2091.9902],[-66.85909,10.553,1967.9576],[-66.85532,10.55067,1920.4015],[-66.84323,10.54509,1924.5641],[-66.83914,10.54409,2173.3965],[-66.79638,10.55067,1730.1626],[-66.72308,10.55199,1829.4424],[-66.72148,10.55184,1829.4424],[-66.71662,10.55036,1816.4635],[-66.70628,10.54556,1839.9459],[-66.60929,10.54633,1663.2322],[-66.60254,10.54416,1768.4384],[-66.59521,10.54889,1510.0142],[-66.5857,10.55667,1380.7585],[-66.58133,10.55938,1215.7357],[-66.57795,10.56047,1059.8149],[-66.5764,10.55992,1134.5261],[-66.52593,10.55806,1722.718],[-66.52149,10.55698,1485.8102],[-66.51389,10.55626,1398.0608],[-66.51234,10.55579,1306.3351],[-66.51139,10.55517,1442.1149],[-66.51009,10.55455,1442.1149],[-66.50839,10.55408,1537.4956],[-66.50351,10.55315,1632.3484],[-66.49842,10.55106,1493.8253],[-66.49643,10.5499,1570.4664],[-66.49575,10.5492,1570.4664],[-66.49519,10.54843,1658.072],[-66.4925,10.54688,1450.6715],[-66.48772,10.54471,1375.9675],[-66.47056,10.53951,1317.9917],[-66.46733,10.53905,1277.5562],[-66.46217,10.54176,1296.8033],[-66.45537,10.54455,1484.177],[-66.45214,10.54517,1461.8228],[-66.44989,10.54509,1346.1007],[-66.44284,10.53819,1610.3173],[-66.44113,10.53734,1455.2474],[-66.43974,10.53711,1455.2474],[-66.43684,10.5385,1405.1246],[-66.36742,10.54409,808.7881],[-66.35432,10.54533,940.7305],[-66.32507,10.53068,705.293],[-66.3138,10.53773,397.807],[-66.31163,10.54029,485.8154],[-66.31189,10.54106,414.7557],[-66.31217,10.54168,414.7557],[-66.31303,10.54416,543.2465],[-66.31326,10.54517,543.2465],[-66.3138,10.5468,553.8885],[-66.30799,10.59142,64.1263],[-66.30799,10.59282,54.2076],[-66.30812,10.59351,54.2076],[-66.30838,10.59398,49.3108],[-66.30889,10.59437,49.3108],[-66.30894,10.59452,49.3108],[-66.30905,10.59522,49.3108],[-66.30962,10.59739,107.8313],[-66.30956,10.59987,109.9347],[-66.31194,10.62369,2.6477],[-66.3136,10.62943,0.0],[-66.31361,10.62949,0.0]]]}
,"properties": {"ISO3166-1-Alpha-3": "VEN","country": "Venezuela","fill": "#00F","name": "Vargas","area_km2": 1140.6226,"hist_schema_id": "Elevation0-9000","hist_area_km2": {"0": 53.2062,"25": 23.7163,"50": 21.1114,"75": 23.2164,"100": 20.299,"125": 19.4654,"150": 19.403,"175": 19.215699999999998,"200": 20.237,"225": 21.9461,"250": 21.0085,"275": 21.5712,"300": 20.5294,"325": 20.8213,"350": 20.6338,"375": 21.5094,"400": 20.5093,"425": 21.2804,"450": 21.5306,"475": 20.8638,"500": 21.3224,"525": 20.4472,"550": 20.7392,"575": 20.7603,"600": 19.8017,"625": 19.614,"650": 17.5507,"675": 16.571,"700": 17.5301,"725": 17.6342,"750": 17.0298,"775": 15.4874,"800": 16.0712,"825": 16.092,"850": 17.0718,"875": 15.5293,"900": 15.967,"925": 14.8414,"950": 14.112,"975": 13.7785,"1000": 13.6537,"1025": 13.341,"1050": 12.2154,"1075": 11.882,"1100": 11.7988,"1125": 11.5278,"1150": 10.6104,"1175": 10.7774,"1200": 11.4028,"1225": 10.2146,"1250": 10.6733,"1275": 10.5483,"1300": 11.0487,"1325": 10.8402,"1350": 10.5692,"1375": 10.486,"1400": 10.4025,"1425": 10.0691,"1450": 9.694,"1475": 9.0478,"1500": 8.3598,"1525": 8.7142,"1550": 7.3174,"1575": 7.3383,"1600": 6.4419,"1625": 6.3377,"1650": 6.0041,"1675": 5.5664,"1700": 5.4622,"1725": 5.1495,"1750": 4.6909,"1775": 4.4616,"1800": 4.4616,"1825": 4.0655,"1850": 3.8571,"1875": 3.6277,"1900": 3.6487,"1925": 3.3777,"1950": 2.9814,"1975": 2.8981,"2000": 2.0432,"2025": 2.3143,"2050": 1.6471,"2075": 1.7513,"2100": 1.2301,"2125": 0.7922,"2150": 0.8131,"2175": 0.8548,"2200": 0.7089,"2225": 0.7714,"2250": 0.7506,"2275": 0.5004,"2300": 0.3962,"2325": 0.3545,"2350": 0.0417,"2375": 0.0626}}}