{"type":"Feature","properties":{"GID_2":"VEN.9.1_1","GID_0":"VEN","country":"Venezuela","GID_1":"VEN.9_1","province":"DeltaAmacuro","NL_NAME_1":"NA","county":"AntonioDiaz","VARNAME_2":"NA","NL_NAME_2":"NA","TYPE_2":"Municipio","ENGTYPE_2":"Municipality","CC_2":"NA","HASC_2":"NA","name":"Antonio_Diaz.county"},
"geometry":{"type": "MultiPolygon","coordinates": [[[[-59.8419,8.2392,16.6553],[-59.8306,8.2423,17.694],[-59.8269,8.2533,16.2298],[-59.8162,8.2618,17.2252],[-59.8143,8.2682,16.8106],[-59.8072,8.272,12.4214],[-59.8084,8.2811,14.3514],[-59.8141,8.2877,15.6654],[-59.8189,8.2981,14.777],[-59.8208,8.3055,13.732],[-59.82,8.31,4.9886],[-59.9995,8.5297,13.1709],[-59.9989,8.5309,17.9785],[-59.9876,8.5305,19.3261],[-60.0013,8.5385,21.1762],[-59.9968,8.539,20.6558],[-59.9999,8.5415,21.2585],[-60.0032,8.5418,20.7047],[-59.9993,8.5429,18.4251],[-60.0024,8.5457,19.9369],[-59.9982,8.5463,14.1636],[-60.0026,8.5476,19.9981],[-59.999,8.5485,16.8628],[-60.0026,8.5493,17.3742],[-60.0043,8.5476,21.8771],[-60.0099,8.5479,22.1678],[-60.0199,8.5521,21.5656],[-60.0276,8.5593,22.244],[-60.0221,8.5588,21.5379],[-60.0149,8.5518,21.5918],[-60.0071,8.5515,16.0716],[-60.0135,8.5582,17.1072],[-60.0174,8.556,22.4491],[-60.016,8.559,13.5945],[-60.0193,8.5601,20.0412],[-60.021,8.5629,12.5527],[-60.0246,8.5649,18.6131],[-60.0274,8.5638,19.4487],[-60.0271,8.5657,17.7698],[-60.034,8.5682,21.8142],[-60.0385,8.5735,19.0891],[-60.0415,8.5743,14.68],[-60.0418,8.5765,12.4836],[-60.0524,8.5824,1.6967],[-60.0551,8.5818,12.2434],[-60.0504,8.579,12.368],[-60.0599,8.5801,16.7878],[-60.0685,8.5843,17.1722],[-60.0843,8.5874,16.9513],[-60.0921,8.591,17.0467],[-60.0957,8.5907,16.7311],[-60.1015,8.5929,18.4528],[-60.104,8.5965,16.4961],[-60.1115,8.5962,19.2744],[-60.1121,8.5993,17.3818],[-60.114,8.6004,16.5759],[-60.1171,8.6001,17.4641],[-60.1193,8.6024,3.7764],[-60.1226,8.6018,15.5355],[-60.1257,8.6049,1.5727],[-60.1357,8.6071,19.2011],[-60.1599,8.6218,0.0],[-60.1615,8.6207,0.0],[-60.169,8.6224,0.0],[-60.1699,8.6199,20.6789],[-60.1712,8.6229,0.0],[-60.1749,8.624,0.0],[-60.1754,8.6221,6.3364],[-60.179,8.621,21.5097],[-60.1813,8.6215,19.3299],[-60.1793,8.6257,0.0],[-60.1824,8.6274,0.0],[-60.1985,8.6299,19.7181],[-60.2062,8.6287,22.0252],[-60.2043,8.6254,21.9345],[-60.206,8.6246,21.3913],[-60.214,8.6268,20.2632],[-60.219,8.6254,21.962],[-60.219,8.6268,21.5336],[-60.224,8.6276,18.7634],[-60.2529,8.6279,21.0829],[-60.2788,8.6254,13.7953],[-60.3124,8.6279,22.0678],[-60.3282,8.6268,16.0322],[-60.3635,8.6329,0.0],[-60.366,8.6313,0.0],[-60.369,8.6318,0.0],[-60.3712,8.6293,0.0],[-60.3776,8.6307,0.0],[-60.3999,8.6307,0.0],[-60.4051,8.6276,0.0],[-60.411,8.6265,0.0],[-60.4113,8.6115,0.0],[-60.4157,8.6076,0.0],[-60.4154,8.6024,0.0],[-60.4188,8.6029,0.0],[-60.419,8.6007,0.0],[-60.421,8.6001,0.0],[-60.4196,8.5949,4.573],[-60.4224,8.5954,8.4649],[-60.4243,8.594,3.2823],[-60.416,8.5896,21.1684],[-60.4115,8.584,0.0],[-60.4068,8.5832,0.0],[-60.4071,8.5815,0.0],[-60.4129,8.574,9.4428],[-60.4199,8.5729,0.4982],[-60.4262,8.5685,7.1636],[-60.4299,8.5688,0.0],[-60.4315,8.5621,1.3448],[-60.4349,8.5607,0.0],[-60.4368,8.5615,0.0],[-60.4396,8.5593,0.0],[-60.4401,8.5496,1.6114],[-60.4432,8.5449,0.0],[-60.4465,8.5429,5.1204],[-60.4476,8.544,0.0],[-60.4504,8.5432,7.4606],[-60.4538,8.5332,3.382],[-60.459,8.5268,11.227],[-60.4721,8.5224,4.2155],[-60.4751,8.5243,0.0],[-60.4743,8.5263,0.0],[-60.4832,8.5304,0.0],[-60.4865,8.5299,0.0],[-60.4893,8.5263,0.0],[-60.4968,8.5246,4.6587],[-60.5007,8.5265,0.0],[-60.5054,8.5263,10.2882],[-60.5099,8.5307,0.0],[-60.5268,8.5343,0.0],[-60.5299,8.5365,0.0],[-60.5485,8.539,0.0],[-60.561,8.5382,2.4704],[-60.5713,8.5407,0.0],[-60.5871,8.539,0.0],[-60.5979,8.5399,10.1862],[-60.599,8.5413,0.0],[-60.6101,8.5435,11.9004],[-60.6126,8.5463,0.403],[-60.6154,8.5454,11.2387],[-60.6221,8.5474,0.0],[-60.6338,8.5532,1.4289],[-60.6407,8.5604,2.7751],[-60.6596,8.5738,1.3981],[-60.6632,8.579,0.0],[-60.6662,8.579,1.1737],[-60.6721,8.5846,0.0],[-60.6757,8.584,2.6474],[-60.676,8.586,0.0],[-60.6785,8.586,1.3485],[-60.6854,8.5918,1.1867],[-60.7118,8.6029,3.7733],[-60.7121,8.6046,0.0],[-60.7185,8.6079,0.3887],[-60.7193,8.6379,0.0],[-60.6957,8.6415,0.0],[-60.6821,8.6404,0.0],[-60.6721,8.6443,8.4441],[-60.6721,8.6571,8.2807],[-60.6646,8.6804,0.0],[-60.669,8.6801,2.4016],[-60.6813,8.6946,0.742],[-60.6924,8.6979,0.0],[-60.6963,8.7082,0.0],[-60.6946,8.7093,0.0],[-60.6946,8.7201,1.7183],[-60.6899,8.7224,0.0],[-60.6879,8.731,0.0],[-60.684,8.7357,3.1393],[-60.6782,8.7479,0.0],[-60.6779,8.7515,4.1099],[-60.6618,8.7721,18.1546],[-60.6599,8.7757,2.236],[-60.6604,8.7807,0.0],[-60.6624,8.7832,7.6879],[-60.6679,8.7818,1.0316],[-60.6776,8.7735,15.1995],[-60.6882,8.7832,0.0],[-60.684,8.7849,0.9305],[-60.6854,8.789,0.0],[-60.6846,8.7918,0.0],[-60.6935,8.7974,0.0],[-60.6976,8.794,6.1525],[-60.6971,8.7974,12.0797],[-60.6929,8.8032,0.0],[-60.6985,8.8085,7.4064],[-60.7021,8.8151,0.0],[-60.7049,8.8162,5.2635],[-60.704,8.8174,0.0],[-60.7074,8.8221,0.0],[-60.716,8.8285,4.9625],[-60.7179,8.834,5.8349],[-60.7157,8.8376,2.3031],[-60.7199,8.8404,12.5929],[-60.719,8.8421,1.0653],[-60.7287,8.8521,1.7089],[-60.731,8.851,15.0779],[-60.7376,8.8546,0.4972],[-60.7524,8.8479,0.0],[-60.7618,8.8415,8.7814],[-60.7785,8.8232,9.9771],[-60.7854,8.8282,0.0],[-60.7851,8.8318,2.2054],[-60.7874,8.836,2.9278],[-60.7832,8.8454,0.0],[-60.7837,8.8518,0.0],[-60.774,8.8576,9.2632],[-60.7663,8.8576,7.1336],[-60.7632,8.8621,3.2958],[-60.7557,8.866,0.0],[-60.751,8.8718,0.0],[-60.7346,8.879,5.8495],[-60.7321,8.8815,7.9962],[-60.7318,8.8879,10.389],[-60.7332,8.8893,0.7979],[-60.7407,8.8907,0.0],[-60.7443,8.8899,3.5475],[-60.7593,8.8799,15.7098],[-60.766,8.8824,0.0],[-60.769,8.8779,3.3566],[-60.7762,8.874,0.0],[-60.7788,8.869,7.0569],[-60.7804,8.8713,0.0],[-60.7949,8.8699,3.9866],[-60.7951,8.8718,4.4456],[-60.7965,8.8718,4.4456],[-60.7985,8.8693,8.5421],[-60.804,8.8699,5.5223],[-60.8074,8.8679,4.5659],[-60.8126,8.8676,0.0],[-60.8193,8.8596,13.9832],[-60.8207,8.849,0.0],[-60.8221,8.8482,10.593],[-60.8224,8.8576,11.5558],[-60.8213,8.859,0.0],[-60.8226,8.8599,13.7382],[-60.8235,8.8646,0.0],[-60.8262,8.8632,0.0],[-60.826,8.8704,2.3575],[-60.8301,8.8693,0.0],[-60.8326,8.8735,0.0],[-60.8307,8.8768,12.3408],[-60.8329,8.881,12.7353],[-60.8307,8.8874,1.4524],[-60.8335,8.8882,6.8182],[-60.8349,8.8871,2.7397],[-60.8426,8.8937,7.0265],[-60.8462,8.8937,9.9065],[-60.846,8.896,1.012],[-60.8493,8.899,15.7387],[-60.8493,8.9029,1.6563],[-60.8451,8.9065,3.0481],[-60.8482,8.9168,0.0],[-60.8443,8.9154,0.0],[-60.8357,8.9171,3.4653],[-60.8304,8.9215,14.3791],[-60.8279,8.9218,0.0],[-60.824,8.9263,10.2053],[-60.8237,8.9435,0.0],[-60.8174,8.959,2.2561],[-60.8101,8.9685,7.2868],[-60.8082,8.9754,0.0],[-60.8079,8.9779,1.4774],[-60.8099,8.979,5.1705],[-60.8107,8.9779,11.3302],[-60.8115,8.9821,0.0],[-60.8162,8.9804,13.818],[-60.8168,8.9888,15.2942],[-60.8115,8.9935,16.0361],[-60.8121,8.9979,10.7352],[-60.8074,8.9987,0.0],[-60.8063,9.0026,4.9731],[-60.8026,9.0043,1.1406],[-60.8024,9.0065,5.5364],[-60.7971,9.0079,2.7371],[-60.7915,9.0126,0.0],[-60.7918,9.014,2.0203],[-60.7762,9.0304,0.7586],[-60.7782,9.0335,4.5092],[-60.7754,9.0401,6.1976],[-60.7718,9.0438,7.8071],[-60.7635,9.0468,0.0],[-60.759,9.0513,4.6496],[-60.7571,9.0593,0.0],[-60.7596,9.0621,0.0],[-60.7696,9.0646,6.4269],[-60.7818,9.0638,0.0],[-60.7893,9.0613,12.6997],[-60.7901,9.0624,5.5972],[-60.7885,9.0638,0.0],[-60.7901,9.066,7.1034],[-60.7851,9.0696,13.5138],[-60.7849,9.0715,18.5607],[-60.7926,9.0724,0.0],[-60.794,9.0754,12.4655],[-60.8026,9.0735,7.4222],[-60.806,9.0696,9.1222],[-60.8085,9.0707,0.0],[-60.8124,9.0643,0.0],[-60.814,9.0643,15.3469],[-60.811,9.0718,4.159],[-60.8124,9.0726,0.0],[-60.8171,9.0699,11.9007],[-60.8196,9.0718,2.3124],[-60.8171,9.0757,8.8032],[-60.8126,9.0765,0.0],[-60.8099,9.081,14.4799],[-60.8143,9.0812,9.7223],[-60.8165,9.0857,0.0],[-60.8135,9.0943,0.0],[-60.8135,9.1079,1.2904],[-60.8118,9.1118,6.7792],[-60.8087,9.114,0.0],[-60.8118,9.1215,6.8855],[-60.8165,9.1215,4.2966],[-60.8265,9.1149,10.5592],[-60.8379,9.1099,1.2764],[-60.8454,9.1001,12.0759],[-60.8504,9.1007,0.0],[-60.8535,9.0988,1.6938],[-60.854,9.1001,1.6938],[-60.8601,9.1001,9.1989],[-60.8649,9.0982,4.8635],[-60.8674,9.0999,2.2795],[-60.8688,9.1124,0.0],[-60.8613,9.1196,0.0],[-60.8576,9.1274,0.0],[-60.856,9.136,1.5507],[-60.8518,9.1738,0.0],[-60.8488,9.1876,9.6684],[-60.8488,9.1904,17.909],[-60.8524,9.1949,0.0],[-60.8574,9.1949,26.5593],[-60.8621,9.1974,0.0],[-60.8735,9.1968,5.1463],[-60.8829,9.1935,14.2445],[-60.8946,9.1868,16.7295],[-60.9074,9.1832,1.7526],[-60.9143,9.1796,12.7574],[-60.9262,9.176,6.2669],[-60.9385,9.176,0.0],[-60.9443,9.1729,0.0],[-60.946,9.174,0.0],[-60.9418,9.1832,2.159],[-60.944,9.1835,0.0],[-60.9487,9.1804,2.4491],[-60.9496,9.176,6.3708],[-60.9504,9.1782,0.0],[-60.9474,9.1851,4.1792],[-60.9485,9.1865,1.4281],[-60.956,9.1871,0.0],[-60.9593,9.2024,0.0],[-60.9351,9.2143,2.6332],[-60.9257,9.2218,0.0],[-60.9254,9.2257,23.6916],[-60.9126,9.2329,8.0462],[-60.8904,9.239,12.3621],[-60.8746,9.2476,0.0],[-60.8646,9.2571,14.4299],[-60.8504,9.2671,8.9117],[-60.8462,9.2687,0.0],[-60.831,9.2685,0.0],[-60.8232,9.2707,1.8425],[-60.8201,9.2757,6.1256],[-60.8196,9.2954,0.0],[-60.8168,9.3018,0.0],[-60.8121,9.2937,0.0],[-60.809,9.2949,18.2488],[-60.8099,9.2901,0.3108],[-60.8051,9.2921,1.7661],[-60.8015,9.2957,17.5296],[-60.8004,9.2988,2.1552],[-60.7887,9.3104,0.0],[-60.7843,9.3193,0.0],[-60.7824,9.3285,0.0],[-60.7837,9.3388,1.0052],[-60.7918,9.3624,0.0],[-60.8146,9.4007,0.0],[-60.8288,9.4182,3.3347],[-60.8557,9.4457,5.1462],[-60.8635,9.451,4.1554],[-60.8812,9.4685,15.7038],[-60.9049,9.4846,9.3547],[-60.916,9.4882,4.5162],[-60.9232,9.4882,22.126],[-60.9368,9.4951,5.8722],[-60.9471,9.4962,0.0],[-60.9599,9.4929,0.0],[-60.9651,9.4946,0.0],[-60.9646,9.5035,0.0],[-60.9724,9.5115,10.3658],[-60.9773,9.5051,13.8976],[-60.9774,9.5071,19.4757],[-60.9792,9.4877,28.1275],[-60.9757,9.4765,24.9667],[-60.9669,9.4777,15.6966],[-60.9884,9.4143,15.514099999999999],[-60.9932,9.3905,17.027],[-60.9921,9.3568,15.0272],[-60.985,9.3214,16.0122],[-61.0085,9.2858,17.3147],[-61.0651,9.2823,18.0109],[-61.0706,9.2765,16.6757],[-61.0246,9.2635,9.8521],[-61.0299,9.2579,17.0889],[-61.0426,9.2276,15.9271],[-61.056399999999996,9.1647,14.3898],[-61.0597,9.1556,12.304],[-61.0672,9.1458,6.303],[-61.0733,9.1455,0.0],[-61.0861,9.1486,12.8797],[-61.0999,9.1496,4.5727],[-61.182,9.1434,16.0405],[-61.2375,9.1481,17.3427],[-61.2608,9.1465,16.9254],[-61.2735,9.1431,15.018],[-61.3154,9.1034,13.4263],[-61.3341,9.0923,11.821],[-61.3395,9.0831,12.1821],[-61.3546,8.9924,1.9266],[-61.3705,8.9361,0.9948],[-61.3853,8.8987,6.8844],[-61.4013,8.8736,14.368],[-61.4153,8.8468,13.8886],[-61.4261,8.8096,15.3196],[-61.4298,8.8016,14.64],[-61.4347,8.7958,14.437],[-61.4472,8.7868,6.4931],[-61.4521,8.779,11.7803],[-61.4532,8.7674,3.1515],[-61.4517,8.748,3.3529],[-61.454,8.74,11.9121],[-61.4667,8.7221,5.9274],[-61.4771,8.7168,6.5469],[-61.5136,8.7095,10.5495],[-61.5418,8.6996,4.9559],[-61.6177,8.6788,8.5456],[-61.6592,8.6622,23.2952],[-61.7556,8.6534,6.8843],[-61.683,8.5727,3.1918],[-61.6953,8.5746,6.4532],[-61.705,8.5716,6.1528],[-61.7066,8.5635,6.2026],[-61.6989,8.5428,52.8871],[-61.6944,8.5461,22.6121],[-61.6875,8.547,17.632],[-61.6794,8.5453,9.6407],[-61.6527,8.539,12.7008],[-61.6451,8.5305,4.696],[-61.6447,8.5264,4.9186],[-61.6548,8.5279,20.8],[-61.6587,8.5252,5.1995],[-61.6575,8.5204,5.614],[-61.6542,8.5166,18.7112],[-61.6433,8.5112,25.6861],[-61.6135,8.2547,349.8849],[-61.6021,8.2524,335.2164],[-61.5935,8.2483,361.2094],[-61.5824,8.2386,374.1795],[-61.5731,8.2187,310.5853],[-61.5714,8.2088,311.7868],[-61.5722,8.1888,290.2637],[-61.5765,8.1722,292.1605],[-61.5834,8.1571,276.7084],[-61.5889,8.1494,320.6106],[-61.6235,8.127,310.942],[-61.6363,8.1162,323.7835],[-61.6445,8.1066,290.7061],[-61.648,8.0946,286.4811],[-61.6465,8.0799,292.0574],[-61.6339,8.0402,273.3129],[-61.6268,8.0231,300.3874],[-61.6008,7.981,300.6616],[-61.5757,7.9527,236.9982],[-61.5395,7.8988,308.7672],[-61.5291,7.8802,291.911],[-61.5189,7.8561,351.4626],[-61.5034,7.7755,390.6921],[-61.4969,7.758,417.5512],[-61.4912,7.7476,591.9382],[-61.4637,7.7221,597.3175],[-61.4386,7.6891,547.5344],[-61.4038,7.6539,265.6413],[-61.3856,7.6378,218.8606],[-61.3684,7.6264,206.7892],[-61.3621,7.6224,211.8614],[-61.3424,7.615,214.1821],[-61.3418,7.6083,214.3088],[-61.3321,7.6119,236.1461],[-61.3242,7.6213,203.0367],[-61.3192,7.6361,189.9112],[-61.3157,7.6613,183.2304],[-61.3093,7.6759,179.8392],[-61.2829,7.7161,175.0081],[-61.2623,7.7376,197.8],[-61.2413,7.7516,214.7224],[-61.2157,7.7647,198.8801],[-61.1561,7.7911,165.3041],[-61.138,7.7953,187.1513],[-61.1133,7.7987,154.1273],[-61.0784,7.8007,152.5815],[-61.0628,7.798,132.6792],[-61.0497,7.7928,136.5702],[-60.9707,7.7405,146.3158],[-60.9562,7.7275,136.1977],[-60.9324,7.713,149.325],[-60.9049,7.6858,169.2599],[-60.8816,7.6686,158.1418],[-60.8496,7.6528,146.5873],[-60.8431,7.6515,148.9659],[-60.8297,7.6539,142.0641],[-60.7966,7.6721,143.8899],[-60.7942,7.6674,146.6457],[-60.7889,7.6638,145.9335],[-60.7827,7.6626,145.1815],[-60.7654,7.6665,131.4572],[-60.7578,7.6718,144.4342],[-60.7454,7.6914,146.0175],[-60.7355,7.703,155.6829],[-60.7166,7.719,245.551],[-60.703,7.7357,152.0642],[-60.6906,7.7706,97.7998],[-60.6834,7.7838,110.9038],[-60.6654,7.811,109.197],[-60.6528,7.8256,104.8462],[-60.6275,7.8402,104.2085],[-60.6092,7.8543,155.9993],[-60.5789,7.8891,87.9488],[-60.5356,7.924,142.0904],[-60.5063,7.9187,101.7017],[-60.4692,7.9184,82.9274],[-60.4373,7.9149,81.8277],[-60.3647,7.9465,117.6692],[-60.3501,7.9483,114.2716],[-60.3157,7.9477,112.8142],[-60.25,7.9591,76.7631],[-60.2343,7.9664,58.1215],[-60.2122,7.9806,65.4155],[-60.1891,7.988,55.6624],[-60.1614,7.9901,47.1173],[-60.1462,7.989,31.9634],[-60.1381,7.9947,22.4815],[-60.1334,8.0001,23.8363],[-60.1297,8.0108,18.9228],[-60.1272,8.0126,19.7884],[-60.127,8.0157,22.3673],[-60.1221,8.0217,21.1642],[-60.121,8.0319,36.3326],[-60.1145,8.031,18.4375],[-60.1028,8.0328,17.2512],[-60.0977,8.0348,15.833],[-60.0952,8.0391,17.5349],[-60.0876,8.0391,22.3194],[-60.0831,8.0341,18.2552],[-60.0767,8.0357,18.5622],[-60.0649,8.0274,18.3828],[-60.0578,8.0269,17.267],[-60.049,8.0297,15.7589],[-60.041,8.0393,15.7931],[-60.0321,8.037,14.9963],[-60.0233,8.0485,11.9321],[-60.01,8.0583,16.0539],[-60.0062,8.0629,6.1762],[-60.0051,8.068,17.078],[-60.0062,8.0747,19.1879],[-59.9989,8.0799,11.2669],[-59.9981,8.0918,15.496],[-59.9994,8.1001,11.7936],[-59.9932,8.1231,7.4449],[-59.9798,8.1368,13.8421],[-59.9818,8.1435,13.4085],[-59.9927,8.1555,15.2607],[-59.9933,8.1602,8.2342],[-59.9825,8.1716,7.0506],[-59.9763,8.1908,16.0671],[-59.949,8.1975,12.6836],[-59.9459,8.1999,2.0045],[-59.944,8.2104,12.4069],[-59.9465,8.2229,13.3774],[-59.8419,8.2392,16.6553]]],
[[[-60.799,8.876,0.0],[-60.8021,8.8765,1.0116],[-60.8087,8.8724,1.1394],[-60.8076,8.8718,0.0],[-60.799,8.876,0.0]]],
[[[-60.7951,8.9132,2.6616],[-60.7965,8.9143,0.0],[-60.7999,8.9135,4.092],[-60.799,8.9126,3.9578],[-60.7951,8.9132,2.6616]]],
[[[-60.784,8.9865,0.0],[-60.7896,8.9865,2.2561],[-60.7924,8.9821,12.3686],[-60.8015,8.9746,0.0],[-60.8129,8.9579,11.7992],[-60.8174,8.9546,16.3372],[-60.8229,8.9376,0.0],[-60.8207,8.9232,0.0],[-60.8132,8.924,11.4418],[-60.8026,8.9201,0.0],[-60.7993,8.9224,2.2245],[-60.7971,8.9196,0.0],[-60.794,8.9199,0.0],[-60.791,8.9226,11.1357],[-60.7737,8.9251,0.0],[-60.7676,8.9293,4.4352],[-60.7663,8.9354,13.3616],[-60.7771,8.9396,13.7777],[-60.7779,8.9443,1.3974],[-60.781,8.9449,1.8707],[-60.784,8.9326,28.5107],[-60.7904,8.9287,15.5804],[-60.7851,8.9326,10.3873],[-60.7779,8.9613,3.0843],[-60.7707,8.9685,2.291],[-60.7768,8.9788,2.5104],[-60.7807,8.9804,12.1398],[-60.7815,8.9826,0.0],[-60.7851,8.9832,6.869],[-60.784,8.9865,0.0]]],
[[[-60.8138,8.8704,2.7198],[-60.8135,8.8721,0.0],[-60.8149,8.8724,0.0],[-60.8232,8.8687,7.4939],[-60.8237,8.8657,12.7687],[-60.8218,8.8599,13.7382],[-60.8196,8.8607,2.2745],[-60.8138,8.8704,2.7198]]],
[[[-60.8132,8.8763,11.7331],[-60.814,8.8749,0.0],[-60.811,8.8749,0.0],[-60.8101,8.8774,2.247],[-60.8115,8.8774,0.0],[-60.8132,8.8763,11.7331]]],
[[[-60.8129,8.891,0.0],[-60.8168,8.8915,11.5916],[-60.8207,8.8893,10.6982],[-60.829,8.8782,11.2244],[-60.8257,8.8788,1.0477],[-60.8129,8.891,0.0]]],
[[[-60.844,8.9146,0.0],[-60.8454,8.9154,7.7837],[-60.8471,8.9149,8.634],[-60.8429,8.9126,0.0],[-60.844,8.9146,0.0]]],
[[[-60.7713,9.2343,1.4364],[-60.7754,9.2343,0.0],[-60.7854,9.224,2.7474],[-60.7921,9.2218,10.7455],[-60.8021,9.2149,7.2838],[-60.8076,9.214,0.0],[-60.821,9.2071,0.0],[-60.8401,9.201,4.3977],[-60.8476,9.1796,0.0],[-60.8554,9.1268,0.0],[-60.8604,9.1182,16.1262],[-60.8674,9.1121,0.0],[-60.866,9.1082,0.0],[-60.8618,9.106,0.0],[-60.8532,9.109,5.2095],[-60.8515,9.1076,0.0],[-60.836,9.1143,0.0],[-60.8237,9.1224,0.0],[-60.8104,9.1351,3.8121],[-60.8032,9.1471,8.1727],[-60.7993,9.149,13.0276],[-60.7976,9.1563,6.2117],[-60.789,9.1707,12.524],[-60.7799,9.1779,4.5062],[-60.7676,9.1812,4.0638],[-60.764,9.1796,0.0],[-60.7535,9.1807,15.6336],[-60.7526,9.179,3.1056],[-60.7382,9.1763,1.5166],[-60.734,9.1768,0.6482],[-60.7318,9.179,1.682],[-60.7313,9.1824,2.5523],[-60.7337,9.1882,5.2893],[-60.7465,9.2121,0.0],[-60.7643,9.2313,0.0],[-60.7713,9.2343,1.4364]]],
[[[-60.7935,9.241,7.9602],[-60.7996,9.2421,0.0],[-60.8029,9.241,6.4287],[-60.811,9.2349,8.7189],[-60.8104,9.2318,2.6877],[-60.8076,9.2301,3.4092],[-60.8018,9.2299,7.6356],[-60.7949,9.2326,2.1543],[-60.7926,9.2374,0.0],[-60.7935,9.241,7.9602]]],
[[[-60.781,9.2843,0.0],[-60.7857,9.2843,0.0],[-60.796,9.2649,0.9013],[-60.776,9.2557,21.4206],[-60.7715,9.2515,4.6869],[-60.7668,9.2515,3.7044],[-60.759,9.2574,2.1488],[-60.7601,9.2638,0.0],[-60.7679,9.2749,0.0],[-60.781,9.2843,0.0]]],
[[[-60.9129,9.1951,13.4682],[-60.9254,9.1957,0.0],[-60.9285,9.1921,8.9099],[-60.9354,9.1901,0.0],[-60.936,9.1871,7.7375],[-60.939,9.1849,8.6045],[-60.9399,9.1799,2.6646],[-60.9274,9.1796,7.0126],[-60.9007,9.1929,9.2791],[-60.9032,9.1943,1.2676],[-60.911,9.1915,5.9738],[-60.9129,9.1951,13.4682]]],
[[[-60.8882,9.1988,0.0],[-60.889,9.201,0.0],[-60.8935,9.1979,0.0],[-60.8924,9.1962,0.0],[-60.8882,9.1988,0.0]]],
[[[-60.8374,9.2251,16.7002],[-60.8476,9.2257,0.0],[-60.8512,9.224,0.0],[-60.8521,9.2218,17.6365],[-60.8543,9.2224,0.0],[-60.8615,9.2193,0.0],[-60.8637,9.2165,7.3342],[-60.8668,9.2165,1.8867],[-60.8679,9.2137,17.8469],[-60.8838,9.2063,0.0],[-60.8871,9.2004,3.6784],[-60.881,9.199,0.0],[-60.8682,9.2021,17.6803],[-60.8474,9.2026,5.2445],[-60.8437,9.2051,0.0],[-60.8426,9.2079,6.9885],[-60.8251,9.2174,0.0],[-60.8301,9.2185,17.336],[-60.8374,9.2251,16.7002]]],
[[[-60.9165,9.2276,-0.2216],[-60.9168,9.229,3.6593],[-60.9193,9.2263,0.0],[-60.9185,9.226,0.0],[-60.9165,9.2276,-0.2216]]],
[[[-60.6387,8.6829,27.2174],[-60.6432,8.684,0.0],[-60.6615,8.6768,0.0],[-60.6696,8.6554,0.0],[-60.6693,8.6504,5.4913],[-60.6629,8.6407,1.3477],[-60.6512,8.6382,0.0],[-60.6493,8.6393,2.3648],[-60.6443,8.6362,0.0],[-60.6379,8.6374,1.3113],[-60.6354,8.6349,0.0],[-60.6285,8.6329,0.0],[-60.616,8.6374,8.8034],[-60.6126,8.6371,5.2768],[-60.6076,8.6404,0.0],[-60.6024,8.6382,0.0],[-60.5968,8.6385,0.0],[-60.5885,8.6429,0.0],[-60.5821,8.6488,0.0],[-60.574,8.664,3.3175],[-60.5751,8.6671,0.0],[-60.5812,8.6679,4.8998],[-60.5846,8.6715,2.8946],[-60.5893,8.6735,12.9519],[-60.5974,8.674,2.6316],[-60.6007,8.6718,0.0],[-60.601,8.6682,4.4036],[-60.6024,8.6685,13.2348],[-60.6043,8.674,6.0186],[-60.6035,8.6768,0.0],[-60.6132,8.6729,13.7006],[-60.6146,8.6749,13.0235],[-60.6162,8.6718,28.9306],[-60.6182,8.6749,16.1234],[-60.6279,8.6785,16.7786],[-60.6349,8.6838,2.1949],[-60.6387,8.6829,27.2174]]],
[[[-60.6368,8.809,2.3683],[-60.6399,8.8099,9.1461],[-60.6413,8.8085,10.5995],[-60.6418,8.8062,11.3653],[-60.6393,8.8004,11.4226],[-60.6424,8.7946,11.1802],[-60.6485,8.7896,17.417],[-60.6482,8.7782,16.4522],[-60.6493,8.7771,11.7383],[-60.6471,8.774,12.3807],[-60.6449,8.7754,13.7808],[-60.6418,8.7738,9.854],[-60.6374,8.7746,2.0076],[-60.6304,8.7904,1.762],[-60.6301,8.7988,0.0],[-60.6368,8.809,2.3683]]],
[[[-60.6065,8.8424,0.0],[-60.6071,8.8446,0.0],[-60.6151,8.839,0.0],[-60.6162,8.8374,1.2672],[-60.6151,8.8351,0.6669],[-60.6104,8.8357,2.9831],[-60.6065,8.8424,0.0]]],
[[[-60.7143,8.8585,0.0],[-60.7171,8.8593,0.0],[-60.7218,8.8568,14.3307],[-60.721,8.8551,21.2206],[-60.7257,8.8526,5.4986],[-60.724,8.8485,17.7602],[-60.716,8.8451,0.0],[-60.7121,8.8468,0.0],[-60.7096,8.8518,2.8227],[-60.7143,8.8585,0.0]]],
[[[-60.6654,8.9451,0.0],[-60.6662,8.9476,0.0],[-60.669,8.9471,0.0],[-60.6688,8.9446,10.8013],[-60.6707,8.9429,23.3795],[-60.6835,8.9407,4.9204],[-60.6879,8.9374,18.94],[-60.6876,8.9335,21.5517],[-60.6835,8.9271,14.3098],[-60.6785,8.9271,6.9307],[-60.6671,8.9363,0.0],[-60.6646,8.9399,0.0],[-60.6654,8.9451,0.0]]],
[[[-60.6879,8.9412,0.0],[-60.6926,8.9421,0.0],[-60.6979,8.9407,0.0],[-60.701,8.9393,1.2931],[-60.7007,8.9365,3.6149],[-60.699,8.9346,2.7239],[-60.6932,8.9346,1.2535],[-60.6885,8.9385,4.7134],[-60.6879,8.9412,0.0]]],
[[[-60.7132,9.0235,3.489],[-60.7146,9.0243,0.0],[-60.7174,9.0229,1.9347],[-60.7221,9.0185,12.8503],[-60.7221,9.016,16.8063],[-60.7262,9.0132,4.9276],[-60.7182,9.0076,16.7462],[-60.7171,9.004,6.3218],[-60.7085,9.0076,0.0],[-60.7074,9.0101,0.0],[-60.711,9.0218,5.7122],[-60.7132,9.0235,3.489]]],
[[[-60.6862,9.0826,1.332],[-60.689,9.0835,9.7293],[-60.6926,9.0821,0.0],[-60.7007,9.0737,2.0302],[-60.7018,9.0688,7.1066],[-60.7062,9.0635,5.7595],[-60.7076,9.0585,6.9121],[-60.7068,9.0529,10.8653],[-60.7096,9.0543,2.3466],[-60.7112,9.0529,4.8568],[-60.716,9.0424,8.9297],[-60.7224,9.0349,24.6834],[-60.7226,9.0313,15.0891],[-60.7204,9.0285,0.0],[-60.7099,9.0293,1.3598],[-60.7065,9.0332,7.9668],[-60.7049,9.0332,7.9668],[-60.7049,9.036,13.4263],[-60.7035,9.0332,2.3932],[-60.701,9.0332,1.7218],[-60.6971,9.0371,4.6967],[-60.6954,9.0421,2.2025],[-60.6826,9.0532,4.2576],[-60.6785,9.061,0.0],[-60.6774,9.0713,0.2577],[-60.6801,9.0782,16.4891],[-60.6862,9.0826,1.332]]],
[[[-60.7943,8.9901,6.8615],[-60.7968,8.991,1.5392],[-60.8012,8.9882,0.0],[-60.8021,8.9782,0.0],[-60.7924,8.986,0.0],[-60.7943,8.9901,6.8615]]],
[[[-60.746,9.1101,21.4607],[-60.7513,9.1099,5.7796],[-60.7593,9.0968,0.0],[-60.7585,9.089,0.0],[-60.7529,9.084,7.768],[-60.7465,9.0868,0.0],[-60.7435,9.1026,0.0],[-60.746,9.1101,21.4607]]],
[[[-60.806,9.1362,16.7608],[-60.8037,9.1413,3.493],[-60.8121,9.1332,3.2393],[-60.8154,9.1274,9.6693],[-60.8099,9.1296,14.032],[-60.806,9.1362,16.7608]]],
[[[-60.7693,9.1732,3.642],[-60.7721,9.1743,3.1235],[-60.7776,9.1724,0.0],[-60.7879,9.1657,0.0],[-60.8001,9.1413,11.8065],[-60.8107,9.1263,0.0],[-60.8112,9.124,0.0],[-60.8071,9.1171,19.4303],[-60.799,9.1099,3.4631],[-60.789,9.1082,0.0],[-60.7857,9.109,7.0008],[-60.7904,9.111,1.2897],[-60.7879,9.1124,2.2996],[-60.7879,9.1143,11.3158],[-60.774,9.1138,0.0],[-60.7687,9.1212,9.0581],[-60.7582,9.1293,14.6916],[-60.7532,9.1368,0.0],[-60.7529,9.1399,1.2015],[-60.7601,9.1499,13.1279],[-60.7693,9.1732,3.642]]],
[[[-60.709,9.1607,0.0],[-60.7149,9.161,0.0],[-60.726,9.151,1.1265],[-60.7274,9.1476,0.0],[-60.7262,9.1446,7.9068],[-60.7285,9.1438,6.7419],[-60.734,9.1315,10.4001],[-60.7454,9.1179,15.0525],[-60.7412,9.1026,19.2909],[-60.746,9.0829,0.0],[-60.7379,9.0743,3.5677],[-60.7304,9.0737,0.0],[-60.7165,9.0785,0.0],[-60.7074,9.0868,3.6251],[-60.7046,9.0876,18.2687],[-60.7026,9.0913,0.0],[-60.7018,9.0999,0.7704],[-60.6968,9.1074,8.978],[-60.6957,9.1138,13.6661],[-60.6954,9.1082,14.2225],[-60.6993,9.0979,1.0447],[-60.6932,9.0979,1.6461],[-60.6868,9.1021,1.9576],[-60.6849,9.1057,1.4001],[-60.6829,9.1226,0.0],[-60.6813,9.1254,0.0],[-60.6824,9.1315,0.0],[-60.6935,9.1443,0.0],[-60.699,9.1543,1.2249],[-60.709,9.1607,0.0]]],
[[[-60.8751,9.2399,0.0],[-60.8749,9.2413,0.0],[-60.8763,9.2413,1.1246],[-60.8893,9.2365,16.2677],[-60.9057,9.2335,11.0571],[-60.9121,9.2293,4.7126],[-60.9165,9.2229,0.0],[-60.9071,9.2232,0.0],[-60.8993,9.2249,0.0],[-60.8946,9.2276,16.7861],[-60.8868,9.2279,0.0],[-60.8763,9.2357,4.8207],[-60.8751,9.2399,0.0]]],
[[[-60.8476,9.2615,0.0],[-60.8471,9.2629,0.0],[-60.8512,9.2612,3.6929],[-60.8635,9.2482,2.481],[-60.8707,9.244,0.0],[-60.8699,9.2418,0.0],[-60.8646,9.2413,6.9975],[-60.8568,9.2376,4.86],[-60.8496,9.2443,2.3253],[-60.8471,9.256,0.8925],[-60.8476,9.2615,0.0]]],
[[[-60.856,9.2604,4.4076],[-60.8574,9.2612,0.7649],[-60.8604,9.2593,5.6661],[-60.866,9.2532,0.0],[-60.8629,9.2529,6.1576],[-60.856,9.2604,4.4076]]]]}}