{"type": "Feature","bbox": [-65.4742,10.0202,-65.3268,10.1299],"geometry": {"type": "MultiPolygon","coordinates": [[[[-65.3543,10.036,256.1764],[-65.3399,10.0502,45.1972],[-65.3307,10.0712,0.0],[-65.3268,10.1007,0.0],[-65.3296,10.1185,5.0793],[-65.3326,10.1196,1.1524],[-65.3885,10.1299,4.8864],[-65.401,10.1127,46.5239],[-65.414,10.0998,79.6941],[-65.4274,10.0895,125.8548],[-65.4742,10.0601,206.6257],[-65.4611,10.0489,191.5563],[-65.4267,10.0252,179.1843],[-65.4124,10.0202,401.2207],[-65.3914,10.0251,397.9327],[-65.3751,10.0218,541.0367],[-65.3621,10.0324,359.7536],[-65.3543,10.036,256.1764]]]]}
,"properties": {"GID_2": "VEN.2.19_1","GID_0": "VEN","country": "Venezuela","GID_1": "VEN.2_1","province": "Anzoátegui","NL_NAME_1": "NA","county": "SanJuandeCapistrano","VARNAME_2": "NA","NL_NAME_2": "NA","TYPE_2": "Municipio","ENGTYPE_2": "Municipality","CC_2": "NA","HASC_2": "NA","name": "San_Juande_Capistrano.county","area_km2": 121.72477,"hist_schema_id": "Elevation0-9000","hist_area_km2": {"0": 37.09278,"25": 11.33525,"50": 9.72796,"75": 8.72595,"100": 8.99751,"125": 7.72411,"150": 7.13966,"175": 6.28379,"200": 6.3882,"225": 5.67847,"250": 2.83928,"275": 1.98338,"300": 1.48234,"325": 1.64937,"350": 1.69113,"375": 1.33621,"400": 0.83514,"425": 0.39669,"450": 0.22966,"475": 0.10439,"500": 0.06264,"525": 0.02088}}}