{"type": "Feature","bbox": [-65.3543,9.7906,-64.8723,10.1674],"geometry": {"type": "MultiPolygon","coordinates": [[[[-64.8841,10.086,2.8443],[-64.8946,10.0882,0.8095],[-64.8913,10.1065,0.0],[-64.8929,10.1032,0.0],[-64.8957,10.0876,0.8095],[-64.9157,10.0924,0.0],[-64.9226,10.0915,0.4316],[-64.9418,10.0979,0.5091],[-64.9496,10.0979,0.0],[-64.9563,10.096,0.0],[-64.9771,10.0846,0.8915],[-65.0001,10.0754,12.8986],[-65.0237,10.0715,3.2004],[-65.0424,10.0663,4.1781],[-65.0471,10.0665,0.8453],[-65.0465,10.0621,2.2022],[-65.049,10.059,0.5503],[-65.0565,10.0588,1.3032],[-65.0626,10.0529,3.9027],[-65.0715,10.0526,0.0],[-65.0735,10.051,6.9512],[-65.0757,10.0518,1.2551],[-65.0765,10.0504,12.7326],[-65.081,10.0499,11.6407],[-65.0874,10.0512,1.7356],[-65.0896,10.0479,1.2775],[-65.0971,10.0468,10.291],[-65.1079,10.051,0.0],[-65.1115,10.0493,0.0],[-65.1143,10.0457,0.0],[-65.1224,10.0474,0.0],[-65.1226,10.046,1.5672],[-65.1357,10.0435,2.547],[-65.1468,10.0393,3.6601],[-65.1499,10.0393,3.341],[-65.1604,10.0446,3.0128],[-65.1682,10.0454,3.8514],[-65.1724,10.0446,1.522],[-65.1729,10.0418,10.3785],[-65.1751,10.0424,1.704],[-65.1807,10.0396,7.97],[-65.1832,10.0393,4.063],[-65.184,10.0415,-1.5],[-65.1851,10.0388,6.445],[-65.1885,10.0388,2.8328],[-65.1876,10.0429,3.2915],[-65.201,10.0396,14.5985],[-65.2026,10.0429,3.0],[-65.2079,10.0429,2.179],[-65.2071,10.0468,9.0831],[-65.2021,10.0482,3.5485],[-65.1982,10.0463,2.7615],[-65.1985,10.0474,1.5944],[-65.2007,10.0479,3.5485],[-65.2001,10.0499,2.5852],[-65.1935,10.0507,3.7882],[-65.1932,10.0479,2.5314],[-65.1896,10.0465,1.625],[-65.191,10.0521,2.2599],[-65.1871,10.0543,0.7122],[-65.1854,10.0535,0.4138],[-65.1846,10.0479,1.597],[-65.1829,10.0493,0.9736],[-65.1829,10.0563,1.3967],[-65.1862,10.0565,1.3554],[-65.1815,10.0626,1.2362],[-65.1832,10.071,0.8484],[-65.1857,10.0732,0.5514],[-65.1843,10.0746,0.2717],[-65.1796,10.0735,0.1337],[-65.1749,10.0599,0.1541],[-65.1729,10.0607,2.8488],[-65.1699,10.0571,0.119],[-65.1607,10.0585,0.0],[-65.1582,10.0524,0.0],[-65.156,10.0568,0.0],[-65.1568,10.0596,0.2114],[-65.1615,10.0629,0.3439],[-65.1607,10.0649,3.3789],[-65.166,10.0651,5.6807],[-65.1626,10.0676,4.703],[-65.1637,10.0693,-0.5],[-65.1685,10.0665,1.1309],[-65.1732,10.0682,3.3713],[-65.1729,10.0713,0.5075],[-65.1754,10.0721,0.3474],[-65.1757,10.0743,0.4955],[-65.1732,10.0749,0.0346],[-65.1729,10.0768,1.2834],[-65.1679,10.0751,-0.5],[-65.1674,10.0771,1.0522],[-65.164,10.0732,1.6433],[-65.164,10.0701,-0.5],[-65.1601,10.0707,5.1041],[-65.1596,10.064,3.3789],[-65.1579,10.0668,3.9894],[-65.156,10.0668,2.8759],[-65.1571,10.0618,0.2641],[-65.1551,10.0571,0.0],[-65.1471,10.0626,0.157],[-65.1438,10.0593,0.0],[-65.1415,10.0596,0.8721],[-65.1415,10.061,0.2375],[-65.1532,10.0685,4.1715],[-65.1615,10.076,0.0],[-65.1657,10.0785,1.0522],[-65.1679,10.0779,2.675],[-65.1682,10.0821,7.1151],[-65.1665,10.0835,2.8534],[-65.1043,10.0651,0.0],[-65.0829,10.0613,0.0],[-65.0587,10.0599,1.4107],[-65.0868,10.0638,0.0],[-65.119,10.071,0.0],[-65.1601,10.0832,1.8171],[-65.1774,10.0918,0.0],[-65.189,10.0932,1.1408],[-65.2035,10.0985,0.6675],[-65.2099,10.0988,0.4857],[-65.2085,10.1001,0.2696],[-65.2374,10.1062,0.0],[-65.2487,10.1062,0.0],[-65.3024,10.1157,0.0],[-65.3296,10.1185,5.0793],[-65.3268,10.1007,0.0],[-65.3307,10.0712,0.0],[-65.3399,10.0502,45.1972],[-65.3543,10.036,256.1764],[-65.3374,10.0321,299.3198],[-65.3192,10.0314,269.905],[-65.3006,10.0363,321.6699],[-65.2854,10.0445,280.3138],[-65.2694,10.0461,216.1323],[-65.2598,10.0447,169.3156],[-65.2441,10.0361,258.8046],[-65.2104,10.0063,18.223],[-65.1103,10.0123,174.9201],[-65.1112,9.9735,55.0979],[-65.115,9.9203,31.8334],[-65.1053,9.8219,23.1196],[-65.1013,9.8174,25.8917],[-65.0945,9.8189,30.5758],[-65.0848,9.8263,19.6383],[-65.0789,9.8364,16.6509],[-65.0724,9.8616,21.5728],[-65.063,9.8878,42.1342],[-65.0625,9.902,68.3057],[-65.068,9.9414,67.5931],[-65.0694,9.9883,98.1591],[-65.0687,9.9985,87.2416],[-65.0645,10.0102,97.5461],[-65.0561,10.0246,86.678],[-65.0379,10.043,120.9188],[-65.0254,10.0502,74.6114],[-65.0073,10.064,43.0396],[-65.0008,10.0653,45.3764],[-64.9934,10.0588,83.5827],[-64.9933,10.0426,226.1613],[-64.9891,10.0286,376.2719],[-64.9828,10.0234,442.9201],[-64.9687,10.0208,383.3721],[-64.9607,10.0146,358.0596],[-64.9647,9.9815,226.5478],[-64.9698,9.9623,188.1677],[-64.9786,9.9443,126.1957],[-64.9932,9.9281,95.616],[-65.0038,9.9205,77.2708],[-65.0301,9.9064,58.4915],[-65.0333,9.8971,62.1618],[-65.0321,9.8890999999999991,39.7146],[-65.0277,9.8819,42.0786],[-65.0028,9.863,45.3385],[-64.9831,9.8386,50.8561],[-64.9801,9.8314,44.4302],[-64.9795,9.8243,47.0628],[-64.9833,9.8144,36.7955],[-64.9982,9.7911,32.5016],[-64.949,9.7906,73.2806],[-64.9104,9.8686,94.7739],[-64.9456,9.9745,188.837],[-64.8723,10.0149,48.7859],[-64.8841,10.086,2.8443]]],
[[[-64.9332,10.1549,0.2634],[-64.9388,10.1549,0.0544],[-64.9426,10.1532,0.3992],[-64.9432,10.1515,0.1169],[-64.9399,10.1488,0.085],[-64.934,10.1496,0.0923],[-64.9285,10.1424,0.0658],[-64.9238,10.1446,0.1755],[-64.9204,10.1421,0.2144],[-64.9121,10.1438,0.0],[-64.9135,10.146,0.0],[-64.9229,10.1501,-0.1975],[-64.9268,10.1543,0.0],[-64.9332,10.1549,0.2634]]],
[[[-64.9526,10.1674,0.0975],[-64.9582,10.166,0.8193],[-64.9704,10.1671,0.0],[-64.9768,10.1638,0.0],[-64.9732,10.1646,0.5972],[-64.9671,10.1576,0.0],[-64.964,10.1604,0.0],[-64.9582,10.1593,0.3138],[-64.9415,10.1624,0.6513],[-64.9443,10.1651,0.1063],[-64.9526,10.1674,0.0975]]]]}
,"properties": {"GID_2": "VEN.2.7_1","GID_0": "VEN","country": "Venezuela","GID_1": "VEN.2_1","province": "Anzoátegui","NL_NAME_1": "NA","county": "FernandodePeñalver","VARNAME_2": "NA","NL_NAME_2": "NA","TYPE_2": "Municipio","ENGTYPE_2": "Municipality","CC_2": "NA","HASC_2": "NA","name": "Fernandode_Peñalver.county","area_km2": 603.4136,"hist_schema_id": "Elevation0-9000","hist_area_km2": {"0": 118.7785,"25": 69.4963,"50": 126.9175,"75": 99.3649,"100": 54.7722,"125": 31.7159,"150": 24.721,"175": 20.6284,"200": 15.2624,"225": 10.0425,"250": 8.3513,"275": 6.7854,"300": 5.1987,"325": 4.1757,"350": 2.6933,"375": 1.879,"400": 0.9186,"425": 0.5637,"450": 0.3758,"475": 0.2923,"500": 0.2714,"525": 0.1253,"550": 0.0626,"575": 0.0209}}}