{"type":"Feature","properties":{"GID_2":"VEN.6.8_1","GID_0":"VEN","country":"Venezuela","GID_1":"VEN.6_1","province":"Bolívar","NL_NAME_1":"NA","county":"Piar","VARNAME_2":"NA","NL_NAME_2":"NA","TYPE_2":"Municipio","ENGTYPE_2":"Municipality","CC_2":"NA","HASC_2":"NA","name":"Piar.county"},
"geometry":{"type": "MultiPolygon","coordinates": [[[[-62.6299,6.2112,592.8368],[-62.6384,6.1971,494.0098],[-62.6449,6.1743,464.9969],[-62.6155,6.1517,462.392],[-62.6046,6.1357,468.6068],[-62.5901,6.1217,482.1498],[-62.5796,6.1175,490.1483],[-62.5592,6.1125,1256.6841],[-62.5288,6.0963,1254.113],[-62.5206,6.0883,1156.1423],[-62.516,6.0725,976.113],[-62.5063,6.057,643.9301],[-62.4858,6.0405,1007.0719],[-62.4742,6.0213,966.3836],[-62.4557,6.0098,1756.9308],[-62.4353,5.9907,1748.6021],[-62.4151,5.9775,1703.5846],[-62.4026,5.9606,1836.292],[-62.3882,5.9317,1306.0593],[-62.3819,5.9256,1043.0295],[-62.3676,5.9172,512.5914],[-62.3617,5.9116,500.3001],[-62.3575,5.9065,508.4455],[-62.3522,5.8955,518.4739],[-62.3414,5.8849,500.5843],[-62.3357,5.8826,477.3691],[-62.3275,5.8823,493.0193],[-62.2952,5.8838,455.2585],[-62.2896,5.8868,462.6238],[-62.2865,5.8927,461.1253],[-62.2847,5.9095,475.8654],[-62.2828,5.9172,468.2986],[-62.2793,5.9232,482.0369],[-62.2667,5.9313,488.6637],[-62.252,5.9345,500.0172],[-62.2385,5.9334,497.1208],[-62.2204,5.9305,475.7626],[-62.2076,5.9258,483.4714],[-62.1955,5.9185,927.6462],[-62.1892,5.9081,926.9833],[-62.1433,5.8855,1276.1124],[-62.1322,5.8761,1695.665],[-62.112,5.848,952.8206],[-62.1052,5.8415,972.8146],[-62.0948,5.836,965.0016],[-62.084,5.8328,984.7631],[-62.073,5.8326,1018.1124],[-62.0634,5.8355,1721.1287],[-62.0378,5.8502,1215.5522],[-62.0318,5.8516,1263.4106],[-62.0148,5.8673,2053.5579],[-62.0104,5.8733,2144.3994],[-62.007,5.8848,2024.2795],[-62.0032,5.9101,1131.6226],[-61.9994,5.9205,954.4238],[-61.986,5.9355,1005.7593],[-61.9771,5.9547,1082.9958],[-61.961,5.9781,940.8947],[-61.9609,5.9851,866.5269],[-61.9641,5.9898,889.9563],[-61.9867,6.004,931.92],[-62.0015,6.0216,827.1394],[-62.0223,6.0365,695.1451],[-62.0392,6.0441,702.0642],[-62.0776,6.0435,534.1504],[-62.0854,6.0449,506.8605],[-62.1187,6.0599,500.4891],[-62.1534,6.0667,508.2874],[-62.1985,6.0945,927.6617],[-62.2123,6.1075,1000.4915],[-62.232,6.1366,889.5754],[-62.2316,6.1435,774.4415],[-62.2222,6.1648,719.6323],[-62.2174,6.184,781.0204],[-62.2161,6.1958,876.6085],[-62.2181,6.228,646.3032],[-62.2212,6.2411,707.9684],[-62.2287,6.2535,866.1685],[-62.2428,6.2677,855.8417],[-62.2558,6.2717,833.8369],[-62.2723,6.2744,689.0206],[-62.2822,6.2789,1023.1871],[-62.2874,6.2834,1044.7965],[-62.291,6.2893,1051.2461],[-62.3095,6.3257,611.1882],[-62.3189,6.3492,624.142],[-62.3211,6.3717,566.5123],[-62.3175,6.3975,457.8774],[-62.3242,6.432,240.4344],[-62.324,6.4408,262.6739],[-62.3219,6.449,344.9818],[-62.316,6.4549,315.9797],[-62.302,6.457,253.0094],[-62.2741,6.4538,293.4236],[-62.2552,6.4441,305.7751],[-62.2337,6.4219,234.3644],[-62.228,6.4139,228.9231],[-62.197,6.4075,196.3451],[-62.1856,6.4076,164.9486],[-62.1609,6.4234,173.4065],[-62.1436,6.4401,161.6847],[-62.1206,6.4563,179.4438],[-62.0765,6.4807,157.9831],[-62.0534,6.4903,164.8507],[-62.028,6.5118,172.1423],[-61.9671,6.5426,179.3185],[-61.9416,6.5603,171.7484],[-61.9024,6.5781,183.2795],[-61.896,6.5834,263.2855],[-61.8884,6.5928,300.4479],[-61.8853,6.6006,267.3743],[-61.8858,6.6145,213.9104],[-61.8938,6.6405,192.991],[-61.8953,6.6911,212.0541],[-61.8979,6.7015,195.4224],[-61.9033,6.7117,161.2371],[-61.9142,6.7254,147.7315],[-61.9445,6.7506,162.7254],[-61.9541,6.7554,230.3548],[-61.9612,6.7568,261.7077],[-61.9819,6.7561,338.7221],[-61.9937,6.7594,174.7388],[-62.0017,6.7647,172.8912],[-62.0214,6.7853,174.3701],[-62.0344,6.806,182.7662],[-62.0363,6.8186,191.9336],[-62.0351,6.8481,337.9962],[-62.0472,6.9259,335.7022],[-62.0558,6.9578,302.076],[-62.062,6.9938,188.2924],[-62.0655,7.038,186.1586],[-62.0873,7.1918,326.6971],[-62.0852,7.2041,263.4582],[-62.1358,7.4433,200.4389],[-62.1341,7.4547,199.9593],[-62.1249,7.4662,193.177],[-62.1118,7.4716,181.6151],[-62.1052,7.476,177.0908],[-62.0938,7.4927,178.7263],[-62.0834,7.4996,186.2904],[-62.0753,7.5015,197.0508],[-62.0657,7.5009,184.9928],[-62.0405,7.4864,187.1206],[-62.0199,7.4828,227.3882],[-61.9928,7.484,198.0056],[-61.9831,7.4859,199.942],[-61.9756,7.4902,204.5182],[-61.9651,7.5169,199.1471],[-61.9389,7.5419,205.0721],[-61.9335,7.549,203.709],[-61.9267,7.5646,217.1651],[-61.9212,7.5684,210.3432],[-61.9367,7.6069,210.5154],[-61.9595,7.6183,214.2387],[-61.9861,7.7018,266.1169],[-61.9709,7.7398,263.1105],[-61.9481,7.7816,229.6333],[-61.9215,7.8196,333.252],[-61.9215,7.8233,348.0966],[-61.9101,7.8385,322.9127],[-61.8873,7.8765,317.6566],[-61.8987,7.9107,317.914],[-61.9025,7.9335,298.8108],[-61.9253,7.9411,316.843],[-61.9481,7.9449,315.2552],[-61.9785,7.9449,296.5526],[-62.0051,7.9714,318.7922],[-62.0848,8.0702,370.8185],[-62.1266,8.1309,606.3443],[-62.1568,8.182,638.3665],[-62.4763,8.363,200.898],[-62.5393,8.0448,393.2463],[-62.7831,8.0348,97.9597],[-62.781,8.0366,91.2802],[-62.8172,8.0366,105.3449],[-62.8771,7.9813,88.736],[-62.9189,7.9395,209.1932],[-62.9391,7.8762,133.18],[-62.929,7.7978,284.0357],[-62.8316,7.5864,266.0],[-62.7784,7.5345,266.0],[-62.6936,7.4471,269.2958],[-62.6594,7.3421,266.0],[-62.6581,7.2902,276.1282],[-62.6316,7.1665,317.7953],[-62.6404,7.0881,321.4117],[-62.6974,7.0045,419.514],[-62.7354,6.9665,362.5996],[-62.7581,6.9109,323.7585],[-62.7467,6.8602,330.8497],[-62.7392,6.8033,413.5892],[-62.724,6.7627,339.8177],[-62.6911,6.7425,352.848],[-62.6505,6.7298,355.356],[-62.6265,6.6881,343.089],[-62.61,6.5691,520.0316],[-62.5873,6.5071,474.451],[-62.5493,6.4336,473.9383],[-62.5619,6.3931,903.0733],[-62.5708,6.3172,1037.4741],[-62.585,6.2869,1197.9349],[-62.5921,6.2587,924.2436],[-62.62,6.2261,637.6244],[-62.6299,6.2112,592.8368]]]]}}