{"type":"Feature","properties":{"GID_2":"VEN.13.10_1","GID_0":"VEN","country":"Venezuela","GID_1":"VEN.13_1","province":"Guárico","NL_NAME_1":"NA","county":"Ribas","VARNAME_2":"NA","NL_NAME_2":"NA","TYPE_2":"Municipio","ENGTYPE_2":"Municipality","CC_2":"NA","HASC_2":"NA","name":"Ribas.county"},
"geometry":{"type": "MultiPolygon","coordinates": [[[[-65.701,9.7218,161.4864],[-65.7508,9.6781,188.1056],[-65.7848,9.6656,195.7227],[-65.8039,9.649,209.1969],[-65.821,9.6303,217.093],[-65.8319,9.6241,221.9283],[-65.8682,9.6143,166.2509],[-65.9164,9.608,219.8121],[-65.9613,9.6094,212.7877],[-65.9437,9.5609,215.5332],[-65.9275,9.5255,191.2095],[-65.9037,9.4643,151.6742],[-65.8681,9.3823,127.2712],[-65.8561,9.3477,137.0122],[-65.8528,9.3286,113.7743],[-65.8534,9.3077,101.3281],[-65.8599,9.2706,136.0039],[-65.8956,9.1637,159.0277],[-65.8977,9.1358,136.1642],[-65.8928,9.0927,148.9932],[-65.8655,8.9479,139.3625],[-65.8392,8.9692,125.653],[-65.8112,8.9987,104.5095],[-65.7928,9.0149,106.8877],[-65.7634,9.0287,90.7839],[-65.7391,9.0365,91.1411],[-65.7219,9.0368,86.1571],[-65.7156,9.0328,85.432],[-65.7033,9.031,92.0828],[-65.6829,9.0408,100.733],[-65.6615,9.0573,113.6467],[-65.6377,9.0584,91.3892],[-65.6258,9.0633,90.9511],[-65.6142,9.0715,97.2948],[-65.5465,9.131,74.5],[-65.5319,9.1535,98.3233],[-65.5168,9.1825,78.2021],[-65.4846,9.2223,69.4338],[-65.4723,9.2339,72.7975],[-65.4676,9.2405,74.7499],[-65.4649,9.2476,74.941],[-65.4661,9.2551,68.8573],[-65.4813,9.2752,54.2635],[-65.4973,9.3028,65.0464],[-65.5296,9.3745,59.7005],[-65.5452,9.3914,66.5],[-65.5596,9.4022,72.049],[-65.5673,9.4059,86.8754],[-65.5777,9.4215,75.8215],[-65.5817,9.4314,78.0976],[-65.5811,9.4437,77.7996],[-65.578,9.4533,81.922],[-65.5495,9.4986,117.4127],[-65.5327,9.52,86.5297],[-65.5046,9.5764,116.4402],[-65.5143,9.5709,104.2173],[-65.5232,9.5683,111.2779],[-65.5339,9.5723,120.1945],[-65.5482,9.5805,126.542],[-65.5764,9.604,161.496],[-65.6088,9.6234,166.52],[-65.6663,9.6674,170.2172],[-65.6924,9.7029,159.0932],[-65.6974,9.711,180.2953],[-65.701,9.7218,161.4864]]]]}}