{"type":"Feature","properties":{"GID_1":"VEN.17_1","GID_0":"VEN","country":"Venezuela","province":"Monagas","VARNAME_1":"NA","NL_NAME_1":"NA","TYPE_1":"Estado","ENGTYPE_1":"State","CC_1":"NA","HASC_1":"NA","ISO_1":"VE-N","name":"Monagas.province"},
"geometry":{"type": "MultiPolygon","coordinates": [[[[-62.674,8.3528,41.9912],[-62.666,8.3416,100.005],[-62.6574,8.3345,88.241],[-62.6494,8.3225,75.4402],[-62.6339,8.3222,54.1259],[-62.6266,8.3237,39.3379],[-62.6167,8.3284,32.8449],[-62.581,8.3574,26.2977],[-62.5617,8.388,110.7722],[-62.5481,8.3971,96.6576],[-62.5355,8.391,114.1612],[-62.5285,8.3903,225.4352],[-62.4847,8.4217,41.3905],[-62.4666,8.4253,101.0746],[-62.443,8.4271,70.3655],[-62.4244,8.432,57.598],[-62.3521,8.4457,94.6276],[-62.3348,8.4508,120.8949],[-62.3187,8.4603,86.974],[-62.3088,8.4608,95.4482],[-62.277,8.488,40.6198],[-62.2334,8.5006,53.0892],[-62.2169,8.5068,25.0469],[-62.2025,8.5165,30.155],[-62.189,8.5308,24.7649],[-62.1788,8.5457,11.7941],[-62.1713,8.5618,4.1524],[-62.1593,8.5979,3.0],[-62.1545,8.6048,3.0],[-62.1333,8.6242,8.7087],[-62.1061,8.6449,9.3672],[-62.0995,8.652,2.5],[-62.0933,8.6627,5.5234],[-62.0949,8.6777,6.6995],[-62.0691,8.7022,6.6886],[-62.0552,8.7214,4.0],[-62.0476,8.7411,7.6986],[-62.0465,8.7576,5.4527],[-62.0479,8.7682,5.4856],[-62.0452,8.7885,5.9007],[-62.0387,8.799,5.3168],[-62.0251,8.807,7.7331],[-62.0061,8.8326,3.0],[-62.003,8.8399,9.0423],[-62.0035,8.8481,3.0],[-62.0109,8.8496,9.2117],[-62.0182,8.8494,6.3731],[-62.0257,8.847,4.9029],[-62.0373,8.8399,6.1232],[-62.0469,8.8394,3.3944],[-62.056399999999996,8.8448,4.6528],[-62.0613,8.8509,3.2597],[-62.0733,8.8823,4.7409],[-62.0795,8.9043,3.1591],[-62.09,8.9313,5.5074],[-62.094,8.9593,2.6665],[-62.0925,8.9668,5.9797],[-62.0889,8.9733,0.0],[-62.0833,8.977,4.5601],[-62.0739,8.9788,3.5164],[-62.0671,8.984,5.0138],[-62.0589,8.998,15.6411],[-62.0572,9.0148,6.8876],[-62.0702,9.0386,14.3073],[-62.0769,9.0464,3.1966],[-62.0842,9.0487,1.2373],[-62.0907,9.0463,2.1544],[-62.1051,9.0344,1.9238],[-62.1261,9.0256,0.6109],[-62.1409,9.0136,1.0005],[-62.1477,9.0112,2.2207],[-62.155,9.0119,5.0746],[-62.1643,9.0151,1.1254],[-62.1733,9.0271,1.6185],[-62.1798,9.0306,0.5981],[-62.1871,9.0332,0.9298],[-62.2079,9.0363,0.9148],[-62.2201,9.043,1.3299],[-62.2254,9.0487,1.4669],[-62.2376,9.0746,1.1889],[-62.2426,9.0819,0.7585],[-62.2496,9.0848,1.137],[-62.2682,9.0867,1.0877],[-62.2731,9.0926,1.9389],[-62.2762,9.1067,1.0498],[-62.2818,9.1125,1.0013],[-62.2918,9.1127,1.071],[-62.3006,9.105,1.1021],[-62.3082,9.1023,1.0859],[-62.3226,9.1035,1.3068],[-62.3326,9.1138,4.7566],[-62.3434,9.1342,0.8899],[-62.3449,9.1905,1.4522],[-62.3395,9.1988,1.1363],[-62.3263,9.2071,1.1169],[-62.3232,9.2161,1.8152],[-62.3287,9.2253,1.6038],[-62.3402,9.2332,1.1211],[-62.3442,9.2402,1.0959],[-62.3479,9.2537,1.4817],[-62.3474,9.2761,0.9206],[-62.3503,9.2819,1.2461],[-62.3545,9.2843,1.7827],[-62.3635,9.2937,0.9245],[-62.365,9.2983,0.8567],[-62.3631,9.3061,0.9052],[-62.355,9.318,0.8914],[-62.3541,9.3247,1.2307],[-62.3556,9.3285,11.2123],[-62.3684,9.3431,1.1219],[-62.3728,9.3555,0.8926],[-62.3794,9.3565,2.3856],[-62.3932,9.3533,1.0455],[-62.395,9.3545,1.2094],[-62.4039,9.369,2.97],[-62.4156,9.3795,12.5727],[-62.4256,9.3997,2.3263],[-62.4358,9.4059,7.3484],[-62.4416,9.4139,6.6172],[-62.4414,9.4179,7.2644],[-62.4335,9.4282,3.3007],[-62.4306,9.4366,1.3366],[-62.4317,9.4365,3.6663],[-62.4275,9.4407,1.3329],[-62.4483,9.4558,12.7687],[-62.4605,9.4837,15.1003],[-62.4619,9.5179,19.8193],[-62.4575,9.5407,9.9215],[-62.4244,9.5878,12.0022],[-62.3991,9.617,11.2032],[-62.3825,9.6398,14.9635],[-62.3637,9.6997,0.0],[-62.3428,9.7318,16.9538],[-62.3356,9.7546,12.9285],[-62.3356,9.7689,11.6229],[-62.3456,9.8046,15.2098],[-62.3476,9.8217,0.0],[-62.349,9.8725,26.6974],[-62.3475,9.8811,24.7425],[-62.3521,9.8853,20.0668],[-62.3549,9.8837,0.0],[-62.3674,9.8837,19.1509],[-62.3732,9.8896,0.0],[-62.3851,9.8957,0.0],[-62.3999,9.9099,12.2579],[-62.4054,9.921,0.0],[-62.4132,9.9251,19.5596],[-62.4196,9.9318,12.8379],[-62.4354,9.931,0.0],[-62.4412,9.9265,2.8088],[-62.444,9.9288,12.3453],[-62.4382,9.9404,17.0634],[-62.4354,9.9413,15.6041],[-62.4321,9.9499,0.0],[-62.4157,9.9679,9.3298],[-62.4257,9.9804,20.9036],[-62.4287,9.9871,0.0],[-62.4337,10.0063,18.1907],[-62.4335,10.0224,19.745],[-62.4349,10.0282,2.3846],[-62.4418,10.0371,0.0],[-62.4468,10.0401,6.2428],[-62.4507,10.0454,6.2465],[-62.4538,10.0463,5.1444],[-62.4582,10.0546,0.0],[-62.4671,10.0549,14.5899],[-62.4657,10.0574,6.541],[-62.461,10.0596,1.7725],[-62.4612,10.0696,1.8045],[-62.4674,10.0849,0.0],[-62.4707,10.0999,2.4556],[-62.476,10.1101,0.0],[-62.4746,10.1143,0.0],[-62.4815,10.1368,0.0],[-62.4846,10.1396,12.1973],[-62.4843,10.1451,0.0],[-62.4912,10.1601,0.0],[-62.5101,10.1904,3.2269],[-62.5171,10.1965,0.0],[-62.5213,10.1979,0.0],[-62.5296,10.2068,0.0],[-62.5393,10.2124,0.0],[-62.5449,10.2129,7.7549],[-62.5484,10.2157,0.0],[-62.5943,10.2335,0.0],[-62.6168,10.2357,0.0],[-62.6557,10.2315,0.0],[-62.6646,10.2326,0.0],[-62.6488,10.2067,0.0],[-62.6263,10.1897,0.0],[-62.6181,10.1747,0.0],[-62.6124,10.1515,0.0],[-62.6123,10.1441,0.0],[-62.6141,10.1363,0.0],[-62.6228,10.1229,24.3965],[-62.6359,10.1101,17.4179],[-62.6466,10.1051,26.6068],[-62.6626,10.1007,1.8869],[-62.6797,10.0933,12.9865],[-62.6908,10.0923,3.5491],[-62.71,10.0911,3.7366],[-62.7178,10.0937,2.0719],[-62.7269,10.1017,8.1617],[-62.7398,10.1085,9.122],[-62.7639,10.1109,1.495],[-62.7713,10.1097,3.8371],[-62.777,10.1061,1.8613],[-62.7808,10.0997,2.5254],[-62.7844,10.0751,7.0941],[-62.7893,10.0693,21.2965],[-62.7967,10.0691,3.2224],[-62.8049,10.0707,2.6703],[-62.8109,10.0759,1.8013],[-62.8221,10.0901,1.7621],[-62.8266,10.1037,3.2912],[-62.8314,10.1087,3.6267],[-62.8418,10.1091,11.3192],[-62.8558,10.0957,11.3877],[-62.8633,10.0919,10.2416],[-62.8705,10.0917,9.9853],[-62.8747,10.0937,10.5965],[-62.8777,10.1059,12.4269],[-62.883,10.1169,8.5079],[-62.8906,10.1257,3.8968],[-62.9009,10.1311,2.0118],[-62.9121,10.1267,9.8329],[-62.9245,10.1245,1.9638],[-62.9546,10.1293,8.0974],[-62.9671,10.1258,21.9972],[-62.9777,10.1258,6.0769],[-62.9875,10.1305,8.0589],[-63.0119,10.1541,8.8977],[-63.0223,10.1595,26.6973],[-63.0251,10.1593,24.7406],[-63.0386,10.1725,8.1072],[-63.0458,10.2113,103.1017],[-63.0486,10.2201,88.3671],[-63.053,10.2253,142.3799],[-63.0598,10.2267,226.7054],[-63.0837,10.2207,3.7727],[-63.0905,10.2225,6.016],[-63.098,10.2275,4.17],[-63.1012,10.2332,4.4152],[-63.1244,10.236,2.6693],[-63.1278,10.2344,2.7769],[-63.136,10.2378,2.764],[-63.1498,10.2379,2.8197],[-63.182,10.2305,4.7829],[-63.2104,10.2175,205.3127],[-63.2315,10.2173,429.2935],[-63.2454,10.2201,576.307],[-63.2726,10.2308,947.1743],[-63.299,10.2486,500.1855],[-63.3129,10.2562,658.0251],[-63.3392,10.2645,507.433],[-63.3577,10.2722,432.3205],[-63.4059,10.3007,655.9304],[-63.4297,10.3078,208.229],[-63.4494,10.3117,276.9879],[-63.4658,10.3123,237.7034],[-63.4832,10.3101,183.0311],[-63.4963,10.305,505.3511],[-63.5156,10.2944,280.6691],[-63.549,10.2716,431.722],[-63.5581,10.263,787.3065],[-63.5747,10.2515,612.616],[-63.607,10.2322,1095.4912],[-63.6596,10.2152,1541.6616],[-63.7336,10.2045,817.969],[-63.7502,10.2011,872.5823],[-63.7636,10.1963,969.7952],[-63.7772,10.185,1121.4141],[-63.8041,10.1423,1066.4517],[-63.8112,10.1335,1296.0574],[-63.8321,10.1104,1699.4064],[-63.8448,10.0997,1997.941],[-63.8626,10.0913,1940.1343],[-63.8821,10.0851,1918.6735],[-63.9434,10.0724,1910.7931],[-63.963,10.0354,1582.3335],[-63.9839,10.017,1640.6658],[-63.9934,10.0135,1291.3539],[-64.0301,10.0108,1072.396],[-64.0437,10.0064,994.975],[-64.0497,10.0025,1076.1023],[-64.0565,9.9901,684.6345],[-64.0587,9.9728,733.5135],[-64.0583,9.9622,636.6514],[-64.0545,9.9354,622.1328],[-64.0437,9.9153,700.3162],[-64.0343,9.9038,566.9294],[-64.029,9.8995,554.9983],[-64.0226,9.8974,509.2885],[-64.0103,9.8961,642.931],[-63.9856,9.9008,690.9449],[-63.9814,9.8999,764.8143],[-63.9783,9.897,769.4951],[-63.975,9.8863,584.1519],[-63.9721,9.8836,543.8703],[-63.9554,9.877,378.5181],[-63.932,9.8548,450.3605],[-63.9266,9.8463,619.0372],[-63.9266,9.8374,459.904],[-63.9293,9.8306,363.5679],[-63.942,9.817,454.2789],[-63.946,9.8064,561.7692],[-63.949,9.7765,332.2557],[-63.9544,9.7517,292.7459],[-63.9543,9.7132,223.4506],[-63.9518,9.6986,283.0396],[-63.9487,9.6897,274.4122],[-63.8339,9.5435,208.6684],[-63.8789,9.5047,279.1963],[-63.9589,9.4305,316.7624],[-63.9686,9.4191,293.863],[-63.9754,9.4057,310.3891],[-63.9768,9.3989,321.6406],[-63.9773,9.3721,305.6315],[-63.9856,9.3184,259.2428],[-63.9861,9.3029,235.8056],[-63.9844,9.2943,221.2014],[-63.9757,9.2759,215.4769],[-63.94,9.2411,185.029],[-63.9317,9.2253,191.7175],[-63.9284,9.2053,207.9398],[-63.9231,9.1975,213.3125],[-63.9145,9.1919,222.2036],[-63.9027,9.1903,228.6264],[-63.889,9.1909,224.2715],[-63.8056,9.2093,198.9011],[-63.7811,9.2113,203.7474],[-63.7422,9.2093,182.001],[-63.7214,9.2075,172.1488],[-63.6964,9.2009,200.5513],[-63.6774,9.1897,188.031],[-63.6516,9.1777,166.6609],[-63.6376,9.1745,152.6054],[-63.6257,9.1746,168.726],[-63.6139,9.1723,150.9282],[-63.6045,9.1621,154.8938],[-63.6028,9.1551,146.4865],[-63.6027,9.1379,140.5759],[-63.6,9.1315,132.8262],[-63.5949,9.1267,146.0631],[-63.5873,9.1231,141.8894],[-63.5782,9.1215,150.38],[-63.5682,9.1149,138.7083],[-63.5592,9.1037,129.7732],[-63.5348,9.0959,141.4211],[-63.517,9.0817,131.233],[-63.4979,9.0709,132.0259],[-63.4696,9.0419,112.1675],[-63.4456,9.0271,117.2707],[-63.4229,9.0181,97.302],[-63.4011,8.9985,98.2949],[-63.2947,8.7521,129.9526],[-63.2924,8.7411,143.7041],[-62.946,8.7287,75.6304],[-62.9482,8.7175,75.5965],[-62.954,8.7069,76.9507],[-62.9624,8.6988,82.8244],[-62.9768,8.6929,79.3675],[-63.0077,8.6949,87.8611],[-63.0256,8.6911,86.052],[-63.0325,8.6855,94.4036],[-63.0486,8.6645,84.726],[-63.0567,8.6587,95.0657],[-63.065,8.6499,97.2136],[-63.0652,8.6415,95.2798],[-63.0582,8.6247,96.8034],[-63.0468,8.5798,94.1464],[-63.0318,8.5435,94.0439],[-63.0223,8.5269,92.5594],[-63.0052,8.5097,89.4673],[-62.9874,8.4997,83.9466],[-62.9693,8.4919,88.586],[-62.9225,8.4773,83.735],[-62.8586,8.4601,65.5217],[-62.8294,8.4503,49.9404],[-62.7894,8.4333,10.1808],[-62.7406,8.4225,11.8995],[-62.699,8.4089,8.449],[-62.6911,8.4021,9.158],[-62.681399999999996,8.3837,3.0],[-62.6789,8.3683,3.0],[-62.674,8.3528,41.9912]]],
[[[-62.3546,9.8993,0.0],[-62.3557,9.8999,0.0],[-62.3563,9.8982,6.4501],[-62.3563,9.8871,6.7025],[-62.3529,9.8887,0.0],[-62.3532,9.8976,0.0],[-62.3546,9.8993,0.0]]],
[[[-62.4329,10.0517,0.0],[-62.4424,10.0515,0.0],[-62.4454,10.0474,0.0],[-62.446,10.0435,0.0],[-62.4376,10.0388,16.4338],[-62.4335,10.0332,0.0],[-62.4307,10.0224,16.3024],[-62.4301,10.0024,9.1664],[-62.4268,9.9913,0.0],[-62.4232,9.9826,14.3154],[-62.4143,9.9729,16.6402],[-62.4124,9.9649,0.0],[-62.4129,9.959,9.5606],[-62.416,9.9518,7.1496],[-62.4129,9.9471,9.1365],[-62.4154,9.9476,14.1055],[-62.4179,9.951,2.5527],[-62.4212,9.9488,7.6066],[-62.4279,9.9476,7.125],[-62.4299,9.9465,7.3176],[-62.4296,9.9401,6.5985],[-62.426,9.9354,8.8451],[-62.4165,9.9346,13.8981],[-62.4162,9.9354,14.3295],[-62.4196,9.9365,20.7584],[-62.4104,9.9377,13.6819],[-62.4096,9.9351,6.4982],[-62.4074,9.9351,9.9109],[-62.4051,9.9401,8.4271],[-62.4015,9.9391,10.755],[-62.4018,9.9405,12.5307],[-62.4043,9.941,13.7525],[-62.4038,9.944,11.8921],[-62.3999,9.9437,12.5302],[-62.4004,9.9457,13.5652],[-62.3963,9.9479,10.201599999999999],[-62.394,9.9596,10.0484],[-62.3915,9.9635,12.9487],[-62.3899,9.9637,12.9487],[-62.3935,9.9674,8.7512],[-62.3857,9.9687,10.409],[-62.384,9.9724,10.6055],[-62.3807,9.9718,7.1],[-62.3724,9.976,7.1493],[-62.3715,9.9788,5.8525],[-62.3746,9.9854,10.8406],[-62.3799,9.9874,11.0195],[-62.3793,9.9893,0.0],[-62.3846,9.9951,10.059],[-62.3843,9.9965,3.3321],[-62.3879,9.9965,13.3027],[-62.3907,10.0055,2.4795],[-62.3954,10.0119,0.0],[-62.4012,10.0138,0.0],[-62.4037,10.0127,2.4923],[-62.4054,10.0093,7.5844],[-62.4051,10.0132,0.0],[-62.4068,10.0135,17.9696],[-62.4082,10.0199,0.0],[-62.4118,10.0229,5.4041],[-62.4104,10.0249,0.0],[-62.4104,10.0307,2.5081],[-62.4135,10.0332,1.7828],[-62.4179,10.044,0.0],[-62.4329,10.0517,0.0]]]]}}