{"type":"Feature","properties":{"ISO3166-1-Alpha-3":"VEN","country":"Venezuela","fill":"#00F","id":"46","name":"Monagas"},
"geometry":{"type": "MultiPolygon","coordinates": [[[[-62.32006,9.86225,4.8085],[-62.3164,9.88565,26.7601],[-62.32274,9.91006,20.9378],[-62.33113,9.92056,31.2342],[-62.33536,9.92357,0.0],[-62.34337,9.92422,0.0],[-62.34878,9.91372,21.2105],[-62.3509,9.89737,11.0884],[-62.34935,9.8723,26.6974],[-62.33861,9.84569,22.6763],[-62.32575,9.84418,0.0],[-62.32006,9.86225,4.8085]]],
[[[-62.39607,9.97809,23.0145],[-62.3911,9.99335,19.6145],[-62.39761,10.00385,16.613],[-62.40331,10.00629,12.2876],[-62.41564,10.0351,13.3102],[-62.42687,10.04922,0.0],[-62.43619,10.04658,19.643],[-62.43566,10.03319,0.0],[-62.42756,10.00039,17.1572],[-62.42052,9.98265,17.4052],[-62.40892,9.97256,21.525],[-62.39607,9.97809,23.0145]]],
[[[-63.32073,10.21752,1250.9934],[-63.3252,10.22031,1103.3955],[-63.3283,10.22429,1127.6873],[-63.33187,10.23429,1057.7542],[-63.33466,10.23824,819.6729],[-63.34163,10.24056,837.894],[-63.37117,10.24173,1128.639],[-63.37982,10.24467,1173.4229],[-63.38563,10.24832,1244.3876],[-63.38897,10.25175,1011.4926],[-63.39367,10.25384,1024.0273],[-63.39879,10.25532,1176.5986],[-63.40277,10.25795,1133.4628],[-63.40491,10.26167,1113.2197],[-63.40494,10.26648,1117.9672],[-63.40354,10.27105,869.1271],[-63.40289,10.27612,743.2766],[-63.40406,10.28061,601.2789],[-63.4077,10.28371,620.2601],[-63.43054,10.28929,488.5554],[-63.43555,10.29139,556.1482],[-63.43997,10.29402,506.8369],[-63.44359,10.29743,350.0835],[-63.45248,10.30916,275.7138],[-63.45604,10.31265,194.816],[-63.46338,10.31467,159.7677],[-63.47594,10.31281,158.9353],[-63.49932,10.30428,528.9769],[-63.52389,10.28898,319.8771],[-63.53234,10.2817,344.1014],[-63.53547,10.27803,390.5869],[-63.54095,10.2695,527.9362],[-63.54289,10.26431,643.1804],[-63.5442,10.25865,588.4007],[-63.54617,10.23994,983.9843],[-63.54787,10.23475,1039.8643],[-63.55503,10.22963,1066.9702],[-63.57221,10.22661,924.7613],[-63.59836,10.21899,1612.7112],[-63.62304,10.21511,1778.8168],[-63.65632,10.21721,1702.2524],[-63.70102,10.2079,1119.8171],[-63.72223,10.20674,821.7513],[-63.73024,10.20535,794.166],[-63.73957,10.20124,919.476],[-63.75432,10.18974,1152.5216],[-63.76703,10.17765,1091.5072],[-63.80078,10.12775,1366.5946],[-63.82767,10.11582,1561.8381],[-63.93493,10.08479,2355.2788],[-63.94883,10.08261,1952.7645],[-63.95632,10.07747,2177.0793],[-63.98312,10.0636,1724.9003],[-63.98821,10.0622,1607.42],[-63.9942,10.0622,1554.2405],[-64.00601,10.06422,1516.619],[-64.01252,10.06461,1485.1946],[-64.03689,10.06228,1177.7089],[-64.04231,10.06104,1206.8945],[-64.04725,10.05918,1141.0918],[-64.05172,10.0567,1260.4199],[-64.05575,10.05381,1214.6366],[-64.05893,10.05016,1022.5436],[-64.06105,10.04543,984.4427],[-64.06167,9.96864,659.7518],[-64.05924,9.96071,661.889],[-64.05453,9.95218,575.2712],[-64.04247,9.9397,596.6001],[-64.03417,9.93565,696.0709],[-64.02699,9.93441,834.808],[-64.00555,9.93893,771.7011],[-63.9973,9.93844,760.9478],[-63.99234,9.93735,886.7834],[-63.98839,9.93526,815.4686],[-63.98676,9.93131,820.9321],[-63.98924,9.9258,684.0334],[-63.99077,9.92092,629.6122],[-63.99007,9.91619,669.8035],[-63.98319,9.91092,659.8411],[-63.97668,9.90841,688.4763],[-63.95844,9.904,566.2515],[-63.94886,9.89942,555.3326],[-63.9448,9.89648,435.7439],[-63.92524,9.87467,315.6183],[-63.92255,9.86979,351.6905],[-63.92121,9.86397,480.9497],[-63.92291,9.8548,526.8633],[-63.92702,9.85061,494.0943],[-63.93245,9.84821,576.2392],[-63.93803,9.84705,654.085],[-63.94268,9.8448,506.849],[-63.94557,9.84085,618.5237],[-63.94658,9.83418,645.3221],[-63.9455,9.81315,553.9774],[-63.94674,9.80571,561.7692],[-63.94891,9.79966,449.0701],[-63.96053,9.78367,313.6501],[-63.96283,9.77909,323.8354],[-63.96464,9.77405,273.1607],[-63.96557,9.76829,264.7897],[-63.96446,9.76217,291.1242],[-63.96167,9.75597,268.7374],[-63.95557,9.74767,307.3644],[-63.95229,9.74036,286.6293],[-63.95134,9.72912,251.7043],[-63.95224,9.72215,228.5648],[-63.94299,9.70204,281.447],[-63.84664,9.55061,248.8819],[-63.85106,9.54089,245.0107],[-63.85369,9.53756,234.3509],[-63.85674,9.53298,219.5621],[-63.96663,9.41669,292.3347],[-63.96909,9.41103,277.969],[-63.96733,9.37447,315.6065],[-63.97322,9.32388,266.8545],[-63.96878,9.31403,249.6856],[-63.95997,9.30225,216.4896],[-63.92036,9.26515,183.7732],[-63.91524,9.25127,180.6269],[-63.90832,9.20921,221.1215],[-63.9063,9.20548,227.1349],[-63.90258,9.20293,216.6859],[-63.89547,9.20277,211.5539],[-63.88979,9.20386,207.7076],[-63.8848,9.20564,205.4435],[-63.85214,9.22249,195.8013],[-63.84827,9.22543,200.6943],[-63.844,9.22799,191.8754],[-63.83966,9.23008,189.8672],[-63.83349,9.23047,187.3315],[-63.82612,9.22877,186.3401],[-63.81457,9.22458,195.2367],[-63.80695,9.2238,181.3298],[-63.80062,9.2245,179.5666],[-63.79582,9.22652,178.1463],[-63.78274,9.23419,189.0893],[-63.77752,9.23551,176.4057],[-63.77189,9.23628,180.8451],[-63.76013,9.23179,188.0268],[-63.68029,9.18161,160.513],[-63.66505,9.17422,157.7584],[-63.65686,9.17252,166.1815],[-63.65035,9.17213,160.4024],[-63.64422,9.17112,163.5005],[-63.63864,9.16957,154.101],[-63.63363,9.16748,145.826],[-63.62769,9.16314,138.5976],[-63.62149,9.1566,142.0342],[-63.61187,9.14319,134.0053],[-63.60208,9.12231,131.7109],[-63.59759,9.11797,137.4818],[-63.58836,9.1141,132.1371],[-63.5748,9.11006,141.2082],[-63.55573,9.10107,133.6464],[-63.50974,9.06831,115.3764],[-63.50457,9.06296,113.0122],[-63.49643,9.05133,112.2647],[-63.48847,9.04301,110.8852],[-63.47364,9.03247,105.002],[-63.44752,9.02116,106.9205],[-63.43878,9.01594,109.5733],[-63.43393,9.01371,104.3125],[-63.42302,9.01043,95.4636],[-63.41806,9.00826,100.3688],[-63.40416,8.99005,91.236],[-63.37135,8.91865,121.2722],[-63.34016,8.80902,144.4363],[-63.33845,8.80538,148.416],[-63.33698,8.80305,148.1366],[-63.33282,8.79933,143.8336],[-63.32659,8.79569,139.5951],[-63.31471,8.79047,108.6712],[-63.30851,8.78621,101.5662],[-63.30388,8.78179,100.1873],[-63.30094,8.77791,100.7244],[-63.28939,8.77551,96.2753],[-63.26949,8.77497,106.1794],[-62.97576,8.79484,97.3303],[-62.94928,8.79391,78.7261],[-62.9444,8.78171,74.7252],[-62.9492,8.77257,64.9146],[-62.95548,8.76536,67.5868],[-62.95912,8.7621,68.6306],[-62.96326,8.75936,69.2011],[-62.96793,8.75727,67.3667],[-62.97326,8.75634,77.3306],[-62.97899,8.7568,84.1267],[-62.98465,8.75804,83.9317],[-63.00506,8.76551,79.7389],[-63.01062,8.76613,73.6528],[-63.01566,8.76505,80.8174],[-63.02039,8.76308,83.0648],[-63.02426,8.76006,81.6642],[-63.02672,8.75564,73.6324],[-63.02868,8.75053,58.6563],[-63.03005,8.74487,54.6652],[-63.0325,8.74037,58.17],[-63.0554,8.70911,68.8561],[-63.05697,8.70389,79.1823],[-63.05317,8.63345,93.3125],[-63.04876,8.6149,93.4875],[-63.04072,8.59591,94.1864],[-63.02093,8.57488,97.0718],[-63.00341,8.56074,91.3939],[-62.98832,8.5526,87.2962],[-62.74275,8.47338,45.6607],[-62.74066,8.46889,42.153],[-62.74175,8.46463,35.6422],[-62.74461,8.46036,32.4403],[-62.74885,8.45065,19.258],[-62.74994,8.44476,15.0896],[-62.75004,8.43855,12.2884],[-62.74694,8.43235,11.4074],[-62.74128,8.42646,10.4586],[-62.7034,8.40845,6.0],[-62.6941,8.40024,7.0],[-62.68583,8.38572,3.0],[-62.67762,8.39006,11.0999],[-62.59765,8.44799,3.0],[-62.59374,8.4508,3.0],[-62.5653,8.48232,3.0],[-62.55452,8.49116,3.0],[-62.54222,8.49778,3.0],[-62.52985,8.49977,3.0],[-62.52654,8.51343,3.0],[-62.5153,8.51943,11.2281],[-62.50055,8.5201,3.0],[-62.46213,8.51116,3.0],[-62.45037,8.51067,3.0],[-62.4359,8.51382,3.0],[-62.37805,8.53901,3.0],[-62.36637,8.54571,3.0],[-62.35596,8.55428,3.0],[-62.3466,8.56501,3.0],[-62.34337,8.57046,3.0],[-62.34198,8.57444,3.0],[-62.33996,8.57824,3.0],[-62.335,8.58309,3.0],[-62.32965,8.5865,3.0],[-62.32324,8.58937,3.0],[-62.31035,8.59312,6.7334],[-62.25519,8.59415,3.7854],[-62.23953,8.598,3.0],[-62.22886,8.61573,3.0],[-62.2085,8.64976,6.3888],[-62.18615,8.67658,3.0],[-62.18183,8.6804,3.0],[-62.14894,8.70303,3.0],[-62.12339,8.70952,3.0],[-62.08739,8.72513,5.0643],[-62.0752,8.7344,11.3634],[-62.069,8.74825,4.2153],[-62.06683,8.79068,4.8038],[-62.06424,8.7992,9.6923],[-62.05864,8.80822,3.0],[-62.01262,8.8552,12.5281],[-62.00755,8.8638,5.3119],[-62.00507,8.87284,6.987],[-62.00574,8.87951,1.5],[-62.00758,8.88623,6.429],[-62.00864,8.89545,5.5712],[-62.02027,8.89938,8.3008],[-62.04411,8.90124,16.0077],[-62.05556,8.90512,5.4177],[-62.06378,8.91217,0.0],[-62.07205,8.92281,5.1748],[-62.08419,8.94483,12.1527],[-62.08781,8.96819,0.0],[-62.08194,8.98839,0.0573],[-62.0613,9.02557,3.4601],[-62.05308,9.04537,0.0],[-62.05246,9.05529,0.0],[-62.05517,9.06371,5.2187],[-62.06752,9.06591,1.6722],[-62.07241,9.068,2.9221],[-62.08863,9.0718,4.7636],[-62.09378,9.07087,11.2422],[-62.10207,9.068,4.7628],[-62.1162,9.05854,11.0372],[-62.12067,9.05684,10.8287],[-62.12548,9.05606,2.9404],[-62.12873,9.05645,4.3351],[-62.1324,9.05808,10.2374],[-62.13488,9.06172,9.6405],[-62.13662,9.06668,3.1701],[-62.1432,9.09353,3.2398],[-62.14527,9.09758,4.3925],[-62.15194,9.09725,3.8132],[-62.16114,9.09275,2.3275],[-62.18268,9.07942,1.1107],[-62.19359,9.07399,12.9935],[-62.20212,9.07097,0.9735],[-62.20563,9.07128,1.9894],[-62.20974,9.07237,1.3669],[-62.21359,9.07485,0.9884],[-62.21731,9.07787,1.5067],[-62.22648,9.08934,5.0825],[-62.22997,9.09275,1.9056],[-62.23397,9.0957,1.6227],[-62.24769,9.10317,4.0677],[-62.2517,9.10611,2.6753],[-62.25493,9.10983,2.2842],[-62.2572,9.11441,0.966],[-62.26066,9.12433,4.377],[-62.26304,9.12875,2.0433],[-62.2663,9.13187,5.4313],[-62.27074,9.13334,2.3545],[-62.31224,9.13528,1.7613],[-62.31741,9.13699,1.0021],[-62.32133,9.14055,0.8106],[-62.32278,9.1483,1.0358],[-62.32045,9.15639,1.019],[-62.31583,9.16724,0.9803],[-62.30834,9.18073,3.0887],[-62.30547,9.18959,4.3162],[-62.30469,9.19665,0.0],[-62.30632,9.2082,1.4539],[-62.30536,9.22683,3.2157],[-62.30593,9.23249,4.3385],[-62.30792,9.23714,3.1746],[-62.31043,9.2415,2.5875],[-62.31335,9.24538,6.7386],[-62.3149,9.26512,0.9192],[-62.31753,9.27409,0.8907],[-62.32071,9.32214,1.0118],[-62.31883,9.34646,0.9007],[-62.32053,9.35734,1.3111],[-62.32976,9.37064,0.0],[-62.37435,9.39961,1.5633],[-62.38686,9.41723,17.2979],[-62.39097,9.43741,1.7006],[-62.39221,9.45916,1.123],[-62.39606,9.48139,3.5796],[-62.41321,9.48766,0.0],[-62.43086,9.49684,2.237],[-62.4436,9.50929,14.2125],[-62.44613,9.52541,12.8031],[-62.44024,9.54102,15.9317],[-62.41949,9.57352,0.0],[-62.37867,9.61564,12.8537],[-62.37373,9.62554,4.0471],[-62.36707,9.65595,17.1165],[-62.35443,9.67194,12.3705],[-62.33663,9.68672,17.2315],[-62.32363,9.70228,18.4927],[-62.32537,9.71885,0.0],[-62.32698,9.72183,0.0],[-62.32506,9.73652,0.0],[-62.32006,9.75161,20.2687],[-62.31871,9.7683,14.5569],[-62.32429,9.78563,15.2512],[-62.37759,9.88467,11.2916],[-62.39696,9.91144,0.0],[-62.40892,9.92402,0.0959],[-62.42349,9.93232,0.0],[-62.44164,9.93281,24.5776],[-62.43065,9.95392,21.7236],[-62.42618,9.96752,15.4073],[-62.42943,9.98086,15.2899],[-62.44164,10.00104,19.7758],[-62.44188,10.02106,20.2887],[-62.45002,10.03685,20.7069],[-62.46085,10.05191,15.6171],[-62.46955,10.06932,19.7575],[-62.49494,10.1518,22.771],[-62.51757,10.18415,23.7873],[-62.55826,10.21332,10.9919],[-62.57995,10.22443,8.047],[-62.60216,10.23094,8.3786],[-62.61954,10.22443,24.1396],[-62.62658,10.19628,0.0],[-62.62218,10.17573,0.0],[-62.60595,10.13325,22.2444],[-62.60676,10.1103,24.4918],[-62.61852,10.09162,20.6422],[-62.63939,10.07404,8.6217],[-62.66356,10.06086,16.4447],[-62.7167,10.04841,14.9301],[-62.72899,10.0489,12.3733],[-62.73965,10.05427,3.7908],[-62.75772,10.07201,9.5469],[-62.76431,10.07616,15.673],[-62.78498,10.06977,0.0],[-62.78734,10.05146,0.0],[-62.77741,10.01846,22.7727],[-62.78572,10.00202,14.7285],[-62.8011,9.996,20.8481],[-62.8098,10.00373,3.0442],[-62.79792,10.029,20.6615],[-62.81867,10.03067,23.4178],[-62.83092,10.0388,15.5029],[-62.84048,10.04877,20.3316],[-62.85314,10.05565,24.2112],[-62.86803,10.05414,27.3332],[-62.8817,10.04743,10.2774],[-62.89558,10.04401,5.1267],[-62.9112,10.05231,15.3755],[-62.91487,10.06118,14.681],[-62.9099,10.07722,13.7969],[-62.91462,10.08364,15.792],[-62.92219,10.08267,23.6844],[-62.92821,10.07465,18.8524],[-62.93171,10.06501,11.2087],[-62.93163,10.05907,9.8204],[-62.92618,10.04629,22.7656],[-62.93041,10.03482,22.7586],[-62.93248,10.02265,16.5854],[-62.92077,10.00796,13.1462],[-62.93602,10.00825,12.8749],[-62.94445,10.02961,20.0829],[-62.94872,10.0799,21.1711],[-62.95299,10.08808,20.7632],[-62.96231,10.08804,11.9612],[-62.97179,10.08222,0.0],[-62.97598,10.07274,23.9861],[-62.98217,10.06908,7.7583],[-62.99584,10.0788,18.6386],[-63.01,10.09321,20.3736],[-63.01307,10.09737,10.4853],[-63.01679,10.09889,9.3833],[-63.03049,10.10587,26.8677],[-63.03444,10.10858,24.2949],[-63.03966,10.11365,9.9085],[-63.04377,10.11993,0.0],[-63.05093,10.13925,19.866],[-63.05263,10.15941,22.8807],[-63.05418,10.16568,23.3955],[-63.06023,10.18098,22.1983],[-63.06354,10.18726,10.2615],[-63.06813,10.19137,14.0325],[-63.07702,10.19121,22.3514],[-63.08242,10.18881,7.1248],[-63.09079,10.18238,6.522],[-63.0963,10.18199,9.8322],[-63.10242,10.184,6.2048],[-63.10896,10.19067,4.4416],[-63.11291,10.19597,3.8054],[-63.11516,10.20186,3.5595],[-63.11627,10.20612,3.696],[-63.11276,10.21868,6.9008],[-63.15255,10.19604,168.3601],[-63.1657,10.18563,128.0383],[-63.17234,10.17842,111.0959],[-63.17983,10.1716,265.8658],[-63.18495,10.16912,391.6564],[-63.19198,10.16765,516.0579],[-63.20304,10.17106,493.8298],[-63.21053,10.18338,635.8406],[-63.21285,10.18928,823.2651],[-63.21585,10.19168,853.2051],[-63.22061,10.19385,988.6536],[-63.22727,10.19447,847.52],[-63.24404,10.194,1033.8887],[-63.25192,10.19511,1064.3076],[-63.25631,10.19829,1087.1401],[-63.26195,10.20666,1040.9803],[-63.26525,10.21023,1103.2117],[-63.26954,10.21256,1037.0386],[-63.32073,10.21752,1250.9934]]]]}}