{"type": "Feature","bbox": [-69.0761,8.8483,-68.5194,9.2645],"geometry": {"type": "MultiPolygon","coordinates": [[[[-68.6294,9.0372,70.598],[-68.6829,9.0474,73.6595],[-68.6901,9.052,74.7288],[-68.6944,9.0628,75.1135],[-68.7014,9.0652,75.5092],[-68.7287,9.0675,75.0598],[-68.7328,9.0867,76.1641],[-68.7385,9.0922,77.124],[-68.7485,9.0951,78.5794],[-68.757,9.0946,78.1645],[-68.7663,9.0909,78.4506],[-68.8089,9.0647,81.0979],[-68.836,9.0508,81.0647],[-68.8402,9.1928,90.4426],[-68.862,9.1936,91.4357],[-68.8973,9.191,94.1655],[-68.9372,9.1953,97.5876],[-68.9469,9.1994,97.8899],[-68.97,9.2217,101.7365],[-68.9898,9.2436,105.9],[-69.0052,9.2553,105.6172],[-69.0349,9.2626,110.8228],[-69.07,9.2645,113.9019],[-69.0682,9.259,112.979],[-69.0696,9.2491,112.751],[-69.064,9.2438,111.0714],[-69.0631,9.2398,109.9712],[-69.0632,9.2131,106.7413],[-69.0606,9.1949,104.5878],[-69.0601,9.1772,103.2441],[-69.0616,9.1679,102.4939],[-69.0677,9.1574,100.8904],[-69.074,9.1524,99.6788],[-69.0761,9.1435,99.5606],[-69.0746,9.141,98.0337],[-69.0712,9.1408,98.0258],[-69.0606,9.1453,101.0386],[-69.0486,9.1446,101.234],[-69.0407,9.13,98.4816],[-69.0383,9.1166,96.8014],[-69.0421,9.1102,96.4685],[-69.0516,9.1023,96.3817],[-69.0564,9.0939,94.0128],[-69.0591,9.0835,94.9775],[-69.059,9.0745,95.318],[-69.0466,9.0445,88.2458],[-69.0327,9.0226,87.0614],[-69.0248,9.0164,85.8943],[-69.0018,9.0034,86.3742],[-68.9791,8.9858,84.1529],[-68.9699,8.9753,82.0404],[-68.9629,8.9598,82.6802],[-68.9626,8.9468,83.6478],[-68.966,8.9269,81.4608],[-68.9319,8.9121,78.0024],[-68.8905,8.8723,79.7935],[-68.8817,8.8582,79.2407],[-68.8784,8.8555,79.0468],[-68.8488,8.8515,83.5018],[-68.8352,8.8555,76.1257],[-68.8236,8.864,79.3738],[-68.811,8.8799,76.0506],[-68.8016,8.8872,72.5173],[-68.7822,8.8898,73.2158],[-68.7708,8.8956,72.0752],[-68.7412,8.8934,71.5554],[-68.7268,8.8966,70.2543],[-68.7112,8.9094,69.8658],[-68.7024,8.909,69.7424],[-68.6754,8.8955,68.388],[-68.6622,8.8864,68.0213],[-68.6282,8.8751,67.0053],[-68.5885,8.8536,66.0353],[-68.5822,8.8515,65.994],[-68.5711,8.8483,65.997],[-68.5274,8.8486,73.4682],[-68.5194,8.8499,68.5191],[-68.523,8.8548,69.1425],[-68.5358,8.8607,64.7175],[-68.5697,8.8697,65.623],[-68.5855,8.8777,65.8774],[-68.5979,8.8879,66.2726],[-68.6172,8.9136,67.1044],[-68.631,8.9542,67.9711],[-68.6352,8.9795,68.8438],[-68.6346,9.0034,69.1909],[-68.6294,9.0372,70.598]]]]}
,"properties": {"GID_2": "VEN.19.12_1","GID_0": "VEN","country": "Venezuela","GID_1": "VEN.19_1","province": "Portuguesa","NL_NAME_1": "NA","county": "SantaRosalía","VARNAME_2": "NA","NL_NAME_2": "NA","TYPE_2": "Municipio","ENGTYPE_2": "Municipality","CC_2": "NA","HASC_2": "NA","name": "Santa_Rosalía.county","area_km2": 1232.6293,"hist_schema_id": "Elevation0-9000","hist_area_km2": {"75": 811.1207,"100": 419.7508,"125": 1.7578}}}