{"type":"Feature","properties":{"GID_2":"VEN.12.3_1","GID_0":"VEN","country":"Venezuela","GID_1":"VEN.12_1","province":"Falcón","NL_NAME_1":"NA","county":"Buchivacoa","VARNAME_2":"NA","NL_NAME_2":"NA","TYPE_2":"Municipio","ENGTYPE_2":"Municipality","CC_2":"NA","HASC_2":"NA","name":"Buchivacoa.county"},
"geometry":{"type": "MultiPolygon","coordinates": [[[[-70.8124,10.4663,1338.2355],[-70.8144,10.4532,1213.882],[-70.7889,10.4493,944.5718],[-70.7762,10.4426,926.8951],[-70.7583,10.4267,1144.5032],[-70.7487,10.4121,1442.709],[-70.7425,10.3922,1491.7773],[-70.739,10.3447,970.9732],[-70.7281,10.327,1106.6196],[-70.7161,10.3171,1260.1561],[-70.6914,10.3073,1326.8416],[-70.6577,10.3051,1857.4917],[-70.6628,10.3593,1410.8805],[-70.6691,10.4579,603.9274],[-70.6784,10.7263,456.2942],[-70.6823,10.751,380.1907],[-70.6889,10.7625,313.9492],[-70.6996,10.7776,483.3527],[-70.7203,10.7966,316.5108],[-70.7277,10.9232,98.8385],[-70.7282,10.9704,88.8681],[-70.7333,11.0244,70.8458],[-70.7346,11.0593,57.5146],[-70.6385,11.0548,62.7492],[-70.6319,11.0304,63.5799],[-70.6253,11.0153,69.0063],[-70.6181,11.0052,88.0127],[-70.6069,10.9976,89.7082],[-70.5757,10.9855,98.9362],[-70.5683,10.9788,135.5547],[-70.5416,10.9459,182.8595],[-70.538,10.9382,224.5008],[-70.539,10.9187,178.1248],[-70.5363,10.9116,186.9079],[-70.5333,10.9084,221.3107],[-70.5168,10.9001,274.5443],[-70.5099,10.8927,320.2413],[-70.5028,10.8813,421.3514],[-70.5001,10.8719,628.8752],[-70.4983,10.8501,743.3398],[-70.4945,10.8362,995.4606],[-70.4935,10.8021,745.7359],[-70.4949,10.7808,714.1245],[-70.4978,10.7696,858.3745],[-70.533,10.7197,455.6003],[-70.5335,10.7139,435.9768],[-70.5332,10.7064,423.1712],[-70.5284,10.6967,469.7332],[-70.4985,10.6663,719.1531],[-70.4927,10.6549,705.7612],[-70.4901,10.6381,943.8767],[-70.4885,10.6147,669.614],[-70.4889,10.6007,622.2552],[-70.4913,10.589,590.1754],[-70.5063,10.5551,515.4145],[-70.5113,10.5473,514.4567],[-70.5217,10.5164,593.5316],[-70.5204,10.4993,564.6171],[-70.4916,10.4389,775.2299],[-70.4855,10.4484,926.2021],[-70.4742,10.4598,934.1133],[-70.4597,10.4677,1031.6853],[-70.4055,10.4754,1076.1317],[-70.391,10.481,1047.8594],[-70.3785,10.4936,962.8588],[-70.371,10.5107,850.4521],[-70.3661,10.5269,960.4597],[-70.3597,10.5401,904.2327],[-70.3716,10.5441,1028.4991],[-70.3825,10.5513,755.2331],[-70.4082,10.582,652.985],[-70.4143,10.5948,616.1526],[-70.4237,10.6285,598.2679],[-70.4587,10.6938,648.4082],[-70.4615,10.7072,567.1613],[-70.4615,10.7222,503.3158],[-70.458,10.7367,503.6865],[-70.4455,10.7618,539.1786],[-70.4408,10.7815,618.4823],[-70.4364,10.8226,833.3829],[-70.4304,10.8544,961.3731],[-70.4222,10.8843,694.0939],[-70.4111,10.9457,218.3843],[-70.4046,10.9555,206.1709],[-70.3842,10.9718,203.9006],[-70.3696,10.9936,144.4338],[-70.3665,11.0025,151.0801],[-70.3665,11.0158,151.2081],[-70.3563,11.0671,138.5322],[-70.357,11.1242,136.8983],[-70.3553,11.1405,151.873],[-70.3522,11.1496,117.1252],[-70.3238,11.187,98.9578],[-70.3212,11.2146,68.7787],[-70.3175,11.2283,61.713],[-70.3058,11.2479,54.6465],[-70.304,11.2758,28.821],[-70.3081,11.2897,25.7581],[-70.3276,11.3117,12.1382],[-70.3363,11.3188,0.0],[-70.3429,11.316,0.0],[-70.3518,11.3157,0.0],[-70.3565,11.3099,2.5672],[-70.3682,11.3085,3.2064],[-70.3771,11.3093,0.0],[-70.3782,11.3065,5.6048],[-70.3863,11.3065,0.0],[-70.3901,11.3049,1.5805],[-70.3965,11.2996,0.0],[-70.4004,11.2935,2.7556],[-70.4076,11.2904,0.1739],[-70.4129,11.2843,0.0],[-70.4238,11.2793,-0.0067],[-70.4418,11.2785,2.2584],[-70.4599,11.2854,0.9538],[-70.4682,11.2862,0.1195],[-70.4718,11.2896,0.0],[-70.4771,11.2907,0.0],[-70.4821,11.2907,0.0],[-70.4946,11.2863,0.0],[-70.5054,11.2776,0.8636],[-70.5113,11.2699,-0.899],[-70.5157,11.2699,0.4611],[-70.5185,11.2679,0.0],[-70.5257,11.2588,0.0],[-70.5276,11.2537,0.0],[-70.5385,11.2451,0.0],[-70.5413,11.2376,0.1024],[-70.5404,11.2365,0.3386],[-70.5335,11.2468,0.0564],[-70.5307,11.2429,0.0],[-70.5296,11.2457,0.0195],[-70.5246,11.2474,0.0],[-70.5196,11.2563,0.2736],[-70.5149,11.2568,0.0],[-70.5121,11.2624,0.1024],[-70.5099,11.259,0.0],[-70.5104,11.2526,0.1908],[-70.5074,11.2568,0.0],[-70.506,11.2643,0.2627],[-70.5004,11.2682,0.1477],[-70.4993,11.2643,-0.0474],[-70.4982,11.2704,0.0],[-70.4935,11.2743,0.0925],[-70.4924,11.274,0.121],[-70.4912,11.2771,-0.4325],[-70.4887,11.2757,-0.0439],[-70.4938,11.2732,0.0848],[-70.4985,11.2643,-0.0474],[-70.4949,11.264,0.1337],[-70.4912,11.2701,0.2683],[-70.486,11.2738,-0.2722],[-70.4929,11.2629,0.6751],[-70.4957,11.261,0.0],[-70.4996,11.2532,2.026],[-70.5026,11.2529,0.4793],[-70.504,11.2499,0.7006],[-70.5076,11.2482,0.2722],[-70.5074,11.244,3.7081],[-70.509,11.244,1.6898],[-70.5126,11.2482,0.0],[-70.5151,11.2446,0.1449],[-70.5157,11.2382,1.4866],[-70.5226,11.2382,0.134],[-70.5287,11.2318,3.0806],[-70.5321,11.2324,0.0],[-70.5329,11.2368,0.0],[-70.5351,11.2374,0.0],[-70.5401,11.2318,0.8479],[-70.5485,11.2296,0.9597],[-70.5568,11.229,0.0],[-70.5807,11.2315,0.0],[-70.6065,11.2257,0.0],[-70.6354,11.2257,0.0],[-70.6601,11.231,0.0],[-70.6643,11.2304,2.3415],[-70.6712,11.2265,3.7653],[-70.6901,11.2279,0.0],[-70.6968,11.2243,0.0],[-70.7115,11.2276,0.0],[-70.7168,11.2226,2.3931],[-70.736,11.2182,0.0],[-70.741,11.2157,0.0],[-70.7568,11.2135,3.0393],[-70.7624,11.2107,1.0496],[-70.7654,11.2065,6.4714],[-70.7732,11.204,0.0],[-70.7826,11.2035,0.0],[-70.7857,11.2013,0.8929],[-70.8029,11.2021,0.0],[-70.8168,11.1974,0.0],[-70.8432,11.1954,0.0],[-70.8543,11.1874,1.1599],[-70.8557,11.1882,0.0],[-70.8807,11.176,0.0],[-70.8865,11.171,0.0],[-70.8896,11.1704,1.8681],[-70.9196,11.1507,0.0],[-70.9457,11.1393,0.0],[-70.9526,11.1285,4.946],[-70.9574,11.126,3.0396],[-70.9551,11.1301,0.2169],[-70.9579,11.1299,0.0],[-70.964,11.1265,0.0],[-70.9662,11.1229,7.6449],[-70.9796,11.1179,0.0],[-70.9885,11.1126,0.9225],[-70.9142,11.043,27.4569],[-70.909,11.0363,29.54],[-70.8975,11.0147,38.0077],[-70.8893,10.9956,42.997],[-70.8849,10.9806,47.5517],[-70.8754,10.9314,55.5434],[-70.8637,10.8515,90.2457],[-70.8453,10.7585,215.6423],[-70.8255,10.7293,677.1622],[-70.8174,10.714,606.8744],[-70.815,10.7017,338.4421],[-70.8142,10.6134,255.8523],[-70.811,10.5111,598.2199],[-70.8124,10.4663,1338.2355]]],
[[[-70.4987,11.2582,0.0],[-70.5007,11.2582,0.5146],[-70.5018,11.2537,0.4793],[-70.499,11.2563,0.0508],[-70.4987,11.2582,0.0]]],
[[[-70.4976,11.2632,0.1273],[-70.4996,11.2635,0.1996],[-70.4996,11.2596,0.0],[-70.4979,11.261,0.0],[-70.4976,11.2632,0.1273]]]]}}