{"type": "Feature","bbox": [-66.359,10.3801,-65.9799,10.6501],"geometry": {"type": "MultiPolygon","coordinates": [[[[-66.2305,10.3916,67.1255],[-66.1796,10.3904,38.6912],[-66.1372,10.3923,20.3063],[-66.1184,10.3955,21.9431],[-66.1121,10.3982,20.4061],[-66.1086,10.4017,17.2511],[-66.0968,10.3956,18.4976],[-66.0881,10.3945,13.3282],[-66.0791,10.396,8.1566],[-66.0666,10.4018,6.7632],[-66.0539,10.4031,7.9931],[-66.0439,10.3996,4.2851],[-66.035,10.3915,3.4563],[-66.0194,10.3825,7.5803],[-66.0074,10.3804,6.0676],[-65.991,10.3801,9.1622],[-65.9799,10.3874,0.3798],[-65.9882,10.3954,3.5279],[-66.0188,10.4124,1.2876],[-66.0507,10.4349,4.3035],[-66.0529,10.4343,4.7143],[-66.0563,10.4362,2.3399],[-66.056,10.4382,1.249],[-66.0585,10.441,0.4044],[-66.071,10.4507,0.0],[-66.0851,10.4649,2.7914],[-66.0965,10.4801,1.0274],[-66.0976,10.4874,1.803],[-66.1046,10.491,0.8847],[-66.1137,10.5079,0.0],[-66.116,10.5254,0.0],[-66.1124,10.531,2.0561],[-66.1082,10.531,1.0661],[-66.1099,10.5354,0.0],[-66.1143,10.5382,0.2376],[-66.1193,10.5343,2.0997],[-66.1204,10.5363,0.0],[-66.1251,10.5379,10.0973],[-66.1221,10.5413,3.2797],[-66.1165,10.539,3.2588],[-66.1137,10.541,0.0],[-66.1143,10.5443,3.2693],[-66.111,10.5437,1.0256],[-66.1126,10.5407,0.0],[-66.1087,10.5399,0.0],[-66.1057,10.5357,0.0],[-66.1024,10.5396,0.9068],[-66.1029,10.5335,0.5714],[-66.0996,10.5307,0.6451],[-66.094,10.5362,2.3424],[-66.0974,10.5404,0.9588],[-66.0954,10.5401,0.0],[-66.094,10.5426,2.1646],[-66.0912,10.5346,0.0],[-66.0896,10.5346,0.0],[-66.0801,10.5454,0.0],[-66.0768,10.5443,2.5281],[-66.0707,10.5451,0.0],[-66.064,10.5482,1.1071],[-66.0635,10.551,10.6484],[-66.0604,10.5532,0.0],[-66.0601,10.5562,2.3982],[-66.0585,10.5554,0.0],[-66.0557,10.5579,8.9497],[-66.0563,10.5635,8.163],[-66.0521,10.5671,15.3176],[-66.0457,10.5688,0.0],[-66.0462,10.5754,0.0],[-66.0488,10.579,6.2207],[-66.0518,10.5788,0.0],[-66.0543,10.5837,0.0],[-66.0568,10.5837,100.0673],[-66.0582,10.5863,2.849],[-66.0646,10.5885,0.0],[-66.061,10.5793,3.3235],[-66.0679,10.5746,5.6656],[-66.0768,10.576,4.2085],[-66.0985,10.5882,18.7258],[-66.1015,10.5924,-0.4839],[-66.1082,10.5918,34.7016],[-66.1168,10.594,10.3739],[-66.124,10.6004,0.0],[-66.1285,10.6015,10.75],[-66.1343,10.599,8.9968],[-66.1396,10.6018,26.483],[-66.1457,10.6021,3.4647],[-66.1496,10.6051,10.6143],[-66.1518,10.6043,21.5432],[-66.1565,10.6076,0.0],[-66.1651,10.6082,10.0691],[-66.1687,10.6107,0.0],[-66.1715,10.6085,19.0062],[-66.174,10.609,7.6787],[-66.1963,10.6226,1.2021],[-66.2171,10.6396,0.0],[-66.2363,10.6493,2.8081],[-66.2538,10.6488,0.0],[-66.2579,10.6501,14.6681],[-66.274,10.646,16.7123],[-66.2768,10.6471,0.0],[-66.2787,10.6451,28.1347],[-66.2824,10.6462,0.0],[-66.2943,10.6407,0.0],[-66.2996,10.6404,0.0],[-66.3032,10.6379,2.9803],[-66.3051,10.6313,5.5044],[-66.3135,10.6226,2.6477],[-66.3154,10.6174,0.9619],[-66.3179,10.6157,16.1292],[-66.3293,10.614,0.0],[-66.3365,10.6099,12.5685],[-66.3418,10.6096,0.0],[-66.3381,10.6038,119.2925],[-66.356,10.5757,432.1155],[-66.359,10.5674,572.5801],[-66.3488,10.563,446.8648],[-66.3489,10.5355,914.5986],[-66.308,10.5229,851.8433],[-66.2976,10.518,872.8235],[-66.2833,10.5054,642.129],[-66.2798,10.4944,467.1451],[-66.2792,10.4794,319.9093],[-66.2829,10.4724,260.5177],[-66.2788,10.4674,395.7376],[-66.2621,10.4674,189.3082],[-66.2506,10.4657,291.3548],[-66.2077,10.4417,43.1033],[-66.2042,10.4335,57.0227],[-66.2073,10.4247,52.6552],[-66.2221,10.418,48.7947],[-66.2257,10.4137,56.2903],[-66.2287,10.4069,59.2654],[-66.2305,10.3916,67.1255]]]]}
,"properties": {"GID_2": "VEN.16.4_1","GID_0": "VEN","country": "Venezuela","GID_1": "VEN.16_1","province": "Miranda","NL_NAME_1": "NA","county": "Brión","VARNAME_2": "NA","NL_NAME_2": "NA","TYPE_2": "Municipio","ENGTYPE_2": "Municipality","CC_2": "NA","HASC_2": "NA","name": "Brión.county","area_km2": 606.7213,"hist_schema_id": "Elevation0-9000","hist_area_km2": {"0": 101.5388,"25": 86.8754,"50": 83.6638,"75": 50.0684,"100": 39.142,"125": 37.6413,"150": 32.8272,"175": 25.4074,"200": 20.9054,"225": 13.9442,"250": 11.8395,"275": 10.5681,"300": 8.3795,"325": 7.9835,"350": 7.4416,"375": 6.3785,"400": 6.7537,"425": 6.3368,"450": 5.5447,"475": 6.0032,"500": 5.3153,"525": 4.8776,"550": 4.5441,"575": 4.5649,"600": 3.8562,"625": 3.1683,"650": 2.6264,"675": 2.147,"700": 1.4382,"725": 1.1464,"750": 0.938,"775": 0.7921,"800": 0.7504,"825": 0.396,"850": 0.5211,"875": 0.2293,"900": 0.1668}}}