{"type":"Feature","properties":{"GID_2":"VEN.5.9_1","GID_0":"VEN","country":"Venezuela","GID_1":"VEN.5_1","province":"Barinas","NL_NAME_1":"NA","county":"Obispos","VARNAME_2":"NA","NL_NAME_2":"NA","TYPE_2":"Municipio","ENGTYPE_2":"Municipality","CC_2":"NA","HASC_2":"NA","name":"Obispos.county"},
"geometry":{"type": "MultiPolygon","coordinates": [[[[-69.441,8.0995,89.9715],[-69.4508,8.1164,84.9963],[-69.4767,8.153,89.7414],[-69.4925,8.1811,93.949],[-69.4975,8.1938,92.7859],[-69.5025,8.2413,91.0409],[-69.5287,8.2458,94.2699],[-69.5468,8.2549,92.2786],[-69.5694,8.2842,99.6668],[-69.589,8.3185,97.1371],[-69.6034,8.3332,98.8885],[-69.6124,8.34,98.3983],[-69.6204,8.3494,99.399],[-69.6415,8.3832,104.4692],[-69.6552,8.3996,108.1842],[-69.6963,8.425,112.855],[-69.7342,8.4357,109.4043],[-69.7651,8.4487,111.5605],[-69.7722,8.4557,112.6955],[-69.78,8.4657,113.6888],[-69.7924,8.4907,115.2384],[-69.8,8.5122,118.284],[-69.8078,8.5441,120.1375],[-69.8348,8.5762,124.1454],[-69.8529,8.6059,126.5838],[-69.8706,8.6301,129.8542],[-69.887,8.6464,131.8401],[-69.9343,8.6597,137.7538],[-69.9465,8.6685,142.5043],[-69.958,8.6885,141.664],[-69.9668,8.7008,142.2442],[-69.9763,8.7095,142.996],[-69.9908,8.7329,145.8089],[-70.0162,8.7643,153.978],[-70.0237,8.7775,154.3027],[-70.0459,8.7774,163.6914],[-70.0951,8.7863,187.2908],[-70.1109,8.7878,373.7915],[-70.1226,8.7859,260.4442],[-70.1454,8.7715,390.7612],[-70.1582,8.7711,397.6451],[-70.173,8.7768,492.8279],[-70.1981,8.794,401.9248],[-70.2072,8.8023,327.2775],[-70.2143,8.8054,331.759],[-70.2215,8.8031,368.8173],[-70.2269,8.7992,406.4963],[-70.2627,8.7558,354.2775],[-70.2696,8.7501,332.5973],[-70.2575,8.7361,282.0282],[-70.2219,8.7031,233.2128],[-70.2098,8.6948,208.4431],[-70.1769,8.6807,179.6543],[-70.1628,8.6696,173.5444],[-70.1317,8.6419,164.1207],[-70.1179,8.6256,163.3257],[-70.1067,8.6078,155.5254],[-70.0957,8.6025,154.0268],[-70.088,8.5944,149.7829],[-70.0827,8.5837,148.2213],[-70.0733,8.5714,144.432],[-70.051,8.5536,141.2826],[-70.0274,8.5221,137.3869],[-70.017,8.5119,137.0361],[-70.0004,8.5005,134.2066],[-69.9754,8.4893,131.2006],[-69.9659,8.4753,126.3327],[-69.9672,8.448,125.4508],[-69.9664,8.4368,126.272],[-69.962,8.4193,124.853],[-69.9531,8.4042,123.7261],[-69.9314,8.3801,121.3719],[-69.9204,8.3649,120.0569],[-69.8999,8.3421,116.4383],[-69.8832,8.3282,114.6777],[-69.8501,8.3165,111.7968],[-69.835,8.3011,110.617],[-69.8174,8.277,106.8955],[-69.8052,8.2742,108.4009],[-69.7965,8.2751,108.098],[-69.7863,8.272,106.1051],[-69.7371,8.2394,100.6058],[-69.6907,8.212,98.2003],[-69.683,8.2038,96.9101],[-69.6702,8.1828,95.755],[-69.6528,8.1766,100.4188],[-69.6159,8.1717,92.849],[-69.6054,8.1679,98.2629],[-69.5928,8.1585,91.1004],[-69.5746,8.1391,97.9723],[-69.5629,8.1328,88.7942],[-69.5202,8.1214,88.0621],[-69.509,8.1163,93.5197],[-69.4938,8.1031,97.9952],[-69.483,8.0852,84.9374],[-69.4768,8.0695,82.721],[-69.4637,8.0931,89.5635],[-69.4515,8.1001,91.1772],[-69.441,8.0995,89.9715]]]]}}