{"type": "Feature","bbox": [-69.0015,10.1522,-68.84,10.3459],"geometry": {"type": "MultiPolygon","coordinates": [[[[-68.9917,10.3198,795.7341],[-68.9872,10.3156,1027.5291],[-68.9848,10.3099,881.9677],[-68.9835,10.2952,1284.0667],[-68.9864,10.2856,1228.4601],[-68.9967,10.2668,1217.9481],[-69.0009,10.2555,1299.3811],[-69.0015,10.2352,1568.3102],[-69.0008,10.2234,1102.2858],[-68.9955,10.2102,1163.5774],[-68.9895,10.2005,1074.3505],[-68.9717,10.2137,946.5766],[-68.9597,10.2198,934.6495],[-68.9356,10.2236,632.303],[-68.925,10.2223,558.0166],[-68.9226,10.2178,508.9404],[-68.928,10.2044,497.6691],[-68.9275,10.197,457.1522],[-68.9216,10.1853,403.957],[-68.9132,10.1767,367.8167],[-68.9026,10.1712,333.8928],[-68.8829,10.1681,291.4375],[-68.8778,10.1641,276.3485],[-68.871,10.1522,253.89],[-68.8629,10.1605,255.1621],[-68.8549,10.165,248.7575],[-68.84,10.1638,229.7827],[-68.8438,10.1767,240.9739],[-68.8524,10.1921,268.1222],[-68.8726,10.2079,322.3367],[-68.893,10.2288,434.2259],[-68.8968,10.2345,474.1133],[-68.9089,10.263,1015.4235],[-68.9146,10.2714,1030.5745],[-68.9287,10.2843,1448.4434],[-68.9292,10.2929,1201.2502],[-68.9269,10.3014,1083.0435],[-68.9152,10.316,1107.936],[-68.9096,10.3264,989.0687],[-68.9076,10.3357,909.7775],[-68.9103,10.3439,1024.4529],[-68.913,10.3456,810.6677],[-68.9213,10.3459,560.4846],[-68.923,10.3436,570.7155],[-68.9386,10.3356,1018.9551],[-68.9555,10.3227,1441.9441],[-68.9674,10.3196,1230.1028],[-68.9832,10.3193,903.2963],[-68.9904,10.3209,850.0934],[-68.9917,10.3198,795.7341]]]]}
,"properties": {"GID_2": "VEN.24.13_1","GID_0": "VEN","country": "Venezuela","GID_1": "VEN.24_1","province": "Yaracuy","NL_NAME_1": "NA","county": "Urachiche","VARNAME_2": "NA","NL_NAME_2": "NA","TYPE_2": "Municipio","ENGTYPE_2": "Municipality","CC_2": "NA","HASC_2": "NA","name": "Urachiche.county","area_km2": 155.1867,"hist_schema_id": "Elevation0-9000","hist_area_km2": {"225": 0.3548,"250": 4.7164,"275": 6.2188,"300": 5.6344,"325": 5.6552,"350": 5.1334,"375": 4.4656,"400": 3.8395,"425": 3.276,"450": 2.7961,"475": 2.6082,"500": 2.0657,"525": 1.4188,"550": 1.1893,"575": 1.1267,"600": 1.064,"625": 1.2309,"650": 1.1683,"675": 1.3978,"700": 1.4813,"725": 1.4812,"750": 2.1488,"775": 2.128,"800": 2.2949,"825": 2.4826,"850": 2.8164,"875": 2.733,"900": 3.4214,"925": 2.7121,"950": 3.2962,"975": 3.0667,"1000": 3.2336,"1025": 3.2545,"1050": 2.9416,"1075": 3.0876,"1100": 2.7956,"1125": 3.2337,"1150": 2.3783,"1175": 2.7956,"1200": 3.0251,"1225": 2.9208,"1250": 2.8581,"1275": 2.8582,"1300": 2.9208,"1325": 3.1085,"1350": 3.192,"1375": 3.338,"1400": 3.0668,"1425": 3.2755,"1450": 3.484,"1475": 3.0877,"1500": 2.3784,"1525": 1.8986,"1550": 1.4396,"1575": 1.0849,"1600": 0.772,"1625": 0.5633,"1650": 0.3547,"1675": 0.1878,"1700": 0.2295}}}