{"type": "Feature","bbox": [-66.6992,9.2217,-65.9218,10.0594],"geometry": {"type": "MultiPolygon","coordinates": [[[[-66.6992,9.2505,143.7145],[-66.6907,9.2396,155.0947],[-66.681,9.2217,143.7856],[-66.6718,9.2221,149.9349],[-66.651,9.2255,151.6388],[-66.6166,9.2363,155.7921],[-66.6078,9.2417,158.3516],[-66.6016,9.2481,162.0503],[-66.5888,9.2572,169.5278],[-66.5746,9.2622,151.5563],[-66.56,9.2704,152.1906],[-66.5514,9.2785,149.0],[-66.5275,9.3226,167.1965],[-66.5156,9.3349,165.0398],[-66.4799,9.3627,176.2878],[-66.4632,9.3706,171.3803],[-66.4492,9.3801,175.8047],[-66.4255,9.4076,180.7702],[-66.4165,9.4225,175.4492],[-66.4107,9.4378,180.4877],[-66.4035,9.4825,182.8029],[-66.3948,9.511,186.6831],[-66.3854,9.5195,189.3351],[-66.343,9.5416,194.1916],[-66.3155,9.58,221.3863],[-66.2266,9.6015,263.9308],[-66.1405,9.6177,264.9287],[-66.1353,9.623,256.5905],[-66.1288,9.6535,239.8416],[-66.126,9.6598,226.3421],[-66.1175,9.6657,260.2151],[-66.079,9.6732,227.3507],[-66.0596,9.6723,210.4688],[-66.0465,9.6658,181.4205],[-66.0002,9.6279,162.9581],[-65.9775,9.6137,180.9981],[-65.9695,9.6103,206.8033],[-65.9613,9.6094,212.7877],[-65.9786,9.6654,183.6893],[-65.9799,9.6894,261.2984],[-65.9732,9.698,252.1064],[-65.9644,9.7035,222.797],[-65.9602,9.7085,230.9896],[-65.9591,9.7175,217.3803],[-65.9617,9.7235,236.1485],[-65.9749,9.7393,204.1223],[-65.9772,9.7477,214.9567],[-65.9775,9.8365,240.1794],[-65.9749,9.8481,246.7757],[-65.9694,9.8554,243.7571],[-65.9419,9.8833,292.6204],[-65.9336,9.9049,374.9449],[-65.9276,9.9298,433.9612],[-65.9226,9.96,684.9304],[-65.9218,9.9745,665.4337],[-65.9588,9.9749,497.2975],[-66.0206,9.9854,711.7497],[-66.0437,9.9858,454.7796],[-66.0633,9.9798,515.5731],[-66.0844,9.9707,771.9612],[-66.1167,9.9649,648.2081],[-66.135,9.9652,621.7773],[-66.2286,9.9853,703.7244],[-66.2812,9.994,684.0983],[-66.2988,10.0001,863.2501],[-66.3092,10.0077,759.4006],[-66.3385,10.0412,1052.5938],[-66.359,10.0529,620.685],[-66.3821,10.0589,1034.2725],[-66.4017,10.0594,810.9246],[-66.4313,10.0489,656.2465],[-66.4534,10.036,502.2319],[-66.4788,10.0158,1139.4803],[-66.5037,10.0,760.7949],[-66.5243,9.9913,655.9048],[-66.5485,9.983,543.6869],[-66.5697,9.9794,869.3901],[-66.5993,9.9777,985.2593],[-66.6258,9.9792,748.471],[-66.6183,9.9627,859.5634],[-66.6177,9.956,824.9573],[-66.6228,9.9271,618.094],[-66.6208,9.9176,594.1447],[-66.6155,9.9056,571.8021],[-66.609,9.8956,668.3062],[-66.6068,9.8822,701.9843],[-66.6104,9.8506,436.0738],[-66.6099,9.8206,419.9927],[-66.6131,9.802,414.4815],[-66.6193,9.786,390.2662],[-66.6318,9.7682,354.1516],[-66.6358,9.7591,306.2744],[-66.6389,9.7483,287.6964],[-66.6334,9.7486,281.8913],[-66.6386,9.7392,337.1805],[-66.6388,9.7286,280.2231],[-66.6322,9.7145,261.3258],[-66.6201,9.7014,270.6615],[-66.5863,9.6558,262.2427],[-66.5885,9.5881,224.9477],[-66.5965,9.5599,219.0171],[-66.5996,9.5384,209.1378],[-66.5961,9.5196,206.2585],[-66.5777,9.4864,181.8375],[-66.5882,9.4448,172.9716],[-66.5952,9.4284,178.5789],[-66.6004,9.3871,166.5327],[-66.6071,9.3685,160.0069],[-66.6175,9.3471,157.2721],[-66.661,9.2979,155.9763],[-66.6992,9.2505,143.7145]]]]}
,"properties": {"GID_2": "VEN.13.8_1","GID_0": "VEN","country": "Venezuela","GID_1": "VEN.13_1","province": "Guárico","NL_NAME_1": "NA","county": "Monagas","VARNAME_2": "NA","NL_NAME_2": "NA","TYPE_2": "Municipio","ENGTYPE_2": "Municipality","CC_2": "NA","HASC_2": "NA","name": "Monagas.county","area_km2": 3826.83,"hist_schema_id": "Elevation0-9000","hist_area_km2": {"150": 145.667,"175": 267.345,"200": 336.527,"225": 445.354,"250": 494.044,"275": 419.044,"300": 299.043,"325": 177.032,"350": 129.497,"375": 102.775,"400": 70.98,"425": 58.946,"450": 57.044,"475": 54.097,"500": 53.865,"525": 55.598,"550": 56.557,"575": 56.035,"600": 54.446,"625": 52.378,"650": 46.989,"675": 43.606,"700": 39.429,"725": 36.024,"750": 31.158,"775": 27.754,"800": 24.307,"825": 21.488,"850": 19.024,"875": 16.413,"900": 14.158,"925": 12.487,"950": 11.109,"975": 9.814,"1000": 9.375,"1025": 8.603,"1050": 8.269,"1075": 7.454,"1100": 7.83,"1125": 6.765,"1150": 5.867,"1175": 5.846,"1200": 4.907,"1225": 4.489,"1250": 3.341,"1275": 3.09,"1300": 2.84,"1325": 2.004,"1350": 1.587,"1375": 1.399,"1400": 0.94,"1425": 0.835,"1450": 0.647,"1475": 0.355,"1500": 0.23,"1525": 0.125}}}