{"type":"Feature","properties":{"GID_2":"VEN.12.7_1","GID_0":"VEN","country":"Venezuela","GID_1":"VEN.12_1","province":"Falcón","NL_NAME_1":"NA","county":"Dabajuro","VARNAME_2":"NA","NL_NAME_2":"NA","TYPE_2":"Municipio","ENGTYPE_2":"Municipality","CC_2":"NA","HASC_2":"NA","name":"Dabajuro.county"},
"geometry":{"type": "MultiPolygon","coordinates": [[[[-70.6577,10.3051,1857.4917],[-70.657,10.3018,1773.7505],[-70.6313,10.3262,1998.4895],[-70.6149,10.3358,1753.1809],[-70.5908,10.3459,1137.183],[-70.5726,10.3504,907.6199],[-70.5594,10.3503,1113.7965],[-70.5395,10.354,1012.8468],[-70.5293,10.3668,1009.7828],[-70.516,10.4007,713.4095],[-70.4916,10.4389,775.2299],[-70.5204,10.4993,564.6171],[-70.5217,10.5164,593.5316],[-70.5113,10.5473,514.4567],[-70.5063,10.5551,515.4145],[-70.4913,10.589,590.1754],[-70.4889,10.6007,622.2552],[-70.4885,10.6147,669.614],[-70.4901,10.6381,943.8767],[-70.4927,10.6549,705.7612],[-70.4985,10.6663,719.1531],[-70.5284,10.6967,469.7332],[-70.5332,10.7064,423.1712],[-70.5335,10.7139,435.9768],[-70.533,10.7197,455.6003],[-70.4978,10.7696,858.3745],[-70.4949,10.7808,714.1245],[-70.4935,10.8021,745.7359],[-70.4945,10.8362,995.4606],[-70.4983,10.8501,743.3398],[-70.5001,10.8719,628.8752],[-70.5028,10.8813,421.3514],[-70.5099,10.8927,320.2413],[-70.5168,10.9001,274.5443],[-70.5333,10.9084,221.3107],[-70.5363,10.9116,186.9079],[-70.539,10.9187,178.1248],[-70.538,10.9382,224.5008],[-70.5416,10.9459,182.8595],[-70.5552,10.964,141.1545],[-70.5757,10.9855,98.9362],[-70.6069,10.9976,89.7082],[-70.6181,11.0052,88.0127],[-70.6253,11.0153,69.0063],[-70.6319,11.0304,63.5799],[-70.6385,11.0548,62.7492],[-70.7346,11.0593,57.5146],[-70.7333,11.0244,70.8458],[-70.7282,10.9704,88.8681],[-70.7277,10.9232,98.8385],[-70.7203,10.7966,316.5108],[-70.6996,10.7776,483.3527],[-70.6889,10.7625,313.9492],[-70.6823,10.751,380.1907],[-70.6784,10.7263,456.2942],[-70.6691,10.4579,603.9274],[-70.6628,10.3593,1410.8805],[-70.6577,10.3051,1857.4917]]]]}}