{"type":"Feature","properties":{"GID_2":"VEN.12.24_1","GID_0":"VEN","country":"Venezuela","GID_1":"VEN.12_1","province":"Falcón","NL_NAME_1":"NA","county":"Urumaco","VARNAME_2":"NA","NL_NAME_2":"NA","TYPE_2":"Municipio","ENGTYPE_2":"Municipality","CC_2":"NA","HASC_2":"NA","name":"Urumaco.county"},
"geometry":{"type": "MultiPolygon","coordinates": [[[[-70.4164,10.9166,651.4308],[-70.3864,10.9247,451.7125],[-70.3446,10.9304,298.3784],[-70.3294,10.9228,507.6442],[-70.3142,10.9247,550.5427],[-70.2952,10.9247,629.5914],[-70.2725,10.938,405.2628],[-70.2668,10.9437,463.39],[-70.2592,10.9551,351.3364],[-70.2554,10.9779,336.8428],[-70.2497,10.993,322.9832],[-70.2421,11.0025,264.5574],[-70.2402,11.012,254.1362],[-70.2269,11.0291,227.9751],[-70.2231,11.0405,221.4619],[-70.2193,11.0462,210.8401],[-70.2098,11.0519,207.1803],[-70.2079,11.0595,205.7286],[-70.2136,11.0595,201.2106],[-70.2193,11.0652,205.103],[-70.2212,11.0728,186.3785],[-70.206,11.0785,276.8636],[-70.1946,11.0785,410.6304],[-70.1223,11.1177,501.7294],[-70.1244,11.1273,280.7609],[-70.1286,11.1991,128.7556],[-70.1312,11.2148,166.2715],[-70.1399,11.2232,150.0744],[-70.1476,11.2267,137.3813],[-70.1542,11.2337,103.8859],[-70.1615,11.2481,84.3176],[-70.1979,11.2814,49.233],[-70.2116,11.311,30.5768],[-70.2191,11.3229,19.9394],[-70.2365,11.3426,0.4063],[-70.2443,11.3415,0.7223],[-70.2637,11.351,0.104],[-70.2654,11.351,0.4012],[-70.2657,11.3465,0.5872],[-70.2685,11.3462,1.5402],[-70.2682,11.3482,0.7237],[-70.2699,11.3496,0.335],[-70.2721,11.3485,0.9358],[-70.2715,11.346,1.4037],[-70.2688,11.346,1.5402],[-70.2696,11.3429,1.5302],[-70.2735,11.3474,0.8829],[-70.2724,11.3529,0.242],[-70.2776,11.3515,0.1412],[-70.2793,11.3543,0.0638],[-70.2929,11.3496,0.0],[-70.2949,11.3426,0.0127],[-70.3063,11.334,0.0601],[-70.2915,11.3415,-0.2936],[-70.3071,11.331,-0.0973],[-70.3121,11.3282,0.0457],[-70.3124,11.3288,0.0212],[-70.3096,11.3307,0.0],[-70.3112,11.3313,0.0],[-70.3104,11.3329,0.0],[-70.3196,11.331,0.0],[-70.3218,11.3285,0.3055],[-70.3262,11.3276,0.0],[-70.3313,11.3204,-0.0306],[-70.3363,11.3188,0.0],[-70.3276,11.3117,12.1382],[-70.3081,11.2897,25.7581],[-70.304,11.2758,28.821],[-70.3058,11.2479,54.6465],[-70.3175,11.2283,61.713],[-70.3212,11.2146,68.7787],[-70.3238,11.187,98.9578],[-70.3522,11.1496,117.1252],[-70.3553,11.1405,151.873],[-70.357,11.1242,136.8983],[-70.3563,11.0671,138.5322],[-70.3665,11.0158,151.2081],[-70.3665,11.0025,151.0801],[-70.3696,10.9936,144.4338],[-70.3842,10.9718,203.9006],[-70.4046,10.9555,206.1709],[-70.4111,10.9457,218.3843],[-70.4164,10.9166,651.4308]]]]}}