{"type":"Feature","properties":{"GID_2":"VEN.16.10_1","GID_0":"VEN","country":"Venezuela","GID_1":"VEN.16_1","province":"Miranda","NL_NAME_1":"NA","county":"Guaicaipuro","VARNAME_2":"NA","NL_NAME_2":"NA","TYPE_2":"Municipio","ENGTYPE_2":"Municipality","CC_2":"NA","HASC_2":"NA","name":"Guaicaipuro.county"},
"geometry":{"type": "MultiPolygon","coordinates": [[[[-67.1341,10.3297,1520.3013],[-67.1269,10.3125,1407.106],[-67.0901,10.2858,819.4588],[-67.0797,10.2765,882.6273],[-67.0732,10.2635,584.3152],[-67.073,10.2509,663.3738],[-67.0832,10.2241,893.9546],[-67.0942,10.1808,799.9743],[-67.0821,10.1539,917.5704],[-67.0675,10.113,551.591],[-67.0626,10.1074,604.9961],[-67.0508,10.1019,608.0711],[-66.9885,10.0968,617.2852],[-66.9714,10.0948,554.7395],[-66.9628,10.0914,626.5337],[-66.9713,10.1024,529.8934],[-66.985,10.1162,654.2039],[-66.9887,10.1233,602.1221],[-66.9891,10.1339,540.2692],[-66.9876,10.1403,638.9122],[-66.9787,10.1531,603.1851],[-66.9787,10.1568,502.6707],[-66.9495,10.169,281.4335],[-66.9416,10.1762,309.4397],[-66.9372,10.1852,322.0368],[-66.9335,10.2036,443.0907],[-66.9336,10.2159,628.0474],[-66.9384,10.2279,649.2028],[-66.938,10.2373,881.9174],[-66.8976,10.2479,717.8347],[-66.881,10.2607,566.4965],[-66.8718,10.2754,464.1058],[-66.8697,10.2888,544.5438],[-66.8483,10.337,1010.4636],[-66.8186,10.3486,750.3573],[-66.8276,10.3549,841.0623],[-66.8307,10.3611,1107.0215],[-66.8393,10.3679,1049.2634],[-66.8476,10.3701,768.3233],[-66.8672,10.3801,876.2076],[-66.8885,10.3832,1264.5865],[-66.9055,10.3903,1200.6038],[-66.9119,10.3907,1235.0525],[-66.9166,10.3867,1201.1951],[-66.926,10.368,1176.7405],[-66.9287,10.366,1265.6874],[-66.933,10.3661,1311.9982],[-66.9418,10.3695,1337.5043],[-66.9435,10.3334,1175.5992],[-66.9382,10.3186,917.9128],[-66.9536,10.315,862.6579],[-66.9631,10.3152,932.9739],[-66.9807,10.3188,782.0491],[-66.9792,10.3309,837.7584],[-66.9805,10.3389,1145.5791],[-66.9871,10.3544,1342.1383],[-66.9855,10.392,1631.0316],[-66.9876,10.404,1466.0067],[-67.0034,10.4043,1271.8246],[-67.0228,10.4074,1210.7085],[-67.0597,10.4175,1189.8485],[-67.1076,10.4363,1776.2333],[-67.1166,10.4429,1665.1963],[-67.1263,10.4475,1866.0885],[-67.1388,10.4457,1881.3674],[-67.1717,10.4187,1859.4548],[-67.157,10.4006,2038.4036],[-67.1444,10.3784,1795.9364],[-67.1392,10.3625,1845.3589],[-67.1341,10.3297,1520.3013]]]]}}