{"type": "Feature","bbox": [-62.9708,7.9699,-62.4763,8.3971],"geometry": {"type": "MultiPolygon","coordinates": [[[[-62.9708,8.2583,30.0311],[-62.9185,7.9699,139.3886],[-62.9102,7.9815,122.7714],[-62.9045,7.9867,139.2899],[-62.8857,7.9927,88.0],[-62.8345,8.0366,88.0],[-62.781,8.0366,91.2802],[-62.7831,8.0348,97.9597],[-62.5393,8.0448,393.2463],[-62.4763,8.363,200.898],[-62.5285,8.3903,225.4352],[-62.5355,8.391,114.1612],[-62.5481,8.3971,96.6576],[-62.5617,8.388,110.7722],[-62.581,8.3574,26.2977],[-62.6207,8.3258,35.7295],[-62.6339,8.3222,54.1259],[-62.6446,8.3222,79.6255],[-62.6688,8.3245,27.7321],[-62.6926,8.3243,7.5563],[-62.7172,8.3286,9.2439],[-62.7241,8.3275,23.1519],[-62.7317,8.324,48.3004],[-62.7488,8.3093,85.2707],[-62.7909,8.2473,125.9007],[-62.8088,8.2329,117.5408],[-62.8253,8.2255,114.5433],[-62.8346,8.225,113.8061],[-62.848,8.2291,118.1917],[-62.8701,8.245,87.5294],[-62.8959,8.2698,3.0],[-62.9055,8.2761,3.5552],[-62.9144,8.2793,3.0],[-62.9407,8.28,3.0],[-62.9675,8.2897,9.4244],[-62.9675,8.2588,22.9499],[-62.9708,8.2583,30.0311]]]]}
,"properties": {"GID_2": "VEN.6.2_1","GID_0": "VEN","country": "Venezuela","GID_1": "VEN.6_1","province": "Bolívar","NL_NAME_1": "NA","county": "Caroní","VARNAME_2": "NA","NL_NAME_2": "NA","TYPE_2": "Municipio","ENGTYPE_2": "Municipality","CC_2": "NA","HASC_2": "NA","name": "Caroní.county","area_km2": 1493.463,"hist_schema_id": "Elevation0-9000","hist_area_km2": {"0": 18.274,"25": 32.96,"50": 134.935,"75": 169.555,"100": 452.277,"125": 217.299,"150": 92.49,"175": 53.56,"200": 48.188,"225": 43.97,"250": 30.518,"275": 26.573,"300": 28.106,"325": 32.452,"350": 29.367,"375": 19.711,"400": 19.186,"425": 18.326,"450": 11.923,"475": 7.242,"500": 3.947,"525": 1.679,"550": 0.798,"575": 0.126}}}