{"type": "Feature","bbox": [-65.8666,9.9679,-65.3885,10.2004],"geometry": {"type": "MultiPolygon","coordinates": [[[[-65.4742,10.0601,206.6257],[-65.4274,10.0895,125.8548],[-65.414,10.0998,79.6941],[-65.401,10.1127,46.5239],[-65.3885,10.1301,4.8864],[-65.4407,10.1432,0.8311],[-65.4437,10.1415,3.2533],[-65.4449,10.1435,2.095],[-65.4943,10.1574,0.0],[-65.496,10.1557,2.3281],[-65.5001,10.159,0.0],[-65.5735,10.1804,3.8177],[-65.631,10.2004,4.9765],[-65.8339,10.1993,77.4053],[-65.8342,10.1653,106.7812],[-65.8279,10.1449,156.9799],[-65.8199,10.1271,379.3438],[-65.8178,10.1123,484.6393],[-65.8188,10.1023,230.3498],[-65.8282,10.0862,447.8601],[-65.851,10.0718,347.4129],[-65.8598,10.0631,392.706],[-65.8643,10.0552,607.1061],[-65.8662,10.046,443.861],[-65.8666,9.9874,579.4468],[-65.861,9.974,748.1671],[-65.7732,9.9729,446.9786],[-65.7266,9.9679,506.5558],[-65.672,9.9712,592.7399],[-65.6465,9.9753,580.6379],[-65.6099,9.9854,458.6148],[-65.565,10.0083,175.8232],[-65.516,10.0276,263.745],[-65.5071,10.0324,262.8872],[-65.4742,10.0601,206.6257]]]]}
,"properties": {"GID_2": "VEN.16.16_1","GID_0": "VEN","country": "Venezuela","GID_1": "VEN.16_1","province": "Miranda","NL_NAME_1": "NA","county": "PedroGual","VARNAME_2": "NA","NL_NAME_2": "NA","TYPE_2": "Municipio","ENGTYPE_2": "Municipality","CC_2": "NA","HASC_2": "NA","name": "Pedro_Gual.county","area_km2": 952.4605,"hist_schema_id": "Elevation0-9000","hist_area_km2": {"0": 70.1615,"25": 75.0048,"50": 41.7413,"75": 35.8778,"100": 37.6741,"125": 39.8249,"150": 45.5873,"175": 49.3664,"200": 50.1819,"225": 49.1392,"250": 46.4682,"275": 44.1522,"300": 40.0819,"325": 35.5522,"350": 35.2819,"375": 33.1948,"400": 31.2956,"425": 28.2894,"450": 24.7822,"475": 22.8618,"500": 19.4795,"525": 18.5612,"550": 15.4714,"575": 13.3626,"600": 11.2539,"625": 8.7275,"650": 6.9737,"675": 5.4286,"700": 4.4264,"725": 3.7583,"750": 2.6517,"775": 2.1088,"800": 1.3781,"825": 1.044,"850": 0.5846,"875": 0.2923,"900": 0.1462,"925": 0.1879,"950": 0.0626,"975": 0.0209,"1000": 0.0209}}}