{"type": "Feature","bbox": [-71.3995,8.2759,-71.1367,8.6927],"geometry": {"type": "MultiPolygon","coordinates": [[[[-71.3979,8.5918,2771.7139],[-71.3948,8.5822,2469.1323],[-71.3858,8.5692,2340.4622],[-71.3712,8.5543,1877.0327],[-71.3697,8.5483,1823.1853],[-71.379,8.5352,1750.2936],[-71.3834,8.5258,1409.3396],[-71.3843,8.4984,1023.3658],[-71.3816,8.4751,647.851],[-71.3753,8.4534,1643.2151],[-71.3756,8.4371,2122.127],[-71.3802,8.4201,1859.6096],[-71.3782,8.4116,1966.9558],[-71.3599,8.3806,2159.1118],[-71.3545,8.3573,3072.6284],[-71.3611,8.3251,3402.4124],[-71.3606,8.3135,3016.8511],[-71.3579,8.3045,2979.2974],[-71.3328,8.3113,2960.7878],[-71.2518,8.3243,2544.1299],[-71.2253,8.3206,1988.0743],[-71.1992,8.3124,2569.6006],[-71.1924,8.3068,3052.2498],[-71.1771,8.2826,2341.03],[-71.1671,8.2759,1727.9294],[-71.1568,8.2866,2282.8206],[-71.1367,8.3146,1821.2896],[-71.1456,8.3255,2374.7146],[-71.1604,8.3375,2847.2324],[-71.1721,8.3512,2872.5989],[-71.1965,8.3877,2422.0063],[-71.2066,8.4091,2238.6897],[-71.2234,8.4271,1904.3549],[-71.2017,8.4369,1628.4843],[-71.19,8.4457,1747.3733],[-71.1808,8.4504,1984.1669],[-71.1897,8.4677,2530.158],[-71.1912,8.4803,2745.9231],[-71.1899,8.4851,2774.4844],[-71.186,8.4879,2758.9478],[-71.1872,8.5234,2043.6632],[-71.1944,8.5458,1300.9868],[-71.1975,8.5621,1274.1047],[-71.198,8.5686,1312.9209],[-71.196,8.5781,1507.0364],[-71.1986,8.5832,1591.4314],[-71.1998,8.5932,1753.334],[-71.2104,8.6219,2483.467],[-71.2103,8.6341,2596.552],[-71.207,8.6397,2457.9585],[-71.1996,8.6458,2727.2075],[-71.1693,8.6579,2571.2742],[-71.1633,8.665,2997.9412],[-71.1604,8.6722,3526.5532],[-71.1603,8.6902,3501.5789],[-71.1761,8.6927,3723.0122],[-71.1915,8.6911,3685.0176],[-71.2591,8.6649,3887.0581],[-71.3574,8.6595,2027.0175],[-71.3877,8.6463,2262.6792],[-71.3863,8.6383,2438.2805],[-71.3804,8.6358,2444.7727],[-71.3778,8.6328,2388.9385],[-71.3857,8.6289,2542.8999],[-71.3915,8.6213,2701.8909],[-71.3995,8.5966,2902.9329],[-71.3979,8.5918,2771.7139]]]]}
,"properties": {"GID_2": "VEN.15.6_1","GID_0": "VEN","country": "Venezuela","GID_1": "VEN.15_1","province": "Mérida","NL_NAME_1": "NA","county": "CampoElías","VARNAME_2": "NA","NL_NAME_2": "NA","TYPE_2": "Municipio","ENGTYPE_2": "Municipality","CC_2": "NA","HASC_2": "NA","name": "Campo_Elías.county","area_km2": 826.0197,"hist_schema_id": "Elevation0-9000","hist_area_km2": {"650": 0.2307,"675": 0.6501,"700": 0.9646,"725": 1.3421,"750": 1.5727,"775": 1.5098,"800": 2.2018,"825": 2.3066,"850": 2.8099,"875": 2.9986,"900": 3.397,"925": 3.9003,"950": 4.1938,"975": 4.8019,"1000": 5.0535,"1025": 5.4728,"1050": 5.6196,"1075": 5.976,"1100": 5.1582,"1125": 6.0388,"1150": 5.5984,"1175": 6.0178,"1200": 5.6194,"1225": 5.7871,"1250": 5.5356,"1275": 5.2211,"1300": 5.1582,"1325": 5.0324,"1350": 5.3679,"1375": 4.9485,"1400": 6.1437,"1425": 6.647,"1450": 5.8082,"1475": 6.1857,"1500": 5.976,"1525": 5.8501,"1550": 6.605,"1575": 6.4582,"1600": 6.8777,"1625": 6.3953,"1650": 7.1293,"1675": 6.9405,"1700": 6.9615,"1725": 7.3181,"1750": 7.5907,"1775": 8.4503,"1800": 7.36,"1825": 8.01,"1850": 7.8634,"1875": 8.0102,"1900": 8.0941,"1925": 8.3248,"1950": 8.8281,"1975": 8.3456,"2000": 8.975,"2025": 8.262,"2050": 8.87,"2075": 8.9119,"2100": 9.478,"2125": 10.3379,"2150": 9.8346,"2175": 10.6524,"2200": 10.5265,"2225": 10.3798,"2250": 11.0929,"2275": 12.4559,"2300": 13.19,"2325": 12.4768,"2350": 11.9737,"2375": 12.3301,"2400": 11.1561,"2425": 11.2819,"2450": 11.0724,"2475": 10.7581,"2500": 11.241,"2525": 10.968,"2550": 11.5344,"2575": 10.1923,"2600": 11.3039,"2625": 10.2976,"2650": 10.9893,"2675": 10.1507,"2700": 10.2765,"2725": 9.6475,"2750": 9.9831,"2775": 9.5848,"2800": 8.5357,"2825": 9.1861,"2850": 8.2423,"2875": 8.9556,"2900": 8.5151,"2925": 7.9698,"2950": 7.8229,"2975": 7.2774,"3000": 7.9066,"3025": 7.6549,"3050": 7.005,"3075": 6.7321,"3100": 6.858,"3125": 6.3546,"3150": 5.7673,"3175": 4.9913,"3200": 4.5925,"3225": 3.9844,"3250": 3.9634,"3275": 4.0472,"3300": 3.5229,"3325": 3.7745,"3350": 4.0679,"3375": 3.4387,"3400": 3.5855,"3425": 3.4804,"3450": 3.6061,"3475": 2.8301,"3500": 2.9771,"3525": 2.7464,"3550": 2.5157,"3575": 1.9496,"3600": 2.4317,"3625": 2.138,"3650": 1.4672,"3675": 2.1379,"3700": 1.5301,"3725": 1.5511,"3750": 1.1528,"3775": 0.9432,"3800": 1.069,"3825": 0.7126,"3850": 0.5869,"3875": 0.3773,"3900": 0.503,"3925": 0.3563,"3950": 0.2306,"3975": 0.3354,"4000": 0.1467,"4025": 0.1677,"4050": 0.1258,"4075": 0.1048,"4100": 0.1048,"4125": 0.0838,"4150": 0.0419,"4175": 0.021}}}