{"type":"Feature","properties":{"featurecla":"River","scalerank":9,"rivernum":1019,"dissolve":"1019River","name":"null17","name_alt":null,"note":null,"min_zoom":7.1,"strokeweig":0.25,"name_en":null,"min_label":8.1},
"geometry":{"type": "LineString","coordinates": [[-64.514990234374991,6.3108096374941169,198.4898],[-64.522070312499991,6.3156924499941169,182.3135],[-64.530688476562489,6.3188662781191169,63.3197],[-64.5400390625,6.32050202030662,156.9561],[-64.549169921874991,6.32099030155662,166.3713],[-64.554736328124989,6.32477448124412,189.5687],[-64.573046874999989,6.34894440311912,144.8564],[-64.586035156249991,6.35773346561912,74.9992],[-64.634521484375,6.3830752624941169,95.7699],[-64.678955078125,6.35480377811912,94.1465],[-64.703857421875,6.34723541874412,67.7928],[-64.730712890625,6.35578034061912,80.8666],[-64.758056640625,6.3371768249941169,72.6544],[-64.764892578125,6.33466217655662,68.1612],[-64.777148437499989,6.3371768249941169,57.4992],[-64.78125,6.34235260624412,80.2274],[-64.783251953124989,6.3498721374941169,76.7043],[-64.789355468749989,6.35919830936912,82.6476],[-64.796679687499989,6.37860748905662,69.6958],[-64.793212890625,6.40314362186912,68.037],[-64.778491210937489,6.44452545780662,43.0],[-64.771728515625,6.4880557312441169,76.6868],[-64.773242187499989,6.5101260437441084,64.2756],[-64.7822265625,6.51959869999412,68.9535],[-64.79638671875,6.5256533874941169,68.1141],[-64.810107421874989,6.5396670593691084,67.8019],[-64.820971679687489,6.55560944218162,44.8057],[-64.826269531249991,6.56745026249412,66.1754],[-64.825927734375,6.58502838749412,60.3449],[-64.819140624999989,6.6030459656191169,43.0674],[-64.808349609375,6.61701080936912,39.5],[-64.778417968749991,6.6320986999941169,66.4207],[-64.777929687499991,6.6534365906191084,68.8208],[-64.785693359374989,6.6765322937441169,42.99],[-64.792773437499989,6.6909365906191169,52.7004]]}}