{"type":"Feature","properties":{"featurecla":"Lake Centerline","scalerank":7,"rivernum":416,"dissolve":"416Lake Centerline","name":"Caroní","name_alt":null,"note":null,"min_zoom":6.0,"strokeweig":0.25,"name_en":"Caroní","min_label":7.0},
"geometry":{"type": "LineString","coordinates": [[-62.997119140624989,7.7740420593691084,135.9012],[-62.993579101562489,7.76093170780662,266.0],[-62.979248046875,7.7381533874941084,302.962],[-62.955126953124989,7.7164248718691084,266.0],[-62.937548828124989,7.6893252624941084,266.0],[-62.927050781249989,7.66486237186912,266.0],[-62.908862304687489,7.63617584843162,266.0],[-62.892333984375,7.60370514530662,266.0],[-62.875830078124991,7.5787295593691084,266.0],[-62.845629882812489,7.56183502811912,266.0],[-62.824072265624991,7.53851959843162,266.0],[-62.812597656249991,7.4796084656191084,266.0],[-62.80810546875,7.44611237186912,266.0],[-62.802587890624991,7.4135928406191169,266.0],[-62.7939453125,7.3886904968691169,266.0],[-62.789648437499991,7.3647647156191169,266.0],[-62.786962890624991,7.34540436405662,266.0],[-62.781054687499989,7.32599518436912,266.0],[-62.779638671874991,7.3015322937441169,266.0],[-62.782470703125,7.28143952030662,266.0],[-62.805419921875,7.22833893436912,266.0],[-62.820556640625,7.20465729374412,266.0],[-62.839941406249991,7.1809268249941169,266.0],[-62.855419921875,7.16803619999412,266.0],[-62.897387695312489,7.10822174686912,266.0],[-62.921777343749994,7.07758209843162,266.0],[-62.938647460937489,7.04096100468162,266.0],[-62.944726562499994,7.0129580749941169,266.0],[-62.94384765625,6.9879092468691084,266.0],[-62.94189453125,6.9641299499941169,266.0],[-62.944580078125,6.9375186218691169,272.7523],[-62.937548828124989,6.9066104187441084,266.0],[-62.918872070312489,6.89203522343162,266.0],[-62.895922851562489,6.88080475468162,266.0],[-62.872412109374991,6.85687897343162,266.0],[-62.862890624999991,6.84052155155662,290.4338],[-62.855883789062489,6.81525299686912,317.0215]]}}