{"type":"Feature","properties":{"featurecla":"River","scalerank":7,"rivernum":416,"dissolve":"416River","name":"Caroní2","name_alt":null,"note":null,"min_zoom":6.0,"strokeweig":0.2,"name_en":"Caroní","min_label":7.0},
"geometry":{"type": "LineString","coordinates": [[-61.072558593749989,4.74762604374412,850.0087],[-61.091479492187489,4.77094147343162,849.1138],[-61.103369140624991,4.78156159061912,852.2122],[-61.125585937499991,4.79035065311912,869.2549],[-61.135424804687489,4.7996768249941084,849.0011],[-61.140673828124989,4.8091006531191169,854.6732],[-61.136889648437489,4.8133486999941084,847.431],[-61.1298828125,4.81793854374412,852.115],[-61.136962890625,4.8278994812441169,846.418],[-61.148120117187489,4.83734772343162,845.59],[-61.153076171875,4.84064362186912,844.72],[-61.156909179687489,4.8424014343691084,845.0266],[-61.169287109374991,4.8443545593691084,847.8814],[-61.1748046875,4.84747955936912,843.2509],[-61.175830078124989,4.85162994999412,848.5255],[-61.173925781249991,4.86359284061912,847.192],[-61.1748046875,4.86798737186912,846.1854],[-61.18671875,4.88410065311912,842.1453],[-61.195361328124989,4.8923526062441169,844.9117],[-61.204882812499989,4.8958682312441084,844.1132],[-61.212695312499989,4.89777252811912,842.2562],[-61.220458984375,4.90289948124412,859.4347],[-61.226416015624991,4.91046784061912,856.0897],[-61.228808593749989,4.9197940124941084,849.524],[-61.233935546874989,4.9268740906191084,849.7745],[-61.245947265624991,4.92902252811912,853.6543],[-61.270361328124991,4.9300479187441084,848.9562],[-61.2900390625,4.9398135437441084,941.8616],[-61.326464843749989,4.96625397343162,848.4518],[-61.341796875,4.97162506718162,840.2443],[-61.355639648437489,4.96735260624412,842.2223],[-61.369433593749989,4.95685455936912,833.8873],[-61.380615234375,4.94330475468162,850.126],[-61.386376953124994,4.9300479187441084,831.4305],[-61.39111328125,4.85858795780662,832.7201],[-61.396728515625,4.84747955936912,838.9353],[-61.401708984374991,4.84393952030662,831.9503],[-61.407470703125,4.83722565311912,828.9282],[-61.414648437499991,4.8331240906191084,833.066],[-61.424609374999989,4.83759186405662,830.7275],[-61.437548828124989,4.84674713749412,839.765],[-61.444873046874989,4.8458194031191084,835.9316],[-61.455322265625,4.8270205749941084,827.1669],[-61.468994140625,4.79291412968162,839.306],[-61.473388671875,4.79120514530662,831.6897],[-61.480078124999991,4.79169342655662,829.4683],[-61.486181640624991,4.79022858280662,851.2893],[-61.488867187499991,4.78266022343162,846.3245],[-61.487060546875,4.7744326843691169,827.4581],[-61.484423828124989,4.76862213749412,827.4906],[-61.484912109374989,4.76300690311912,835.1302],[-61.525,4.7182803406191169,838.8115],[-61.544360351562489,4.7082705749941169,885.8988],[-61.571386718749991,4.7177920593691169,838.3857],[-61.580249023437489,4.7122744812441084,949.0758],[-61.589282226562489,4.71674225468162,940.6743],[-61.597900390625,4.72675202030662,840.0725],[-61.605517578124989,4.7382998718691169,818.8352],[-61.598486328124991,4.74921295780662,838.5281],[-61.603271484375,4.76007721561912,826.593],[-61.619799804687489,4.77924225468162,836.2734],[-61.619677734374989,4.7840518249941084,829.9573],[-61.616381835937489,4.8030947937441084,820.2048],[-61.624804687499989,4.8071475281191169,819.7834],[-61.632226562499994,4.8044619812441169,822.2577],[-61.639404296875,4.80023834843162,841.7613],[-61.647143554687489,4.7996768249941084,892.8198],[-61.6583984375,4.80536530155662,889.2447],[-61.674853515624989,4.81903717655662,861.064],[-61.688085937499991,4.8270205749941084,833.2844],[-61.7216796875,4.83746979374412,866.6732],[-61.736914062499991,4.8453311218691084,909.7149],[-61.743359375,4.8580264343691084,862.9423],[-61.739599609374991,4.8870791687441084,820.8572],[-61.743823242187489,4.89826080936912,853.6073],[-61.759814453124989,4.90277741093162,858.4736],[-61.776171874999989,4.89520905155662,822.115],[-61.785742187499991,4.8785342468691084,831.3654],[-61.792626953124994,4.86188385624412,856.3593],[-61.801074218749989,4.85431549686912,866.7562],[-61.80927734375,4.85004303593162,818.2059],[-61.833740234375,4.8313174499941169,816.2908],[-61.849169921874989,4.8270205749941084,802.4307],[-61.865820312499991,4.8276553406191169,834.9017],[-61.874609374999991,4.82697174686912,822.6857],[-61.880078125,4.82123444218162,797.6235],[-61.88671875,4.8065127624941084,821.1904],[-61.907397460937489,4.8093447937441169,826.8004],[-61.927490234375,4.7996768249941084,795.2355],[-61.942724609374991,4.7840518249941084,788.1061],[-61.948779296874989,4.76898834843162,792.4161],[-61.951269531249991,4.7479190124941084,798.205],[-61.954443359374991,4.73602936405662,817.3746],[-61.959033203124989,4.7308291687441084,812.2283],[-61.984423828124989,4.73224518436912,839.8539],[-61.997851562499989,4.73151276249412,816.7935],[-62.007128906249989,4.72772858280662,781.4188],[-62.021240234375,4.7058291687441169,802.7632],[-62.026220703124991,4.68781159061912,792.816],[-62.034423828125,4.6768740906191084,811.5891],[-62.058032226562489,4.67621491093162,785.4874],[-62.140527343749994,4.7041201843691169,618.1852],[-62.153857421874989,4.69501373905662,449.606],[-62.166064453124989,4.68866608280662,476.3657],[-62.181689453124989,4.68488190311912,474.0344],[-62.205419921874991,4.68366119999412,458.7055],[-62.222412109375,4.6877627624941169,468.1349],[-62.245458984374991,4.70612213749412,446.4913],[-62.264086914062489,4.7109561218691169,650.3737],[-62.34912109375,4.7109561218691169,471.4162],[-62.355322265624991,4.72016022343162,570.0413],[-62.380175781249989,4.77924225468162,418.3915],[-62.404589843749989,4.80975983280662,413.502],[-62.461474609374989,4.8667178406191169,412.56],[-62.483203124999989,4.8958682312441084,419.3105],[-62.504809570312489,4.9599795593691169,413.3316],[-62.513916015625,4.9747256531191084,415.0074],[-62.52001953125,4.9920596374941084,422.65],[-62.515380859375,5.01544830936912,408.5975],[-62.50732421875,5.03974030155662,410.7495],[-62.503027343749991,5.05975983280662,420.3602],[-62.504638671875,5.0694522156191084,424.8557],[-62.510546874999989,5.08893463749412,410.8707],[-62.510498046875,5.10077545780662,395.9789],[-62.506030273437489,5.11066315311912,403.0423],[-62.492773437499991,5.12189362186912,422.743],[-62.485205078124991,5.1535830749941169,501.4291],[-62.465136718749989,5.1783389343691084,392.2457],[-62.462084960937489,5.19013092655662,402.8994],[-62.46826171875,5.20099518436912,414.2842],[-62.481860351562489,5.2173037781191169,419.0803],[-62.49853515625,5.2320498718691084,430.4212],[-62.533251953124989,5.24652741093162,419.8199],[-62.542236328125,5.26569244999412,418.8419],[-62.548095703125,5.28851959843162,411.5788],[-62.55830078125,5.30744049686912,374.0],[-62.578125,5.3184756531191084,389.0904],[-62.624438476562489,5.3269229187441169,410.8535],[-62.651660156249989,5.3424014343691084,373.5],[-62.662841796875,5.34577057499412,377.1822],[-62.689990234374989,5.3493838562441169,401.4558],[-62.699804687499991,5.3536319031191084,394.3918],[-62.705664062499991,5.3546084656191084,385.049],[-62.71337890625,5.3525576843691169,391.149],[-62.723803710937489,5.34332916874412,416.2307],[-62.72900390625,5.3409365906191084,368.0],[-62.749121093749991,5.34308502811912,408.8154],[-62.774462890624989,5.35065338749412,446.4627],[-62.796142578125,5.3611026062441169,411.306],[-62.810595703124989,5.3777041687441169,389.2609],[-62.83359375,5.38226959843162,398.935],[-62.8388671875,5.3856143249941084,399.3836],[-62.842041015625,5.3863467468691084,404.5982],[-62.859960937499991,5.40985748905662,410.1189],[-62.865576171874991,5.42182037968162,403.5983],[-62.873339843749989,5.4461611999941084,403.6518],[-62.879809570312489,5.4582705749941169,401.5169],[-62.888037109374991,5.46344635624412,413.9279],[-62.897314453124991,5.4664248718691084,463.5741],[-62.901464843749991,5.47199127811912,420.2797],[-62.894091796874989,5.48493073124412,403.5454],[-62.912646484374989,5.5418643249941084,453.7017],[-62.920019531249991,5.5899600281191084,633.7523],[-62.917626953124994,5.59479401249412,599.5647],[-62.904223632812489,5.59857819218162,397.3631],[-62.902392578124989,5.60724518436912,397.957],[-62.90771484375,5.62213776249412,426.1154],[-62.895068359374989,5.6526065124941169,390.5279],[-62.894091796874989,5.6631045593691169,366.0],[-62.897631835937489,5.6684756531191169,366.0],[-62.904638671874991,5.6743350281191169,444.1071],[-62.911474609374991,5.68231842655662,580.1147],[-62.914599609374989,5.6941104187441169,550.9449],[-62.906201171875,5.74811432499412,389.237],[-62.90771484375,5.7661319031191169,365.0],[-62.9189453125,5.79523346561912,404.87],[-62.92041015625,5.81342194218162,401.0216],[-62.899340820312489,5.8488955749941169,376.4375],[-62.856201171875,5.97846100468162,379.9141],[-62.853125,5.99579498905662,374.7104],[-62.855126953124994,6.0053897156191169,365.0329],[-62.864111328124991,6.0251651062441169,362.0],[-62.866137695312489,6.0367373718691084,375.5247],[-62.866137695312489,6.0808291687441169,360.5],[-62.872802734375,6.12006256718162,361.109],[-62.9375,6.28522369999412,389.6449],[-62.945605468749989,6.2943057312441084,381.2948],[-62.9560546875,6.3013858093691084,411.1984],[-62.968066406249989,6.31769440311912,434.2405],[-62.978198242187489,6.3359561218691169,430.1643],[-62.983447265624989,6.34894440311912,412.5621],[-62.981640625,6.3679385437441169,342.0],[-62.961230468749989,6.40412018436912,439.0316],[-62.956152343749991,6.4271182312441084,500.4324],[-62.954150390624989,6.44806549686912,404.3218],[-62.948486328125,6.4627627624941084,380.3409],[-62.939624023437489,6.4741397156191169,438.7631],[-62.886328124999991,6.51813385624412,341.4339],[-62.879809570312489,6.53021881718162,394.2449],[-62.876318359374991,6.5464053406191169,371.5043],[-62.856787109374991,6.5910830749941169,442.7848],[-62.846289062499991,6.6090029968691084,351.5361],[-62.828710937499991,6.6313662781191169,415.1765],[-62.822119140624991,6.64313385624412,319.382],[-62.819580078125,6.65741608280662,292.0],[-62.823828124999991,6.6722354187441084,402.4367],[-62.842138671874991,6.6966494812441084,312.0341],[-62.846289062499991,6.70831940311912,293.6534],[-62.847021484374991,6.7595401062441169,272.5],[-62.855639648437489,6.81427643436912,317.0215]]}}