{"type":"Feature","properties":{"featurecla":"River","scalerank":9,"rivernum":1019,"dissolve":"1019River","name":"null16","name_alt":null,"note":null,"min_zoom":7.1,"strokeweig":0.25,"name_en":null,"min_label":8.1},
"geometry":{"type": "LineString","coordinates": [[-65.032324218749991,7.10590241093162,43.2544],[-65.032958984375,7.14862702030662,61.3272],[-65.040771484375,7.1609072937441169,26.5529],[-65.059667968749991,7.17072174686912,27.0],[-65.069921874999991,7.17304108280662,43.2477],[-65.090576171875,7.1746768249941084,55.3903],[-65.100634765624989,7.17755768436912,41.1351],[-65.106298828124991,7.1826358093691169,50.7706],[-65.111425781249991,7.18964264530662,44.1601],[-65.11875,7.1959170593691084,32.8413],[-65.13134765625,7.19867584843162,26.0],[-65.152880859374989,7.19623444218162,34.0559],[-65.160253906249991,7.1987490906191169,37.824],[-65.191821289062489,7.22504303593162,47.7152],[-65.206298828125,7.24603912968162,68.7265],[-65.205175781249991,7.2508486999941084,79.5496],[-65.196826171874989,7.2601260437441084,49.7363],[-65.186132812499991,7.26544830936912,25.5],[-65.1748046875,7.26691315311912,25.5],[-65.165771484375,7.2710147156191169,44.531],[-65.162109375,7.28400299686912,44.3527],[-65.169287109374991,7.3020205749941169,47.1769],[-65.201757812499991,7.33197662968162,42.9961],[-65.210498046874989,7.3488955749941169,46.525],[-65.210498046874989,7.42804596561912,34.4744],[-65.213061523437489,7.44794342655662,32.5796],[-65.22333984375,7.48444244999412,25.092],[-65.224169921874989,7.50714752811912,30.4835],[-65.222583007812489,7.52570221561912,34.0616],[-65.220800781249991,7.5334658874941169,30.027],[-65.217333984374989,7.54132721561912,38.4736],[-65.190039062499991,7.56452057499412,21.5],[-65.183154296874989,7.57294342655662,21.5],[-65.167041015624989,7.5835147156191169,21.125],[-65.148608398437489,7.5924014343691084,21.0],[-65.134765625,7.59589264530662,33.4538],[-65.116455078125,7.58966705936912,27.2494],[-65.05625,7.54437897343162,20.0],[-65.037524414062489,7.53522369999412,36.9],[-65.021582031249991,7.5406436218691084,26.3451],[-65.004980468749991,7.55206940311912,21.324],[-64.984545898437489,7.5611514343691084,18.5],[-64.975146484374989,7.5598330749941169,29.7767],[-64.963671874999989,7.5562686218691084,27.4217],[-64.953906249999989,7.5560244812441084,27.072],[-64.946240234375,7.57172272343162,26.2223],[-64.937597656249991,7.5772647156191084,29.2695],[-64.927416992187489,7.5809268249941084,17.5],[-64.919042968749991,7.58222077030662,17.5],[-64.911962890624991,7.5915713562441169,29.2658],[-64.873144531249991,7.6660342468691169,16.5]]}}