{"type":"Feature","properties":{"featurecla":"River","scalerank":7,"rivernum":512,"dissolve":"512River","name":"Cuyuni","name_alt":null,"note":null,"min_zoom":6.0,"strokeweig":0.15,"name_en":"Cuyuni","min_label":7.0},
"geometry":{"type": "LineString","coordinates": [[-62.078466796874991,8.10919830936912,599.7988],[-62.0859375,8.06513092655662,429.3362],[-62.082861328124991,8.04144928593162,482.9661],[-62.077685546874989,8.0208682312441084,323.0875],[-62.07666015625,8.00116608280662,304.1151],[-62.0859375,7.9800967468691084,258.1373],[-62.103320312499989,7.9605654968691084,257.1784],[-62.164160156249991,7.9074893249941169,236.5297],[-62.187182617187489,7.8773135437441084,231.5069],[-62.196630859374991,7.86127350468162,235.9259],[-62.202001953124991,7.84918854374412,225.3265],[-62.204199218749991,7.82721588749412,223.649],[-62.200048828124991,7.8025088562441169,218.5064],[-62.189208984375,7.78241608280662,214.6566],[-62.171337890625,7.7740420593691084,223.1187]]}}