{"type":"Feature","properties":{"featurecla":"River","scalerank":9,"rivernum":1019,"dissolve":"1019River","name":"null14","name_alt":null,"note":null,"min_zoom":7.1,"strokeweig":0.2,"name_en":null,"min_label":8.1},
"geometry":{"type": "LineString","coordinates": [[-64.792773437499989,6.6909365906191169,52.7004],[-64.818457031249991,6.7471865906191084,37.5],[-64.8296875,6.76325104374412,46.0942],[-64.830371093749989,6.7759951843691084,39.8428],[-64.812597656249991,6.8418154968691169,49.425],[-64.815234374999989,6.85968659061912,66.3779],[-64.822119140624991,6.8777041687441169,81.4484],[-64.832128906249991,6.8914736999941084,63.4064],[-64.843994140625,6.89704010624412,63.6816],[-64.852832031249989,6.90534088749412,35.0],[-64.866503906249989,6.94769928593162,91.1674],[-64.874755859375,6.96527741093162,69.0121],[-64.881933593749991,6.97150299686912,34.1935],[-64.900634765625,6.9803408874941084,29.5],[-64.908862304687489,6.98578522343162,38.4962],[-64.932714843749991,7.0130557312441084,28.5],[-64.936328124999989,7.0162295593691084,28.5],[-64.939453125,7.0233096374941084,28.5],[-64.944384765624989,7.03034088749412,56.2061],[-64.991381835937489,7.04718659061912,43.0715],[-65.003271484374991,7.05560944218162,31.577],[-65.016772460937489,7.06891510624412,29.7997],[-65.027758789062489,7.08612702030662,47.1482],[-65.032324218749991,7.10590241093162,43.2544]]}}