{"type":"Feature","properties":{"featurecla":"River","scalerank":9,"rivernum":1019,"dissolve":"1019River","name":"null15","name_alt":null,"note":null,"min_zoom":7.1,"strokeweig":0.2,"name_en":null,"min_label":8.1},
"geometry":{"type": "LineString","coordinates": [[-64.22705078125,5.0640811218691084,315.3739],[-64.213476562499991,5.07953522343162,348.2293],[-64.177490234375,5.0993838562441169,315.1643],[-64.161230468749991,5.11163971561912,294.1917],[-64.148193359375,5.1328311218691169,313.3536],[-64.142578125,5.1570986999941084,301.4964],[-64.141650390624989,5.2077822937441169,295.7311],[-64.148046874999991,5.2253604187441169,317.0882],[-64.1962890625,5.27948639530662,312.5429],[-64.23291015625,5.34650299686912,301.1481],[-64.256640624999989,5.37860748905662,314.6491],[-64.274829101562489,5.4188174499941084,313.9181],[-64.281201171875,5.45600006718162,299.2567],[-64.288378906249989,5.4713076843691084,307.4608],[-64.305517578124991,5.49860260624412,297.2062],[-64.3115234375,5.5185733093691169,273.3908],[-64.312939453125,5.52936432499412,271.5836],[-64.31298828125,5.5401553406191084,282.0049],[-64.310302734375,5.54975006718162,311.0697],[-64.30078125,5.56452057499412,302.3409],[-64.29345703125,5.58515045780662,262.0],[-64.295703124999989,5.5919131531191084,303.3675],[-64.30927734375,5.59479401249412,284.7823],[-64.31640625,5.59821198124412,288.1122],[-64.321386718749991,5.6049990906191169,262.0],[-64.328125,5.6101260437441169,279.4354],[-64.34033203125,5.60846588749412,264.67],[-64.364355468749991,5.62006256718162,293.4677],[-64.371020507812489,5.62555573124412,290.8737],[-64.372607421874989,5.6292666687441084,290.6219],[-64.373828124999989,5.64008209843162,284.2064],[-64.374438476562489,5.6425967468691169,280.7335],[-64.379077148437489,5.6433291687441169,282.3433],[-64.39052734375,5.6416201843691169,278.9427],[-64.394946289062489,5.6425967468691169,272.4837],[-64.40869140625,5.6539248718691084,269.3996],[-64.416796874999989,5.6657901062441169,279.1197],[-64.419042968749991,5.68158600468162,312.3417],[-64.415380859374991,5.70465729374412,299.9724],[-64.403002929687489,5.7349795593691084,267.3453],[-64.389501953124991,5.75922272343162,292.7412],[-64.383837890624989,5.78522369999412,281.8667],[-64.394946289062489,5.82074616093162,292.6623],[-64.401708984374991,5.81452057499412,312.2011],[-64.408203125,5.82599518436912,282.6318],[-64.422216796874991,5.8333682312441084,265.6502],[-64.436328124999989,5.8440127624941169,289.2989],[-64.44921875,5.8817080749941084,273.6277],[-64.451098632812489,5.89191315311912,276.4626],[-64.446386718749991,5.89642975468162,262.6595],[-64.439697265625,5.90009186405662,274.204],[-64.434741210937489,5.9089541687441169,266.9117],[-64.429052734374991,5.93060944218162,257.0],[-64.428271484374989,5.9537295593691084,277.6926],[-64.439624023437489,5.9939151062441169,289.0194],[-64.445166015624991,6.03888580936912,269.6544],[-64.455371093749989,6.0825381531191169,292.2924],[-64.45703125,6.10187409061912,276.3874],[-64.453857421875,6.1124209656191084,273.7042],[-64.448168945312489,6.12091705936912,269.3178],[-64.443359375,6.1301455749941169,246.46],[-64.442675781249989,6.14288971561912,297.1747],[-64.466894531249991,6.16681549686912,288.4752],[-64.472119140625,6.18598053593162,271.7652],[-64.451513671874991,6.2296084656191084,263.276],[-64.4501953125,6.25275299686912,266.9295],[-64.461767578124991,6.27118561405662,286.9565],[-64.514990234374991,6.3108096374941169,198.4898]]}}