{"type":"Feature","properties":{"featurecla":"River","scalerank":7,"rivernum":416,"dissolve":"416River","name":"Caroní1","name_alt":null,"note":null,"min_zoom":6.0,"strokeweig":0.2,"name_en":"Caroní","min_label":7.0},
"geometry":{"type": "LineString","coordinates": [[-60.811450195312489,5.0842471374941169,1125.8358],[-60.814257812499989,5.08038971561912,1104.1309],[-60.816088867187489,5.07916901249412,1104.5652],[-60.819580078125,5.0789736999941084,1085.0923],[-60.803515624999989,5.0412783874941169,1170.0739],[-60.817187499999989,4.96063873905662,967.4633],[-60.857177734375,4.82648346561912,944.1132],[-60.8603515625,4.78510162968162,938.7115],[-60.872167968749991,4.77179596561912,858.6682],[-60.886645507812489,4.76496002811912,860.9337],[-61.003173828125,4.73114655155662,856.8787],[-61.047045898437489,4.72736237186912,859.2489],[-61.072558593749989,4.74762604374412,850.0087]]}}