{"type":"Feature","properties":{"featurecla":"River","scalerank":9,"rivernum":1019,"dissolve":"1019River","name":"null13","name_alt":null,"note":null,"min_zoom":7.1,"strokeweig":0.15,"name_en":null,"min_label":8.1},
"geometry":{"type": "LineString","coordinates": [[-64.051074218749989,4.7274111999941084,440.7172],[-64.081152343749991,4.74237702030662,395.5229],[-64.14697265625,4.7446475281191169,346.5329],[-64.176074218749989,4.76923248905662,338.7927],[-64.182714843749991,4.78424713749412,340.1412],[-64.190600585937489,4.8160342468691084,341.8628],[-64.1974609375,4.83100006718162,339.2802],[-64.212011718749991,4.84711334843162,334.0341],[-64.246679687499991,4.87409088749412,332.1264],[-64.2599609375,4.89154694218162,333.6293],[-64.263037109374991,4.9016299499941169,370.0094],[-64.2658203125,4.91791412968162,462.6815],[-64.265478515624991,4.93341705936912,321.6284],[-64.24169921875,4.9580264343691169,330.1612],[-64.2353515625,4.99457428593162,328.1334],[-64.232836914062489,5.0350283874941084,308.9003],[-64.22705078125,5.0640811218691084,315.3739]]}}