{"type":"Feature","properties":{"featurecla":"River","scalerank":7,"rivernum":416,"dissolve":"416River","name":"Caroní3","name_alt":null,"note":null,"min_zoom":6.0,"strokeweig":0.25,"name_en":"Caroní","min_label":7.0},
"geometry":{"type": "LineString","coordinates": [[-62.997119140624989,7.7740420593691084,135.9012],[-63.022387695312489,7.8846377624941084,95.5],[-63.024462890624989,7.93170807499412,94.2433],[-63.012792968749991,7.98163483280662,88.0],[-62.989355468749991,8.02069733280662,88.0],[-62.955981445312489,8.0529971374941169,88.0],[-62.856738281249989,8.12702057499412,88.0],[-62.842578124999989,8.1402529968691084,88.0],[-62.822119140624991,8.15241119999412,88.0],[-62.77490234375,8.16766998905662,64.2482],[-62.756933593749991,8.1849307312441084,192.0655],[-62.75439453125,8.1937197937441084,70.4095],[-62.752880859375,8.2163272156191169,65.1082],[-62.750732421875,8.22589752811912,54.0],[-62.745947265624991,8.23200104374412,57.0279],[-62.73193359375,8.24518463749412,73.6621],[-62.72900390625,8.2501162781191084,75.4251],[-62.691748046874991,8.2600283874941169,54.8076],[-62.690478515624989,8.2645205749941084,54.0],[-62.65087890625,8.30719635624412,74.1548],[-62.650976562499991,8.31610748905662,57.6628],[-62.661376953125,8.32892487186912,60.3045],[-62.666552734374989,8.33283112186912,67.7404],[-62.677001953125,8.33869049686912,66.1135],[-62.681811523437489,8.34320709843162,74.1611],[-62.695971679687489,8.3759951843691169,3.0]]}}