{"type":"Feature","properties":{"GID_2":"VEN.16.2_1","GID_0":"VEN","country":"Venezuela","GID_1":"VEN.16_1","province":"Miranda","NL_NAME_1":"NA","county":"AndrésBello","VARNAME_2":"NA","NL_NAME_2":"NA","TYPE_2":"Municipio","ENGTYPE_2":"Municipality","CC_2":"NA","HASC_2":"NA","name":"Andrés_Bello.county"},
"geometry":{"type": "MultiPolygon","coordinates": [[[[-66.0716,10.2057,21.1005],[-66.0617,10.2127,23.9802],[-66.0334,10.2192,22.7248],[-66.0087,10.2279,19.9333],[-65.996,10.2356,26.2553],[-65.9888,10.2464,22.79],[-65.9841,10.2719,13.4656],[-65.9838,10.294,16.2884],[-65.9894,10.3431,7.6876],[-65.991,10.3801,9.1622],[-66.0103,10.3809,9.3086],[-66.0247,10.3536,8.4508],[-66.0322,10.3511,4.6588],[-66.0493,10.3513,4.8551],[-66.0553,10.3479,7.2761],[-66.0634,10.3362,22.5421],[-66.0649,10.3289,11.4228],[-66.0646,10.3182,6.3434],[-66.0627,10.3155,9.7292],[-66.045,10.3059,8.058],[-66.0386,10.2966,19.0957],[-66.0362,10.2877,17.0443],[-66.0368,10.2798,14.9856],[-66.041,10.2728,16.9115],[-66.0527,10.2701,10.9631],[-66.0656,10.2586,12.5325],[-66.0885,10.253,31.8293],[-66.1015,10.2468,28.1556],[-66.0966,10.2422,31.9064],[-66.0863,10.2216,27.9485],[-66.0716,10.2057,21.1005]]]]}}