{"type": "Feature","bbox": [-69.6791,8.9376,-69.0387,9.6321],"geometry": {"type": "MultiPolygon","coordinates": [[[[-69.5923,9.6125,1124.1897],[-69.5944,9.6112,1168.907],[-69.5979,9.6033,1358.811],[-69.6026,9.5656,1792.1099],[-69.6256,9.5538,1640.473],[-69.6292,9.5456,1475.0532],[-69.6281,9.5379,1519.9421],[-69.6106,9.5155,1388.516],[-69.6087,9.4959,1363.0974],[-69.6166,9.4858,1575.9692],[-69.6251,9.4823,1579.0144],[-69.6124,9.4723,1472.5149],[-69.6056,9.4637,1377.9373],[-69.6057,9.4592,1256.479],[-69.6098,9.4543,1115.0942],[-69.6278,9.4432,1140.5425],[-69.6382,9.4341,859.231],[-69.6554,9.4289,848.6743],[-69.6791,9.4007,554.0916],[-69.6789,9.3947,651.7189],[-69.6705,9.3783,478.5329],[-69.6626,9.3512,398.2793],[-69.6591,9.3448,475.6281],[-69.651,9.3379,487.8096],[-69.6092,9.3338,507.3032],[-69.599,9.3369,347.942],[-69.5884,9.3427,382.408],[-69.5444,9.3377,247.7615],[-69.5109,9.3242,225.0703],[-69.494,9.3133,246.0658],[-69.4769,9.2972,220.153],[-69.4707,9.2874,221.6421],[-69.4686,9.2726,170.7298],[-69.4695,9.2481,158.2021],[-69.4678,9.231,148.3016],[-69.4632,9.2194,142.7611],[-69.4426,9.1809,129.798],[-69.4366,9.1644,124.0129],[-69.4207,9.1459,119.8725],[-69.4199,9.1306,117.6133],[-69.4231,9.1245,119.5906],[-69.424,9.1122,117.3618],[-69.4224,9.1046,113.5395],[-69.4112,9.0836,114.1432],[-69.397,9.0483,105.1839],[-69.3937,9.0449,105.1512],[-69.361,9.0377,105.7582],[-69.3482,9.0322,105.3093],[-69.3319,9.019,102.0248],[-69.3267,9.0166,100.8483],[-69.3187,9.0164,101.6915],[-69.3066,9.0203,108.0745],[-69.2977,9.0201,101.0332],[-69.2803,9.0149,102.3887],[-69.254,9.0044,99.1699],[-69.235,8.99,96.1789],[-69.2158,8.9826,95.3812],[-69.2079,8.9779,97.2233],[-69.1944,8.9615,96.6785],[-69.1872,8.9551,94.4527],[-69.1774,8.9524,97.566],[-69.1442,8.9486,96.0251],[-69.0998,8.9506,93.1297],[-69.0576,8.9378,92.6418],[-69.0387,8.9376,91.0871],[-69.0444,8.9612,88.3728],[-69.0528,8.971,91.0253],[-69.0656,8.9763,89.3363],[-69.0801,8.9868,86.828],[-69.0864,8.9938,87.9664],[-69.0964,9.0103,88.6601],[-69.1267,9.0326,90.9843],[-69.1374,9.0585,95.5386],[-69.1416,9.0636,93.6871],[-69.161,9.0743,96.51],[-69.1821,9.0827,97.7753],[-69.1875,9.0878,98.8177],[-69.2049,9.133,111.7783],[-69.207,9.1449,116.8602],[-69.2078,9.1632,108.6519],[-69.2163,9.1787,111.5298],[-69.2193,9.1951,115.1004],[-69.2242,9.2107,119.6743],[-69.2248,9.2452,123.5951],[-69.2277,9.2543,126.5972],[-69.2318,9.2612,128.4949],[-69.2357,9.2892,136.1124],[-69.2392,9.2975,139.4296],[-69.2532,9.3162,144.8806],[-69.2599,9.3318,152.3034],[-69.2653,9.3872,166.6687],[-69.2641,9.3993,169.1251],[-69.257,9.4091,171.5373],[-69.254,9.4197,179.8881],[-69.2553,9.4273,178.4613],[-69.2629,9.4438,190.9607],[-69.2769,9.463,203.3917],[-69.2831,9.4744,209.868],[-69.2939,9.4865,223.1195],[-69.3126,9.5006,248.0343],[-69.3275,9.5219,303.6893],[-69.3431,9.5372,373.3803],[-69.3622,9.5509,542.8343],[-69.3676,9.5566,590.824],[-69.371,9.5677,474.9135],[-69.3735,9.5901,676.5467],[-69.3768,9.6036,624.0155],[-69.3842,9.6173,776.7919],[-69.3953,9.6268,649.0923],[-69.4045,9.6321,917.8254],[-69.4211,9.6274,1259.0959],[-69.4384,9.6246,1409.4783],[-69.5622,9.6232,1226.1732],[-69.5803,9.6201,956.8499],[-69.5923,9.6125,1124.1897]]]]}
,"properties": {"GID_2": "VEN.19.7_1","GID_0": "VEN","country": "Venezuela","GID_1": "VEN.19_1","province": "Portuguesa","NL_NAME_1": "NA","county": "Ospino","VARNAME_2": "NA","NL_NAME_2": "NA","TYPE_2": "Municipio","ENGTYPE_2": "Municipality","CC_2": "NA","HASC_2": "NA","name": "Ospino.county","area_km2": 2180.487,"hist_schema_id": "Elevation0-9000","hist_area_km2": {"75": 7.958,"100": 430.387,"125": 347.966,"150": 198.092,"175": 123.849,"200": 88.63,"225": 67.27,"250": 58.193,"275": 49.491,"300": 34.156,"325": 27.044,"350": 17.444,"375": 15.101,"400": 17.862,"425": 20.121,"450": 21.313,"475": 21.857,"500": 22.86,"525": 22.379,"550": 21.562,"575": 21.249,"600": 20.349,"625": 20.495,"650": 19.951,"675": 18.779,"700": 18.716,"725": 19.281,"750": 17.545,"775": 18.549,"800": 18.214,"825": 18.57,"850": 17.775,"875": 18.025,"900": 17.816,"925": 17.105,"950": 16.457,"975": 16.331,"1000": 15.787,"1025": 15.997,"1050": 13.55,"1075": 13.822,"1100": 12.985,"1125": 12.295,"1150": 12.044,"1175": 11.396,"1200": 10.789,"1225": 11.897,"1250": 11.186,"1275": 10.476,"1300": 9.576,"1325": 8.029,"1350": 8.301,"1375": 7.548,"1400": 6.482,"1425": 5.813,"1450": 5.185,"1475": 4.474,"1500": 4.035,"1525": 4.098,"1550": 4.432,"1575": 3.617,"1600": 3.742,"1625": 3.324,"1650": 3.575,"1675": 3.178,"1700": 2.488,"1725": 2.153,"1750": 2.132,"1775": 1.714,"1800": 1.798,"1825": 1.526,"1850": 1.15,"1875": 0.502,"1900": 0.293,"1925": 0.209,"1950": 0.125,"1975": 0.021}}}