{"type": "Feature","bbox": [-72.1793,8.088,-72.025,8.2526],"geometry": {"type": "MultiPolygon","coordinates": [[[[-72.1793,8.1031,1275.3722],[-72.1293,8.0883,1157.3828],[-72.114,8.088,1392.7051],[-72.0976,8.1004,1336.6726],[-72.0877,8.1042,1706.729],[-72.0536,8.1068,2036.4452],[-72.0437,8.1095,1845.4927],[-72.0399,8.1159,1610.6951],[-72.0358,8.1304,1661.2949],[-72.0264,8.1516,1144.2026],[-72.025,8.1593,1257.1653],[-72.0258,8.1677,1390.5543],[-72.0305,8.1842,1980.3232],[-72.0263,8.2105,1403.009],[-72.0414,8.2136,1590.0149],[-72.0464,8.219,1340.7599],[-72.0501,8.2274,1041.788],[-72.0646,8.2423,732.0888],[-72.0871,8.2526,468.06],[-72.0924,8.2498,452.733],[-72.1071,8.2517,342.1603],[-72.109,8.2502,327.8561],[-72.1142,8.2327,291.6486],[-72.1199,8.1994,474.677],[-72.1265,8.1795,670.5568],[-72.1427,8.152,503.9316],[-72.1531,8.1387,840.4612],[-72.1617,8.1245,716.387],[-72.1793,8.1031,1275.3722]]]]}
,"properties": {"GID_2": "VEN.21.25_1","GID_0": "VEN","country": "Venezuela","GID_1": "VEN.21_1","province": "Táchira","NL_NAME_1": "NA","county": "Seboruco","VARNAME_2": "NA","NL_NAME_2": "NA","TYPE_2": "Municipio","ENGTYPE_2": "Municipality","CC_2": "NA","HASC_2": "NA","name": "Seboruco.county","area_km2": 182.7584,"hist_schema_id": "Elevation0-9000","hist_area_km2": {"250": 0.1259,"275": 0.5036,"300": 0.7134,"325": 1.1751,"350": 1.1961,"375": 1.259,"400": 1.322,"425": 1.301,"450": 1.5528,"475": 1.6158,"500": 1.9306,"525": 2.0566,"550": 2.5813,"575": 2.7491,"600": 3.1689,"625": 3.6517,"650": 5.0999,"675": 4.6592,"700": 4.8061,"725": 4.7432,"750": 4.2394,"775": 5.1209,"800": 4.3024,"825": 4.5752,"850": 4.2394,"875": 4.2815,"900": 4.0717,"925": 3.5049,"950": 4.2396,"975": 3.9877,"1000": 4.2186,"1025": 4.0717,"1050": 3.9668,"1075": 3.6939,"1100": 3.9457,"1125": 3.2952,"1150": 3.0853,"1175": 3.0013,"1200": 3.3161,"1225": 2.8334,"1250": 3.2322,"1275": 2.5396,"1300": 2.5816,"1325": 2.4766,"1350": 2.4976,"1375": 2.4766,"1400": 2.4976,"1425": 1.9729,"1450": 1.847,"1475": 2.0778,"1500": 1.826,"1525": 1.9519,"1550": 1.658,"1575": 1.5951,"1600": 1.763,"1625": 1.4482,"1650": 1.5111,"1675": 1.4691,"1700": 1.763,"1725": 1.4691,"1750": 1.4901,"1775": 1.2593,"1800": 1.5321,"1825": 1.3432,"1850": 1.1124,"1875": 1.3012,"1900": 1.1123,"1925": 1.1124,"1950": 0.8815,"1975": 1.1543,"2000": 0.7556,"2025": 0.9025,"2050": 0.6296,"2075": 0.7346,"2100": 0.5457,"2125": 0.6296,"2150": 0.3148,"2175": 0.4827,"2200": 0.3148,"2225": 0.1049,"2250": 0.084,"2275": 0.063,"2300": 0.042}}}