{"type":"Feature","properties":{"GID_2":"VEN.7.14_1","GID_0":"VEN","country":"Venezuela","GID_1":"VEN.7_1","province":"Carabobo","NL_NAME_1":"NA","county":"SanJoaquín","VARNAME_2":"NA","NL_NAME_2":"NA","TYPE_2":"Municipio","ENGTYPE_2":"Municipality","CC_2":"NA","HASC_2":"NA","name":"San_Joaquín.county"},
"geometry":{"type": "MultiPolygon","coordinates": [[[[-67.8036,10.3712,309.5815],[-67.8182,10.3098,875.8207],[-67.8261,10.2723,610.8353],[-67.8262,10.2646,441.1049],[-67.8236,10.2514,426.9779],[-67.8195,10.2451,423.0489],[-67.8025,10.2306,419.7386],[-67.7977,10.2407,423.3129],[-67.7805,10.2474,413.1847],[-67.7721,10.2554,423.1175],[-67.7661,10.2583,430.0026],[-67.7445,10.2602,419.1313],[-67.7292,10.267,411.5],[-67.7263,10.2814,429.1827],[-67.7202,10.293,449.9695],[-67.7161,10.309,783.1082],[-67.7088,10.3199,1040.4487],[-67.7093,10.3297,1317.0271],[-67.7231,10.3607,636.1865],[-67.7265,10.3741,368.524],[-67.7341,10.3718,480.7046],[-67.7536,10.3598,1026.0625],[-67.7725,10.3559,1232.3115],[-67.7878,10.362,967.128],[-67.8036,10.3712,309.5815]]]]}}