{"type": "Feature","bbox": [-64.5093,10.0035,-63.7379,10.4801],"geometry": {"type": "MultiPolygon","coordinates": [[[[-64.2713,10.0242,963.8805],[-64.2625,10.0209,638.2101],[-64.2459,10.009,809.0496],[-64.2322,10.0049,815.1227],[-64.1908,10.0035,943.959],[-64.179,10.0066,1312.6414],[-64.1581,10.0158,1546.4738],[-64.1178,10.0295,1957.7565],[-64.1262,10.1737,600.8593],[-64.1155,10.1866,628.7148],[-64.1044,10.1946,1097.8378],[-64.0933,10.2114,865.0054],[-64.0899,10.2179,950.0443],[-64.0688,10.2795,583.7031],[-64.0559,10.3077,401.1274],[-64.0479,10.3205,402.1968],[-64.0415,10.3402,129.0539],[-64.0299,10.3523,297.4343],[-64.0259,10.3591,397.1666],[-64.0263,10.3676,549.5289],[-64.0361,10.395,405.8271],[-64.0417,10.4057,407.2529],[-64.0548,10.4239,264.0988],[-64.0521,10.4324,71.8309],[-64.062,10.4426,0.0],[-64.0801,10.4468,9.793],[-64.0926,10.4529,2.8428],[-64.0957,10.459,0.0],[-64.099,10.4604,0.0],[-64.0999,10.4643,3.5316],[-64.1065,10.4676,0.4501],[-64.1124,10.4779,2.3805],[-64.1149,10.4796,1.0149],[-64.1176,10.4782,0.0],[-64.1146,10.4771,3.457],[-64.1171,10.4726,1.9248],[-64.1271,10.4757,0.0],[-64.1301,10.4757,0.0],[-64.1326,10.4738,1.1626],[-64.1374,10.4751,0.8038],[-64.1401,10.4732,1.4239],[-64.1426,10.4749,0.0],[-64.1521,10.4738,0.3472],[-64.1582,10.4776,0.0],[-64.1735,10.4801,1.2178],[-64.1821,10.4774,0.3849],[-64.1854,10.479,0.0],[-64.1871,10.4762,0.5896],[-64.1899,10.4771,0.0],[-64.1924,10.4757,0.0],[-64.1937,10.4721,0.0],[-64.1924,10.4712,0.0],[-64.1935,10.4635,0.0],[-64.1915,10.4629,1.2419],[-64.1901,10.4579,1.4335],[-64.196,10.4426,0.7604],[-64.2171,10.4199,2.821],[-64.2193,10.4199,1.571],[-64.2224,10.4168,1.8915],[-64.2343,10.4132,15.176],[-64.2376,10.4146,6.8842],[-64.2438,10.4129,15.7776],[-64.2468,10.4146,10.0245],[-64.2554,10.4121,0.0],[-64.2579,10.414,0.0],[-64.2787,10.4132,35.1783],[-64.2821,10.4118,31.4294],[-64.2846,10.4085,4.9588],[-64.2868,10.4088,0.2257],[-64.2868,10.4107,0.0],[-64.2896,10.4101,12.972],[-64.2901,10.4071,28.1519],[-64.2951,10.4024,18.3089],[-64.2988,10.4035,0.4812],[-64.2957,10.4093,3.3806],[-64.3063,10.4104,34.9117],[-64.3107,10.4096,1.997],[-64.3124,10.4063,19.7807],[-64.3165,10.4065,15.4727],[-64.3179,10.4051,0.0],[-64.3171,10.4021,17.035],[-64.321,10.3987,20.8916],[-64.326,10.3999,35.9152],[-64.3274,10.4021,0.0],[-64.3351,10.3999,4.7863],[-64.3365,10.3979,0.0],[-64.3313,10.399,5.5079],[-64.3346,10.3946,0.0],[-64.3337,10.3926,52.8497],[-64.341,10.3888,0.0],[-64.3385,10.3871,2.6233],[-64.339,10.3851,0.0],[-64.3365,10.3854,0.0],[-64.3357,10.384,18.6502],[-64.3288,10.3865,0.0],[-64.3279,10.3829,4.8423],[-64.334,10.3821,0.0],[-64.3357,10.379,18.5722],[-64.3421,10.3838,0.0],[-64.3451,10.381,0.0],[-64.3418,10.3751,0.0],[-64.3376,10.3743,5.7843],[-64.3374,10.3718,10.1691],[-64.3399,10.3704,0.0],[-64.336,10.3668,18.7589],[-64.3388,10.3663,18.7436],[-64.341,10.3693,0.0],[-64.3435,10.3682,0.0],[-64.3429,10.3654,18.0672],[-64.3446,10.3618,0.0],[-64.3393,10.3576,1.0929],[-64.3454,10.3535,0.0],[-64.3401,10.3546,14.2741],[-64.3365,10.3485,0.7086],[-64.3432,10.3476,0.0],[-64.3457,10.3457,1.3538],[-64.3482,10.3471,0.0],[-64.3504,10.3454,12.5335],[-64.3501,10.3432,16.6246],[-64.3535,10.3418,6.8125],[-64.3551,10.3418,18.0494],[-64.3549,10.344,2.0383],[-64.3565,10.3443,2.0383],[-64.3576,10.3404,10.0806],[-64.3613,10.339,0.0],[-64.3643,10.3349,2.1005],[-64.369,10.3382,5.0683],[-64.3693,10.3407,16.1253],[-64.3671,10.3438,0.0],[-64.3701,10.3446,0.0],[-64.3704,10.3471,4.4821],[-64.3643,10.3476,3.5246],[-64.3576,10.3518,0.0],[-64.3576,10.3538,0.0],[-64.3624,10.3557,19.0845],[-64.3585,10.3596,3.2901],[-64.3543,10.359,12.0301],[-64.3496,10.3613,2.9583],[-64.3493,10.364,0.0],[-64.3512,10.366,0.7343],[-64.3485,10.3663,0.0],[-64.3457,10.3721,12.7138],[-64.3482,10.3751,3.3778],[-64.3485,10.3787,0.0],[-64.346,10.389,0.0],[-64.3501,10.3876,8.5107],[-64.351,10.3851,12.0868],[-64.3579,10.3935,20.186],[-64.3526,10.3965,0.0],[-64.3571,10.3976,10.9011],[-64.364,10.3979,6.2808],[-64.3674,10.3962,0.0],[-64.3621,10.3932,1.5123],[-64.3712,10.3888,6.5156],[-64.3724,10.3832,28.3006],[-64.3754,10.3843,0.0],[-64.3746,10.3888,0.0],[-64.3768,10.3932,8.6294],[-64.3801,10.3921,0.0],[-64.3799,10.3882,0.0],[-64.3846,10.3829,29.4845],[-64.3918,10.3826,0.0],[-64.3949,10.3801,15.5162],[-64.3924,10.3751,0.0],[-64.3863,10.374,13.0849],[-64.3843,10.3707,6.0924],[-64.3804,10.371,8.8868],[-64.3776,10.3687,0.0],[-64.3776,10.3649,12.3087],[-64.3821,10.3651,0.0],[-64.3893,10.3615,3.5111],[-64.389,10.3588,0.0],[-64.386,10.356,4.1245],[-64.3804,10.3554,1.5382],[-64.384,10.3518,0.0],[-64.3829,10.3499,0.0],[-64.3743,10.3482,0.0],[-64.3746,10.344,5.8164],[-64.3774,10.3426,13.105],[-64.3765,10.3401,27.2111],[-64.379,10.3365,44.2799],[-64.3835,10.3379,3.0898],[-64.3882,10.3363,22.1182],[-64.3904,10.3385,7.4202],[-64.3935,10.3376,6.4049],[-64.3982,10.3321,0.0],[-64.4024,10.3351,12.8498],[-64.4088,10.334,0.0],[-64.4101,10.331,20.332],[-64.4151,10.3324,0.0],[-64.4165,10.3293,3.3532],[-64.4212,10.3296,0.0],[-64.4207,10.3243,48.2997],[-64.4265,10.3187,33.1163],[-64.429,10.3185,25.0386],[-64.4385,10.3182,22.8154],[-64.4407,10.3204,4.9486],[-64.4399,10.3268,5.8248],[-64.4468,10.3229,9.0905],[-64.4496,10.3271,0.0],[-64.4529,10.3265,12.7765],[-64.456,10.3329,11.5478],[-64.4618,10.3301,20.779],[-64.4599,10.3265,0.0],[-64.4576,10.3274,63.6416],[-64.4557,10.3249,33.5211],[-64.4571,10.3151,0.0],[-64.4518,10.3154,0.0],[-64.4507,10.3176,26.7443],[-64.4476,10.3185,0.0],[-64.4457,10.316,0.0],[-64.4435,10.3157,5.0918],[-64.4443,10.3126,0.0],[-64.4429,10.3115,0.0],[-64.4349,10.3154,0.0],[-64.4313,10.3126,5.2929],[-64.4315,10.3162,3.2364],[-64.4215,10.3182,8.1963],[-64.4187,10.3157,6.5225],[-64.4199,10.3146,6.8713],[-64.4185,10.3129,42.5988],[-64.4193,10.3093,0.0],[-64.4171,10.3085,0.0],[-64.4168,10.3115,29.1304],[-64.4129,10.3146,0.0],[-64.4085,10.3129,0.0],[-64.4071,10.3104,0.0],[-64.404,10.3154,0.0],[-64.4024,10.3138,0.0],[-64.3993,10.3138,5.9634],[-64.399,10.3176,18.4485],[-64.3962,10.3168,0.0],[-64.394,10.3135,0.0],[-64.3915,10.3135,0.0],[-64.3904,10.3171,30.8075],[-64.3879,10.3176,12.8968],[-64.3857,10.3149,0.0],[-64.3849,10.3182,0.5965],[-64.3785,10.3187,0.0],[-64.3763,10.3207,5.6193],[-64.371,10.3185,34.196],[-64.3707,10.3168,0.0],[-64.3676,10.3165,0.0],[-64.3685,10.311,0.0],[-64.3643,10.3107,6.5309],[-64.3646,10.301,4.3943],[-64.3654,10.3021,0.0],[-64.3729,10.3015,12.9767],[-64.3771,10.3035,20.3433],[-64.3763,10.3057,0.0],[-64.3799,10.3054,0.0],[-64.379,10.299,51.0875],[-64.3874,10.294,10.345],[-64.3907,10.2937,2.6924],[-64.3932,10.2907,6.3078],[-64.3999,10.2901,0.8035],[-64.3999,10.2843,2.4802],[-64.4013,10.2832,4.2163],[-64.4068,10.2832,1.0972],[-64.4096,10.2865,0.0],[-64.4212,10.2863,0.593],[-64.4251,10.2824,0.0],[-64.4285,10.2837,6.6069],[-64.4285,10.2804,68.1112],[-64.4299,10.2799,24.9506],[-64.4362,10.2821,0.0],[-64.4379,10.2774,24.0911],[-64.4443,10.2768,29.0566],[-64.4474,10.279,0.0],[-64.4504,10.2785,0.0],[-64.4465,10.2774,14.9594],[-64.4479,10.2751,0.0],[-64.4471,10.2735,0.0],[-64.4437,10.2732,0.0],[-64.444,10.2693,0.0],[-64.4482,10.2676,0.0],[-64.4465,10.2646,3.1235],[-64.4571,10.2629,9.6902],[-64.4549,10.2571,15.8262],[-64.4557,10.2549,3.087],[-64.4587,10.2535,11.7841],[-64.4626,10.2546,4.824],[-64.4676,10.2496,14.2997],[-64.4737,10.2488,0.0],[-64.4801,10.2443,0.4345],[-64.4452,10.2028,1006.9059],[-64.4187,10.1583,534.7812],[-64.4026,10.1224,748.3185],[-64.3815,10.0627,653.2289],[-64.3733,10.0436,672.7979],[-64.3613,10.0332,339.4475],[-64.3536,10.0307,390.3447],[-64.3425,10.0305,338.824],[-64.3058,10.0343,838.2743],[-64.2929,10.0326,1000.389],[-64.2713,10.0242,963.8805]]],
[[[-64.351,10.3535,0.0],[-64.3476,10.354,0.7092],[-64.3474,10.3568,1.2295],[-64.351,10.3563,0.7106],[-64.351,10.3535,0.0]]],
[[[-64.3554,10.356,6.4117],[-64.3568,10.3565,6.4117],[-64.3582,10.3557,0.0],[-64.3554,10.354,7.3622],[-64.3554,10.356,6.4117]]],
[[[-64.4013,10.3721,0.0],[-64.4035,10.3726,4.5031],[-64.4029,10.3582,37.3032],[-64.4076,10.3585,18.7043],[-64.4096,10.3538,0.0],[-64.4126,10.3529,0.0],[-64.4135,10.3479,0.0],[-64.4049,10.3529,3.8928],[-64.3987,10.3538,32.8419],[-64.3971,10.3568,0.0],[-64.3935,10.3585,0.0],[-64.3938,10.3599,0.0],[-64.399,10.3601,25.0752],[-64.3976,10.3671,15.7737],[-64.394,10.3682,1.8052],[-64.3954,10.3704,0.0],[-64.4013,10.3721,0.0]]],
[[[-64.474,10.2629,0.0],[-64.4743,10.2643,1.8506],[-64.4788,10.2618,0.0],[-64.474,10.2599,0.0],[-64.4701,10.2604,0.0],[-64.4704,10.2618,12.1585],[-64.474,10.2629,0.0]]],
[[[-64.4887,10.2679,27.1115],[-64.4912,10.2685,10.066],[-64.4907,10.2657,2.2589],[-64.4876,10.2665,4.2637],[-64.4849,10.2638,0.0],[-64.4818,10.2635,0.0],[-64.4846,10.2674,4.004],[-64.4887,10.2679,27.1115]]],
[[[-64.4932,10.3624,8.4795],[-64.4976,10.3626,2.1259],[-64.504,10.3571,0.0],[-64.5093,10.3482,0.0],[-64.5071,10.3471,6.3373],[-64.5001,10.3504,0.0],[-64.5024,10.3515,4.1969],[-64.5018,10.354,9.9823],[-64.4979,10.3576,13.0723],[-64.4935,10.3582,3.3071],[-64.4932,10.3624,8.4795]]],
[[[-64.4576,10.3746,0.0],[-64.4599,10.3749,0.0],[-64.4601,10.3715,0.0],[-64.4649,10.3657,21.6494],[-64.4699,10.3646,16.7726],[-64.4701,10.3632,6.6566],[-64.4654,10.3649,30.3594],[-64.4649,10.3618,0.0],[-64.461,10.3629,8.3199],[-64.4596,10.3601,0.0],[-64.4551,10.3596,16.0419],[-64.4538,10.3579,0.0],[-64.4512,10.359,28.8337],[-64.4474,10.3579,28.7372],[-64.4465,10.3549,7.5878],[-64.4429,10.3532,8.6983],[-64.4407,10.3493,20.1157],[-64.4271,10.3499,10.5189],[-64.4268,10.3518,0.0],[-64.4315,10.3538,0.0],[-64.4413,10.3532,42.2288],[-64.4421,10.3576,32.99],[-64.4385,10.3596,0.0],[-64.4399,10.361,4.3592],[-64.4443,10.3601,39.9282],[-64.4415,10.3643,8.2605],[-64.4424,10.3674,5.9696],[-64.444,10.3679,0.0],[-64.4465,10.364,1.9433],[-64.4488,10.3638,0.0],[-64.4496,10.3668,48.9862],[-64.4535,10.3685,35.3543],[-64.4532,10.3701,0.6648],[-64.4576,10.3726,0.0],[-64.4576,10.3746,0.0]]],
[[[-64.4957,10.3651,3.9928],[-64.496,10.3665,10.2444],[-64.499,10.3657,0.0],[-64.4974,10.3643,0.0],[-64.4957,10.3651,3.9928]]],
[[[-64.421,10.381,14.527],[-64.4285,10.3804,8.976],[-64.4274,10.3779,10.1383],[-64.429,10.3754,0.0],[-64.429,10.3712,3.9478],[-64.4365,10.3712,5.0185],[-64.4371,10.364,22.3717],[-64.4335,10.3629,0.0],[-64.434,10.3596,0.0],[-64.431,10.3563,0.0],[-64.4279,10.3574,3.107],[-64.4274,10.3601,3.8931],[-64.4215,10.3596,0.0],[-64.4212,10.361,11.463],[-64.4149,10.3624,34.9486],[-64.411,10.3657,3.121],[-64.4124,10.3679,0.0],[-64.4163,10.3676,0.0],[-64.416,10.3704,4.3239],[-64.4174,10.3707,10.9516],[-64.4118,10.376,0.0],[-64.4126,10.3785,8.7114],[-64.421,10.381,14.527]]],
[[[-63.7386,10.4645,1.6997],[-63.7404,10.4642,0.0],[-63.7407,10.4641,0.0],[-63.7379,10.4646,1.6997],[-63.7386,10.4645,1.6997]]]]}
,"properties": {"GID_2": "VEN.20.14_1","GID_0": "VEN","country": "Venezuela","GID_1": "VEN.20_1","province": "Sucre","NL_NAME_1": "NA","county": "Sucre","VARNAME_2": "NA","NL_NAME_2": "NA","TYPE_2": "Municipio","ENGTYPE_2": "Municipality","CC_2": "NA","HASC_2": "NA","name": "Sucre.county","area_km2": 1625.445,"hist_schema_id": "Elevation0-9000","hist_area_km2": {"0": 70.128,"25": 45.944,"50": 37.833,"75": 40.211,"100": 39.419,"125": 39.044,"150": 37.48,"175": 38.295,"200": 37.921,"225": 38.068,"250": 35.878,"275": 35.065,"300": 33.084,"325": 48.341,"350": 36.946,"375": 39.221,"400": 38.908,"425": 37.428,"450": 37.137,"475": 36.491,"500": 35.261,"525": 32.446,"550": 30.381,"575": 29.756,"600": 28.254,"625": 27.628,"650": 27.942,"675": 27.712,"700": 26.69,"725": 27.692,"750": 27.526,"775": 29.133,"800": 27.318,"825": 29.176,"850": 27.986,"875": 25.795,"900": 24.96,"925": 24.898,"950": 22.414,"975": 20.975,"1000": 20.829,"1025": 17.114,"1050": 16.342,"1075": 14.401,"1100": 14.172,"1125": 12.398,"1150": 11.626,"1175": 9.956,"1200": 9.225,"1225": 8.14,"1250": 7.598,"1275": 6.763,"1300": 6.992,"1325": 6.137,"1350": 6.324,"1375": 6.116,"1400": 5.406,"1425": 5.01,"1450": 4.446,"1475": 4.906,"1500": 4.593,"1525": 4.342,"1550": 4.154,"1575": 3.862,"1600": 3.507,"1625": 3.82,"1650": 3.987,"1675": 3.946,"1700": 3.591,"1725": 3.653,"1750": 2.985,"1775": 2.714,"1800": 3.173,"1825": 2.568,"1850": 2.756,"1875": 2.108,"1900": 2.15,"1925": 1.837,"1950": 2.004,"1975": 1.566,"2000": 1.42,"2025": 1.503,"2050": 1.273,"2075": 1.106,"2100": 1.023,"2125": 0.752,"2150": 0.564,"2175": 0.522,"2200": 0.48,"2225": 0.418,"2250": 0.376,"2275": 0.376,"2300": 0.292,"2325": 0.292,"2350": 0.271,"2375": 0.271,"2400": 0.438,"2425": 0.063}}}