{"type": "Feature","bbox": [-68.7734,10.9875,-68.3362,11.369],"geometry": {"type": "MultiPolygon","coordinates": [[[[-68.3429,11.0572,0.6322],[-68.3362,11.0591,0.248],[-68.3396,11.0676,0.0],[-68.3579,11.0962,0.0],[-68.369,11.1099,0.0],[-68.3821,11.1371,0.0],[-68.3885,11.1457,0.3699],[-68.3885,11.1582,1.0196],[-68.3857,11.1613,1.2658],[-68.3788,11.1588,0.0],[-68.3779,11.1599,0.0],[-68.3796,11.164,0.0],[-68.4043,11.1907,0.0],[-68.4096,11.1932,0.0],[-68.4126,11.1924,0.0],[-68.4132,11.1904,0.0],[-68.4074,11.1849,0.4764],[-68.4079,11.181,0.7645],[-68.4124,11.1743,1.7327],[-68.4187,11.1713,2.4152],[-68.4432,11.174,1.5569],[-68.4515,11.1774,0.3094],[-68.459,11.1838,2.3137],[-68.4696,11.1963,0.0],[-68.4801,11.2029,1.0905],[-68.489,11.2126,0.3186],[-68.4907,11.2124,0.3186],[-68.4926,11.2171,0.0],[-68.5082,11.234,2.0908],[-68.5115,11.239,0.0],[-68.5115,11.2429,0.0],[-68.5165,11.2474,0.0],[-68.5174,11.2515,0.0],[-68.5251,11.2571,0.0],[-68.5315,11.2651,2.6277],[-68.5351,11.2651,10.6669],[-68.5379,11.2674,0.0],[-68.5421,11.2646,10.9218],[-68.546,11.2649,2.9326],[-68.5582,11.2746,2.1584],[-68.5638,11.2749,6.1951],[-68.5721,11.2715,17.8775],[-68.5788,11.2754,1.7585],[-68.5851,11.2749,3.3085],[-68.5932,11.2826,0.0],[-68.5993,11.2807,0.0],[-68.6029,11.2821,0.0],[-68.6249,11.3051,9.139],[-68.6535,11.341,0.0],[-68.6626,11.3479,3.6707],[-68.6718,11.3471,0.0],[-68.6896,11.3554,23.1274],[-68.6918,11.3535,5.7547],[-68.6904,11.3457,25.3625],[-68.6924,11.3426,20.8747],[-68.6993,11.3404,3.2195],[-68.7068,11.341,1.0591],[-68.7237,11.3482,2.452],[-68.7387,11.3599,1.0818],[-68.7424,11.3649,6.1417],[-68.7468,11.3668,6.1665],[-68.7532,11.366,6.9814],[-68.7568,11.369,3.6998],[-68.7734,11.2813,106.1761],[-68.7031,11.2238,56.3853],[-68.6711,11.1946,220.1378],[-68.6607,11.1881,387.6505],[-68.6468,11.1825,353.8534],[-68.6087,11.1709,242.2225],[-68.5983,11.1612,86.1498],[-68.594,11.1513,104.3444],[-68.5933,11.1388,175.0323],[-68.595,11.13,100.062],[-68.606,11.1141,55.2885],[-68.606,11.1079,54.7656],[-68.5969,11.098,34.0013],[-68.5789,11.0852,27.6923],[-68.5744,11.0781,34.9306],[-68.5714,11.0663,136.1387],[-68.5602,11.0423,62.5291],[-68.5522,11.0438,38.1049],[-68.5192,11.0716,59.7004],[-68.5068,11.0519,36.0142],[-68.4638,10.9993,18.1097],[-68.4431,10.9875,11.3358],[-68.4306,10.9942,13.0512],[-68.4006,11.0033,11.4874],[-68.394,11.0068,9.2753],[-68.3908,11.0176,6.7849],[-68.3992,11.0392,6.674],[-68.3974,11.0462,6.8048],[-68.384,11.047,3.6516],[-68.3429,11.0572,0.6322]]],
[[[-68.4201,11.1993,0.0],[-68.4235,11.1993,0.0],[-68.4238,11.1979,0.0],[-68.4187,11.1943,2.2407],[-68.4157,11.1946,0.0],[-68.4154,11.1974,0.0],[-68.4201,11.1993,0.0]]],
[[[-68.4465,11.2218,1.3032],[-68.4479,11.2221,0.0],[-68.4488,11.2201,0.0],[-68.4454,11.2176,0.0],[-68.4446,11.2196,0.0],[-68.4465,11.2218,1.3032]]]]}
,"properties": {"GID_2": "VEN.12.1_1","GID_0": "VEN","country": "Venezuela","GID_1": "VEN.12_1","province": "Falcón","NL_NAME_1": "NA","county": "Acosta","VARNAME_2": "NA","NL_NAME_2": "NA","TYPE_2": "Municipio","ENGTYPE_2": "Municipality","CC_2": "NA","HASC_2": "NA","name": "Acosta.county","area_km2": 771.7069,"hist_schema_id": "Elevation0-9000","hist_area_km2": {"0": 285.8205,"25": 249.4865,"50": 147.8196,"75": 49.8538,"100": 14.8697,"125": 5.1578,"150": 2.4544,"175": 1.6848,"200": 1.2272,"225": 1.0608,"250": 1.04,"275": 2.5584,"300": 2.9744,"325": 2.9536,"350": 1.2896,"375": 1.2064,"400": 0.2496}}}