{"type": "Feature","bbox": [-70.3278,10.4372,-68.8672,10.7827],"geometry": {"type": "MultiPolygon","coordinates": [[[[-70.3278,10.5583,838.0679],[-70.300299999999993,10.5522,858.3691],[-70.2786,10.5408,701.1272],[-70.2539,10.5425,653.1945],[-70.2156,10.5558,705.5722],[-70.2033,10.5579,681.8892],[-70.1909,10.558,664.0175],[-70.1832,10.5548,607.8263],[-70.178,10.5505,603.8588],[-70.1691,10.5375,747.2452],[-70.1306,10.4715,719.3906],[-70.1225,10.4625,755.0355],[-70.092,10.4441,925.0151],[-70.0713,10.4401,1100.5237],[-70.0614,10.443,918.1569],[-70.0533,10.4477,908.2147],[-70.0446,10.4497,1023.4169],[-70.0116,10.4477,1127.464],[-70.002,10.4489,1095.6134],[-69.9703,10.468,1083.5972],[-69.9559,10.472,1119.4192],[-69.9464,10.47,1174.2279],[-69.94,10.4636,1075.4424],[-69.933,10.4404,790.4227],[-69.9277,10.4372,682.3768],[-69.8695,10.4455,661.83],[-69.8282,10.4613,630.2845],[-69.817,10.4699,570.4686],[-69.7851,10.5005,512.0661],[-69.7764,10.5051,593.668],[-69.7611,10.5056,592.8373],[-69.7333,10.4985,585.5948],[-69.6909,10.4921,919.7805],[-69.6502,10.4827,962.5742],[-69.6448,10.48,925.46489999999994],[-69.6401,10.4742,873.7693],[-69.6387,10.4675,834.8703],[-69.6436,10.457,1013.9034],[-69.6434,10.4521,994.8513],[-69.6309,10.4432,712.2305],[-69.618,10.439,629.6149],[-69.5799,10.4584,468.4211],[-69.5383,10.4973,729.1295],[-69.5102,10.5106,860.6525],[-69.4954,10.5142,863.0536],[-69.4794,10.5225,679.3887],[-69.4576,10.5406,539.4355],[-69.4418,10.5634,388.5625],[-69.4303,10.5691,437.3595],[-69.4171,10.5692,457.2278],[-69.3949,10.566,378.9964],[-69.3095,10.5449,170.0958],[-69.2522,10.5375,194.9607],[-69.2144,10.5359,193.4416],[-69.1512,10.5153,293.3448],[-69.1339,10.518,255.9604],[-69.1165,10.5431,235.5436],[-69.0904,10.5496,374.3521],[-69.0792,10.5484,464.707],[-69.0547,10.5433,583.8595],[-69.0272,10.5192,522.7294],[-69.0262,10.5235,618.5549],[-69.016,10.5361,821.4046],[-69.0078,10.5408,835.6483],[-68.9982,10.5534,809.4437],[-68.9846,10.5784,395.6483],[-68.9721,10.5874,411.5321],[-68.9569,10.594,318.4845],[-68.9429,10.6059,286.3326],[-68.9352,10.62,195.9164],[-68.9271,10.6405,181.3748],[-68.9179,10.6564,121.0843],[-68.9009,10.6694,116.0189],[-68.8831,10.6794,126.7983],[-68.8703,10.6902,113.018],[-68.8672,10.6998,108.6051],[-68.8675,10.7086,113.8403],[-68.8807,10.7248,128.5861],[-68.8883,10.7299,198.1673],[-68.8986,10.7303,92.0898],[-68.9198,10.728,62.2965],[-68.9545,10.7289,105.9443],[-68.988,10.7222,141.5793],[-69.0348,10.7076,117.143],[-69.0537,10.7044,134.7852],[-69.0732,10.7141,189.712],[-69.0897,10.7176,193.0511],[-69.1302,10.723,150.6404],[-69.1974,10.735,289.8202],[-69.2322,10.7373,424.1042],[-69.2535,10.7339,637.3029],[-69.2842,10.7334,707.6619],[-69.3436,10.7419,579.5046],[-69.3718,10.7423,524.1331],[-69.4489,10.7277,612.5584],[-69.4666,10.7267,640.0258],[-69.4897,10.7302,845.0643],[-69.5017,10.7365,854.0366],[-69.5094,10.743,700.4404],[-69.5276,10.7692,903.8777],[-69.5386,10.7754,731.6738],[-69.605,10.7827,734.2834],[-69.6354,10.7802,821.4578],[-69.6773,10.7664,836.0626],[-69.705,10.7607,767.066],[-69.7352,10.7491,954.4588],[-69.7535,10.739,1051.6619],[-69.7714,10.735,971.5624],[-69.791,10.7388,835.0144],[-69.8173,10.7487,862.8624],[-69.8316,10.747,826.225],[-69.8528,10.7386,964.4716],[-69.9034,10.7097,833.2362],[-69.9282,10.6984,779.7076],[-69.955,10.691,677.0756],[-69.9827,10.6863,911.974],[-70.0412,10.6632,907.2144],[-70.0711,10.666,806.0144],[-70.0944,10.6713,608.1665],[-70.1182,10.6715,669.6045],[-70.1319,10.6653,783.1706],[-70.1722,10.6257,842.0311],[-70.2118,10.6031,979.5641],[-70.2425,10.5881,925.1479],[-70.2661,10.5798,724.1594],[-70.287,10.5765,710.8575],[-70.3083,10.5688,800.5175],[-70.3278,10.5583,838.0679]]]]}
,"properties": {"GID_2": "VEN.14.9_1","GID_0": "VEN","country": "Venezuela","GID_1": "VEN.14_1","province": "Lara","NL_NAME_1": "NA","county": "Urdaneta","VARNAME_2": "NA","NL_NAME_2": "NA","TYPE_2": "Municipio","ENGTYPE_2": "Municipality","CC_2": "NA","HASC_2": "NA","name": "Urdaneta.county","area_km2": 3438.154,"hist_schema_id": "Elevation0-9000","hist_area_km2": {"50": 1.437,"75": 59.107,"100": 104.987,"125": 118.62,"150": 137.306,"175": 115.68,"200": 81.064,"225": 57.827,"250": 54.179,"275": 64.956,"300": 69.625,"325": 65.894,"350": 72.354,"375": 95.153,"400": 103.199,"425": 109.516,"450": 101.494,"475": 102.121,"500": 105.144,"525": 98.538,"550": 101.933,"575": 104.35,"600": 108.119,"625": 114.871,"650": 120.955,"675": 114.64,"700": 108.429,"725": 106.533,"750": 101.49,"775": 94.843,"800": 86.006,"825": 79.211,"850": 73.376,"875": 66.268,"900": 59.746,"925": 53.89,"950": 45.93,"975": 37.094,"1000": 30.55,"1025": 26.028,"1050": 20.151,"1075": 17.005,"1100": 12.65,"1125": 10.045,"1150": 7.044,"1175": 4.626,"1200": 3.709,"1225": 3.021,"1250": 2.688,"1275": 1.917,"1300": 1.479,"1325": 0.813,"1350": 0.313,"1375": 0.125,"1400": 0.083}}}