{"type": "Feature","bbox": [-64.7621,10.2501,-64.539,10.3151],"geometry": {"type": "MultiPolygon","coordinates": [[[[-64.5443,10.2729,9.1707],[-64.5488,10.2732,0.0],[-64.5521,10.271,13.3086],[-64.5521,10.269,31.7416],[-64.549,10.2662,9.1574],[-64.5507,10.2654,0.0],[-64.5507,10.2635,43.8634],[-64.5537,10.2635,28.9826],[-64.5543,10.2621,28.9826],[-64.5515,10.2568,0.0],[-64.5404,10.2551,0.0],[-64.5399,10.2571,0.0],[-64.5429,10.2615,6.7344],[-64.539,10.2646,2.3644],[-64.539,10.2676,0.0],[-64.5435,10.2674,9.632],[-64.5443,10.2729,9.1707]]],
[[[-64.6146,10.2757,3.31],[-64.6315,10.2743,0.0],[-64.6346,10.2707,62.154],[-64.6399,10.2696,0.0],[-64.6343,10.266,14.4149],[-64.6343,10.2643,20.2949],[-64.636,10.2635,2.8143],[-64.6371,10.2596,6.7732],[-64.6424,10.2596,5.8757],[-64.6429,10.2565,28.8524],[-64.6365,10.2557,8.1898],[-64.6346,10.2568,0.0],[-64.6315,10.2668,0.2985],[-64.6282,10.2646,0.0],[-64.6274,10.2674,25.8411],[-64.6251,10.2665,0.0],[-64.6243,10.2688,31.2715],[-64.6179,10.269,9.5976],[-64.6154,10.2715,0.0],[-64.6146,10.2757,3.31]]],
[[[-64.5982,10.2949,0.0],[-64.6071,10.294,0.0],[-64.6079,10.2907,17.537],[-64.6057,10.2893,0.0],[-64.6043,10.2907,8.0976],[-64.601,10.2879,0.0],[-64.5871,10.2901,0.0],[-64.586,10.2918,8.2867],[-64.5946,10.2921,10.7007],[-64.5979,10.2932,58.9468],[-64.5982,10.2949,0.0]]],
[[[-64.5832,10.2915,1.1173],[-64.5832,10.2935,3.7257],[-64.5851,10.2935,5.1488],[-64.5854,10.291,8.2867],[-64.5832,10.2915,1.1173]]],
[[[-64.7596,10.2524,2.6117],[-64.7613,10.2529,10.1131],[-64.7621,10.2515,6.9551],[-64.7593,10.2501,0.0],[-64.7596,10.2524,2.6117]]],
[[[-64.7421,10.2726,0.0],[-64.7446,10.2732,5.1989],[-64.7485,10.2668,0.0],[-64.741,10.2668,0.0],[-64.7396,10.2696,0.0],[-64.7421,10.2726,0.0]]],
[[[-64.7568,10.2932,7.4719],[-64.7596,10.2943,4.0069],[-64.7593,10.2921,0.0],[-64.761,10.291,0.0],[-64.756,10.2885,0.0],[-64.7549,10.2904,1.039],[-64.7568,10.2932,7.4719]]],
[[[-64.7337,10.3149,5.2114],[-64.7399,10.3151,0.0],[-64.7426,10.3104,15.4138],[-64.7479,10.306,37.4559],[-64.7482,10.3021,0.0],[-64.7507,10.2982,74.0023],[-64.754,10.2987,33.9311],[-64.7543,10.2968,29.9265],[-64.7568,10.2957,0.0],[-64.7532,10.2935,19.2375],[-64.7538,10.2904,0.0],[-64.7415,10.2813,1.8839],[-64.7404,10.2765,0.0],[-64.7337,10.2804,2.4375],[-64.7315,10.2885,7.4001],[-64.7324,10.2901,7.3491],[-64.7282,10.2971,0.0],[-64.7251,10.3099,0.0],[-64.729,10.3138,0.0],[-64.7337,10.3149,5.2114]]],
[[[-64.634,10.3054,0.0],[-64.6371,10.3057,0.0],[-64.6387,10.3029,40.6708],[-64.6462,10.3021,0.0],[-64.6471,10.3004,110.2485],[-64.6515,10.304,0.0],[-64.6626,10.3032,37.632],[-64.6657,10.3043,0.0],[-64.669,10.3004,7.7643],[-64.6657,10.2968,0.0],[-64.6646,10.2924,2.7307],[-64.6749,10.2885,4.3079],[-64.6718,10.2865,0.0],[-64.6679,10.2879,5.6162],[-64.6643,10.2854,0.0],[-64.6626,10.2882,1.8474],[-64.6607,10.2868,0.0],[-64.6599,10.2885,14.1063],[-64.6604,10.2907,1.6758],[-64.6632,10.2924,2.2238],[-64.6571,10.2929,16.1325],[-64.6535,10.2918,0.0],[-64.654,10.2901,48.5877],[-64.6565,10.2896,11.0522],[-64.6554,10.2857,0.0],[-64.6524,10.2851,0.0],[-64.6513,10.2885,45.0405],[-64.6476,10.286,13.912],[-64.644,10.2896,7.066],[-64.6435,10.2879,0.0],[-64.644,10.2863,0.0],[-64.6415,10.2863,0.0],[-64.6376,10.2899,0.0],[-64.6379,10.2876,4.6855],[-64.636,10.2874,8.9058],[-64.6357,10.2849,0.0],[-64.6265,10.2854,39.4824],[-64.6276,10.2829,48.9282],[-64.6296,10.2826,7.2397],[-64.629,10.2793,3.0728],[-64.624,10.2804,0.0],[-64.6229,10.2826,6.0947],[-64.6199,10.2835,11.8352],[-64.6199,10.2813,0.0],[-64.6174,10.2818,0.0],[-64.6151,10.2793,5.2235],[-64.6118,10.2793,0.0],[-64.6099,10.2857,0.0],[-64.6171,10.2868,75.5953],[-64.6179,10.2885,10.4352],[-64.6215,10.2893,0.0],[-64.6288,10.2893,7.9872],[-64.6288,10.2915,9.7314],[-64.6229,10.2968,0.0],[-64.6257,10.2963,36.3466],[-64.6332,10.2993,11.1777],[-64.634,10.3054,0.0]]],
[[[-64.5757,10.2937,10.1375],[-64.5771,10.2943,0.0],[-64.5771,10.2924,10.1375],[-64.574,10.2912,0.0],[-64.574,10.2929,7.0626],[-64.5757,10.2937,10.1375]]],
[[[-64.5476,10.294,2.6987],[-64.551,10.2943,1.7352],[-64.5524,10.2926,3.4269],[-64.5485,10.2929,3.9466],[-64.5476,10.294,2.6987]]],
[[[-64.5612,10.3093,4.765],[-64.564,10.3093,16.8127],[-64.5649,10.3049,0.0],[-64.5612,10.3065,0.0],[-64.5612,10.3093,4.765]]],
[[[-64.6776,10.3043,0.0],[-64.6813,10.304,0.7847],[-64.6832,10.301,5.1737],[-64.6821,10.2976,0.0],[-64.6801,10.2968,0.0],[-64.6804,10.2915,0.0],[-64.6785,10.2974,31.1249],[-64.674,10.3001,5.9879],[-64.6754,10.3035,0.0],[-64.6776,10.3043,0.0]]],
[[[-64.6837,10.3038,0.0],[-64.6837,10.306,0.0],[-64.6849,10.306,0.0],[-64.6854,10.3026,2.527],[-64.6837,10.3038,0.0]]],
[[[-64.7504,10.3076,5.7031],[-64.7532,10.3082,6.258],[-64.7549,10.3071,2.8588],[-64.751,10.3063,7.5593],[-64.7504,10.3076,5.7031]]],
[[[-64.7585,10.3093,8.8155],[-64.7593,10.3104,8.8155],[-64.7601,10.3104,8.8155],[-64.7593,10.3076,6.1373],[-64.7585,10.3093,8.8155]]]]}
,"properties": {"GID_2": "VEN.2.13_1","GID_0": "VEN","country": "Venezuela","GID_1": "VEN.2_1","province": "Anzoátegui","NL_NAME_1": "NA","county": "Isla","VARNAME_2": "NA","NL_NAME_2": "NA","TYPE_2": "Municipio","ENGTYPE_2": "Municipality","CC_2": "NA","HASC_2": "NA","name": "Isla.county","area_km2": 24.5954,"hist_schema_id": "Elevation0-9000","hist_area_km2": {"0": 3.98454,"25": 4.29747,"50": 4.08883,"75": 2.96232,"100": 2.33645,"125": 1.58545,"150": 1.50198,"175": 1.16821,"200": 1.08475,"225": 0.52151,"250": 0.41721,"275": 0.22946,"300": 0.22946,"325": 0.14602,"350": 0.02086,"375": 0.02086}}}