{"type":"Feature","properties":{"GID_2":"VEN.4.1_1","GID_0":"VEN","country":"Venezuela","GID_1":"VEN.4_1","province":"Aragua","NL_NAME_1":"NA","county":"Bolívar","VARNAME_2":"NA","NL_NAME_2":"NA","TYPE_2":"Municipio","ENGTYPE_2":"Municipality","CC_2":"NA","HASC_2":"NA","name":"Bolívar.county"},
"geometry":{"type": "MultiPolygon","coordinates": [[[[-67.347,10.304,1331.1033],[-67.3588,10.2956,1245.0607],[-67.3615,10.2894,990.9291],[-67.3665,10.2639,809.1923],[-67.3704,10.2583,771.3738],[-67.391,10.2426,989.546],[-67.3967,10.2353,720.3284],[-67.3985,10.2303,635.8219],[-67.3988,10.225,747.6598],[-67.3955,10.2099,557.7133],[-67.3881,10.2036,516.5],[-67.3793,10.1996,521.6838],[-67.3743,10.1987,528.3141],[-67.3725,10.2007,525.8574],[-67.3639,10.2024,524.4503],[-67.3408,10.211,609.5696],[-67.3336,10.2203,567.8114],[-67.3275,10.2362,617.3561],[-67.3271,10.2483,961.4768],[-67.3307,10.2648,877.6768],[-67.344,10.2924,942.2476],[-67.347,10.304,1331.1033]]]]}}