{"type": "Feature","bbox": [-67.4119,10.304,-67.1674,10.5385],"geometry": {"type": "MultiPolygon","coordinates": [[[[-67.2223,10.3455,851.1002],[-67.2176,10.3403,835.1004],[-67.1674,10.4137,1979.0769],[-67.1756,10.4225,1871.2772],[-67.204,10.4388,1724.7705],[-67.2181,10.4425,1685.3621],[-67.2407,10.443,1538.0811],[-67.2637,10.4358,1509.6777],[-67.2767,10.4258,1945.616],[-67.2862,10.4146,1975.0883],[-67.2933,10.4022,1917.4675],[-67.3022,10.4015,2164.2073],[-67.314,10.4063,2165.2124],[-67.3186,10.4149,1841.4752],[-67.3222,10.4582,649.3363],[-67.3272,10.4709,766.7346],[-67.3357,10.4815,777.9857],[-67.3457,10.4905,602.7614],[-67.3539,10.5023,681.065],[-67.3646,10.5385,23.0818],[-67.3718,10.5376,0.0],[-67.3776,10.534,1.9851],[-67.3907,10.534,0.0],[-67.3926,10.5324,20.2648],[-67.3971,10.5335,0.0],[-67.3988,10.5301,26.2803],[-67.4004,10.5304,13.3006],[-67.3996,10.5346,0.0],[-67.4119,10.5351,28.7403],[-67.4007,10.5038,246.1901],[-67.3951,10.478,508.5109],[-67.3752,10.4387,847.1245],[-67.3665,10.4172,1280.3518],[-67.3574,10.4042,1465.4803],[-67.3545,10.3968,2058.79],[-67.3557,10.388,2293.3296],[-67.3607,10.3837,2125.1689],[-67.3699,10.3815,1713.9985],[-67.3741,10.3784,1724.7505],[-67.3735,10.3745,1593.3158],[-67.3677,10.3665,1651.4436],[-67.3506,10.3548,1748.4866],[-67.3468,10.3448,1572.5342],[-67.3494,10.3178,1041.3853],[-67.347,10.304,1331.1033],[-67.3193,10.3191,787.6094],[-67.2829,10.3349,1451.9108],[-67.2516,10.352,1307.9828],[-67.2371,10.3579,1066.3827],[-67.2322,10.3555,1064.4475],[-67.2223,10.3455,851.1002]]]]}
,"properties": {"GID_2": "VEN.4.16_1","GID_0": "VEN","country": "Venezuela","GID_1": "VEN.4_1","province": "Aragua","NL_NAME_1": "NA","county": "Tovar","VARNAME_2": "NA","NL_NAME_2": "NA","TYPE_2": "Municipio","ENGTYPE_2": "Municipality","CC_2": "NA","HASC_2": "NA","name": "Tovar.county","area_km2": 264.127,"hist_schema_id": "Elevation0-9000","hist_area_km2": {"0": 0.3961,"25": 0.542,"50": 0.6045,"75": 0.4377,"100": 0.5211,"125": 0.4794,"150": 0.4586,"175": 0.5837,"200": 0.7296,"225": 0.8755,"250": 1.084,"275": 0.9381,"300": 1.1466,"325": 1.0632,"350": 1.1466,"375": 1.2717,"400": 1.5844,"425": 1.4801,"450": 1.2508,"475": 1.376,"500": 1.5844,"525": 1.501,"550": 1.7304,"575": 1.7095,"600": 1.8972,"625": 1.6053,"650": 1.4802,"675": 1.4177,"700": 2.0015,"725": 1.7721,"750": 1.6887,"775": 2.0015,"800": 2.2727,"825": 2.1268,"850": 2.1685,"875": 2.2311,"900": 2.5648,"925": 2.0644,"950": 2.8568,"975": 2.7318,"1000": 3.4826,"1025": 3.1698,"1050": 3.2324,"1075": 3.1699,"1100": 3.1074,"1125": 3.7538,"1150": 3.587,"1175": 3.6289,"1200": 3.8791,"1225": 3.6497,"1250": 4.3588,"1275": 4.025,"1300": 4.0668,"1325": 4.2545,"1350": 3.8374,"1375": 4.9218,"1400": 3.7331,"1425": 4.4213,"1450": 4.0667,"1475": 4.4004,"1500": 4.463,"1525": 3.8999,"1550": 4.2127,"1575": 3.7539,"1600": 4.1919,"1625": 4.3378,"1650": 4.2961,"1675": 4.7758,"1700": 4.2127,"1725": 4.2126,"1750": 4.5254,"1775": 5.1093,"1800": 4.567,"1825": 5.005,"1850": 5.4637,"1875": 4.8798,"1900": 4.8381,"1925": 5.0675,"1950": 4.0665,"1975": 4.3584,"2000": 3.983,"2025": 4.2541,"2050": 4.1915,"2075": 4.1498,"2100": 3.7328,"2125": 3.7745,"2150": 3.128,"2175": 3.274,"2200": 2.2104,"2225": 1.6891,"2250": 1.8976,"2275": 1.418,"2300": 1.1469,"2325": 0.6256,"2350": 0.2294,"2375": 0.0626}}}