{"type":"Feature","properties":{"GID_2":"VEN.5.10_1","GID_0":"VEN","country":"Venezuela","GID_1":"VEN.5_1","province":"Barinas","NL_NAME_1":"NA","county":"Pedraza","VARNAME_2":"NA","NL_NAME_2":"NA","TYPE_2":"Municipio","ENGTYPE_2":"Municipality","CC_2":"NA","HASC_2":"NA","name":"Pedraza.county"},
"geometry":{"type": "MultiPolygon","coordinates": [[[[-69.6171,7.9493,85.2849],[-69.6323,7.9618,86.7719],[-69.6499,7.9689,88.4704],[-69.6711,7.9737,87.4567],[-69.7974,7.9803,93.2111],[-69.822,7.9853,96.0382],[-69.8471,7.9857,95.6721],[-69.867,7.9796,97.231],[-69.8854,7.9784,99.4238],[-69.9052,7.9813,99.1741],[-69.9226,7.9891,102.0139],[-69.9341,7.9988,104.5831],[-69.9608,8.0309,103.1518],[-69.976,8.0504,104.8677],[-69.9949,8.0786,106.5314],[-70.0033,8.084,107.2335],[-70.021,8.0889,109.1436],[-70.0389,8.0998,111.1484],[-70.0806,8.1139,112.5174],[-70.1041,8.1278,113.7527],[-70.1173,8.1379,114.9543],[-70.1395,8.1594,117.9527],[-70.1446,8.1773,119.3702],[-70.1544,8.2482,125.1122],[-70.1829,8.3675,135.0833],[-70.1868,8.3787,136.099],[-70.1893,8.3808,135.5909],[-70.1978,8.3818,136.2701],[-70.2091,8.3862,137.3335],[-70.2361,8.4159,142.8924],[-70.2611,8.4336,145.3295],[-70.284,8.4522,151.3555],[-70.2912,8.4532,150.7389],[-70.2997,8.4419,149.8153],[-70.3101,8.4349,149.6435],[-70.3213,8.4393,153.3922],[-70.34,8.4606,156.4696],[-70.351,8.4682,156.4332],[-70.362,8.4713,160.35],[-70.378,8.4819,160.2331],[-70.3979,8.5065,164.0945],[-70.4068,8.5143,173.9455],[-70.423,8.5242,199.6907],[-70.433,8.5476,322.697],[-70.4383,8.5835,323.4233],[-70.4447,8.6077,409.9114],[-70.4518,8.6151,323.3576],[-70.4846,8.6346,298.4412],[-70.4979,8.638,331.7261],[-70.5072,8.6356,275.7499],[-70.5192,8.6272,339.064],[-70.5392,8.6224,326.6052],[-70.5587,8.628,394.595],[-70.5739,8.637,481.1268],[-70.5937,8.6537,740.9309],[-70.6122,8.6753,856.0431],[-70.6354,8.7115,2496.9351],[-70.6454,8.7238,2020.2926],[-70.6527,8.7313,2838.0762],[-70.6689,8.7417,2875.335],[-70.6866,8.7301,2476.1821],[-70.7117,8.7199,2119.4746],[-70.7199,8.7136,2626.6052],[-70.7255,8.7041,2963.418],[-70.7269,8.6923,2913.6035],[-70.7234,8.6754,1819.9885],[-70.7143,8.6592,2124.7793],[-70.704,8.6457,1466.6045],[-70.7006,8.6294,1232.27],[-70.7048,8.6142,930.1956],[-70.712,8.6076,831.0365],[-70.7293,8.5976,1403.1229],[-70.7441,8.5924,1643.562],[-70.7684,8.5875,2273.3831],[-70.8058,8.5845,2595.3889],[-70.8329,8.5788,2723.459],[-70.8417,8.5746,3141.8186],[-70.8175,8.5523,2029.8955],[-70.8089,8.5405,2267.396],[-70.8014,8.5176,1504.7246],[-70.7856,8.4848,1074.3832],[-70.7839,8.4323,1225.9119],[-70.7849,8.3843,794.6725],[-70.779,8.3757,629.7195],[-70.7687,8.3645,683.5502],[-70.7369,8.343,287.1691],[-70.5703,8.2151,149.6088],[-70.413,8.0864,129.061],[-70.4088,8.0782,128.3626],[-70.4083,8.0639,127.0926],[-70.4114,8.0518,125.8472],[-70.4177,8.0382,125.4861],[-70.4176,8.0225,123.9087],[-70.4098,7.9965,130.4754],[-70.3985,7.9816,120.9448],[-70.3736,7.9724,119.2646],[-70.3656,7.9659,118.4466],[-70.3616,7.9603,117.3184],[-70.3473,7.9512,117.6638],[-70.3282,7.9338,115.3114],[-70.3236,7.927,114.4176],[-70.3207,7.9087,113.5313],[-70.312,7.8875,112.0109],[-70.2983,7.8741,110.8236],[-70.2807,7.8619,108.6827],[-70.2748,7.852,107.6461],[-70.2697,7.8338,106.8737],[-70.2576,7.8155,105.4445],[-70.2444,7.7865,104.4806],[-70.256,7.7772,111.2393],[-70.2721,7.7741,106.6066],[-70.3141,7.7781,112.5616],[-70.325,7.7735,110.6903],[-70.3458,7.757,110.7114],[-70.3539,7.7533,108.7982],[-70.3633,7.7514,108.917],[-70.3699,7.7518,108.7104],[-70.3753,7.7538,109.22],[-70.3824,7.7649,111.4024],[-70.387,7.7695,111.5965],[-70.4107,7.7791,111.5338],[-70.423,7.79,111.2486],[-70.4871,7.788,115.5852],[-70.4975,7.79,118.147],[-70.505,7.7946,112.5818],[-70.519,7.8086,118.6227],[-70.5306,7.8123,114.9667],[-70.5549,7.8112,115.7546],[-70.5612,7.8141,115.7896],[-70.5718,7.8282,116.1833],[-70.5831,7.8363,117.7495],[-70.6137,7.8428,118.56],[-70.7075,7.8525,121.3539],[-70.7199,7.4992,124.6282],[-70.7217,7.4039,126.0452],[-70.7165,7.4042,124.9937],[-70.6943,7.4111,124.1695],[-70.6234,7.4174,121.7121],[-70.6115,7.4155,125.3239],[-70.5954,7.4074,127.7531],[-70.5791,7.4016,120.5005],[-70.5404,7.395,128.3163],[-70.5135,7.3851,118.0093],[-70.5115,7.4083,122.6469],[-70.5076,7.4128,118.5391],[-70.4601,7.4156,119.1869],[-70.4404,7.4194,114.0],[-70.4216,7.4258,117.3092],[-70.3936,7.4446,112.5],[-70.3835,7.4543,112.5],[-70.3658,7.4815,116.7092],[-70.3295,7.5537,110.2314],[-70.3208,7.5631,112.8816],[-70.3121,7.5676,111.5033],[-70.2927,7.5725,108.1329],[-70.2765,7.5729,107.0191],[-70.2611,7.571,105.9537],[-70.2427,7.5658,106.5145],[-70.2245,7.5634,106.6123],[-70.2052,7.5679,106.0309],[-70.1698,7.5888,104.2956],[-70.16,7.5962,104.6003],[-70.1544,7.605,103.6115],[-70.155,7.6149,103.9537],[-70.1584,7.6232,104.7804],[-70.1593,7.6339,104.2876],[-70.1558,7.6387,108.1439],[-70.1252,7.6605,102.3033],[-70.0954,7.6849,101.5855],[-70.0839,7.6902,101.1326],[-70.0487,7.7017,99.3878],[-70.0315,7.7064,98.1605],[-70.0077,7.7101,98.1864],[-69.9444,7.7082,99.0196],[-69.9362,7.7174,96.1083],[-69.9271,7.7395,95.99],[-69.9186,7.7503,95.4889],[-69.8736,7.7805,93.9107],[-69.851,7.7924,97.7831],[-69.7882,7.8073,94.0973],[-69.7723,7.8176,91.2706],[-69.7583,7.8369,89.5465],[-69.7481,7.8557,88.5719],[-69.7374,7.8684,89.1136],[-69.7079,7.8807,87.6757],[-69.6659,7.9131,87.3715],[-69.6389,7.9398,86.3799],[-69.6171,7.9493,85.2849]]]]}}