{"type": "Feature","bbox": [-71.6136,8.6872,-71.3284,8.9286],"geometry": {"type": "MultiPolygon","coordinates": [[[[-71.5154,8.6872,1709.3076],[-71.509,8.6904,1695.0984],[-71.4999,8.6992,1700.9993],[-71.4957,8.7062,1744.4266],[-71.4864,8.7386,1529.105],[-71.4816,8.7468,1370.6196],[-71.4675,8.7518,1092.0493],[-71.4384,8.7505,516.6349],[-71.3992,8.7527,1448.4609],[-71.3908,8.755,1496.8833],[-71.3885,8.7591,1176.1016],[-71.3912,8.7695,1299.0774],[-71.3775,8.7685,1512.9636],[-71.3284,8.7712,2678.2761],[-71.3402,8.7757,2515.5745],[-71.3579,8.7863,1884.4056],[-71.3643,8.7941,1348.3401],[-71.3689,8.8035,1137.4546],[-71.3666,8.868,120.4851],[-71.3701,8.876,82.0188],[-71.3798,8.8883,51.0103],[-71.3856,8.8989,38.6003],[-71.392,8.9223,29.6654],[-71.3952,8.928,26.6927],[-71.4024,8.9286,24.8398],[-71.4141,8.9091,22.5173],[-71.4507,8.8777,22.2237],[-71.502,8.8421,23.2945],[-71.5619,8.7912,38.4005],[-71.6136,8.7525,45.4135],[-71.5903,8.7314,58.287],[-71.5666,8.7164,244.8209],[-71.5525,8.709,635.7155],[-71.5225,8.699,1352.2809],[-71.5185,8.6952,1697.8867],[-71.5154,8.6872,1709.3076]]]]}
,"properties": {"GID_2": "VEN.15.14_1","GID_0": "VEN","country": "Venezuela","GID_1": "VEN.15_1","province": "Mérida","NL_NAME_1": "NA","county": "ObispoRamosdeLora","VARNAME_2": "NA","NL_NAME_2": "NA","TYPE_2": "Municipio","ENGTYPE_2": "Municipality","CC_2": "NA","HASC_2": "NA","name": "Obispo_Ramosde_Lora.county","area_km2": 337.8835,"hist_schema_id": "Elevation0-9000","hist_area_km2": {"25": 62.0933,"50": 54.0765,"75": 16.1538,"100": 10.4133,"125": 8.423,"150": 7.9622,"175": 8.13,"200": 6.9146,"225": 5.9507,"250": 6.0345,"275": 5.4478,"300": 4.8821,"325": 4.8402,"350": 4.4001,"375": 4.5888,"400": 4.3792,"425": 4.2745,"450": 4.065,"475": 4.1488,"500": 4.3794,"525": 3.8765,"550": 3.9813,"575": 4.0023,"600": 3.6461,"625": 3.3527,"650": 2.9546,"675": 2.9756,"700": 2.9546,"725": 2.5564,"750": 2.7451,"775": 2.3679,"800": 2.4098,"825": 2.4307,"850": 2.2212,"875": 2.4936,"900": 2.0745,"925": 2.0326,"950": 1.9488,"975": 2.1374,"1000": 2.0536,"1025": 2.2003,"1050": 1.6764,"1075": 1.9069,"1100": 1.8021,"1125": 1.5507,"1150": 1.7393,"1175": 1.5088,"1200": 1.4878,"1225": 1.4669,"1250": 1.404,"1275": 1.3621,"1300": 1.383,"1325": 1.3411,"1350": 1.2364,"1375": 1.5297,"1400": 1.3621,"1425": 1.2573,"1450": 1.0687,"1475": 0.7334,"1500": 0.9011,"1525": 0.8801,"1550": 1.0268,"1575": 0.943,"1600": 0.9011,"1625": 1.0687,"1650": 0.6916,"1675": 0.9221,"1700": 1.0059,"1725": 1.1526,"1750": 2.1377,"1775": 1.5718,"1800": 2.0329,"1825": 1.5927,"1850": 1.1736,"1875": 0.3772,"1900": 0.1257,"1925": 0.1467,"1950": 0.2095,"1975": 0.1467,"2000": 0.1467,"2025": 0.1886,"2050": 0.2305,"2075": 0.2514,"2100": 0.1886,"2125": 0.1886,"2150": 0.1048,"2175": 0.2095,"2200": 0.1048,"2225": 0.2305,"2250": 0.1257,"2275": 0.1886,"2300": 0.2514,"2325": 0.1886,"2350": 0.1676,"2375": 0.1886,"2400": 0.1048,"2425": 0.1048,"2450": 0.1467,"2475": 0.1676,"2500": 0.1048,"2525": 0.0838,"2550": 0.1048,"2575": 0.1467,"2600": 0.0629,"2625": 0.0838,"2650": 0.021}}}