{"type":"Feature","properties":{"GID_2":"VEN.15.21_1","GID_0":"VEN","country":"Venezuela","GID_1":"VEN.15_1","province":"Mérida","NL_NAME_1":"NA","county":"Tovar","VARNAME_2":"NA","NL_NAME_2":"NA","TYPE_2":"Municipio","ENGTYPE_2":"Municipality","CC_2":"NA","HASC_2":"NA","name":"Tovar.county"},
"geometry":{"type": "MultiPolygon","coordinates": [[[[-71.7448,8.4081,775.6389],[-71.7486,8.4031,1020.2429],[-71.753,8.3914,1112.6738],[-71.7599,8.363,1240.8884],[-71.7653,8.352,1410.8357],[-71.7733,8.3412,1622.1315],[-71.7807,8.3352,1595.8682],[-71.8257,8.3104,2356.2546],[-71.8282,8.3018,2316.5056],[-71.8058,8.2981,1571.4399],[-71.7991,8.2952,1313.9509],[-71.7822,8.2734,1674.8728],[-71.7745,8.2556,2157.5093],[-71.7678,8.2469,2201.5708],[-71.7603,8.2424,2405.8218],[-71.7506,8.2391,2931.6577],[-71.7245,8.2342,2554.4268],[-71.7165,8.2375,2611.0234],[-71.7017,8.2601,2893.1917],[-71.6785,8.2711,2168.3945],[-71.6812,8.3043,2581.9724],[-71.6754,8.3199,2140.958],[-71.6789,8.3504,1678.3777],[-71.6859,8.3604,1028.2808],[-71.6941,8.3673,700.65],[-71.7156,8.3742,1023.8115],[-71.7217,8.4046,868.5459],[-71.7359,8.4091,849.2292],[-71.7448,8.4081,775.6389]]]]}}