{"type": "Feature","bbox": [-73.1511,9.255,-71.9654,10.3627],"geometry": {"type": "MultiPolygon","coordinates": [[[[-72.9984,9.9214,2836.814],[-72.995,9.9194,2846.8992],[-72.9928,9.9146,2768.5942],[-72.9858,9.9153,2714.5068],[-72.9858,9.9106,2654.1184],[-72.9838,9.9072,2661.5908],[-72.9882,9.8986,2304.1575],[-72.9849,9.8939,2450.6292],[-72.9774,9.8893,2523.4409],[-72.9834,9.8844,2370.6187],[-72.9891,9.8821,2420.8608],[-72.9933,9.8771,2385.3787],[-72.9928,9.875,2461.1787],[-72.9724,9.8685,2422.6179],[-72.9713,9.8587,2385.9924],[-72.9592,9.8515,1975.4896],[-72.9486,9.8484,2064.614],[-72.9447,9.8428,2290.7554],[-72.9463,9.8374,2361.3564],[-72.9495,9.8353,2238.3423],[-72.9502,9.8305,2240.5879],[-72.9563,9.8265,2206.8174],[-72.9571,9.8212,2291.4209],[-72.9638,9.8194,2175.5332],[-72.9728,9.8062,2331.5688],[-72.9877,9.7926,2130.2534],[-72.9995,9.7712,2228.7974],[-73.0109,9.7605,2077.3125],[-73.0134,9.7508,2061.2036],[-73.0218,9.7372,2075.688],[-73.0282,9.723,1954.6912],[-73.0306,9.7155,2110.1182],[-73.0332,9.6897,1397.0776],[-73.0473,9.6649,1535.5127],[-73.0477,9.656,1291.113],[-73.052,9.6524,1535.0024],[-73.0621,9.6494,1842.7313],[-73.0674,9.6452,1783.6586],[-73.0709,9.6237,1928.2458],[-73.079,9.6159,2115.749],[-73.0815,9.6104,2178.4446],[-73.0902,9.5892,1296.3118],[-73.0944,9.5717,1265.1614],[-73.1069,9.5645,1195.4788],[-73.1179,9.5553,1806.373],[-73.1268,9.555,1947.5709],[-73.1325,9.5503,2018.9218],[-73.1364,9.5501,2005.8038],[-73.1393,9.546,1864.4827],[-73.1453,9.5423,1793.2372],[-73.1463,9.5378,1737.9084],[-73.1511,9.5329,1711.1448],[-73.1367,9.5142,1277.1617],[-73.1213,9.504,1649.4905],[-73.105,9.4826,1326.5931],[-73.0843,9.4597,1190.6897],[-73.077,9.4546,1022.6123],[-73.0659,9.4502,1011.0159],[-73.0553,9.4485,1190.5591],[-73.0351,9.4544,1097.4905],[-73.0159,9.463,320.7098],[-73.0053,9.4642,461.6802],[-72.9748,9.4725,169.8226],[-72.9652,9.4705,260.986],[-72.9602,9.4667,640.1807],[-72.9568,9.4617,724.9288],[-72.9506,9.4279,807.2601],[-72.9597,9.4041,685.3303],[-72.9603,9.3877,626.4972],[-72.957,9.3765,380.7978],[-72.945,9.3581,198.8704],[-72.9347,9.3366,608.5557],[-72.9367,9.328,439.8214],[-72.9445,9.3165,378.7735],[-72.9587,9.3034,104.0018],[-72.9618,9.2969,230.7677],[-72.9625,9.2893,254.4292],[-72.9611,9.2834,295.8433],[-72.954,9.2734,219.7629],[-72.9462,9.267,149.7308],[-72.931,9.2586,92.0744],[-72.9179,9.255,81.9631],[-72.9007,9.2557,68.4084],[-72.8803,9.2668,84.5631],[-72.8741,9.273,95.7923],[-72.869,9.2817,75.9985],[-72.8631,9.3041,95.4412],[-72.8564,9.3134,66.2471],[-72.8471,9.3222,57.6663],[-72.8333,9.3294,69.7817],[-72.8254,9.3301,40.8576],[-72.8176,9.3331,32.4294],[-72.7993,9.3448,39.1464],[-72.7885,9.3496,67.6807],[-72.7712,9.3522,57.3419],[-72.7177,9.3663,31.2978],[-72.6969,9.3756,22.9259],[-72.6845,9.3789,24.5433],[-72.6574,9.3782,25.892],[-72.6258,9.3703,27.3911],[-72.5934,9.3682,15.142],[-72.5752,9.37,14.4191],[-72.5538,9.3762,14.9761],[-72.5406,9.383,31.7921],[-72.5254,9.3983,16.6587],[-72.5033,9.4317,13.3579],[-72.4932,9.4379,15.5641],[-72.47,9.4464,9.8595],[-72.4565,9.4483,9.1338],[-72.4167,9.4387,8.5002],[-72.404,9.438,17.1673],[-72.3746,9.4406,6.7018],[-72.3585,9.4341,6.4664],[-72.3484,9.4322,10.4764],[-72.3237,9.4319,5.0186],[-72.3175,9.4372,5.0444],[-72.3097,9.4499,5.6068],[-72.3041,9.4555,4.7375],[-72.2819,9.4656,3.6832],[-72.2735,9.4664,3.4032],[-72.2624,9.4624,4.8238],[-72.2516,9.4622,5.529],[-72.2422,9.4661,10.6449],[-72.2346,9.4733,12.8439],[-72.226,9.4882,2.5928],[-72.2229,9.5165,7.3116],[-72.2174,9.5326,2.5549],[-72.2121,9.5389,4.3735],[-72.2029,9.544,2.9657],[-72.1792,9.5829,17.847],[-72.1762,9.5945,2.091],[-72.1777,9.6144,2.5298],[-72.175,9.6184,1.9907],[-72.1698,9.6217,2.0453],[-72.1444,9.626,1.2648],[-72.0972,9.6392,1.7723],[-72.0893,9.6367,1.4779],[-72.077,9.6298,2.4933],[-72.0627,9.6287,1.597],[-72.0517,9.6256,5.6394],[-72.0268,9.603,0.5828],[-72.0061,9.5933,14.4226],[-72.0031,9.5874,15.0565],[-71.9991,9.5875,15.8094],[-71.9946,9.5826,11.4083],[-71.9876,9.5835,10.9267],[-71.9841,9.5889,2.0107],[-71.9854,9.5918,1.9621],[-71.9915,9.5951,2.9858],[-71.9868,9.594,3.709],[-71.9801,9.5865,2.3634],[-71.9729,9.5651,0.0],[-71.9679,9.5593,0.536],[-71.9657,9.5599,0.8348],[-71.9654,9.586,2.6936],[-71.9732,9.606,0.0],[-71.9818,9.6176,0.0],[-71.9949,9.6304,3.0409],[-72.0049,9.6429,2.7745],[-72.016,9.6618,0.7093],[-72.0921,9.7504,2.2575],[-72.1085,9.7751,1.915],[-72.1188,9.7926,6.5397],[-72.1204,9.7985,0.0],[-72.1249,9.8043,0.7872],[-72.1271,9.8124,0.4606],[-72.1251,9.8229,2.3638],[-72.1271,9.826,3.9734],[-72.1271,9.834,4.8152],[-72.1124,9.8343,0.3796],[-72.1071,9.8368,0.5771],[-72.1079,9.841,1.7338],[-72.106,9.8479,0.0],[-72.1018,9.8524,1.741],[-72.0871,9.8624,0.0],[-72.0837,9.8657,0.0],[-72.0824,9.8713,1.9809],[-72.0912,9.8644,1.0814],[-72.1001,9.8739,2.3147],[-72.1188,9.9122,6.7273],[-72.1306,9.9301,10.8937],[-72.1351,9.9338,9.5916],[-72.1485,9.9433,10.9105],[-72.181,9.9577,16.6223],[-72.2128,9.9775,22.5574],[-72.2246,9.98,28.1481],[-72.2357,9.9858,24.5927],[-72.2388,9.9892,25.8947],[-72.2513,10.0172,28.8395],[-72.2856,10.0513,38.9601],[-72.3037,10.0617,47.4833],[-72.3343,10.0759,44.4642],[-72.3553,10.092,54.8959],[-72.3708,10.1068,71.5429],[-72.3812,10.1136,69.583],[-72.3907,10.1225,59.4273],[-72.4037,10.144,66.1034],[-72.4311,10.172,74.1032],[-72.451,10.1983,95.637],[-72.4737,10.2208,96.8051],[-72.5007,10.2579,119.2246],[-72.5097,10.2635,125.7145],[-72.5281,10.2632,156.6049],[-72.566,10.2758,630.0936],[-72.5741,10.2749,657.4769],[-72.5791,10.2679,631.764],[-72.5854,10.2529,439.1237],[-72.5881,10.2268,271.138],[-72.5913,10.2181,309.3671],[-72.5985,10.2179,543.1827],[-72.6139,10.233,634.4164],[-72.6414,10.253,777.5479],[-72.6509,10.2555,1280.9167],[-72.6691,10.254,1431.7749],[-72.6989,10.2575,1900.0],[-72.7054,10.2636,1978.0486],[-72.7148,10.2797,2078.8044],[-72.72,10.2839,1947.4753],[-72.737,10.2888,1499.5198],[-72.7564,10.2893,1395.8276],[-72.7634,10.2926,1729.2322],[-72.7662,10.2972,1698.5193],[-72.7672,10.3048,1766.1292],[-72.7666,10.3267,1530.9121],[-72.7711,10.3328,1861.1538],[-72.7994,10.327,1664.3109],[-72.8107,10.3262,1615.7483],[-72.8198,10.3283,1730.8591],[-72.8458,10.348,2182.0967],[-72.8679,10.3559,2571.4541],[-72.8981,10.3627,3265.3535],[-72.907,10.3511,3367.7671],[-72.9046,10.3344,3547.1692],[-72.9064,10.3237,3404.843],[-72.8995,10.3129,3410.4487],[-72.9034,10.2959,3084.9321],[-72.9034,10.2893,3190.8979],[-72.9062,10.2852,3224.8911],[-72.9038,10.2788,3322.9983],[-72.9071,10.2674,3398.1802],[-72.9015,10.2475,3327.7505],[-72.9033,10.2354,3297.7188],[-72.8974,10.2166,3422.2437],[-72.8999,10.2089,3432.5012],[-72.9103,10.2065,3380.481],[-72.9075,10.19,3250.8843],[-72.9079,10.1761,3347.5308],[-72.9162,10.1631,3373.7322],[-72.9191,10.1437,3061.9575],[-72.9219,10.1372,3252.6553],[-72.9115,10.1125,3520.5881],[-72.9136,10.1096,3499.9604],[-72.922,10.1089,3406.217],[-72.9259,10.0918,3423.9412],[-72.9326,10.0875,3356.3062],[-72.933,10.0846,3395.948],[-72.9361,10.0817,3399.3923],[-72.94,10.0828,3224.2729],[-72.9443,10.0726,3198.9062],[-72.9488,10.0701,3106.2773],[-72.9509,10.0661,3264.9441],[-72.9549,10.0661,3289.8706],[-72.9545,10.0597,3139.1885],[-72.9578,10.0517,2879.7654],[-72.9568,10.0472,2839.9302],[-72.9545,10.0456,2930.3496],[-72.9528,10.0273,3377.5071],[-72.9561,10.0226,3246.5342],[-72.9629,10.0179,3291.3247],[-72.9611,10.0066,3259.0503],[-72.9671,9.9955,3218.3191],[-72.9698,9.9956,3190.2356],[-72.9755,9.992,3213.2664],[-72.9756,9.9874,3270.9487],[-72.9845,9.9731,3228.2419],[-72.985,9.9702,3123.5183],[-72.98,9.963,3012.8232],[-72.9802,9.9589,3183.5427],[-72.9832,9.9579,3119.4951],[-72.9867,9.9531,2818.8813],[-72.9885,9.9467,2633.3386],[-72.9878,9.9426,2486.8843],[-72.9942,9.9356,2938.1655],[-72.994,9.9326,3051.6707],[-72.9984,9.9214,2836.814]]],
[[[-72.0821,9.8714,1.9809],[-72.0818,9.8712,1.9809],[-72.0818,9.8716,1.9809],[-72.0821,9.8714,1.9809]]]]}
,"properties": {"GID_2": "VEN.25.12_1","GID_0": "VEN","country": "Venezuela","GID_1": "VEN.25_1","province": "Zulia","NL_NAME_1": "NA","county": "MachiquesdePerijá","VARNAME_2": "NA","NL_NAME_2": "NA","TYPE_2": "Municipio","ENGTYPE_2": "Municipality","CC_2": "NA","HASC_2": "NA","name": "Machiquesde_Perijá.county","area_km2": 8487.267,"hist_schema_id": "Elevation0-9000","hist_area_km2": {"0": 1044.699,"25": 1377.447,"50": 1345.05,"75": 1067.079,"100": 552.476,"125": 221.729,"150": 126.479,"175": 90.078,"200": 85.78,"225": 75.08,"250": 68.436,"275": 60.391,"300": 55.376,"325": 47.706,"350": 45.176,"375": 40.284,"400": 40.788,"425": 38.489,"450": 37.132,"475": 36.858,"500": 35.856,"525": 35.122,"550": 33.157,"575": 34.265,"600": 33.658,"625": 33.47,"650": 30.983,"675": 32.173,"700": 32.675,"725": 32.132,"750": 30.585,"775": 31.065,"800": 30.229,"825": 29.872,"850": 29.244,"875": 26.424,"900": 26.466,"925": 27.803,"950": 26.569,"975": 26.256,"1000": 26.903,"1025": 27.091,"1050": 27.488,"1075": 25.377,"1100": 25.649,"1125": 26.317,"1150": 25.127,"1175": 26.275,"1200": 25.877,"1225": 24.958,"1250": 25.083,"1275": 24.039,"1300": 23.621,"1325": 24.33,"1350": 23.746,"1375": 23.099,"1400": 23.37,"1425": 22.972,"1450": 21.908,"1475": 23.244,"1500": 22.68,"1525": 21.739,"1550": 21.948,"1575": 21.948,"1600": 21.32,"1625": 21.758,"1650": 20.757,"1675": 20.129,"1700": 19.775,"1725": 19.419,"1750": 18.729,"1775": 18.165,"1800": 18.207,"1825": 16.244,"1850": 17.746,"1875": 16.431,"1900": 16.138,"1925": 16.201,"1950": 16.911,"1975": 16.576,"2000": 15.866,"2025": 15.532,"2050": 14.864,"2075": 15.886,"2100": 13.026,"2125": 13.903,"2150": 13.026,"2175": 12.984,"2200": 13.026,"2225": 11.982,"2250": 12.045,"2275": 11.961,"2300": 11.501,"2325": 11.418,"2350": 11.126,"2375": 11.146,"2400": 11.271,"2425": 10.415,"2450": 11.814,"2475": 11.187,"2500": 10.645,"2525": 11.625,"2550": 11.521,"2575": 10.31,"2600": 10.54,"2625": 10.895,"2650": 11.083,"2675": 10.102,"2700": 10.52,"2725": 9.894,"2750": 10.081,"2775": 10.143,"2800": 9.976,"2825": 9.955,"2850": 9.559,"2875": 8.515,"2900": 7.868,"2925": 8.098,"2950": 8.223,"2975": 8.014,"3000": 7.346,"3025": 6.49,"3050": 6.135,"3075": 5.843,"3100": 5.321,"3125": 5.238,"3150": 5.008,"3175": 4.925,"3200": 4.549,"3225": 5.216,"3250": 4.424,"3275": 3.651,"3300": 3.401,"3325": 3.026,"3350": 2.608,"3375": 2.546,"3400": 1.961,"3425": 1.711,"3450": 0.96,"3475": 0.605,"3500": 0.396,"3525": 0.292,"3550": 0.125}}}