{"type": "Feature","bbox": [-64.2257,10.7987,-64.1401,10.8385],"geometry": {"type": "MultiPolygon","coordinates": [[[[-64.1849,10.8324,0.0],[-64.196,10.8326,0.0],[-64.2001,10.8285,1.3304],[-64.2063,10.8287,32.5562],[-64.2115,10.8312,0.0],[-64.2132,10.8263,0.7056],[-64.2168,10.8254,3.7882],[-64.2254,10.8185,0.0],[-64.2257,10.8168,0.0],[-64.2196,10.8107,3.916],[-64.2179,10.8043,1.0126],[-64.2154,10.8029,0.0],[-64.2151,10.799,0.0],[-64.2082,10.8004,0.0],[-64.1937,10.7987,0.0],[-64.191,10.8021,3.0469],[-64.1832,10.7999,0.0],[-64.1801,10.8018,1.1316],[-64.1682,10.8024,0.0],[-64.1676,10.8046,0.6732],[-64.1513,10.806,1.1929],[-64.1496,10.8132,0.9218],[-64.144,10.8149,0.0],[-64.1401,10.8226,0.0],[-64.1418,10.8251,0.0],[-64.1476,10.8268,0.7422],[-64.1485,10.829,0.0],[-64.159,10.8301,0.4674],[-64.1626,10.829,0.0],[-64.164,10.8249,0.3833],[-64.166,10.8249,0.4195],[-64.1743,10.8296,9.7207],[-64.1849,10.8324,0.0]]],
[[[-64.156,10.8385,5.0328],[-64.1588,10.8365,3.6899],[-64.1579,10.834,0.99],[-64.1546,10.8351,0.6582],[-64.156,10.8385,5.0328]]]]}
,"properties": {"GID_2": "VEN.18.11_1","GID_0": "VEN","country": "Venezuela","GID_1": "VEN.18_1","province": "NuevaEsparta","NL_NAME_1": "NA","county": "Tubores","VARNAME_2": "NA","NL_NAME_2": "NA","TYPE_2": "Municipio","ENGTYPE_2": "Municipality","CC_2": "NA","HASC_2": "NA","name": "Tubores.county","area_km2": 24.96982,"hist_schema_id": "Elevation0-9000","hist_area_km2": {"0": 10.20454,"25": 9.78804,"50": 4.97723}}}