{"type": "Feature","bbox": [-70.7958,9.3043,-70.6549,9.451],"geometry": {"type": "MultiPolygon","coordinates": [[[[-70.7896,9.3043,272.6347],[-70.7831,9.3065,240.8948],[-70.7647,9.3241,452.4952],[-70.7206,9.3477,676.8396],[-70.7039,9.3661,734.3223],[-70.6898,9.3774,613.428],[-70.6864,9.375,631.9935],[-70.6844,9.3765,650.8127],[-70.6675,9.3987,379.131],[-70.6553,9.4269,469.3265],[-70.6549,9.4316,530.1848],[-70.6713,9.4418,606.686],[-70.6924,9.4388,471.724],[-70.7271,9.4403,251.32],[-70.7559,9.451,130.6537],[-70.7581,9.4473,137.3029],[-70.7581,9.4416,151.0067],[-70.7545,9.4274,191.7681],[-70.7545,9.4167,224.3455],[-70.7566,9.4096,141.9576],[-70.7716,9.3903,270.6986],[-70.768,9.3789,349.0486],[-70.7609,9.3675,349.4783],[-70.7901,9.3497,288.4467],[-70.7958,9.344,238.5734],[-70.793,9.3148,300.1099],[-70.7896,9.3043,272.6347]]]]}
,"properties": {"GID_2": "VEN.22.15_1","GID_0": "VEN","country": "Venezuela","GID_1": "VEN.22_1","province": "Trujillo","NL_NAME_1": "NA","county": "RafaelRangel","VARNAME_2": "NA","NL_NAME_2": "NA","TYPE_2": "Municipio","ENGTYPE_2": "Municipality","CC_2": "NA","HASC_2": "NA","name": "Rafael_Rangel.county","area_km2": 117.99975,"hist_schema_id": "Elevation0-9000","hist_area_km2": {"125": 0.16733,"150": 0.98305,"175": 1.58964,"200": 3.43036,"225": 5.81508,"250": 8.15793,"275": 9.09944,"300": 9.47601,"325": 9.39237,"350": 8.32547,"375": 7.88613,"400": 6.84028,"425": 6.29629,"450": 5.43864,"475": 4.39277,"500": 4.14168,"525": 3.9744,"550": 3.15865,"575": 3.01231,"600": 3.15877,"625": 3.2634,"650": 3.03336,"675": 2.07105,"700": 1.94557,"725": 1.04601,"750": 0.87866,"775": 0.31381,"800": 0.18828,"825": 0.33473,"850": 0.06276,"875": 0.04184,"900": 0.08368}}}