{"type":"Feature","properties":{"GID_2":"VEN.4.18_1","GID_0":"VEN","country":"Venezuela","GID_1":"VEN.4_1","province":"Aragua","NL_NAME_1":"NA","county":"Zamora","VARNAME_2":"NA","NL_NAME_2":"NA","TYPE_2":"Municipio","ENGTYPE_2":"Municipality","CC_2":"NA","HASC_2":"NA","name":"Zamora.county"},
"geometry":{"type": "MultiPolygon","coordinates": [[[[-67.4765,10.1401,443.0],[-67.5101,10.1521,439.0232],[-67.5289,10.1528,433.7927],[-67.5396,10.1553,431.821],[-67.5613,10.1543,429.0876],[-67.5649,10.1338,425.8427],[-67.567,10.1293,424.221],[-67.5715,10.1282,423.4],[-67.5769,10.1306,423.9307],[-67.5825,10.1369,421.7374],[-67.586,10.1375,421.7844],[-67.5904,10.1235,422.0415],[-67.5949,10.1224,422.1814],[-67.6005,10.1254,414.458],[-67.602,10.1299,413.7279],[-67.6031,10.1362,414.1686],[-67.6016,10.1561,415.1448],[-67.6039,10.1615,411.5],[-67.6066,10.1615,411.5],[-67.6274,10.151,411.5],[-67.637,10.1492,411.5],[-67.6365,10.1167,411.5],[-67.6394,10.1036,435.8236],[-67.6498,10.0839,631.9659],[-67.653,10.0713,644.302],[-67.6525,10.0635,645.7012],[-67.6449,10.0548,694.4219],[-67.6102,10.0394,659.2654],[-67.5449,10.0351,597.9806],[-67.5324,10.0326,553.4731],[-67.5233,10.0251,613.7812],[-67.5117,10.0056,957.6722],[-67.5078,9.9879,897.5096],[-67.5083,9.983,849.2241],[-67.5008,9.981,675.0067],[-67.4821,9.9812,893.4609],[-67.4627,9.9859,615.9298],[-67.4275,9.9983,530.2505],[-67.4081,10.0014,828.5809],[-67.3881,9.9971,588.1608],[-67.3453,9.9721,533.639],[-67.3277,9.9666,476.3549],[-67.3054,9.9634,585.83],[-67.2898,9.9633,568.6486],[-67.2786,9.9591,587.8765],[-67.2653,9.95,472.231],[-67.2475,9.9409,531.0364],[-67.2233,9.9408,518.9133],[-67.2289,9.9512,576.0276],[-67.2447,9.9716,831.5934],[-67.2449,9.9766,669.7262],[-67.2344,9.9902,622.2767],[-67.2289,10.0044,564.5092],[-67.2246,10.0106,433.5873],[-67.225,10.0228,447.0282],[-67.2369,10.0345,854.2816],[-67.2481,10.0524,763.1293],[-67.2624,10.0567,573.1793],[-67.2749,10.0643,814.7214],[-67.2751,10.0696,788.3883],[-67.2736,10.0725,673.8363],[-67.2609,10.081,892.478],[-67.2605,10.0843,983.0342],[-67.2674,10.0944,731.0759],[-67.2805,10.1031,788.5939],[-67.284,10.1079,1032.9255],[-67.2869,10.1139,977.9384],[-67.2874,10.1195,799.944],[-67.2849,10.1307,612.6629],[-67.2869,10.1361,691.0521],[-67.2951,10.1394,859.0083],[-67.3172,10.1426,953.4424],[-67.331,10.1384,1148.3972],[-67.3549,10.1185,967.7585],[-67.3697,10.1175,936.7498],[-67.4154,10.1295,743.0132],[-67.4375,10.1407,458.9374],[-67.4431,10.1419,451.9642],[-67.4574,10.1415,443.573],[-67.466,10.1392,443.0],[-67.4765,10.1401,443.0]]]]}}