{"type": "Feature","bbox": [-71.2234,8.2652,-70.8577,8.7873],"geometry": {"type": "MultiPolygon","coordinates": [[[[-70.8577,8.3897,1346.3535],[-70.8668,8.3939,1069.4091],[-70.8765,8.4046,1495.7452],[-70.8899,8.4242,1467.0023],[-70.9044,8.4392,1999.6584],[-70.9103,8.4641,1344.1641],[-70.9185,8.4839,1889.105],[-70.9316,8.4969,2015.0132],[-70.9459,8.5209,2698.395],[-70.9595,8.5383,3140.0352],[-70.9736,8.5447,3766.6682],[-70.9997,8.5487,4705.3052],[-71.0436,8.5613,4093.9785],[-71.0642,8.5736,3431.7031],[-71.0692,8.5816,3223.8313],[-71.0707,8.5958,2786.6475],[-71.0696,8.6062,2284.4719],[-71.0524,8.6425,1891.8918],[-71.0426,8.6549,1998.6367],[-71.022,8.6886,2564.4695],[-71.0046,8.7048,2761.7383],[-70.9695,8.7278,2661.1648],[-70.9561,8.7452,3088.0701],[-70.9474,8.7606,3601.9175],[-70.9375,8.7685,3746.4192],[-70.9378,8.7827,4062.6729],[-70.9417,8.7873,4309.7266],[-70.9647,8.7811,3932.2935],[-71.003,8.7769,4245.8413],[-71.0244,8.7712,3899.4058],[-71.0473,8.7601,3372.3528],[-71.06,8.7515,3076.5842],[-71.0926,8.7177,2709.0337],[-71.1378,8.6948,3056.5476],[-71.1502,8.6906,3399.8767],[-71.1603,8.6902,3501.5789],[-71.1604,8.6722,3526.5532],[-71.1633,8.665,2997.9412],[-71.1693,8.6579,2571.2742],[-71.1996,8.6458,2727.2075],[-71.207,8.6397,2457.9585],[-71.2103,8.6341,2596.552],[-71.2104,8.6219,2483.467],[-71.1998,8.5932,1753.334],[-71.1986,8.5832,1591.4314],[-71.196,8.5781,1507.0364],[-71.198,8.5686,1312.9209],[-71.1975,8.5621,1274.1047],[-71.1944,8.5458,1300.9868],[-71.1872,8.5234,2043.6632],[-71.186,8.4879,2758.9478],[-71.1899,8.4851,2774.4844],[-71.1912,8.4803,2745.9231],[-71.1897,8.4677,2530.158],[-71.1808,8.4504,1984.1669],[-71.19,8.4457,1747.3733],[-71.2017,8.4369,1628.4843],[-71.2234,8.4271,1904.3549],[-71.2066,8.4091,2238.6897],[-71.1965,8.3877,2422.0063],[-71.1721,8.3512,2872.5989],[-71.1604,8.3375,2847.2324],[-71.1456,8.3255,2374.7146],[-71.1367,8.3146,1821.2896],[-71.1278,8.3265,1784.0496],[-71.1171,8.3496,2737.9453],[-71.0866,8.3561,3257.0022],[-71.0746,8.3534,3406.1309],[-71.0474,8.3365,2743.8301],[-70.9962,8.3189,1714.7179],[-70.9686,8.3032,1224.1012],[-70.9359,8.2764,1238.0464],[-70.9242,8.2709,1456.8077],[-70.9054,8.2652,909.9564],[-70.8924,8.283,852.571],[-70.8699,8.3611,1178.6799],[-70.8577,8.3897,1346.3535]]]]}
,"properties": {"GID_2": "VEN.15.12_1","GID_0": "VEN","country": "Venezuela","GID_1": "VEN.15_1","province": "Mérida","NL_NAME_1": "NA","county": "Libertador","VARNAME_2": "NA","NL_NAME_2": "NA","TYPE_2": "Municipio","ENGTYPE_2": "Municipality","CC_2": "NA","HASC_2": "NA","name": "Libertador.county","area_km2": 1171.102,"hist_schema_id": "Elevation0-9000","hist_area_km2": {"375": 0.0839,"400": 0.1049,"425": 0.2937,"450": 0.2098,"475": 0.3357,"500": 0.5035,"525": 0.7553,"550": 0.8392,"575": 0.9651,"600": 1.4686,"625": 1.07,"650": 1.6574,"675": 1.9301,"700": 2.1189,"725": 1.8252,"750": 2.1818,"775": 2.3917,"800": 2.7063,"825": 2.5595,"850": 2.5595,"875": 3.1469,"900": 2.7063,"925": 2.979,"950": 3.3147,"975": 3.042,"1000": 2.8951,"1025": 3.2937,"1050": 3.2727,"1075": 3.0838,"1100": 2.8951,"1125": 3.7131,"1150": 3.5871,"1175": 3.9646,"1200": 4.447,"1225": 4.3631,"1250": 4.3211,"1275": 4.9711,"1300": 4.7404,"1325": 5.3065,"1350": 5.4533,"1375": 5.8517,"1400": 6.2288,"1425": 5.6624,"1450": 7.1726,"1475": 6.7319,"1500": 7.4659,"1525": 7.9482,"1550": 8.0317,"1575": 8.493,"1600": 8.9755,"1625": 9.0802,"1650": 9.4999,"1675": 9.248,"1700": 10.7996,"1725": 10.1075,"1750": 10.8206,"1775": 10.1705,"1800": 11.5333,"1825": 11.4494,"1850": 10.9672,"1875": 10.5475,"1900": 11.3443,"1925": 10.2333,"1950": 10.2333,"1975": 9.8766,"2000": 10.6317,"2025": 11.3026,"2050": 11.3446,"2075": 10.5897,"2100": 11.1978,"2125": 11.5333,"2150": 11.8479,"2175": 11.6171,"2200": 11.8479,"2225": 10.946,"2250": 11.6381,"2275": 11.9523,"2300": 11.9524,"2325": 11.6172,"2350": 12.6023,"2375": 13.0011,"2400": 11.9104,"2425": 12.8543,"2450": 12.7702,"2475": 12.9589,"2500": 12.0154,"2525": 12.3929,"2550": 12.288,"2575": 12.0576,"2600": 12.5186,"2625": 12.7493,"2650": 12.8121,"2675": 12.0993,"2700": 12.2251,"2725": 13.2524,"2750": 12.3506,"2775": 11.9312,"2800": 11.8058,"2825": 11.5539,"2850": 12.33,"2875": 11.9104,"2900": 11.4701,"2925": 10.8198,"2950": 11.0508,"2975": 11.1764,"3000": 10.8828,"3025": 10.044,"3050": 10.3165,"3075": 10.2539,"3100": 10.8617,"3125": 9.7086,"3150": 9.9393,"3175": 8.9117,"3200": 9.394,"3225": 9.1634,"3250": 9.3939,"3275": 8.0309,"3300": 8.4715,"3325": 8.7231,"3350": 9.1425,"3375": 9.1216,"3400": 8.702,"3425": 7.8844,"3450": 8.5765,"3475": 7.8003,"3500": 7.3597,"3525": 7.171,"3550": 6.6884,"3575": 6.395,"3600": 5.5772,"3625": 6.9816,"3650": 5.7028,"3675": 5.3461,"3700": 5.451,"3725": 5.3251,"3750": 5.6813,"3775": 4.4233,"3800": 4.5069,"3825": 5.0102,"3850": 5.0101,"3875": 4.5698,"3900": 4.6536,"3925": 5.0939,"3950": 4.6956,"3975": 4.6117,"4000": 4.1715,"4025": 4.4859,"4050": 4.3393,"4075": 4.1505,"4100": 3.8361,"4125": 4.1716,"4150": 3.941,"4175": 3.8571,"4200": 3.354,"4225": 3.6267,"4250": 2.8091,"4275": 2.9561,"4300": 2.4108,"4325": 2.0756,"4350": 1.7821,"4375": 1.6564,"4400": 1.8451,"4425": 1.4677,"4450": 1.1951,"4475": 0.9855,"4500": 1.1532,"4525": 1.1113,"4550": 1.1322,"4575": 0.8177,"4600": 0.629,"4625": 0.7548,"4650": 0.7548,"4675": 0.608,"4700": 0.65,"4725": 0.4822,"4750": 0.3355,"4775": 0.1677,"4800": 0.3145,"4825": 0.0419}}}