{"type":"Feature","properties":{"GID_2":"VEN.14.2_1","GID_0":"VEN","country":"Venezuela","GID_1":"VEN.14_1","province":"Lara","NL_NAME_1":"NA","county":"Crespo","VARNAME_2":"NA","NL_NAME_2":"NA","TYPE_2":"Municipio","ENGTYPE_2":"Municipality","CC_2":"NA","HASC_2":"NA","name":"Crespo.county"},
"geometry":{"type": "MultiPolygon","coordinates": [[[[-69.1381,10.2487,815.4731],[-69.1029,10.2596,1001.7032],[-69.0804,10.2735,1077.8723],[-69.0576,10.3091,836.4263],[-69.0478,10.314,851.0391],[-69.0423,10.3138,889.8472],[-69.0374,10.3119,957.5234],[-69.0279,10.2971,969.1956],[-69.0179,10.2959,1149.7986],[-69.0106,10.2991,936.7789],[-69.0028,10.3091,772.3758],[-68.9784,10.3332,744.7056],[-68.9737,10.3475,1247.9407],[-68.9757,10.3573,1174.6956],[-68.984,10.3716,936.4675],[-68.9886,10.3842,684.9244],[-68.991,10.4089,482.601],[-68.9897,10.4206,320.1618],[-68.983,10.443,273.8029],[-68.981,10.4564,346.42],[-68.9832,10.47,543.4814],[-68.9972,10.471,486.5245],[-69.0231,10.4622,717.5656],[-69.0299,10.4686,804.2368],[-69.0326,10.4772,803.7675],[-69.0327,10.4906,695.0764],[-69.0272,10.5192,522.7294],[-69.0547,10.5433,583.8595],[-69.0904,10.5496,374.3521],[-69.1165,10.5431,235.5436],[-69.1339,10.518,255.9604],[-69.1512,10.5153,293.3448],[-69.2144,10.5359,193.4416],[-69.2522,10.5375,194.9607],[-69.2585,10.5171,180.0362],[-69.2671,10.4794,242.7142],[-69.2739,10.4693,370.416],[-69.2677,10.4654,423.9304],[-69.2645,10.4607,521.1168],[-69.2613,10.453,545.4676],[-69.2591,10.4407,338.0549],[-69.2594,10.427,354.2626],[-69.2635,10.4044,453.4986],[-69.2664,10.396,457.295],[-69.275,10.3875,585.6532],[-69.3043,10.369,710.8696],[-69.3075,10.3641,769.7577],[-69.3077,10.3557,866.8795],[-69.3054,10.3477,891.6874],[-69.2878,10.317,776.6869],[-69.2778,10.3103,736.5654],[-69.2548,10.3027,722.2201],[-69.2169,10.2952,770.5759],[-69.2036,10.2877,769.8002],[-69.1979,10.2863,813.9991],[-69.1902,10.2881,793.7192],[-69.1735,10.2995,790.536],[-69.1539,10.3026,679.0571],[-69.1539,10.2923,717.8175],[-69.1491,10.271,777.1927],[-69.1381,10.2487,815.4731]]]]}}