{"type":"Feature","properties":{"GID_2":"VEN.16.15_1","GID_0":"VEN","country":"Venezuela","GID_1":"VEN.16_1","province":"Miranda","NL_NAME_1":"NA","county":"PazCastillo","VARNAME_2":"NA","NL_NAME_2":"NA","TYPE_2":"Municipio","ENGTYPE_2":"Municipality","CC_2":"NA","HASC_2":"NA","name":"Paz_Castillo.county"},
"geometry":{"type": "MultiPolygon","coordinates": [[[[-66.5192,10.3531,584.0399],[-66.5288,10.3882,499.8694],[-66.5342,10.3965,368.451],[-66.5422,10.4031,462.5108],[-66.56,10.4114,723.584],[-66.5672,10.4194,576.2448],[-66.5808,10.4259,590.4124],[-66.5893,10.4245,636.1218],[-66.6135,10.4261,799.8405],[-66.65,10.4221,775.5695],[-66.6701,10.4179,868.1909],[-66.696,10.406,691.7602],[-66.698,10.3986,548.563],[-66.7061,10.3868,558.6142],[-66.7104,10.3839,670.5298],[-66.7256,10.3817,783.332],[-66.747,10.3649,1078.9016],[-66.7646,10.3607,803.8574],[-66.7984,10.356,938.074],[-66.8186,10.3486,750.3573],[-66.7965,10.343,527.8563],[-66.7871,10.3343,802.5848],[-66.7736,10.3074,396.5082],[-66.7624,10.2797,287.6681],[-66.7571,10.2801,251.6068],[-66.7315,10.2749,226.0072],[-66.7238,10.2748,213.1775],[-66.7081,10.2836,188.6026],[-66.6904,10.2883,181.734],[-66.677,10.2888,160.8654],[-66.6551,10.2854,179.0069],[-66.6353,10.2888,218.3932],[-66.6263,10.2884,230.5825],[-66.6212,10.2852,188.1344],[-66.6114,10.2666,244.817],[-66.6025,10.2602,220.2398],[-66.5783,10.2597,433.6467],[-66.5631,10.2565,329.08],[-66.5616,10.2541,293.0981],[-66.5608,10.24,295.5843],[-66.5546,10.2355,367.7328],[-66.5444,10.2341,365.8985],[-66.5352,10.2348,210.6008],[-66.5265,10.2407,217.0331],[-66.5199,10.2484,280.1266],[-66.5,10.3032,593.0271],[-66.5006,10.3125,501.2648],[-66.5192,10.3531,584.0399]]]]}}