{"type":"Feature","properties":{"GID_1":"VEN.9_1","GID_0":"VEN","country":"Venezuela","province":"DeltaAmacuro","VARNAME_1":"NA","NL_NAME_1":"NA","TYPE_1":"Estado","ENGTYPE_1":"State","CC_1":"NA","HASC_1":"NA","ISO_1":"VE-Y","name":"Delta_Amacuro.province"},
"geometry":{"type": "MultiPolygon","coordinates": [[[[-59.8432,8.239,16.5553],[-59.8306,8.2423,17.694],[-59.8269,8.2533,16.2298],[-59.8162,8.2618,17.2252],[-59.8143,8.2682,16.8106],[-59.8072,8.272,12.4214],[-59.8084,8.2811,14.3514],[-59.8141,8.2877,15.6654],[-59.8189,8.2981,14.777],[-59.8208,8.3055,13.732],[-59.82,8.31,4.9886],[-59.9995,8.5297,13.1709],[-59.9989,8.5309,17.9785],[-59.9876,8.5305,19.3261],[-60.0013,8.5385,21.1762],[-59.9968,8.539,20.6558],[-59.9999,8.5415,21.2585],[-60.0032,8.5418,20.7047],[-59.9993,8.5429,18.4251],[-60.0024,8.5457,19.9369],[-59.9982,8.5463,14.1636],[-60.0026,8.5476,19.9981],[-59.999,8.5485,16.8628],[-60.0026,8.5493,17.3742],[-60.0043,8.5476,21.8771],[-60.0099,8.5479,22.1678],[-60.0199,8.5521,21.5656],[-60.0276,8.5593,22.244],[-60.0221,8.5588,21.5379],[-60.0149,8.5518,21.5918],[-60.0071,8.5515,16.0716],[-60.0135,8.5582,17.1072],[-60.0174,8.556,22.4491],[-60.016,8.559,13.5945],[-60.0193,8.5601,20.0412],[-60.021,8.5629,12.5527],[-60.0246,8.5649,18.6131],[-60.0274,8.5638,19.4487],[-60.0271,8.5657,17.7698],[-60.034,8.5682,21.8142],[-60.0385,8.5735,19.0891],[-60.0415,8.5743,14.68],[-60.0418,8.5765,12.4836],[-60.0524,8.5824,1.6967],[-60.0551,8.5818,12.2434],[-60.0504,8.579,12.368],[-60.0599,8.5801,16.7878],[-60.0685,8.5843,17.1722],[-60.0843,8.5874,16.9513],[-60.0921,8.591,17.0467],[-60.0957,8.5907,16.7311],[-60.1015,8.5929,18.4528],[-60.104,8.5965,16.4961],[-60.1115,8.5962,19.2744],[-60.1121,8.5993,17.3818],[-60.114,8.6004,16.5759],[-60.1171,8.6001,17.4641],[-60.1193,8.6024,3.7764],[-60.1226,8.6018,15.5355],[-60.1257,8.6049,1.5727],[-60.1357,8.6071,19.2011],[-60.1599,8.6218,0.0],[-60.1615,8.6207,0.0],[-60.169,8.6224,0.0],[-60.1699,8.6199,20.6789],[-60.1712,8.6229,0.0],[-60.1749,8.624,0.0],[-60.1754,8.6221,6.3364],[-60.179,8.621,21.5097],[-60.1813,8.6215,19.3299],[-60.1793,8.6257,0.0],[-60.1824,8.6274,0.0],[-60.1985,8.6299,19.7181],[-60.2062,8.6287,22.0252],[-60.2043,8.6254,21.9345],[-60.206,8.6246,21.3913],[-60.214,8.6268,20.2632],[-60.219,8.6254,21.962],[-60.219,8.6268,21.5336],[-60.224,8.6276,18.7634],[-60.2529,8.6279,21.0829],[-60.2788,8.6254,13.7953],[-60.3124,8.6279,22.0678],[-60.3282,8.6268,16.0322],[-60.3635,8.6329,0.0],[-60.366,8.6313,0.0],[-60.369,8.6318,0.0],[-60.3712,8.6293,0.0],[-60.3776,8.6307,0.0],[-60.3999,8.6307,0.0],[-60.4051,8.6276,0.0],[-60.411,8.6265,0.0],[-60.4113,8.6115,0.0],[-60.4157,8.6076,0.0],[-60.4154,8.6024,0.0],[-60.4188,8.6029,0.0],[-60.419,8.6007,0.0],[-60.421,8.6001,0.0],[-60.4196,8.5949,4.573],[-60.4224,8.5954,8.4649],[-60.4243,8.594,3.2823],[-60.416,8.5896,21.1684],[-60.4115,8.584,0.0],[-60.4068,8.5832,0.0],[-60.4071,8.5815,0.0],[-60.4129,8.574,9.4428],[-60.4199,8.5729,0.4982],[-60.4262,8.5685,7.1636],[-60.4299,8.5688,0.0],[-60.4315,8.5621,1.3448],[-60.4349,8.5607,0.0],[-60.4368,8.5615,0.0],[-60.4396,8.5593,0.0],[-60.4401,8.5496,1.6114],[-60.4432,8.5449,0.0],[-60.4465,8.5429,5.1204],[-60.4476,8.544,0.0],[-60.4504,8.5432,7.4606],[-60.4538,8.5332,3.382],[-60.459,8.5268,11.227],[-60.4721,8.5224,4.2155],[-60.4751,8.5243,0.0],[-60.4743,8.5263,0.0],[-60.4832,8.5304,0.0],[-60.4865,8.5299,0.0],[-60.4893,8.5263,0.0],[-60.4968,8.5246,4.6587],[-60.5007,8.5265,0.0],[-60.5054,8.5263,10.2882],[-60.5099,8.5307,0.0],[-60.5268,8.5343,0.0],[-60.5299,8.5365,0.0],[-60.5485,8.539,0.0],[-60.561,8.5382,2.4704],[-60.5713,8.5407,0.0],[-60.5871,8.539,0.0],[-60.5979,8.5399,10.1862],[-60.599,8.5413,0.0],[-60.6101,8.5435,11.9004],[-60.6126,8.5463,0.403],[-60.6154,8.5454,11.2387],[-60.6221,8.5474,0.0],[-60.6338,8.5532,1.4289],[-60.6407,8.5604,2.7751],[-60.6596,8.5738,1.3981],[-60.6632,8.579,0.0],[-60.6662,8.579,1.1737],[-60.6721,8.5846,0.0],[-60.6757,8.584,2.6474],[-60.676,8.586,0.0],[-60.6785,8.586,1.3485],[-60.6854,8.5918,1.1867],[-60.7118,8.6029,3.7733],[-60.7121,8.6046,0.0],[-60.7185,8.6079,0.3887],[-60.7193,8.6379,0.0],[-60.6957,8.6415,0.0],[-60.6821,8.6404,0.0],[-60.6721,8.6443,8.4441],[-60.6721,8.6571,8.2807],[-60.6646,8.6804,0.0],[-60.669,8.6801,2.4016],[-60.6813,8.6946,0.742],[-60.6924,8.6979,0.0],[-60.6963,8.7082,0.0],[-60.6946,8.7093,0.0],[-60.6946,8.7201,1.7183],[-60.6899,8.7224,0.0],[-60.6879,8.731,0.0],[-60.684,8.7357,3.1393],[-60.6782,8.7479,0.0],[-60.6779,8.7515,4.1099],[-60.6618,8.7721,18.1546],[-60.6599,8.7757,2.236],[-60.6604,8.7807,0.0],[-60.6624,8.7832,7.6879],[-60.6679,8.7818,1.0316],[-60.6776,8.7735,15.1995],[-60.6882,8.7832,0.0],[-60.684,8.7849,0.9305],[-60.6854,8.789,0.0],[-60.6846,8.7918,0.0],[-60.6935,8.7974,0.0],[-60.6976,8.794,6.1525],[-60.6971,8.7974,12.0797],[-60.6929,8.8032,0.0],[-60.6985,8.8085,7.4064],[-60.7021,8.8151,0.0],[-60.7049,8.8162,5.2635],[-60.704,8.8174,0.0],[-60.7074,8.8221,0.0],[-60.716,8.8285,4.9625],[-60.7179,8.834,5.8349],[-60.7157,8.8376,2.3031],[-60.7199,8.8404,12.5929],[-60.719,8.8421,1.0653],[-60.7287,8.8521,1.7089],[-60.731,8.851,15.0779],[-60.7376,8.8546,0.4972],[-60.7524,8.8479,0.0],[-60.7618,8.8415,8.7814],[-60.7785,8.8232,9.9771],[-60.7854,8.8282,0.0],[-60.7851,8.8318,2.2054],[-60.7874,8.836,2.9278],[-60.7832,8.8454,0.0],[-60.7837,8.8518,0.0],[-60.774,8.8576,9.2632],[-60.7663,8.8576,7.1336],[-60.7632,8.8621,3.2958],[-60.7557,8.866,0.0],[-60.751,8.8718,0.0],[-60.7346,8.879,5.8495],[-60.7321,8.8815,7.9962],[-60.7318,8.8879,10.389],[-60.7332,8.8893,0.7979],[-60.7407,8.8907,0.0],[-60.7443,8.8899,3.5475],[-60.7593,8.8799,15.7098],[-60.766,8.8824,0.0],[-60.769,8.8779,3.3566],[-60.7762,8.874,0.0],[-60.7788,8.869,7.0569],[-60.7804,8.8713,0.0],[-60.7949,8.8699,3.9866],[-60.7951,8.8718,4.4456],[-60.7965,8.8718,4.4456],[-60.7985,8.8693,8.5421],[-60.804,8.8699,5.5223],[-60.8074,8.8679,4.5659],[-60.8126,8.8676,0.0],[-60.8193,8.8596,13.9832],[-60.8207,8.849,0.0],[-60.8221,8.8482,10.593],[-60.8224,8.8576,11.5558],[-60.8213,8.859,0.0],[-60.8226,8.8599,13.7382],[-60.8235,8.8646,0.0],[-60.8262,8.8632,0.0],[-60.826,8.8704,2.3575],[-60.8301,8.8693,0.0],[-60.8326,8.8735,0.0],[-60.8307,8.8768,12.3408],[-60.8329,8.881,12.7353],[-60.8307,8.8874,1.4524],[-60.8335,8.8882,6.8182],[-60.8349,8.8871,2.7397],[-60.8426,8.8937,7.0265],[-60.8462,8.8937,9.9065],[-60.846,8.896,1.012],[-60.8493,8.899,15.7387],[-60.8493,8.9029,1.6563],[-60.8451,8.9065,3.0481],[-60.8482,8.9168,0.0],[-60.8443,8.9154,0.0],[-60.8357,8.9171,3.4653],[-60.8304,8.9215,14.3791],[-60.8279,8.9218,0.0],[-60.824,8.9263,10.2053],[-60.8237,8.9435,0.0],[-60.8174,8.959,2.2561],[-60.8101,8.9685,7.2868],[-60.8082,8.9754,0.0],[-60.8079,8.9779,1.4774],[-60.8099,8.979,5.1705],[-60.8107,8.9779,11.3302],[-60.8115,8.9821,0.0],[-60.8162,8.9804,13.818],[-60.8168,8.9888,15.2942],[-60.8115,8.9935,16.0361],[-60.8121,8.9979,10.7352],[-60.8074,8.9987,0.0],[-60.8063,9.0026,4.9731],[-60.8026,9.0043,1.1406],[-60.8024,9.0065,5.5364],[-60.7971,9.0079,2.7371],[-60.7915,9.0126,0.0],[-60.7918,9.014,2.0203],[-60.7762,9.0304,0.7586],[-60.7782,9.0335,4.5092],[-60.7754,9.0401,6.1976],[-60.7718,9.0438,7.8071],[-60.7635,9.0468,0.0],[-60.759,9.0513,4.6496],[-60.7571,9.0593,0.0],[-60.7596,9.0621,0.0],[-60.7696,9.0646,6.4269],[-60.7818,9.0638,0.0],[-60.7893,9.0613,12.6997],[-60.7901,9.0624,5.5972],[-60.7885,9.0638,0.0],[-60.7901,9.066,7.1034],[-60.7851,9.0696,13.5138],[-60.7849,9.0715,18.5607],[-60.7926,9.0724,0.0],[-60.794,9.0754,12.4655],[-60.8026,9.0735,7.4222],[-60.806,9.0696,9.1222],[-60.8085,9.0707,0.0],[-60.8124,9.0643,0.0],[-60.814,9.0643,15.3469],[-60.811,9.0718,4.159],[-60.8124,9.0726,0.0],[-60.8171,9.0699,11.9007],[-60.8196,9.0718,2.3124],[-60.8171,9.0757,8.8032],[-60.8126,9.0765,0.0],[-60.8099,9.081,14.4799],[-60.8143,9.0812,9.7223],[-60.8165,9.0857,0.0],[-60.8135,9.0943,0.0],[-60.8135,9.1079,1.2904],[-60.8118,9.1118,6.7792],[-60.8087,9.114,0.0],[-60.8118,9.1215,6.8855],[-60.8165,9.1215,4.2966],[-60.8265,9.1149,10.5592],[-60.8379,9.1099,1.2764],[-60.8454,9.1001,12.0759],[-60.8504,9.1007,0.0],[-60.8535,9.0988,1.6938],[-60.854,9.1001,1.6938],[-60.8601,9.1001,9.1989],[-60.8649,9.0982,4.8635],[-60.8674,9.0999,2.2795],[-60.8688,9.1124,0.0],[-60.8613,9.1196,0.0],[-60.8576,9.1274,0.0],[-60.856,9.136,1.5507],[-60.8518,9.1738,0.0],[-60.8488,9.1876,9.6684],[-60.8488,9.1904,17.909],[-60.8524,9.1949,0.0],[-60.8574,9.1949,26.5593],[-60.8621,9.1974,0.0],[-60.8735,9.1968,5.1463],[-60.8829,9.1935,14.2445],[-60.8946,9.1868,16.7295],[-60.9074,9.1832,1.7526],[-60.9143,9.1796,12.7574],[-60.9262,9.176,6.2669],[-60.9385,9.176,0.0],[-60.9443,9.1729,0.0],[-60.946,9.174,0.0],[-60.9418,9.1832,2.159],[-60.944,9.1835,0.0],[-60.9487,9.1804,2.4491],[-60.9493,9.1757,5.8492],[-60.9504,9.1782,0.0],[-60.9474,9.1851,4.1792],[-60.9485,9.1865,1.4281],[-60.956,9.1871,0.0],[-60.9588,9.1996,0.0],[-60.9593,9.2026,0.0],[-60.9504,9.2063,0.0],[-60.9424,9.2118,2.4325],[-60.9376,9.2129,0.0],[-60.9285,9.2193,0.0],[-60.9257,9.2218,0.0],[-60.9262,9.224,4.5589],[-60.9246,9.2263,0.0],[-60.9082,9.2349,6.6385],[-60.8868,9.2407,3.9552],[-60.8746,9.2476,0.0],[-60.8646,9.2571,14.4299],[-60.851,9.2668,3.5962],[-60.8462,9.2687,0.0],[-60.8365,9.2679,0.0],[-60.8232,9.2707,1.8425],[-60.8201,9.2757,6.1256],[-60.8196,9.2954,0.0],[-60.8168,9.3018,0.0],[-60.8121,9.2937,0.0],[-60.809,9.2949,18.2488],[-60.8099,9.2901,0.3108],[-60.8051,9.2921,1.7661],[-60.7887,9.3104,0.0],[-60.7826,9.3254,0.0],[-60.7829,9.3354,3.6766],[-60.7918,9.3624,0.0],[-60.8187,9.4065,0.0],[-60.8557,9.4457,5.1462],[-60.8613,9.449,10.3766],[-60.8812,9.4685,15.7038],[-60.8954,9.4793,18.0897],[-60.909,9.4863,10.5833],[-60.9232,9.4882,22.126],[-60.9368,9.4951,5.8722],[-60.9471,9.4962,0.0],[-60.9599,9.4929,0.0],[-60.9651,9.4946,0.0],[-60.9646,9.5035,0.0],[-60.966,9.506,0.0],[-60.986,9.5238,0.0],[-60.9943,9.5279,0.0],[-61.0085,9.539,0.0],[-61.0235,9.5435,0.0],[-61.0265,9.5429,0.0],[-61.061,9.5576,0.0],[-61.0718,9.559,0.0],[-61.0732,9.5612,0.0],[-61.0812,9.5612,0.0],[-61.0871,9.564,0.0],[-61.0951,9.5615,0.0],[-61.1015,9.5615,0.0],[-61.1046,9.5629,0.0],[-61.1051,9.5654,0.0],[-61.116,9.5668,0.0],[-61.1329,9.576,0.0],[-61.1546,9.5838,0.0],[-61.164,9.5893,0.0],[-61.1888,9.599,0.0],[-61.1993,9.6015,0.0],[-61.2065,9.6015,0.0],[-61.211,9.5979,0.0],[-61.2093,9.5943,0.0],[-61.2107,9.5929,12.6665],[-61.2154,9.5976,11.7367],[-61.2171,9.6046,0.0],[-61.2415,9.6354,6.6058],[-61.2824,9.6668,0.0],[-61.286,9.6682,6.1108],[-61.3104,9.6882,4.6628],[-61.3376,9.7149,0.0],[-61.3479,9.7229,8.8965],[-61.3737,9.7504,17.0073],[-61.3807,9.7532,20.9338],[-61.3851,9.7604,13.1074],[-61.3963,9.7685,12.1342],[-61.3985,9.7738,11.8917],[-61.4012,9.7729,17.5382],[-61.4015,9.7757,10.0794],[-61.4046,9.7788,3.273],[-61.4076,9.7788,14.5403],[-61.4065,9.7818,16.7585],[-61.409,9.7826,19.0086],[-61.4099,9.7865,4.2289],[-61.4157,9.7915,1.5731],[-61.4165,9.7957,5.1098],[-61.4243,9.8029,0.0],[-61.4307,9.8049,10.3329],[-61.4318,9.8071,3.2252],[-61.4362,9.8076,18.4952],[-61.4318,9.8129,0.0],[-61.4349,9.8124,3.2912],[-61.4343,9.8154,1.8047],[-61.4365,9.8174,0.0],[-61.4418,9.8176,17.9514],[-61.4446,9.8215,13.8658],[-61.4482,9.8218,18.148],[-61.449,9.8249,0.0],[-61.4571,9.8257,0.0],[-61.4618,9.824,18.9625],[-61.471,9.8251,25.4151],[-61.4754,9.8279,9.3231],[-61.4818,9.8276,19.6527],[-61.4896,9.8321,19.8974],[-61.4976,9.8413,2.0973],[-61.5018,9.8426,3.1874],[-61.5046,9.8471,0.0],[-61.5093,9.8468,8.0722],[-61.5088,9.8432,15.8216],[-61.484,9.8196,15.8726],[-61.4701,9.8193,20.7143],[-61.4629,9.8168,22.0311],[-61.4618,9.8143,19.9489],[-61.4576,9.8132,19.8709],[-61.4562,9.8085,19.509],[-61.4512,9.8071,24.8042],[-61.4549,9.8054,23.9973],[-61.4554,9.8026,25.2051],[-61.4518,9.7965,11.5729],[-61.4521,9.7943,10.9554],[-61.4493,9.7924,25.6207],[-61.4512,9.7915,26.188],[-61.451,9.7901,24.1616],[-61.4471,9.7857,19.2924],[-61.4524,9.7879,16.1194],[-61.4521,9.7868,2.2058],[-61.4449,9.7788,16.7886],[-61.426,9.7646,5.4347],[-61.4185,9.7526,0.0],[-61.4176,9.7476,0.0],[-61.424,9.7582,0.0],[-61.4265,9.7585,6.4841],[-61.426,9.7546,13.5818],[-61.4299,9.7624,0.0],[-61.4588,9.784,0.0],[-61.4637,9.7907,0.0],[-61.4815,9.8024,1.9807],[-61.496,9.8154,8.0342],[-61.501,9.8162,6.2738],[-61.5121,9.8235,10.4165],[-61.5429,9.849,0.0],[-61.5629,9.8604,10.4378],[-61.5701,9.8668,0.0],[-61.5812,9.8724,0.0],[-61.5824,9.8743,0.0],[-61.5871,9.8746,0.0],[-61.6043,9.8815,0.0],[-61.6257,9.8935,0.0],[-61.6407,9.8999,0.0],[-61.6654,9.9004,4.3183],[-61.6724,9.8988,0.0],[-61.6724,9.8974,0.0],[-61.6699,9.896,2.0425],[-61.6662,9.8979,7.566],[-61.6682,9.8926,6.8097],[-61.6615,9.884,8.3546],[-61.6646,9.8854,19.9571],[-61.6665,9.8846,5.6665],[-61.6565,9.8737,0.0],[-61.6476,9.8707,9.9016],[-61.6393,9.8707,14.501],[-61.6282,9.8654,0.0],[-61.6232,9.8654,24.4729],[-61.6296,9.8621,0.0],[-61.6251,9.8585,24.8165],[-61.6287,9.8585,22.8879],[-61.6312,9.8604,12.6222],[-61.6387,9.859,0.0],[-61.6335,9.8524,6.6728],[-61.6071,9.8343,14.1843],[-61.6135,9.8224,0.0],[-61.6176,9.824,1.1274],[-61.6221,9.8226,14.2004],[-61.6221,9.8254,3.6545],[-61.6296,9.8276,6.3448],[-61.6437,9.8271,0.0],[-61.6474,9.826,11.1176],[-61.6485,9.824,23.5373],[-61.6418,9.8232,19.3158],[-61.6382,9.8207,19.9186],[-61.6321,9.8118,12.5802],[-61.6257,9.8074,25.4761],[-61.6254,9.8054,19.4911],[-61.6282,9.8054,11.0202],[-61.6282,9.8043,11.0202],[-61.6168,9.7988,27.3931],[-61.6126,9.7943,5.6973],[-61.6165,9.7968,8.8692],[-61.6246,9.7982,11.722],[-61.6385,9.7974,1.35],[-61.6449,9.7954,30.0934],[-61.6501,9.7963,10.0869],[-61.6521,9.7943,13.8486],[-61.6585,9.7937,28.6173],[-61.669,9.7949,11.2362],[-61.7107,9.8093,0.0],[-61.7179,9.8101,13.1544],[-61.7229,9.8143,0.0],[-61.7271,9.8143,8.2889],[-61.7354,9.8185,9.943],[-61.744,9.8185,19.2422],[-61.7507,9.8221,0.0],[-61.7749,9.8296,0.0],[-61.7924,9.8315,1.9968],[-61.814,9.8307,0.0],[-61.8288,9.8268,0.0],[-61.824,9.8176,0.0],[-61.8249,9.8101,0.0],[-61.8226,9.8074,16.1105],[-61.8226,9.804,0.0],[-61.8257,9.7993,16.3746],[-61.8321,9.7985,21.9994],[-61.8465,9.8051,20.4169],[-61.8587,9.8068,21.2761],[-61.861,9.809,0.0],[-61.864,9.8074,7.6384],[-61.8657,9.8113,5.5594],[-61.8696,9.8118,4.6467],[-61.8704,9.8154,0.0],[-61.8749,9.8207,0.0],[-61.879,9.8213,0.0],[-61.8812,9.8243,2.5824],[-61.8804,9.8274,1.6741],[-61.889,9.8329,0.534],[-61.8899,9.836,1.5917],[-61.8926,9.8371,0.8255],[-61.8971,9.8471,0.0],[-61.9171,9.8732,0.4084],[-61.9324,9.8829,0.0],[-61.9618,9.9082,0.0],[-61.9649,9.9082,0.0],[-61.9671,9.9113,0.0],[-61.9699,9.9115,0.0],[-61.9776,9.9168,1.5447],[-62.0363,9.9651,0.6887],[-62.0671,9.9813,2.3113],[-62.1043,9.9954,13.7964],[-62.1224,9.9976,3.5901],[-62.149,10.009,0.0],[-62.1957,10.021,0.0],[-62.2001,10.0201,8.0823],[-62.2054,10.0149,10.0831],[-62.2149,10.009,0.0],[-62.2246,9.9954,18.0906],[-62.2401,9.9843,0.0],[-62.2426,9.9793,0.0],[-62.249,9.9735,10.4923],[-62.2532,9.9724,0.7398],[-62.2629,9.9643,0.0],[-62.266,9.961,8.4917],[-62.2663,9.9571,0.0],[-62.2737,9.9518,0.0],[-62.2796,9.9501,9.2164],[-62.2843,9.9451,13.7824],[-62.2863,9.9454,13.0804],[-62.2979,9.9365,21.5113],[-62.3007,9.9354,30.8752],[-62.3043,9.9377,4.3103],[-62.3051,9.9418,0.0],[-62.3143,9.9499,11.803],[-62.3176,9.9457,25.3233],[-62.3196,9.9468,0.0],[-62.3254,9.9446,16.5413],[-62.3271,9.941,24.1006],[-62.326,9.9374,15.3696],[-62.3288,9.9385,2.8016],[-62.3318,9.9351,29.6573],[-62.3335,9.9271,18.0763],[-62.3326,9.916,0.0],[-62.3376,9.9201,26.1258],[-62.3385,9.9235,23.4023],[-62.3454,9.9238,2.7566],[-62.3474,9.926,2.4814],[-62.3493,9.9257,0.0],[-62.3521,9.8853,20.0668],[-62.3475,9.8811,24.7425],[-62.349,9.8725,26.6974],[-62.3476,9.8217,0.0],[-62.3456,9.8046,15.2098],[-62.3356,9.7689,11.6229],[-62.3356,9.7546,12.9285],[-62.3428,9.7318,16.9538],[-62.3637,9.6997,0.0],[-62.3825,9.6398,14.9635],[-62.3991,9.617,11.2032],[-62.4244,9.5878,12.0022],[-62.4575,9.5407,9.9215],[-62.4619,9.5179,19.8193],[-62.4605,9.4837,15.1003],[-62.4483,9.4558,12.7687],[-62.4275,9.4407,1.3329],[-62.4317,9.4365,3.6663],[-62.4306,9.4366,1.3366],[-62.4335,9.4282,3.3007],[-62.4414,9.4179,7.2644],[-62.4416,9.4139,6.6172],[-62.4358,9.4059,7.3484],[-62.4256,9.3997,2.3263],[-62.4156,9.3795,12.5727],[-62.4039,9.369,2.97],[-62.395,9.3545,1.2094],[-62.3932,9.3533,1.0455],[-62.3794,9.3565,2.3856],[-62.3728,9.3555,0.8926],[-62.3684,9.3431,1.1219],[-62.3556,9.3285,11.2123],[-62.3541,9.3247,1.2307],[-62.355,9.318,0.8914],[-62.3631,9.3061,0.9052],[-62.365,9.2983,0.8567],[-62.3635,9.2937,0.9245],[-62.3545,9.2843,1.7827],[-62.3503,9.2819,1.2461],[-62.3474,9.2761,0.9206],[-62.3479,9.2537,1.4817],[-62.3442,9.2402,1.0959],[-62.3402,9.2332,1.1211],[-62.3287,9.2253,1.6038],[-62.3232,9.2161,1.8152],[-62.3263,9.2071,1.1169],[-62.3395,9.1988,1.1363],[-62.3449,9.1905,1.4522],[-62.3434,9.1342,0.8899],[-62.3326,9.1138,4.7566],[-62.3226,9.1035,1.3068],[-62.3153,9.1021,1.0857],[-62.3082,9.1023,1.0859],[-62.3006,9.105,1.1021],[-62.2918,9.1127,1.071],[-62.2818,9.1125,1.0013],[-62.2762,9.1067,1.0498],[-62.2731,9.0926,1.9389],[-62.2682,9.0867,1.0877],[-62.2496,9.0848,1.137],[-62.2426,9.0819,0.7585],[-62.2376,9.0746,1.1889],[-62.2254,9.0487,1.4669],[-62.2201,9.043,1.3299],[-62.2079,9.0363,0.9148],[-62.1871,9.0332,0.9298],[-62.1798,9.0306,0.5981],[-62.1733,9.0271,1.6185],[-62.1643,9.0151,1.1254],[-62.155,9.0119,5.0746],[-62.1477,9.0112,2.2207],[-62.1409,9.0136,1.0005],[-62.1261,9.0256,0.6109],[-62.1051,9.0344,1.9238],[-62.0907,9.0463,2.1544],[-62.0842,9.0487,1.2373],[-62.0769,9.0464,3.1966],[-62.0702,9.0386,14.3073],[-62.0572,9.0148,6.8876],[-62.0589,8.998,15.6411],[-62.0671,8.984,5.0138],[-62.0739,8.9788,3.5164],[-62.0833,8.977,4.5601],[-62.0889,8.9733,0.0],[-62.0925,8.9668,5.9797],[-62.094,8.9593,2.6665],[-62.09,8.9313,5.5074],[-62.0795,8.9043,3.1591],[-62.0733,8.8823,4.7409],[-62.0613,8.8509,3.2597],[-62.056399999999996,8.8448,4.6528],[-62.0469,8.8394,3.3944],[-62.0373,8.8399,6.1232],[-62.0257,8.847,4.9029],[-62.0182,8.8494,6.3731],[-62.0109,8.8496,9.2117],[-62.0035,8.8481,3.0],[-62.003,8.8399,9.0423],[-62.0061,8.8326,3.0],[-62.0251,8.807,7.7331],[-62.0387,8.799,5.3168],[-62.0452,8.7885,5.9007],[-62.0479,8.7682,5.4856],[-62.0465,8.7576,5.4527],[-62.0476,8.7411,7.6986],[-62.0552,8.7214,4.0],[-62.0691,8.7022,6.6886],[-62.0949,8.6777,6.6995],[-62.0933,8.6627,5.5234],[-62.0995,8.652,2.5],[-62.1061,8.6449,9.3672],[-62.1333,8.6242,8.7087],[-62.1545,8.6048,3.0],[-62.1593,8.5979,3.0],[-62.1713,8.5618,4.1524],[-62.1788,8.5457,11.7941],[-62.189,8.5308,24.7649],[-62.2025,8.5165,30.155],[-62.2169,8.5068,25.0469],[-62.2334,8.5006,53.0892],[-62.277,8.488,40.6198],[-62.3088,8.4608,95.4482],[-62.3187,8.4603,86.974],[-62.3348,8.4508,120.8949],[-62.3521,8.4457,94.6276],[-62.4244,8.432,57.598],[-62.443,8.4271,70.3655],[-62.4666,8.4253,101.0746],[-62.4847,8.4217,41.3905],[-62.5289,8.3901,225.4352],[-62.4763,8.363,200.898],[-62.1584,8.1818,645.7933],[-61.6835,8.247,255.2655],[-61.667,8.2538,355.4058],[-61.6598,8.2551,396.6448],[-61.6307,8.2563,321.3921],[-61.6122,8.2546,349.8849],[-61.6021,8.2524,335.2164],[-61.5935,8.2483,361.2094],[-61.5824,8.2386,374.1795],[-61.5731,8.2187,310.5853],[-61.5714,8.2088,311.7868],[-61.5722,8.1888,290.2637],[-61.5765,8.1722,292.1605],[-61.5834,8.1571,276.7084],[-61.5889,8.1494,320.6106],[-61.6235,8.127,310.942],[-61.6363,8.1162,323.7835],[-61.6445,8.1066,290.7061],[-61.648,8.0946,286.4811],[-61.6465,8.0799,292.0574],[-61.6339,8.0402,273.3129],[-61.6268,8.0231,300.3874],[-61.6008,7.981,300.6616],[-61.5757,7.9527,236.9982],[-61.5395,7.8988,308.7672],[-61.5291,7.8802,291.911],[-61.5189,7.8561,351.4626],[-61.5034,7.7755,390.6921],[-61.4969,7.758,417.5512],[-61.4912,7.7476,591.9382],[-61.4637,7.7221,597.3175],[-61.4386,7.6891,547.5344],[-61.4038,7.6539,265.6413],[-61.3856,7.6378,218.8606],[-61.3684,7.6264,206.7892],[-61.3621,7.6224,211.8614],[-61.3424,7.615,214.1821],[-61.3418,7.6083,214.3088],[-61.3321,7.6119,236.1461],[-61.3242,7.6213,203.0367],[-61.3192,7.6361,189.9112],[-61.3157,7.6613,183.2304],[-61.3093,7.6759,179.8392],[-61.2829,7.7161,175.0081],[-61.2623,7.7376,197.8],[-61.2413,7.7516,214.7224],[-61.2157,7.7647,198.8801],[-61.1561,7.7911,165.3041],[-61.138,7.7953,187.1513],[-61.1133,7.7987,154.1273],[-61.0784,7.8007,152.5815],[-61.0628,7.798,132.6792],[-61.0497,7.7928,136.5702],[-60.9707,7.7405,146.3158],[-60.9562,7.7275,136.1977],[-60.9324,7.713,149.325],[-60.9049,7.6858,169.2599],[-60.8816,7.6686,158.1418],[-60.8496,7.6528,146.5873],[-60.8431,7.6515,148.9659],[-60.8297,7.6539,142.0641],[-60.7966,7.6721,143.8899],[-60.7942,7.6674,146.6457],[-60.7889,7.6638,145.9335],[-60.7827,7.6626,145.1815],[-60.7654,7.6665,131.4572],[-60.7578,7.6718,144.4342],[-60.7454,7.6914,146.0175],[-60.7355,7.703,155.6829],[-60.7166,7.719,245.551],[-60.703,7.7357,152.0642],[-60.6906,7.7706,97.7998],[-60.6834,7.7838,110.9038],[-60.6654,7.811,109.197],[-60.6528,7.8256,104.8462],[-60.6275,7.8402,104.2085],[-60.6092,7.8543,155.9993],[-60.5789,7.8891,87.9488],[-60.5356,7.924,142.0904],[-60.5063,7.9187,101.7017],[-60.4692,7.9184,82.9274],[-60.4373,7.9149,81.8277],[-60.3647,7.9465,117.6692],[-60.3501,7.9483,114.2716],[-60.3157,7.9477,112.8142],[-60.25,7.9591,76.7631],[-60.2343,7.9664,58.1215],[-60.2122,7.9806,65.4155],[-60.1891,7.988,55.6624],[-60.1614,7.9901,47.1173],[-60.1462,7.989,31.9634],[-60.1381,7.9947,22.4815],[-60.1334,8.0001,23.8363],[-60.1297,8.0108,18.9228],[-60.1272,8.0126,19.7884],[-60.127,8.0157,22.3673],[-60.1221,8.0217,21.1642],[-60.121,8.0319,36.3326],[-60.1145,8.031,18.4375],[-60.1028,8.0328,17.2512],[-60.0977,8.0348,15.833],[-60.0952,8.0391,17.5349],[-60.0876,8.0391,22.3194],[-60.0831,8.0341,18.2552],[-60.0767,8.0357,18.5622],[-60.0649,8.0274,18.3828],[-60.0578,8.0269,17.267],[-60.049,8.0297,15.7589],[-60.041,8.0393,15.7931],[-60.0321,8.037,14.9963],[-60.0233,8.0485,11.9321],[-60.01,8.0583,16.0539],[-60.0062,8.0629,6.1762],[-60.0051,8.068,17.078],[-60.0062,8.0747,19.1879],[-59.9989,8.0799,11.2669],[-59.9981,8.0918,15.496],[-59.9994,8.1001,11.7936],[-59.9932,8.1231,7.4449],[-59.9798,8.1368,13.8421],[-59.9818,8.1435,13.4085],[-59.9927,8.1555,15.2607],[-59.9933,8.1602,8.2342],[-59.9825,8.1716,7.0506],[-59.9763,8.1908,16.0671],[-59.949,8.1975,12.6836],[-59.9459,8.1999,2.0045],[-59.944,8.2104,12.4069],[-59.9465,8.2229,13.3774],[-59.8432,8.239,16.5553]]],
[[[-60.7996,8.876,1.87],[-60.799,8.8768,0.0],[-60.8021,8.8765,1.0116],[-60.8087,8.8724,1.1394],[-60.8076,8.8718,0.0],[-60.7996,8.876,1.87]]],
[[[-60.7954,8.9132,2.6616],[-60.7965,8.9143,0.0],[-60.7999,8.9135,4.092],[-60.799,8.9126,3.9578],[-60.7954,8.9132,2.6616]]],
[[[-60.7837,8.9865,0.0],[-60.7896,8.9865,2.2561],[-60.7924,8.9821,12.3686],[-60.8015,8.9746,0.0],[-60.8129,8.9579,11.7992],[-60.8174,8.9546,16.3372],[-60.8229,8.9376,0.0],[-60.8207,8.9232,0.0],[-60.8132,8.924,11.4418],[-60.8026,8.9201,0.0],[-60.7993,8.9224,2.2245],[-60.7971,8.9196,0.0],[-60.794,8.9199,0.0],[-60.791,8.9226,11.1357],[-60.7737,8.9251,0.0],[-60.7676,8.9293,4.4352],[-60.7663,8.9354,13.3616],[-60.7771,8.9396,13.7777],[-60.7779,8.9443,1.3974],[-60.781,8.9449,1.8707],[-60.784,8.9326,28.5107],[-60.7904,8.9287,15.5804],[-60.7851,8.9326,10.3873],[-60.7779,8.9613,3.0843],[-60.7707,8.9685,2.291],[-60.7768,8.9788,2.5104],[-60.7807,8.9804,12.1398],[-60.7815,8.9826,0.0],[-60.7851,8.9832,6.869],[-60.7837,8.9865,0.0]]],
[[[-60.6387,8.6829,27.2174],[-60.6432,8.684,0.0],[-60.6615,8.6768,0.0],[-60.6696,8.6554,0.0],[-60.6693,8.6504,5.4913],[-60.6629,8.6407,1.3477],[-60.6512,8.6382,0.0],[-60.6493,8.6393,2.3648],[-60.6443,8.6362,0.0],[-60.6379,8.6374,1.3113],[-60.6354,8.6349,0.0],[-60.6285,8.6329,0.0],[-60.616,8.6374,8.8034],[-60.6126,8.6371,5.2768],[-60.6076,8.6404,0.0],[-60.6024,8.6382,0.0],[-60.5968,8.6385,0.0],[-60.5885,8.6429,0.0],[-60.5821,8.6488,0.0],[-60.574,8.664,3.3175],[-60.5751,8.6671,0.0],[-60.5812,8.6679,4.8998],[-60.5846,8.6715,2.8946],[-60.5893,8.6735,12.9519],[-60.5974,8.674,2.6316],[-60.6007,8.6718,0.0],[-60.601,8.6682,4.4036],[-60.6024,8.6685,13.2348],[-60.6043,8.674,6.0186],[-60.6035,8.6768,0.0],[-60.6132,8.6729,13.7006],[-60.6146,8.6749,13.0235],[-60.6162,8.6718,28.9306],[-60.6182,8.6749,16.1234],[-60.6279,8.6785,16.7786],[-60.6349,8.6838,2.1949],[-60.6387,8.6829,27.2174]]],
[[[-60.6368,8.809,2.3683],[-60.6399,8.8099,9.1461],[-60.6413,8.8085,10.5995],[-60.6418,8.8062,11.3653],[-60.6393,8.8004,11.4226],[-60.6424,8.7946,11.1802],[-60.6485,8.7896,17.417],[-60.6482,8.7782,16.4522],[-60.6493,8.7771,11.7383],[-60.6471,8.774,12.3807],[-60.6449,8.7754,13.7808],[-60.6418,8.7738,9.854],[-60.6374,8.7746,2.0076],[-60.6304,8.7904,1.762],[-60.6301,8.7988,0.0],[-60.6368,8.809,2.3683]]],
[[[-60.6065,8.8424,0.0],[-60.6071,8.8446,0.0],[-60.6151,8.839,0.0],[-60.6162,8.8374,1.2672],[-60.6151,8.8351,0.6669],[-60.6104,8.8357,2.9831],[-60.6065,8.8424,0.0]]],
[[[-60.7143,8.8585,0.0],[-60.7171,8.8593,0.0],[-60.7218,8.8568,14.3307],[-60.721,8.8551,21.2206],[-60.7257,8.8526,5.4986],[-60.724,8.8485,17.7602],[-60.716,8.8451,0.0],[-60.7121,8.8468,0.0],[-60.7096,8.8518,2.8227],[-60.7143,8.8585,0.0]]],
[[[-60.6654,8.9451,0.0],[-60.6662,8.9476,0.0],[-60.669,8.9471,0.0],[-60.6688,8.9446,10.8013],[-60.6707,8.9429,23.3795],[-60.6835,8.9407,4.9204],[-60.6879,8.9374,18.94],[-60.6876,8.9335,21.5517],[-60.6835,8.9271,14.3098],[-60.6785,8.9271,6.9307],[-60.6671,8.9363,0.0],[-60.6646,8.9399,0.0],[-60.6654,8.9451,0.0]]],
[[[-60.6879,8.9412,0.0],[-60.6926,8.9421,0.0],[-60.6979,8.9407,0.0],[-60.701,8.9393,1.2931],[-60.7007,8.9365,3.6149],[-60.699,8.9346,2.7239],[-60.6932,8.9346,1.2535],[-60.6885,8.9385,4.7134],[-60.6879,8.9412,0.0]]],
[[[-60.7132,9.0235,3.489],[-60.7146,9.0243,0.0],[-60.7174,9.0229,1.9347],[-60.7221,9.0185,12.8503],[-60.7221,9.016,16.8063],[-60.7262,9.0132,4.9276],[-60.7182,9.0076,16.7462],[-60.7171,9.004,6.3218],[-60.7085,9.0076,0.0],[-60.7074,9.0101,0.0],[-60.711,9.0218,5.7122],[-60.7132,9.0235,3.489]]],
[[[-60.6862,9.0826,1.332],[-60.689,9.0835,9.7293],[-60.6926,9.0821,0.0],[-60.7007,9.0737,2.0302],[-60.7018,9.0688,7.1066],[-60.7062,9.0635,5.7595],[-60.7076,9.0585,6.9121],[-60.7068,9.0529,10.8653],[-60.7096,9.0543,2.3466],[-60.7112,9.0529,4.8568],[-60.716,9.0424,8.9297],[-60.7224,9.0349,24.6834],[-60.7226,9.0313,15.0891],[-60.7204,9.0285,0.0],[-60.7099,9.0293,1.3598],[-60.7065,9.0332,7.9668],[-60.7049,9.0332,7.9668],[-60.7049,9.036,13.4263],[-60.7035,9.0332,2.3932],[-60.701,9.0332,1.7218],[-60.6971,9.0371,4.6967],[-60.6954,9.0421,2.2025],[-60.6826,9.0532,4.2576],[-60.6785,9.061,0.0],[-60.6774,9.0713,0.2577],[-60.6801,9.0782,16.4891],[-60.6862,9.0826,1.332]]],
[[[-60.7943,8.9901,6.8615],[-60.7968,8.991,1.5392],[-60.8012,8.9882,0.0],[-60.8021,8.9782,0.0],[-60.7924,8.986,0.0],[-60.7943,8.9901,6.8615]]],
[[[-60.746,9.1101,21.4607],[-60.7513,9.1099,5.7796],[-60.7593,9.0968,0.0],[-60.7585,9.089,0.0],[-60.7529,9.084,7.768],[-60.7465,9.0868,0.0],[-60.7435,9.1026,0.0],[-60.746,9.1101,21.4607]]],
[[[-60.7693,9.1732,3.642],[-60.7721,9.1743,3.1235],[-60.7776,9.1724,0.0],[-60.7879,9.1657,0.0],[-60.8001,9.1413,11.8065],[-60.8107,9.1263,0.0],[-60.8112,9.124,0.0],[-60.8071,9.1171,19.4303],[-60.799,9.1099,3.4631],[-60.789,9.1082,0.0],[-60.7857,9.109,7.0008],[-60.7904,9.111,1.2897],[-60.7879,9.1124,2.2996],[-60.7879,9.1143,11.3158],[-60.774,9.1138,0.0],[-60.7687,9.1212,9.0581],[-60.7582,9.1293,14.6916],[-60.7532,9.1368,0.0],[-60.7529,9.1399,1.2015],[-60.7601,9.1499,13.1279],[-60.7693,9.1732,3.642]]],
[[[-60.771,9.234,1.4364],[-60.7754,9.2343,0.0],[-60.7854,9.224,2.7474],[-60.7921,9.2218,10.7455],[-60.8021,9.2149,7.2838],[-60.8076,9.214,0.0],[-60.821,9.2071,0.0],[-60.8401,9.201,4.3977],[-60.8476,9.1796,0.0],[-60.8554,9.1268,0.0],[-60.8604,9.1182,16.1262],[-60.8674,9.1121,0.0],[-60.866,9.1082,0.0],[-60.8618,9.106,0.0],[-60.8532,9.109,5.2095],[-60.8515,9.1076,0.0],[-60.836,9.1143,0.0],[-60.8237,9.1224,0.0],[-60.8104,9.1351,3.8121],[-60.8032,9.1471,8.1727],[-60.7993,9.149,13.0276],[-60.7976,9.1563,6.2117],[-60.789,9.1707,12.524],[-60.7799,9.1779,4.5062],[-60.7676,9.1812,4.0638],[-60.764,9.1796,0.0],[-60.7535,9.1807,15.6336],[-60.7526,9.179,3.1056],[-60.7382,9.1763,1.5166],[-60.734,9.1768,0.6482],[-60.7318,9.179,1.682],[-60.7313,9.1824,2.5523],[-60.7337,9.1882,5.2893],[-60.7465,9.2121,0.0],[-60.7643,9.2313,0.0],[-60.771,9.234,1.4364]]],
[[[-60.814,8.8704,2.7198],[-60.8135,8.8721,0.0],[-60.8149,8.8724,0.0],[-60.8232,8.8687,7.4939],[-60.8237,8.8657,12.7687],[-60.8218,8.8599,13.7382],[-60.8196,8.8607,2.2745],[-60.814,8.8704,2.7198]]],
[[[-60.8132,8.8765,11.7331],[-60.814,8.8749,0.0],[-60.811,8.8749,0.0],[-60.8101,8.8774,2.247],[-60.8115,8.8774,0.0],[-60.8132,8.8765,11.7331]]],
[[[-60.8132,8.891,0.0],[-60.8168,8.8915,11.5916],[-60.8207,8.8893,10.6982],[-60.829,8.8782,11.2244],[-60.8257,8.8788,1.0477],[-60.8132,8.891,0.0]]],
[[[-60.8437,8.9146,0.0],[-60.8454,8.9154,7.7837],[-60.8471,8.9149,8.634],[-60.8429,8.9126,0.0],[-60.8437,8.9146,0.0]]],
[[[-60.9129,9.1954,13.4682],[-60.9254,9.1957,0.0],[-60.9285,9.1921,8.9099],[-60.9354,9.1901,0.0],[-60.936,9.1871,7.7375],[-60.939,9.1849,8.6045],[-60.9399,9.1799,2.6646],[-60.9274,9.1796,7.0126],[-60.9007,9.1929,9.2791],[-60.9032,9.1943,1.2676],[-60.911,9.1915,5.9738],[-60.9129,9.1954,13.4682]]],
[[[-60.9168,9.2276,-0.2216],[-60.9165,9.229,3.6593],[-60.9193,9.2263,0.0],[-60.9185,9.226,0.0],[-60.9168,9.2276,-0.2216]]],
[[[-60.806,9.1362,16.7608],[-60.8037,9.1413,3.493],[-60.8121,9.1332,3.2393],[-60.8154,9.1274,9.6693],[-60.8099,9.1296,14.032],[-60.806,9.1362,16.7608]]],
[[[-60.8885,9.1988,0.0],[-60.889,9.201,0.0],[-60.8935,9.1979,0.0],[-60.8924,9.1962,0.0],[-60.8885,9.1988,0.0]]],
[[[-60.8365,9.2251,16.7002],[-60.8476,9.2257,0.0],[-60.8512,9.224,0.0],[-60.8521,9.2218,17.6365],[-60.8543,9.2224,0.0],[-60.8615,9.2193,0.0],[-60.8637,9.2165,7.3342],[-60.8668,9.2165,1.8867],[-60.8679,9.2137,17.8469],[-60.8838,9.2063,0.0],[-60.8871,9.2004,3.6784],[-60.881,9.199,0.0],[-60.8682,9.2021,17.6803],[-60.8474,9.2026,5.2445],[-60.8437,9.2051,0.0],[-60.8426,9.2079,6.9885],[-60.8251,9.2174,0.0],[-60.8326,9.2201,11.9536],[-60.8365,9.2251,16.7002]]],
[[[-60.8757,9.239,10.5881],[-60.8749,9.2413,0.0],[-60.8893,9.2365,16.2677],[-60.9057,9.2335,11.0571],[-60.9121,9.2293,4.7126],[-60.9165,9.2229,0.0],[-60.9071,9.2232,0.0],[-60.8993,9.2249,0.0],[-60.8946,9.2276,16.7861],[-60.8868,9.2279,0.0],[-60.8765,9.2354,0.0],[-60.8757,9.239,10.5881]]],
[[[-60.8476,9.261,0.0],[-60.8471,9.2629,0.0],[-60.8512,9.2612,3.6929],[-60.8635,9.2482,2.481],[-60.8707,9.244,0.0],[-60.8699,9.2418,0.0],[-60.8646,9.2413,6.9975],[-60.8568,9.2376,4.86],[-60.8496,9.2443,2.3253],[-60.8471,9.256,0.8925],[-60.8476,9.261,0.0]]],
[[[-60.856,9.2596,4.4076],[-60.8557,9.261,1.1008],[-60.8574,9.2612,0.7649],[-60.8604,9.2593,5.6661],[-60.866,9.2532,0.0],[-60.8629,9.2529,6.1576],[-60.856,9.2596,4.4076]]],
[[[-60.711,9.1607,0.0],[-60.7149,9.161,0.0],[-60.726,9.151,1.1265],[-60.7274,9.1476,0.0],[-60.7262,9.1446,7.9068],[-60.7285,9.1438,6.7419],[-60.734,9.1315,10.4001],[-60.7454,9.1179,15.0525],[-60.7412,9.1026,19.2909],[-60.746,9.0829,0.0],[-60.7379,9.0743,3.5677],[-60.7304,9.0737,0.0],[-60.7165,9.0785,0.0],[-60.7074,9.0868,3.6251],[-60.7046,9.0876,18.2687],[-60.7026,9.0913,0.0],[-60.7018,9.0999,0.7704],[-60.6968,9.1074,8.978],[-60.6957,9.1138,13.6661],[-60.6954,9.1082,14.2225],[-60.6993,9.0979,1.0447],[-60.6932,9.0979,1.6461],[-60.6868,9.1021,1.9576],[-60.6849,9.1057,1.4001],[-60.6829,9.1226,0.0],[-60.6813,9.1254,0.0],[-60.6824,9.1315,0.0],[-60.6935,9.1443,0.0],[-60.699,9.1543,1.2249],[-60.7062,9.1596,0.0],[-60.711,9.1607,0.0]]],
[[[-60.7935,9.2413,7.9602],[-60.7996,9.2421,0.0],[-60.8029,9.241,6.4287],[-60.811,9.2349,8.7189],[-60.8104,9.2318,2.6877],[-60.8076,9.2301,3.4092],[-60.8018,9.2299,7.6356],[-60.7949,9.2326,2.1543],[-60.7926,9.2374,0.0],[-60.7935,9.2413,7.9602]]],
[[[-60.781,9.2846,0.0],[-60.7857,9.2843,0.0],[-60.796,9.2649,0.9013],[-60.776,9.2557,21.4206],[-60.7715,9.2515,4.6869],[-60.7668,9.2515,3.7044],[-60.759,9.2574,2.1488],[-60.7601,9.2638,0.0],[-60.766,9.2729,0.0],[-60.781,9.2846,0.0]]],
[[[-62.3304,9.9443,24.5373],[-62.331,9.946,5.5956],[-62.3365,9.9449,9.173],[-62.3418,9.9393,11.5421],[-62.3418,9.934,19.9041],[-62.3387,9.9326,21.8799],[-62.3357,9.924,0.0],[-62.3346,9.9243,0.0],[-62.334,9.9329,4.5927],[-62.3296,9.9396,5.2382],[-62.3304,9.9443,24.5373]]],
[[[-62.3054,9.9599,8.7885],[-62.3082,9.9604,6.7086],[-62.3096,9.9529,0.0],[-62.3049,9.9501,14.5347],[-62.3026,9.9504,10.6673],[-62.2993,9.9563,0.0],[-62.3054,9.9599,8.7885]]],
[[[-62.3299,9.9918,16.5481],[-62.3324,9.9926,0.0],[-62.3376,9.9901,9.5597],[-62.3399,9.9799,18.9231],[-62.3443,9.9693,8.3461],[-62.3401,9.9687,0.0],[-62.3312,9.9715,8.0838],[-62.3301,9.9646,0.0],[-62.3315,9.9615,1.9031],[-62.3271,9.9607,10.8599],[-62.3112,9.9693,10.8928],[-62.3099,9.9835,18.4327],[-62.3115,9.9896,0.0],[-62.3138,9.9896,0.0],[-62.3182,9.9763,20.0979],[-62.3185,9.9776,4.1075],[-62.3207,9.9765,15.5818],[-62.3185,9.9807,0.0],[-62.319,9.9846,0.0],[-62.3265,9.9913,0.0],[-62.3299,9.9918,16.5481]]],
[[[-61.9999,9.9999,0.0],[-61.9999,10.0001,0.0],[-62.0001,10.0001,0.0],[-62.0001,9.9999,0.0],[-61.9999,9.9999,0.0]]],
[[[-62.2501,10.0593,4.8303],[-62.2535,10.0596,4.3899],[-62.2582,10.0563,7.5143],[-62.2768,10.0568,0.0],[-62.2829,10.051,0.0],[-62.2826,10.0474,17.7186],[-62.2915,10.0329,6.2857],[-62.2965,10.0174,4.9481],[-62.2982,10.0029,8.75],[-62.3029,9.986,6.5507],[-62.3032,9.9729,12.2503],[-62.306,9.964,0.0],[-62.3057,9.9613,0.0],[-62.3026,9.959,5.9978],[-62.2999,9.9582,0.0],[-62.294,9.966,18.0668],[-62.2876,9.9699,4.0429],[-62.2863,9.976,0.0],[-62.291,9.9779,9.643],[-62.291,9.9796,12.0377],[-62.2901,9.9832,0.0],[-62.2879,9.9851,0.0],[-62.2846,9.9829,0.0],[-62.2843,9.9851,0.0],[-62.2871,9.9893,14.2644],[-62.2821,9.9849,3.5246],[-62.2788,9.984,8.3727],[-62.2779,9.9807,6.1179],[-62.2751,9.9785,0.0],[-62.2701,9.9796,0.0],[-62.2429,10.0035,3.7353],[-62.2365,10.0046,0.0],[-62.2357,10.0063,0.0],[-62.2385,10.0071,0.0],[-62.2376,10.0096,11.5821],[-62.2282,10.0193,0.0],[-62.2257,10.0249,2.649],[-62.2262,10.0285,0.0],[-62.2346,10.0415,0.0],[-62.2371,10.0426,0.0],[-62.2385,10.0401,10.4321],[-62.2401,10.0451,15.8676],[-62.2404,10.0515,12.6815],[-62.2385,10.0479,10.4716],[-62.2368,10.0485,0.0],[-62.2382,10.0546,0.0],[-62.2429,10.0585,6.1522],[-62.2499,10.056,16.7753],[-62.2501,10.0593,4.8303]]]]}}