{"type":"Feature","properties":{"ISO3166-1-Alpha-3":"VEN","country":"Venezuela","fill":"#FF0","id":"65","name":"Delta Amacuro"},
"geometry":{"type": "MultiPolygon","coordinates": [[[[-61.39027,8.58058,3.6819],[-61.41579,8.58226,4.7293],[-61.43877,8.56881,4.4282],[-61.47623,8.56712,0.5],[-61.5154,8.57299,0.5],[-61.53585,8.57551,0.5],[-61.54012,8.56541,11.9855],[-61.5086,8.55281,1.0],[-61.48986,8.55113,16.1248],[-61.46858,8.54105,4.8415],[-61.45412,8.53096,3.143],[-61.43369,8.51415,3.1758],[-61.4005,8.50828,12.3583],[-61.36563,8.50997,12.5109],[-61.33844,8.50995,14.8136],[-61.32571,8.49481,4.4666],[-61.31722,8.47546,5.9202],[-61.29344,8.45694,10.947],[-61.27644,8.4502,9.7333],[-61.26369,8.45609,2.2335],[-61.25943,8.47207,11.424],[-61.26026,8.48638,2.0888],[-61.2764,8.49648,0.0],[-61.29085,8.50237,3.4506],[-61.30274,8.51499,12.2616],[-61.30442,8.53601,13.3434],[-61.30526,8.55282,9.4346],[-61.3146,8.57131,11.6587],[-61.34435,8.57301,14.0367],[-61.36986,8.57133,12.9586],[-61.39027,8.58058,3.6819]]],
[[[-60.99254,8.57673,0.0],[-60.996,8.60269,4.421],[-61.00373,8.60399,12.2902],[-61.00772,8.6059,19.2997],[-61.01098,8.60806,17.4713],[-61.01647,8.61009,19.0944],[-61.0218,8.61099,18.979],[-61.08674,8.60684,11.446],[-61.09846,8.60269,1.2383],[-61.12637,8.57258,11.7827],[-61.12853,8.56928,13.2978],[-61.13317,8.56538,13.5336],[-61.13785,8.55976,17.5609],[-61.14,8.55174,16.3993],[-61.13817,8.55069,17.3566],[-61.12637,8.53437,1.8528],[-61.14818,8.54385,10.1606],[-61.18025,8.56965,3.8948],[-61.20149,8.576,0.0],[-61.22761,8.5716,2.8072],[-61.24608,8.55728,4.0183],[-61.25943,8.53685,11.4258],[-61.27038,8.51455,3.1762],[-61.23282,8.51606,13.3391],[-61.12637,8.50707,2.5449],[-61.04157,8.51854,2.8887],[-61.04377,8.52863,14.7936],[-61.05199,8.54194,13.983],[-61.05065,8.55549,17.7053],[-61.0277,8.54312,15.3114],[-61.00569,8.55353,13.2068],[-60.99254,8.57673,0.0]]],
[[[-60.67876,8.69317,0.0],[-60.68723,8.71,0.0],[-60.68718,8.73017,0.0],[-60.67694,8.74863,0.0],[-60.67181,8.75955,3.8744],[-60.67606,8.76292,17.245],[-60.68372,8.75789,16.2407],[-60.69735,8.74447,10.5079],[-60.71438,8.73442,12.6965],[-60.72716,8.72184,19.4555],[-60.74502,8.71936,16.4919],[-60.76033,8.71771,20.4393],[-60.77313,8.69672,14.2134],[-60.78678,8.67489,16.2619],[-60.79788,8.65641,13.9963],[-60.80981,8.64214,13.9847],[-60.80813,8.63289,19.9308],[-60.79028,8.63118,6.0641],[-60.77157,8.63114,0.0],[-60.7571,8.63784,0.0],[-60.73584,8.63697,0.0],[-60.71374,8.63776,0.0],[-60.69417,8.64277,13.9578],[-60.67377,8.64189,0.0],[-60.65083,8.63427,0.0],[-60.63214,8.63339,0.0],[-60.61768,8.63672,0.0],[-60.60829,8.65435,26.3058],[-60.60484,8.67115,15.8446],[-60.61161,8.68377,0.0],[-60.63541,8.68719,0.0],[-60.66602,8.68642,0.0],[-60.67876,8.69317,0.0]]],
[[[-60.72808,8.87852,0.0],[-60.73237,8.89215,0.0],[-60.75653,8.88283,0.0],[-60.77811,8.8701,7.987],[-60.83154,8.87019,0.0],[-60.8617,8.87025,0.0],[-60.87206,8.85749,5.808],[-60.88329,8.84049,13.3782],[-60.90483,8.83371,13.1869],[-60.95136,8.82783,13.2732],[-60.97376,8.82445,9.1172],[-60.99703,8.82108,13.3883],[-61.03152,8.80835,8.8563],[-61.05997,8.79816,18.0561],[-61.09534,8.77946,19.1856],[-61.12644,8.75648,13.7803],[-61.15498,8.7224,1.7041],[-61.16711,8.69939,1.738],[-61.16977,8.66357,8.7916],[-61.17155,8.63798,14.5836],[-61.17417,8.62433,6.6773],[-61.1768,8.60385,2.9409],[-61.16991,8.59531,2.6935],[-61.15265,8.59618,1.7113],[-61.14227,8.60216,1.2531],[-61.13017,8.60985,1.6011],[-61.11201,8.6235,4.8316],[-61.09387,8.63374,13.2626],[-61.05421,8.63884,0.0],[-61.00335,8.63967,17.7147],[-60.96891,8.6294,0.0],[-60.94737,8.63447,12.6158],[-60.92066,8.63955,14.4988],[-60.88448,8.63523,14.8505],[-60.84658,8.63772,17.4108],[-60.8276,8.65132,23.0231],[-60.8069,8.67259,11.852],[-60.79911,8.69388,19.9655],[-60.78357,8.71514,0.0],[-60.76973,8.74151,0.0],[-60.74816,8.7602,15.2852],[-60.72402,8.7627,18.2679],[-60.69899,8.77797,0.0],[-60.68604,8.78901,7.5585],[-60.69805,8.81118,0.0],[-60.71096,8.82398,3.2544],[-60.71352,8.83506,0.0],[-60.71779,8.85295,29.4664],[-60.73158,8.85809,0.0],[-60.7376,8.86661,0.0],[-60.72808,8.87852,0.0]]],
[[[-61.06774,8.82807,1.0904],[-60.93358,8.88394,14.5301],[-60.89167,8.91437,3.0621],[-60.86498,8.94123,3.8667],[-60.85082,8.97065,0.0],[-60.86571,8.99433,9.9945],[-60.85928,8.9947,17.3468],[-60.83837,9.00056,8.9755],[-60.85534,9.01581,0.0],[-60.87548,9.02798,0.0],[-60.89757,9.03339,0.0],[-60.92028,9.02847,7.2448],[-60.93326,9.01874,12.7017],[-60.93493,9.00983,12.8586],[-60.93371,9.00088,13.9754],[-60.93765,8.99063,8.3887],[-60.94884,8.98115,0.0],[-60.96129,8.97313,3.3538],[-60.97134,8.96332,18.0027],[-60.98282,8.93016,12.5365],[-61.01671,8.88032,16.1506],[-61.03527,8.86319,14.9002],[-61.09162,8.82241,13.8302],[-61.06774,8.82807,1.0904]]],
[[[-60.85534,9.06965,2.2803],[-60.8531,9.07795,5.4817],[-60.85204,9.08674,13.4907],[-60.85204,9.09614,14.1711],[-60.90636,9.0777,0.0],[-60.93082,9.07563,10.1612],[-60.94689,9.06611,10.6648],[-60.98412,9.01895,15.1935],[-61.00227,9.00056,12.5037],[-61.02212,8.99307,1.6402],[-61.04752,8.98729,9.5261],[-61.06933,8.97883,14.1257],[-61.07852,8.96296,12.8678],[-61.08373,8.94294,10.3496],[-61.09288,8.92007,14.4126],[-61.09659,8.90058,16.0068],[-61.08544,8.89069,1.7626],[-61.07714,8.89313,4.4939],[-61.04381,8.91177,7.3722],[-61.03844,8.91987,15.1598],[-61.03222,8.93989,14.6016],[-61.02709,8.94868,4.5932],[-60.94298,9.02582,0.0],[-60.92707,9.03685,13.1555],[-60.91072,9.04149,11.8966],[-60.88927,9.04141,9.9913],[-60.87564,9.04365,16.2766],[-60.86657,9.05174,2.331],[-60.85888,9.0694,3.233],[-60.85888,9.06196,11.483],[-60.85534,9.06965,2.2803]]],
[[[-60.86246,9.12592,16.5484],[-60.85359,9.14387,2.3337],[-60.84748,9.16303,17.1856],[-60.8452,9.18236,17.4892],[-60.85334,9.19404,11.4128],[-60.87214,9.19477,18.476],[-60.9073,9.18549,0.0],[-60.93676,9.16462,18.3903],[-60.94229,9.13662,13.1919],[-60.94384,9.10399,14.4683],[-60.96129,9.0694,15.447],[-60.93969,9.0821,0.0],[-60.88972,9.09858,5.8807],[-60.87316,9.1166,19.9371],[-60.87316,9.11042,15.8594],[-60.86246,9.12592,16.5484]]],
[[[-60.72851,9.19294,0.0],[-60.73363,9.1988,0.0],[-60.739,9.20893,0.0],[-60.74218,9.21345,0.0],[-60.75792,9.23041,0.0],[-60.78051,9.22875,4.5264],[-60.80289,9.2176,0.0],[-60.81786,9.206,8.7181],[-60.82897,9.18769,14.3062],[-60.8369,9.14204,17.0027],[-60.8452,9.1166,11.971],[-60.8238,9.1223,8.0577],[-60.81225,9.13825,11.8802],[-60.80517,9.15721,19.4842],[-60.79743,9.17182,15.8974],[-60.76952,9.1892,12.0124],[-60.75284,9.18732,23.1745],[-60.73925,9.18818,11.6358],[-60.72851,9.19294,0.0]]],
[[[-61.92498,9.87963,0.0],[-62.02538,9.95736,0.0],[-62.06128,9.97788,1.1792],[-62.11086,9.99769,0.0],[-62.19648,10.01968,16.2705],[-62.20653,10.01435,10.0831],[-62.21679,10.00385,16.8518],[-62.22322,9.98701,17.3541],[-62.23681,9.96695,21.5869],[-62.22142,9.95181,30.9656],[-62.20836,9.94603,15.2961],[-62.14867,9.94465,7.3835],[-62.13561,9.94062,3.4896],[-62.11946,9.93281,17.0521],[-62.09032,9.90327,23.5352],[-62.08902,9.8981,20.827],[-62.07616,9.89643,12.7215],[-62.04625,9.88793,24.9911],[-62.03751,9.88373,1.8846],[-62.02733,9.87442,2.8303],[-62.02868,9.87067,4.3342],[-62.03694,9.87031,26.4394],[-62.05651,9.87198,6.2786],[-62.08845,9.8793,6.3475],[-62.09899,9.88373,2.8914],[-62.10823,9.89655,1.5137],[-62.11246,9.91035,7.934],[-62.11946,9.92145,16.4844],[-62.13683,9.92597,25.5108],[-62.19518,9.93281,0.0],[-62.18781,9.91169,1.1714],[-62.16641,9.87344,-0.0187],[-62.16047,9.85025,-0.1726],[-62.15429,9.72614,11.6201],[-62.16242,9.68228,11.1016],[-62.18187,9.64887,10.1441],[-62.21569,9.63793,5.1014],[-62.18761,9.66267,14.6822],[-62.17589,9.70498,14.3541],[-62.1787,9.84614,19.3275],[-62.18493,9.86774,18.4418],[-62.22199,9.93838,0.0],[-62.23937,9.96084,25.6442],[-62.25723,9.97435,0.0],[-62.25772,9.93781,20.9279],[-62.24096,9.87495,17.5183],[-62.24299,9.84284,13.9998],[-62.2705,9.76667,12.9059],[-62.29076,9.7333,8.8582],[-62.31871,9.70624,21.9884],[-62.32535,9.71882,0.0],[-62.32537,9.71885,0.0],[-62.32363,9.70228,18.4927],[-62.33663,9.68672,17.2315],[-62.35443,9.67194,12.3705],[-62.36707,9.65595,17.1165],[-62.37373,9.62554,4.0471],[-62.37867,9.61564,12.8537],[-62.41949,9.57352,0.0],[-62.44024,9.54102,15.9317],[-62.44613,9.52541,12.8031],[-62.4436,9.50929,14.2125],[-62.43086,9.49684,2.237],[-62.41321,9.48766,0.0],[-62.39606,9.48139,3.5796],[-62.39221,9.45916,1.123],[-62.39097,9.43741,1.7006],[-62.38686,9.41723,17.2979],[-62.37435,9.39961,1.5633],[-62.32976,9.37064,0.0],[-62.32053,9.35734,1.3111],[-62.31883,9.34646,0.9007],[-62.32071,9.32214,1.0118],[-62.31753,9.27409,0.8907],[-62.3149,9.26512,0.9192],[-62.31335,9.24538,6.7386],[-62.31043,9.2415,2.5875],[-62.30792,9.23714,3.1746],[-62.30593,9.23249,4.3385],[-62.30536,9.22683,3.2157],[-62.30632,9.2082,1.4539],[-62.30469,9.19665,0.0],[-62.30547,9.18959,4.3162],[-62.30834,9.18073,3.0887],[-62.31583,9.16724,0.9803],[-62.32045,9.15639,1.019],[-62.32278,9.1483,1.0358],[-62.32133,9.14055,0.8106],[-62.31741,9.13699,1.0021],[-62.31224,9.13528,1.7613],[-62.27074,9.13334,2.3545],[-62.2663,9.13187,5.4313],[-62.26304,9.12875,2.0433],[-62.26066,9.12433,4.377],[-62.2572,9.11441,0.966],[-62.25493,9.10983,2.2842],[-62.2517,9.10611,2.6753],[-62.24769,9.10317,4.0677],[-62.23397,9.0957,1.6227],[-62.22997,9.09275,1.9056],[-62.22648,9.08934,5.0825],[-62.21731,9.07787,1.5067],[-62.21359,9.07485,0.9884],[-62.20974,9.07237,1.3669],[-62.20563,9.07128,1.9894],[-62.20212,9.07097,0.9735],[-62.19359,9.07399,12.9935],[-62.18268,9.07942,1.1107],[-62.16114,9.09275,2.3275],[-62.15194,9.09725,3.8132],[-62.14527,9.09758,4.3925],[-62.1432,9.09353,3.2398],[-62.13662,9.06668,3.1701],[-62.13488,9.06172,9.6405],[-62.1324,9.05808,10.2374],[-62.12873,9.05645,4.3351],[-62.12548,9.05606,2.9404],[-62.12067,9.05684,10.8287],[-62.1162,9.05854,11.0372],[-62.10207,9.068,4.7628],[-62.09378,9.07087,11.2422],[-62.08863,9.0718,4.7636],[-62.07241,9.068,2.9221],[-62.06752,9.06591,1.6722],[-62.05517,9.06371,5.2187],[-62.05246,9.05529,0.0],[-62.05308,9.04537,0.0],[-62.0613,9.02557,3.4601],[-62.08194,8.98839,0.0573],[-62.08781,8.96819,0.0],[-62.08419,8.94483,12.1527],[-62.07205,8.92281,5.1748],[-62.06378,8.91217,0.0],[-62.05556,8.90512,5.4177],[-62.04411,8.90124,16.0077],[-62.02027,8.89938,8.3008],[-62.00864,8.89545,5.5712],[-62.00758,8.88623,6.429],[-62.00574,8.87951,1.5],[-62.00507,8.87284,6.987],[-62.00755,8.8638,5.3119],[-62.01262,8.8552,12.5281],[-62.05864,8.80822,3.0],[-62.06424,8.7992,9.6923],[-62.06683,8.79068,4.8038],[-62.069,8.74825,4.2153],[-62.0752,8.7344,11.3634],[-62.08739,8.72513,5.0643],[-62.12339,8.70952,3.0],[-62.14894,8.70303,3.0],[-62.18183,8.6804,3.0],[-62.18615,8.67658,3.0],[-62.2085,8.64976,6.3888],[-62.22886,8.61573,3.0],[-62.23953,8.598,3.0],[-62.25519,8.59415,3.7854],[-62.31035,8.59312,6.7334],[-62.32324,8.58937,3.0],[-62.32965,8.5865,3.0],[-62.335,8.58309,3.0],[-62.33996,8.57824,3.0],[-62.34198,8.57444,3.0],[-62.34337,8.57046,3.0],[-62.3466,8.56501,3.0],[-62.35596,8.55428,3.0],[-62.36637,8.54571,3.0],[-62.37805,8.53901,3.0],[-62.4359,8.51382,3.0],[-62.45037,8.51067,3.0],[-62.46213,8.51116,3.0],[-62.50055,8.5201,3.0],[-62.5153,8.51943,11.2281],[-62.52654,8.51343,3.0],[-62.52985,8.49977,3.0],[-62.54222,8.49778,3.0],[-62.55452,8.49116,3.0],[-62.5653,8.48232,3.0],[-62.59374,8.4508,3.0],[-62.59765,8.44799,3.0],[-62.49993,8.40706,37.3975],[-62.31219,8.33063,562.8197],[-62.24718,8.31381,408.041],[-61.6352,8.28704,497.0103],[-61.64277,8.2366,414.0459],[-61.64339,8.20797,470.0494],[-61.63869,8.18593,313.2282],[-61.60921,8.11852,298.0007],[-61.59766,8.10268,272.155],[-61.59083,8.09563,284.8786],[-61.57582,8.08289,265.4977],[-61.55412,8.05504,145.7907],[-61.39408,7.87753,311.9657],[-61.35679,7.84285,335.065],[-61.34243,7.83198,436.132],[-61.3192,7.82058,225.8395],[-61.31263,7.82058,188.8768],[-61.30708,7.82206,170.5388],[-61.29822,7.82686,110.5402],[-61.28848,7.83074,141.7463],[-61.26659,7.8357,74.7327],[-61.24837,7.83766,118.6149],[-61.24292,7.83895,138.9522],[-61.2245,7.84774,85.5281],[-61.209,7.85254,125.3352],[-61.20437,7.85471,125.8492],[-61.20021,7.85735,108.4587],[-61.1861,7.87094,151.4147],[-61.18171,7.8735,161.6662],[-61.16528,7.87722,118.8507],[-61.16029,7.879,101.8486],[-61.13515,7.89497,124.1453],[-61.13042,7.89701,112.3466],[-61.12456,7.89794,141.5114],[-61.09763,7.8974,147.1479],[-61.09143,7.89786,149.9347],[-61.08575,7.89903,143.0658],[-61.06572,7.90616,140.601],[-61.06115,7.90841,140.0406],[-61.05335,7.9143,127.695],[-61.03239,7.93471,129.9964],[-61.02446,7.94068,140.3228],[-61.01922,7.94262,135.7121],[-61.01366,7.94393,128.8261],[-60.98798,7.94618,113.8793],[-60.97098,7.94603,111.4194],[-60.96198,7.94424,124.6208],[-60.95571,7.94138,118.9911],[-60.94524,7.92967,105.7109],[-60.94421,7.92735,109.7354],[-60.93966,7.92096,121.5556],[-60.79696,7.75705,127.8171],[-60.7899,7.75198,139.2767],[-60.78463,7.75178,138.3216],[-60.77959,7.75302,112.993],[-60.76647,7.7603,113.5962],[-60.73301,7.78901,106.5888],[-60.71053,7.81508,83.7321],[-60.70681,7.81826,82.5718],[-60.68466,7.83012,95.8505],[-60.6002,7.89001,96.9653],[-60.59583,7.89234,85.417],[-60.591,7.89435,80.298],[-60.57462,7.8981,85.531],[-60.56971,7.89988,86.9071],[-60.56092,7.90476,105.4364],[-60.54899,7.91329,123.1221],[-60.54441,7.91554,154.2589],[-60.53906,7.91693,131.8798],[-60.2689,7.92125,81.3978],[-60.268,7.92126,81.1232],[-60.25329,7.93456,69.6497],[-60.24301,7.95058,61.7482],[-60.23113,7.96411,50.1033],[-60.18309,7.98267,50.3277],[-60.16573,7.99703,40.629],[-60.14979,8.01347,35.901],[-60.12922,8.02881,24.5305],[-60.1079,8.03556,20.7389],[-60.06801,8.03176,17.3831],[-60.04649,8.03292,13.6332],[-60.02959,8.04282,15.4938],[-60.01946,8.06031,13.8321],[-60.01101,8.10044,17.5432],[-59.99933,8.1154,18.1023],[-59.99801,8.12705,19.4284],[-60.00054,8.13855,20.6613],[-60.00067,8.15294,19.1553],[-59.99331,8.16852,19.2712],[-59.96768,8.18839,23.4041],[-59.95706,8.20015,12.7342],[-59.93972,8.20844,13.6741],[-59.88975,8.21989,12.4694],[-59.86921,8.22113,38.4685],[-59.84846,8.22774,20.3534],[-59.82929,8.24511,18.6712],[-59.81665,8.2672,16.4382],[-59.81559,8.28776,14.8129],[-59.85562,8.35213,15.2966],[-59.95969,8.46817,17.7659],[-60.02098,8.55798,21.9675],[-60.02099,8.55801,21.9675],[-60.06436,8.56513,14.484],[-60.08361,8.57372,12.6629],[-60.11901,8.59642,19.5755],[-60.15746,8.61335,18.9229],[-60.19782,8.62385,21.6629],[-60.3719,8.6354,0.0],[-60.40372,8.6225,16.4219],[-60.42687,8.58283,0.0],[-60.44734,8.56171,0.0],[-60.45824,8.53889,0.0],[-60.46158,8.53437,0.0],[-60.47891,8.53238,0.0],[-60.54418,8.54804,0.0],[-60.60631,8.55109,0.0],[-60.62609,8.55549,0.0],[-60.63805,8.56118,0.0],[-60.65396,8.57119,0.0],[-60.66788,8.58259,0.0],[-60.6739,8.59272,0.0],[-60.69245,8.60468,0.0],[-60.81798,8.59028,12.3993],[-60.9171,8.57905,17.3027],[-60.93712,8.57221,15.9069],[-60.95661,8.569,13.0],[-60.97558,8.576,0.0],[-60.98477,8.57054,8.0262],[-60.98721,8.56489,2.3612],[-60.98729,8.55781,11.6452],[-60.98925,8.54804,5.1673],[-60.99039,8.52416,1.05],[-60.99242,8.51219,0.0],[-61.00381,8.50357,2.4202],[-61.00951,8.49506,15.6064],[-61.01448,8.48485,12.5341],[-61.01647,8.47602,12.9073],[-61.02038,8.46882,13.5239],[-61.02965,8.46752,14.5802],[-61.04084,8.46809,2.6109],[-61.05065,8.46613,14.3198],[-61.06192,8.45987,17.4071],[-61.06656,8.45628,0.0],[-61.07116,8.43818,16.3316],[-61.06957,8.41267,16.053],[-61.07189,8.40331,0.5],[-61.08202,8.40778,16.489],[-61.08576,8.41559,12.2532],[-61.08658,8.42695,16.301],[-61.08544,8.44872,14.7994],[-61.07799,8.46646,16.2788],[-61.04015,8.47285,9.2303],[-61.02392,8.48656,14.2216],[-61.0266,8.50092,17.9423],[-61.04857,8.50178,18.3969],[-61.09508,8.49339,0.0],[-61.15905,8.49828,0.0],[-61.18102,8.49339,0.0],[-61.19489,8.48627,10.2479],[-61.21288,8.47419,0.0],[-61.22838,8.4606,3.8887],[-61.23497,8.44872,14.7203],[-61.24014,8.43211,16.1076],[-61.2528,8.41861,2.2476],[-61.28405,8.3972,13.8334],[-61.29528,8.41234,13.2436],[-61.32116,8.42821,10.6086],[-61.33178,8.43818,2.9279],[-61.33751,8.45063,3.0987],[-61.34252,8.46581,0.5],[-61.34911,8.47932,3.9295],[-61.35912,8.48656,0.5],[-61.37597,8.48599,0.5],[-61.41466,8.47679,1.0],[-61.43423,8.47915,7.0497],[-61.4379,8.48314,2.9479],[-61.44652,8.49726,4.4317],[-61.45165,8.50023,6.4601],[-61.46418,8.50129,2.5646],[-61.47077,8.50414,5.7125],[-61.48664,8.5183,3.3862],[-61.49816,8.53148,1.0],[-61.49966,8.53437,1.0],[-61.50919,8.53286,1.0],[-61.5266,8.52717,1.0],[-61.53726,8.52757,1.0],[-61.54117,8.53124,1.0],[-61.54564,8.53823,1.0],[-61.55191,8.54499,8.6548],[-61.56115,8.54804,1.0],[-61.59874,8.55549,18.2756],[-61.65197,8.58584,1.0],[-61.66076,8.59642,1.5],[-61.65905,8.61652,13.2953],[-61.64517,8.62665,3.4412],[-61.62536,8.63019,3.8488],[-61.60554,8.63056,9.68],[-61.56688,8.60659,6.7044],[-61.52306,8.59663,4.2086],[-61.34854,8.61009,9.3752],[-61.33552,8.60749,9.595],[-61.27721,8.58902,2.8063],[-61.23331,8.5893,0.0],[-61.20946,8.60904,1.914],[-61.19872,8.64468,13.4378],[-61.194,8.69269,2.7025],[-61.18008,8.73583,6.6312],[-61.12682,8.81452,17.6188],[-61.11205,8.85712,14.9564],[-61.11266,8.86725,7.3847],[-61.11954,8.8876,16.5366],[-61.11775,8.90371,15.2417],[-61.10587,8.9453,11.227],[-61.09968,8.96035,11.5344],[-61.08218,8.98843,14.2756],[-61.07852,8.99746,7.265],[-61.07189,8.99775,11.3679],[-61.03698,9.03531,16.2523],[-61.02843,9.0395,13.8947],[-61.01684,9.04316,11.3512],[-61.00658,9.04877,2.6232],[-61.00227,9.05854,0.0],[-61.00182,9.07738,0.0],[-60.99901,9.08527,9.2041],[-60.99258,9.093,0.0],[-60.98876,9.10041,0.2175],[-60.98522,9.12214,2.1608],[-60.98233,9.13085,15.8173],[-60.97517,9.13996,16.1183],[-60.96003,9.1551,14.4179],[-60.95507,9.16503,5.8032],[-60.95914,9.18252,15.574],[-60.984,9.16739,15.1922],[-61.06627,9.09512,14.9347],[-61.07116,9.08649,12.4922],[-61.07482,9.07392,12.6289],[-61.08454,9.05939,10.3322],[-61.09765,9.04719,9.1927],[-61.11205,9.04149,9.6087],[-61.08544,9.10244,13.8104],[-61.06676,9.13231,10.8368],[-61.04723,9.14517,3.7921],[-61.02416,9.15327,0.0],[-60.96866,9.206,10.6694],[-60.94555,9.21235,12.5715],[-60.9442,9.21345,16.1955],[-60.93798,9.21613,8.5746],[-60.93342,9.22236,17.1153],[-60.92711,9.2333,17.5522],[-60.91837,9.23847,18.8256],[-60.90697,9.24282,16.3945],[-60.89464,9.24579,18.5711],[-60.88305,9.24698,17.6767],[-60.87361,9.25015,16.9409],[-60.85066,9.26423,0.0],[-60.83528,9.2674,0.0],[-60.82189,9.27277,12.4206],[-60.81749,9.28563,0.0],[-60.81574,9.30158,0.0],[-60.81041,9.31586,30.8875],[-60.80199,9.30768,27.5379],[-60.79939,9.30317,26.3725],[-60.79743,9.29475,0.0],[-60.78539,9.31354,0.0],[-60.7838,9.33861,1.6825],[-60.78905,9.36424,0.0],[-60.79743,9.38471,0.0],[-60.8024,9.3889,0.0],[-60.8153,9.39228,3.2246],[-60.81786,9.39468,2.7169],[-60.81843,9.40119,1.3816],[-60.82014,9.4062,2.1999],[-60.82335,9.41055,0.6515],[-60.83825,9.4252,2.7648],[-60.85359,9.44644,0.7809],[-60.86229,9.45612,0.0],[-60.87902,9.4689,0.0],[-60.89977,9.48115,14.8805],[-60.92073,9.4903,9.3925],[-60.93765,9.49396,9.8418],[-60.94669,9.49177,10.8959],[-60.95425,9.48819,26.3193],[-60.96129,9.48745,0.0],[-60.96866,9.49396,22.2705],[-60.97061,9.50194,19.7178],[-60.96866,9.53498,0.0],[-60.96491,9.52546,0.0],[-60.96174,9.52237,0.0],[-60.95507,9.52131,0.0],[-60.9606,9.53872,0.0],[-60.97704,9.54963,0.0],[-61.01647,9.56289,0.0],[-61.05321,9.58128,0.0],[-61.06802,9.58332,0.0],[-61.10554,9.58015,0.0],[-61.11205,9.58332,0.0],[-61.13012,9.5725,0.0],[-61.18419,9.60407,0.0],[-61.20832,9.60383,0.0],[-61.19197,9.58332,4.3402],[-61.20604,9.57738,25.5755],[-61.22625,9.60097,24.1065],[-61.23651,9.63217,0.0],[-61.25835,9.64901,0.0],[-61.30567,9.68628,0.0],[-61.32508,9.7019,0.0],[-61.33782,9.71211,11.1471],[-61.3548,9.73133,8.8321],[-61.36997,9.74754,0.0],[-61.38574,9.76135,14.805],[-61.40214,9.77758,6.0512],[-61.42884,9.807,0.0],[-61.43917,9.81841,7.0808],[-61.45195,9.82505,11.0976],[-61.47083,9.82689,17.8038],[-61.48483,9.82992,20.3433],[-61.49944,9.84196,7.524],[-61.5031,9.83957,17.0358],[-61.48787,9.82333,15.1158],[-61.45804,9.81246,19.8709],[-61.45135,9.79445,26.92],[-61.42708,9.76384,0.0],[-61.42227,9.73626,16.1212],[-61.46112,9.78369,19.1083],[-61.4757,9.8017,0.0],[-61.5098,9.82578,0.0],[-61.5427,9.84686,19.917],[-61.58293,9.87216,0.0],[-61.61167,9.88728,0.0],[-61.62695,9.89453,0.0],[-61.63673,9.89877,0.0],[-61.66537,9.90014,4.3183],[-61.67097,9.8965,2.0425],[-61.66492,9.88504,19.9571],[-61.65145,9.87357,8.7009],[-61.63706,9.87035,2.2858],[-61.63473,9.86256,0.0],[-61.63334,9.85478,21.7302],[-61.61653,9.84418,22.8676],[-61.60924,9.83954,29.9332],[-61.60204,9.83674,25.9753],[-61.59118,9.82246,18.5061],[-61.57811,9.80882,20.7299],[-61.5738,9.79458,0.0],[-61.59252,9.78197,17.6394],[-61.66271,9.79743,0.0],[-61.67443,9.79873,0.0],[-61.75217,9.82316,0.0],[-61.7901,9.83067,0.0],[-61.8191,9.82964,15.2854],[-61.82817,9.82716,0.0],[-61.82382,9.82074,27.6708],[-61.82165,9.81289,25.7414],[-61.81515,9.80255,27.8065],[-61.79857,9.78095,10.2762],[-61.79735,9.77456,15.1233],[-61.78954,9.7696,0.0],[-61.76993,9.76484,6.3836],[-61.76317,9.76089,5.0289],[-61.75792,9.75031,9.0049],[-61.75329,9.72753,4.2344],[-61.74645,9.71678,8.1274],[-61.7401,9.71019,3.0079],[-61.73473,9.70303,6.6588],[-61.73103,9.69404,16.003],[-61.72964,9.68236,14.8045],[-61.73034,9.63886,0.7977],[-61.73424,9.6166,1.8569],[-61.74332,9.59638,17.3446],[-61.74865,9.68008,17.657],[-61.74332,9.69941,5.7897],[-61.75329,9.71377,12.9815],[-61.76549,9.73867,11.4176],[-61.7801,9.75922,16.9619],[-61.79735,9.76089,25.7292],[-61.81163,9.70624,4.8394],[-61.83894,9.65103,18.726],[-61.84577,9.65103,11.9471],[-61.8417,9.67194,0.5],[-61.82234,9.70848,30.6874],[-61.81192,9.73802,28.9433],[-61.81037,9.7482,27.8063],[-61.81477,9.75776,20.6937],[-61.8282,9.77106,8.9835],[-61.83072,9.77847,21.5808],[-61.83145,9.79194,0.0],[-61.84801,9.80385,20.4169],[-61.87676,9.82368,0.0],[-61.90697,9.86404,0.0],[-61.92498,9.87963,0.0]]],
[[[-62.2884,9.98802,21.1166],[-62.27392,9.98994,21.9549],[-62.25792,9.99429,23.0826],[-62.24519,10.00361,19.3379],[-62.23534,10.01386,15.0183],[-62.23062,10.02814,18.2782],[-62.23571,10.04426,0.0],[-62.24083,10.0515,12.6815],[-62.24938,10.05207,22.809],[-62.26757,10.04491,14.7315],[-62.28637,10.0244,19.5583],[-62.29857,9.99665,23.2202],[-62.298,9.98371,22.9651],[-62.2884,9.98802,21.1166]]]]}}