{"type": "Feature","bbox": [-63.9065,11.0675,-63.7249,11.219],"geometry": {"type": "MultiPolygon","coordinates": [[[[-63.8749,11.079,192.8129],[-63.8739,11.0734,77.2731],[-63.8388,11.0731,162.4263],[-63.8313,11.0702,106.0259],[-63.8296,11.0675,152.1603],[-63.8221,11.0689,11.3374],[-63.8288,11.0815,15.6478],[-63.8376,11.1043,0.0],[-63.844,11.1132,0.0],[-63.8446,11.116,6.5148],[-63.8426,11.1174,0.0],[-63.8446,11.1232,9.367],[-63.8413,11.1257,2.7276],[-63.8399,11.1251,0.0],[-63.8404,11.1271,0.0],[-63.8488,11.1326,0.5964],[-63.871,11.1554,0.0],[-63.8721,11.1604,3.5469],[-63.8771,11.1665,0.0],[-63.8751,11.1688,0.0],[-63.8779,11.1693,0.0],[-63.8804,11.1735,5.6766],[-63.8804,11.176,9.533],[-63.8782,11.1782,0.0],[-63.8804,11.1801,0.0],[-63.8818,11.1776,0.0],[-63.8893,11.1732,0.0],[-63.8885,11.169,0.0],[-63.8915,11.1679,0.0],[-63.8899,11.166,0.0],[-63.8918,11.1629,4.5419],[-63.8913,11.1582,4.4434],[-63.8932,11.1565,8.155],[-63.906,11.1546,13.9133],[-63.9065,11.1526,0.0],[-63.894,11.139,403.5715],[-63.8826,11.1329,112.9313],[-63.8755,11.122,78.4278],[-63.8763,11.1155,133.7186],[-63.8792,11.1129,186.344],[-63.8967,11.1033,225.4386],[-63.8902,11.097,151.6718],[-63.8765,11.0927,53.6498],[-63.8749,11.079,192.8129]]],
[[[-63.7526,11.211,0.0],[-63.7554,11.2115,0.0],[-63.7551,11.204,2.9564],[-63.7521,11.2032,0.0],[-63.7504,11.1999,0.0],[-63.7485,11.1993,1.8593],[-63.7476,11.2032,0.0],[-63.7526,11.211,0.0]]],
[[[-63.7679,11.219,0.0],[-63.7693,11.2165,0.0],[-63.764,11.2107,0.0],[-63.7651,11.2179,0.0],[-63.7665,11.2171,1.3581],[-63.7679,11.219,0.0]]],
[[[-63.7387,11.2032,0.0],[-63.7435,11.2024,0.0],[-63.7432,11.1987,0.0],[-63.734,11.1918,0.0],[-63.7329,11.1882,0.0],[-63.7287,11.1868,0.0],[-63.7279,11.191,0.0],[-63.729,11.191,0.0],[-63.7299,11.1951,0.0],[-63.7324,11.1976,0.0],[-63.7351,11.1979,0.0],[-63.7387,11.2032,0.0]]],
[[[-63.7315,11.2149,0.0],[-63.7326,11.214,0.0],[-63.7276,11.2085,0.0],[-63.7249,11.2085,0.0],[-63.7249,11.2138,0.0],[-63.7315,11.2149,0.0]]]]}
,"properties": {"GID_2": "VEN.18.1_1","GID_0": "VEN","country": "Venezuela","GID_1": "VEN.18_1","province": "NuevaEsparta","NL_NAME_1": "NA","county": "AntolíndelCampo","VARNAME_2": "NA","NL_NAME_2": "NA","TYPE_2": "Municipio","ENGTYPE_2": "Municipality","CC_2": "NA","HASC_2": "NA","name": "Antolíndel_Campo.county","area_km2": 48.99375,"hist_schema_id": "Elevation0-9000","hist_area_km2": {"0": 7.80089,"25": 14.29242,"50": 8.38414,"75": 4.2649,"100": 2.87109,"125": 1.93487,"150": 1.93487,"175": 1.45634,"200": 1.12346,"225": 0.8946,"250": 0.76978,"275": 0.70737,"300": 0.31207,"325": 0.37448,"350": 0.35368,"375": 0.24966,"400": 0.24966,"425": 0.24966,"450": 0.10403,"475": 0.12483,"500": 0.08322,"525": 0.10403,"550": 0.08322,"575": 0.08322,"600": 0.04161,"625": 0.06242,"650": 0.02081,"675": 0.06241}}}