{"type":"Feature","properties":{"GID_2":"VEN.19.3_1","GID_0":"VEN","country":"Venezuela","GID_1":"VEN.19_1","province":"Portuguesa","NL_NAME_1":"NA","county":"Esteller","VARNAME_2":"NA","NL_NAME_2":"NA","TYPE_2":"Municipio","ENGTYPE_2":"Municipality","CC_2":"NA","HASC_2":"NA","name":"Esteller.county"},
"geometry":{"type": "MultiPolygon","coordinates": [[[[-69.2939,9.4865,223.1195],[-69.2831,9.4744,209.868],[-69.2769,9.463,203.3917],[-69.2629,9.4438,190.9607],[-69.2553,9.4273,178.4613],[-69.254,9.4197,179.8881],[-69.257,9.4091,171.5373],[-69.2641,9.3993,169.1251],[-69.2653,9.3872,166.6687],[-69.2599,9.3318,152.3034],[-69.2532,9.3162,144.8806],[-69.2392,9.2975,139.4296],[-69.2357,9.2892,136.1124],[-69.2318,9.2612,128.4949],[-69.2277,9.2543,126.5972],[-69.2248,9.2452,123.5951],[-69.2242,9.2107,119.6743],[-69.2193,9.1951,115.1004],[-69.2163,9.1787,111.5298],[-69.2078,9.1632,108.6519],[-69.207,9.1449,116.8602],[-69.2049,9.133,111.7783],[-69.1875,9.0878,98.8177],[-69.1821,9.0827,97.7753],[-69.161,9.0743,96.51],[-69.1416,9.0636,93.6871],[-69.1374,9.0585,95.5386],[-69.1267,9.0326,90.9843],[-69.0964,9.0103,88.6601],[-69.0864,8.9938,87.9664],[-69.0801,8.9868,86.828],[-69.0656,8.9763,89.3363],[-69.0528,8.971,91.0253],[-69.0444,8.9612,88.3728],[-69.0387,8.9376,91.0871],[-69.0113,8.9427,83.0643],[-68.9991,8.9407,83.2179],[-68.966,8.9269,81.4608],[-68.9626,8.9468,83.6478],[-68.9629,8.9598,82.6802],[-68.9699,8.9753,82.0404],[-68.9791,8.9858,84.1529],[-69.0018,9.0034,86.3742],[-69.0248,9.0164,85.8943],[-69.0327,9.0226,87.0614],[-69.0466,9.0445,88.2458],[-69.059,9.0745,95.318],[-69.0591,9.0835,94.9775],[-69.0564,9.0939,94.0128],[-69.0516,9.1023,96.3817],[-69.0421,9.1102,96.4685],[-69.0383,9.1166,96.8014],[-69.0407,9.13,98.4816],[-69.0486,9.1446,101.234],[-69.0606,9.1453,101.0386],[-69.0712,9.1408,98.0258],[-69.0746,9.141,98.0337],[-69.0761,9.1435,99.5606],[-69.074,9.1524,99.6788],[-69.0677,9.1574,100.8904],[-69.0616,9.1679,102.4939],[-69.0601,9.1772,103.2441],[-69.0606,9.1949,104.5878],[-69.0632,9.2131,106.7413],[-69.064,9.2438,111.0714],[-69.0696,9.2491,112.751],[-69.0682,9.259,112.979],[-69.0714,9.2688,114.6058],[-69.0764,9.2748,115.8145],[-69.0952,9.2872,118.8247],[-69.104,9.2949,120.1749],[-69.1132,9.332,129.9509],[-69.1222,9.3553,130.3853],[-69.1238,9.3661,132.6039],[-69.135,9.4078,143.4713],[-69.1379,9.4306,145.4973],[-69.1415,9.444,149.7684],[-69.1453,9.4553,149.2975],[-69.1515,9.4666,155.2039],[-69.1654,9.4874,161.4092],[-69.177,9.516,174.5532],[-69.1827,9.5238,174.7902],[-69.19,9.528,177.3283],[-69.2205,9.5391,221.6502],[-69.2356,9.548,224.6449],[-69.28,9.5126,231.0359],[-69.2889,9.5,226.9721],[-69.2939,9.4865,223.1195]]]]}}