{"type":"Feature","properties":{"GID_2":"VEN.12.5_1","GID_0":"VEN","country":"Venezuela","GID_1":"VEN.12_1","province":"Falcón","NL_NAME_1":"NA","county":"Carirubana","VARNAME_2":"NA","NL_NAME_2":"NA","TYPE_2":"Municipio","ENGTYPE_2":"Municipality","CC_2":"NA","HASC_2":"NA","name":"Carirubana.county"},
"geometry":{"type": "MultiPolygon","coordinates": [[[[-70.2224,11.719,0.0],[-70.224,11.7185,0.0],[-70.2221,11.7179,0.0],[-70.2207,11.714,1.1168],[-70.2188,11.714,0.0],[-70.2182,11.7171,3.1727],[-70.2154,11.7185,0.3332],[-70.2121,11.7149,0.0],[-70.2146,11.7129,0.0],[-70.2113,11.7138,0.0],[-70.2099,11.7101,3.0693],[-70.2107,11.701,18.005],[-70.2135,11.6974,0.6634],[-70.2196,11.6957,4.0827],[-70.2218,11.6987,1.0418],[-70.2262,11.6979,0.0],[-70.224,11.6971,0.0],[-70.2229,11.6935,0.0],[-70.2213,11.6946,1.2338],[-70.2193,11.6932,2.3559],[-70.2185,11.6885,16.7678],[-70.2218,11.6871,0.0],[-70.2193,11.6871,16.7678],[-70.2132,11.6726,1.4824],[-70.2171,11.6718,0.0],[-70.2151,11.6665,18.8534],[-70.2224,11.661,0.0],[-70.2271,11.6468,23.9536],[-70.2324,11.6415,0.0],[-70.2324,11.6393,3.1799],[-70.2357,11.6354,19.5555],[-70.2357,11.6315,20.3231],[-70.2385,11.6313,0.0],[-70.2346,11.6279,1.4165],[-70.2382,11.6271,0.0],[-70.2385,11.6257,0.0],[-70.2343,11.6271,1.4165],[-70.2363,11.6237,0.0],[-70.2315,11.624,3.9667],[-70.2337,11.6199,0.0],[-70.2301,11.6215,0.0],[-70.2299,11.6179,0.0],[-70.2249,11.6182,1.9693],[-70.224,11.6107,0.0],[-70.2199,11.6062,0.0],[-70.2138,11.6074,2.1116],[-70.2074,11.604,1.0001],[-70.2004,11.6051,0.5248],[-70.1971,11.6038,0.9266],[-70.1899,11.606,0.9903],[-70.1843,11.6049,0.0],[-70.1779,11.6085,0.596],[-70.174,11.6082,0.0633],[-70.1621,11.6126,0.8066],[-70.1546,11.6138,0.6655],[-70.1524,11.6118,0.0],[-70.141,11.619,0.1702],[-70.1254,11.6165,0.0],[-70.124,11.6185,0.02],[-70.1093,11.6218,0.0],[-70.1093,11.6229,0.1871],[-70.101,11.6235,0.0],[-70.0871,11.6285,0.0],[-70.0832,11.6279,0.0],[-70.0835,11.6296,0.2523],[-70.0804,11.6315,0.0829],[-70.0757,11.6307,0.0457],[-70.0757,11.6324,-0.478],[-70.0596,11.6351,0.0],[-70.0563,11.6379,0.1097],[-70.0515,11.6388,0.0154],[-70.0532,11.6368,0.0],[-70.0524,11.6354,0.0],[-70.0429,11.6412,0.0548],[-70.0396,11.6396,0.0],[-70.0296,11.6451,-0.0163],[-70.024,11.6449,0.0],[-70.0163,11.6488,-0.0651],[-70.0126,11.6485,0.0],[-69.9982,11.6574,0.0271],[-69.986,11.6563,0.0],[-69.9785,11.6574,0.0],[-69.976,11.659,0.0],[-69.9762,11.6618,0.08],[-69.9746,11.6626,1.0338],[-69.9721,11.661,0.0],[-69.9687,11.6624,0.2133],[-69.9649,11.659,0.0],[-69.9607,11.666,0.1291],[-69.9574,11.666,0.1665],[-69.9554,11.6629,0.0065],[-69.9526,11.6635,0.0],[-69.949,11.6612,0.0137],[-69.9504,11.6632,0.1836],[-69.9499,11.6668,-0.0239],[-69.9393,11.6713,-0.2824],[-69.9388,11.6696,-0.0198],[-69.9393,11.6671,-0.0155],[-69.9332,11.6657,0.0],[-69.9326,11.6635,0.3032],[-69.9393,11.6632,0.0],[-69.9468,11.6599,0.0],[-69.9426,11.6576,0.1549],[-69.941,11.6549,0.0],[-69.9285,11.6535,0.349],[-69.9251,11.6479,0.2745],[-69.9204,11.6507,0.0],[-69.9121,11.6626,0.0],[-69.9099,11.6635,0.0609],[-69.9065,11.6621,0.6061],[-69.9035,11.6671,0.2214],[-69.8988,11.6687,0.0],[-69.8976,11.6721,0.1981],[-69.8921,11.6726,0.0],[-69.8974,11.6687,0.0],[-69.8968,11.6665,0.0],[-69.8868,11.6679,0.1925],[-69.8765,11.666,0.3281],[-69.8732,11.6676,1.0161],[-69.8715,11.6637,0.0619],[-69.8699,11.6637,0.0619],[-69.8626,11.6813,0.2728],[-69.8599,11.6838,0.6937],[-69.8515,11.6838,0.423],[-69.8437,11.6915,0.6833],[-69.841,11.6918,0.0856],[-69.8365,11.6879,0.1393],[-69.8299,11.6857,0.3331],[-69.8288,11.6804,0.0],[-69.8251,11.6774,0.3452],[-69.8215,11.6768,0.0],[-69.816,11.6799,0.0],[-69.8115,11.6876,0.0332],[-69.8096,11.6992,0.1516],[-69.8098,11.702,1.2302],[-69.8169,11.702,1.3211],[-69.8231,11.7308,13.2996],[-69.8406,11.7595,33.2032],[-69.8563,11.7816,100.4715],[-69.8605,11.7946,76.7931],[-69.8622,11.8326,62.8349],[-69.8531,11.8263,53.1168],[-69.8612,11.8628,24.3178],[-69.8669,11.9043,17.1322],[-69.9118,11.8715,71.9127],[-69.9205,11.8632,86.1623],[-69.9368,11.8411,130.6161],[-69.9565,11.8215,391.7239],[-69.9713,11.8151,124.8392],[-70.0112,11.8048,62.0665],[-70.0229,11.7985,69.5209],[-70.0407,11.7806,54.8529],[-70.0822,11.7577,23.9107],[-70.2085,11.7206,-0.5],[-70.2224,11.719,0.0]]]]}}