{"type": "Feature","bbox": [-64.1262,10.0295,-63.6928,10.364],"geometry": {"type": "MultiPolygon","coordinates": [[[[-63.9434,10.0724,1910.7931],[-63.8821,10.0851,1918.6735],[-63.8626,10.0913,1940.1343],[-63.8448,10.0997,1997.941],[-63.8321,10.1104,1699.4064],[-63.8112,10.1335,1296.0574],[-63.8041,10.1423,1066.4517],[-63.7772,10.185,1121.4141],[-63.7636,10.1963,969.7952],[-63.7429,10.2028,959.563],[-63.7032,10.2095,998.2236],[-63.6977,10.2191,814.0447],[-63.6928,10.2344,1167.8296],[-63.6943,10.245,1172.093],[-63.6998,10.26,958.1582],[-63.7158,10.2842,688.9185],[-63.7384,10.3262,597.6356],[-63.7501,10.3161,416.3888],[-63.7571,10.3123,424.5654],[-63.7894,10.3036,759.3986],[-63.7968,10.3052,804.9249],[-63.8088,10.3151,586.445],[-63.8247,10.3368,462.2446],[-63.8431,10.3571,445.1795],[-63.8498,10.3619,523.7557],[-63.8576,10.364,440.8266],[-63.8709,10.3633,316.2361],[-63.8755,10.3542,399.345],[-63.8843,10.3452,411.6804],[-63.8921,10.3392,637.6015],[-63.9006,10.3359,763.9512],[-63.9072,10.335,732.9759],[-63.9308,10.3402,943.6122],[-63.9914,10.3368,318.3695],[-63.9984,10.3396,287.1945],[-64.0088,10.3498,492.4522],[-64.0271,10.3571,360.4697],[-64.0415,10.3402,129.0539],[-64.0479,10.3205,402.1968],[-64.0559,10.3077,401.1274],[-64.0688,10.2795,583.7031],[-64.0899,10.2179,950.0443],[-64.1044,10.1946,1097.8378],[-64.1155,10.1866,628.7148],[-64.1262,10.1737,600.8593],[-64.1178,10.0295,1957.7565],[-64.0805,10.0383,1415.5452],[-64.0413,10.0583,1345.6787],[-63.9846,10.0639,1701.9701],[-63.9434,10.0724,1910.7931]]]]}
,"properties": {"GID_2": "VEN.20.12_1","GID_0": "VEN","country": "Venezuela","GID_1": "VEN.20_1","province": "Sucre","NL_NAME_1": "NA","county": "Montes","VARNAME_2": "NA","NL_NAME_2": "NA","TYPE_2": "Municipio","ENGTYPE_2": "Municipality","CC_2": "NA","HASC_2": "NA","name": "Montes.county","area_km2": 1102.8078,"hist_schema_id": "Elevation0-9000","hist_area_km2": {"125": 0.4589,"150": 1.6895,"175": 2.211,"200": 10.2635,"225": 23.6999,"250": 16.4398,"275": 13.2267,"300": 14.1859,"325": 14.1649,"350": 15.375,"375": 18.2332,"400": 20.6116,"425": 20.9454,"450": 22.364,"475": 23.0938,"500": 24.0121,"525": 21.9886,"550": 20.6537,"575": 19.611,"600": 16.8785,"625": 18.0261,"650": 16.5659,"675": 16.0445,"700": 17.2339,"725": 15.8567,"750": 15.3773,"775": 16.9216,"800": 16.7131,"825": 17.861,"850": 19.0924,"875": 19.7184,"900": 20.282,"925": 18.9258,"950": 19.1556,"975": 19.7817,"1000": 23.3706,"1025": 22.0564,"1050": 22.5571,"1075": 23.5378,"1100": 21.0549,"1125": 20.012,"1150": 17.5498,"1175": 14.9417,"1200": 14.3784,"1225": 13.5021,"1250": 13.4815,"1275": 11.875,"1300": 12.2716,"1325": 11.1657,"1350": 10.2057,"1375": 9.8511,"1400": 9.9555,"1425": 9.2461,"1450": 7.952,"1475": 9.3505,"1500": 8.9541,"1525": 8.6411,"1550": 8.8081,"1575": 8.7873,"1600": 7.7437,"1625": 8.3282,"1650": 8.8917,"1675": 7.8898,"1700": 8.2447,"1725": 7.4933,"1750": 8.1613,"1775": 7.3682,"1800": 7.7022,"1825": 7.2221,"1850": 7.6396,"1875": 6.7421,"1900": 7.2222,"1925": 6.9091,"1950": 7.4518,"1975": 6.9926,"2000": 6.3664,"2025": 5.8029,"2050": 5.448,"2075": 4.8009,"2100": 4.9471,"2125": 4.2373,"2150": 3.6529,"2175": 4.2582,"2200": 3.5485,"2225": 3.2145,"2250": 2.7345,"2275": 2.4005,"2300": 1.8578,"2325": 1.816,"2350": 1.0437,"2375": 0.9602,"2400": 0.6262,"2425": 0.5845,"2450": 0.3966,"2475": 0.2505,"2500": 0.2087,"2525": 0.2714,"2550": 0.1252,"2575": 0.0835}}}