{"type": "Feature","bbox": [-68.4,9.8593,-68.0609,10.1353],"geometry": {"type": "MultiPolygon","coordinates": [[[[-68.2502,10.1136,902.8822],[-68.2606,10.1137,851.3208],[-68.2705,10.1088,939.6066],[-68.2814,10.0738,800.875],[-68.2887,10.0561,705.9954],[-68.2985,10.0428,693.7239],[-68.3163,10.0313,708.3904],[-68.3201,10.0307,806.6216],[-68.3217,10.026,803.4658],[-68.3369,10.0197,560.3943],[-68.3586,10.016,728.2587],[-68.3823,10.0045,531.4087],[-68.4,9.9888,913.5712],[-68.3912,9.9805,704.4357],[-68.3867,9.958,587.1461],[-68.3833,9.9487,537.3809],[-68.3635,9.9387,441.7535],[-68.3451,9.9351,437.4274],[-68.3368,9.9316,425.6759],[-68.3227,9.923,428.2082],[-68.3013,9.9145,417.2549],[-68.2972,9.911,433.1246],[-68.295,9.9063,489.687],[-68.2965,9.901,489.8118],[-68.313,9.8791,432.6638],[-68.3131,9.8722,448.2603],[-68.3105,9.8685,432.3444],[-68.3011,9.8642,437.3547],[-68.2847,9.8669,445.4686],[-68.2722,9.8712,465.4716],[-68.2522,9.8707,650.7757],[-68.2326,9.8603,526.599],[-68.2248,9.8593,604.897],[-68.2062,9.8689,481.4838],[-68.1245,9.8774,453.4731],[-68.1047,9.8853,353.5],[-68.0775,9.9044,381.6977],[-68.0609,9.914,490.0404],[-68.0681,9.9215,436.5491],[-68.0824,9.9306,461.8518],[-68.0932,9.9419,505.3248],[-68.1029,9.9645,485.1466],[-68.1333,9.9791,485.7436],[-68.1451,9.988,482.5391],[-68.178,10.0082,478.8391],[-68.1947,10.0251,605.8997],[-68.1998,10.0401,686.6845],[-68.1978,10.0506,652.543],[-68.1915,10.0589,623.6802],[-68.1671,10.0824,574.7361],[-68.1583,10.0929,567.8262],[-68.152,10.111,595.5037],[-68.1533,10.1243,702.6069],[-68.1595,10.1328,781.6343],[-68.1689,10.1353,803.4472],[-68.1898,10.1339,738.5643],[-68.2244,10.1167,863.8253],[-68.2502,10.1136,902.8822]]]]}
,"properties": {"GID_2": "VEN.8.3_1","GID_0": "VEN","country": "Venezuela","GID_1": "VEN.8_1","province": "Cojedes","NL_NAME_1": "NA","county": "Falcón","VARNAME_2": "NA","NL_NAME_2": "NA","TYPE_2": "Municipio","ENGTYPE_2": "Municipality","CC_2": "NA","HASC_2": "NA","name": "Falcón.county","area_km2": 575.3087,"hist_schema_id": "Elevation0-9000","hist_area_km2": {"350": 12.0514,"375": 19.674,"400": 33.4785,"425": 59.3545,"450": 81.1557,"475": 56.8242,"500": 39.3858,"525": 33.2868,"550": 33.807,"575": 35.3085,"600": 35.8912,"625": 31.2342,"650": 23.7172,"675": 17.7451,"700": 14.1537,"725": 10.5629,"750": 8.3708,"775": 6.8886,"800": 5.2186,"825": 3.9243,"850": 2.9641,"875": 2.7345,"900": 1.6699,"925": 1.2942,"950": 1.2941,"975": 1.0854,"1000": 0.814,"1025": 0.5427,"1050": 0.4592,"1075": 0.2505,"1100": 0.0835,"1125": 0.0626,"1150": 0.0209}}}