{"type":"Feature","properties":{"GID_2":"VEN.8.5_1","GID_0":"VEN","country":"Venezuela","GID_1":"VEN.8_1","province":"Cojedes","NL_NAME_1":"NA","county":"LimaBlanco","VARNAME_2":"NA","NL_NAME_2":"NA","TYPE_2":"Municipio","ENGTYPE_2":"Municipality","CC_2":"NA","HASC_2":"NA","name":"Lima_Blanco.county"},
"geometry":{"type": "MultiPolygon","coordinates": [[[[-68.4287,9.7896,486.0655],[-68.4205,9.7881,365.3512],[-68.4044,9.7933,240.5959],[-68.3972,9.7895,243.1814],[-68.3806,9.7914,266.6568],[-68.3735,9.7943,262.2759],[-68.3626,9.8142,350.4633],[-68.3569,9.8161,347.9304],[-68.3412,9.8123,380.791],[-68.3351,9.8123,384.9475],[-68.317,9.8061,370.2805],[-68.3104,9.7981,313.92],[-68.3037,9.7833,478.2646],[-68.2957,9.7843,418.8853],[-68.2876,9.7829,393.411],[-68.2786,9.7862,362.6084],[-68.2549,9.7862,575.9413],[-68.2496,9.7881,626.7202],[-68.2392,9.7966,446.463],[-68.2148,9.8003,437.0629],[-68.2085,9.8677,490.3568],[-68.2248,9.8593,604.897],[-68.2326,9.8603,526.599],[-68.2522,9.8707,650.7757],[-68.2722,9.8712,465.4716],[-68.2847,9.8669,445.4686],[-68.3011,9.8642,437.3547],[-68.3105,9.8685,432.3444],[-68.3131,9.8722,448.2603],[-68.313,9.8791,432.6638],[-68.2965,9.901,489.8118],[-68.295,9.9063,489.687],[-68.2972,9.911,433.1246],[-68.3013,9.9145,417.2549],[-68.3227,9.923,428.2082],[-68.3368,9.9316,425.6759],[-68.3451,9.9351,437.4274],[-68.3635,9.9387,441.7535],[-68.3833,9.9487,537.3809],[-68.3867,9.958,587.1461],[-68.3912,9.9805,704.4357],[-68.4,9.9888,913.5712],[-68.4051,9.9662,560.2262],[-68.4159,9.9435,520.8528],[-68.4247,9.932,638.3485],[-68.4455,9.9176,636.7195],[-68.4504,9.9127,585.3726],[-68.4529,9.9035,509.1033],[-68.4483,9.8899,508.095],[-68.4413,9.8804,554.4181],[-68.4368,9.8755,617.0569],[-68.4176,9.8625,449.6886],[-68.4144,9.8582,446.92],[-68.4133,9.8516,394.2711],[-68.4192,9.8332,327.7076],[-68.4187,9.8089,273.2054],[-68.4258,9.7929,465.3356],[-68.4287,9.7896,486.0655]]]]}}