{"type": "Feature","bbox": [-67.5148,10.189,-67.3468,10.5374],"geometry": {"type": "MultiPolygon","coordinates": [[[[-67.347,10.304,1331.1033],[-67.3494,10.3178,1041.3853],[-67.3468,10.3448,1572.5342],[-67.3506,10.3548,1748.4866],[-67.3677,10.3665,1651.4436],[-67.3735,10.3745,1593.3158],[-67.3741,10.3784,1724.7505],[-67.3699,10.3815,1713.9985],[-67.3607,10.3837,2125.1689],[-67.3557,10.388,2293.3296],[-67.3545,10.3968,2058.79],[-67.3574,10.4042,1465.4803],[-67.3665,10.4172,1280.3518],[-67.3752,10.4387,847.1245],[-67.3951,10.478,508.5109],[-67.4007,10.5038,246.1901],[-67.4119,10.5351,28.7403],[-67.4201,10.5357,0.0],[-67.4326,10.5332,45.2847],[-67.4385,10.5354,9.1927],[-67.4388,10.5326,30.3841],[-67.4426,10.534,0.0],[-67.4443,10.531,13.3353],[-67.4501,10.5326,0.0],[-67.4587,10.5312,20.3842],[-67.4635,10.5357,0.0],[-67.4701,10.5374,0.0],[-67.4737,10.5324,42.29],[-67.4751,10.5351,17.128],[-67.4768,10.5351,0.0],[-67.486,10.5321,0.0],[-67.4871,10.5299,56.2802],[-67.489,10.531,4.882],[-67.4982,10.5304,43.7881],[-67.501,10.5276,61.1269],[-67.5104,10.5271,0.0],[-67.5148,10.5195,16.5228],[-67.5019,10.4961,180.272],[-67.5007,10.4858,529.7059],[-67.5014,10.4685,497.5493],[-67.5076,10.416,1408.8557],[-67.5074,10.4002,1470.8573],[-67.5048,10.3834,1230.6045],[-67.4798,10.3503,1459.1277],[-67.474,10.3399,1091.823],[-67.4696,10.3281,881.2231],[-67.4667,10.3136,746.3748],[-67.466,10.3,885.8392],[-67.4679,10.2838,674.6393],[-67.475,10.2585,528.4382],[-67.4782,10.2381,479.2505],[-67.4801,10.2313,475.2038],[-67.4918,10.2201,460.5051],[-67.4453,10.2131,473.6174],[-67.4448,10.1905,549.3578],[-67.4327,10.189,635.0368],[-67.4247,10.1898,555.0869],[-67.4054,10.1976,556.257],[-67.3936,10.208,538.3448],[-67.3955,10.2099,557.7133],[-67.3988,10.225,747.6598],[-67.3967,10.2353,720.3284],[-67.3841,10.2487,1042.2373],[-67.3704,10.2583,771.3738],[-67.3665,10.2639,809.1923],[-67.3615,10.2894,990.9291],[-67.3588,10.2956,1245.0607],[-67.347,10.304,1331.1033]]]]}
,"properties": {"GID_2": "VEN.4.13_1","GID_0": "VEN","country": "Venezuela","GID_1": "VEN.4_1","province": "Aragua","NL_NAME_1": "NA","county": "SantiagoMariño","VARNAME_2": "NA","NL_NAME_2": "NA","TYPE_2": "Municipio","ENGTYPE_2": "Municipality","CC_2": "NA","HASC_2": "NA","name": "Santiago_Mariño.county","area_km2": 462.2652,"hist_schema_id": "Elevation0-9000","hist_area_km2": {"0": 0.7296,"25": 1.3758,"50": 1.084,"75": 1.6677,"100": 1.7719,"125": 2.0846,"150": 1.9387,"175": 2.6267,"200": 2.6475,"225": 2.7518,"250": 2.8769,"275": 3.1688,"300": 3.1896,"325": 3.0646,"350": 3.148,"375": 3.0646,"400": 3.4816,"425": 3.4191,"450": 3.8986,"475": 14.9996,"500": 11.9324,"525": 9.8243,"550": 9.1566,"575": 8.4891,"600": 7.5925,"625": 7.8215,"650": 8.3848,"675": 8.1345,"700": 7.863,"725": 7.5501,"750": 8.134,"775": 9.0314,"800": 8.7185,"825": 8.8435,"850": 8.7393,"875": 9.4066,"900": 9.5316,"925": 8.9685,"950": 8.2593,"975": 8.2594,"1000": 8.0924,"1025": 7.1121,"1050": 7.675,"1075": 6.2774,"1100": 6.3402,"1125": 6.1524,"1150": 5.9855,"1175": 5.8813,"1200": 5.5893,"1225": 5.8604,"1250": 5.8395,"1275": 5.8812,"1300": 6.1523,"1325": 6.2982,"1350": 6.194,"1375": 6.0272,"1400": 5.6517,"1425": 5.2137,"1450": 5.6101,"1475": 5.1721,"1500": 5.464,"1525": 5.4224,"1550": 5.047,"1575": 4.6299,"1600": 4.8594,"1625": 4.2128,"1650": 4.3171,"1675": 3.6289,"1700": 3.608,"1725": 4.1503,"1750": 3.6289,"1775": 3.5455,"1800": 3.2118,"1825": 3.8583,"1850": 3.2952,"1875": 3.0657,"1900": 2.9823,"1925": 2.8155,"1950": 2.5652,"1975": 2.7529,"2000": 2.4609,"2025": 2.1481,"2050": 2.2107,"2075": 2.1689,"2100": 1.7518,"2125": 1.9604,"2150": 1.6476,"2175": 1.7101,"2200": 1.4807,"2225": 1.293,"2250": 1.2722,"2275": 1.2096,"2300": 1.001,"2325": 0.8133,"2350": 0.7091,"2375": 0.5422,"2400": 0.1668,"2425": 0.0209}}}