{"type":"Feature","properties":{"GID_2":"VEN.16.18_1","GID_0":"VEN","country":"Venezuela","GID_1":"VEN.16_1","province":"Miranda","NL_NAME_1":"NA","county":"SimónBolívar","VARNAME_2":"NA","NL_NAME_2":"NA","TYPE_2":"Municipio","ENGTYPE_2":"Municipality","CC_2":"NA","HASC_2":"NA","name":"Simón_Bolívar.county"},
"geometry":{"type": "MultiPolygon","coordinates": [[[[-66.8005,10.2324,321.699],[-66.7369,10.1818,145.2475],[-66.7044,10.1616,332.3103],[-66.6889,10.1494,219.2928],[-66.6833,10.1409,252.3452],[-66.6786,10.1168,279.2205],[-66.6751,10.1122,350.2543],[-66.6694,10.1089,297.0137],[-66.6604,10.1079,311.0839],[-66.6378,10.1126,488.3918],[-66.6352,10.1441,634.709],[-66.6367,10.1526,601.2658],[-66.6464,10.1703,343.7471],[-66.6482,10.1767,286.4347],[-66.6469,10.196,191.91309999999999],[-66.6495,10.2152,215.4753],[-66.6551,10.2259,165.6538],[-66.6617,10.2292,131.5129],[-66.6653,10.2293,124.2677],[-66.6787,10.2242,144.7829],[-66.6824,10.2271,141.8861],[-66.6919,10.2441,151.2944],[-66.7021,10.2501,171.5571],[-66.7125,10.2518,180.3899],[-66.7304,10.2519,237.7008],[-66.7372,10.2541,225.1449],[-66.7503,10.2654,237.9769],[-66.7624,10.2797,287.6681],[-66.7677,10.2782,286.2708],[-66.7692,10.2714,272.3737],[-66.773,10.2682,272.4598],[-66.7774,10.2675,300.7552],[-66.7828,10.26,280.5401],[-66.7861,10.2583,284.2439],[-66.8005,10.2324,321.699]]]]}}