{"type": "Feature","bbox": [-69.5576,8.0669,-68.4284,8.8211],"geometry": {"type": "MultiPolygon","coordinates": [[[[-68.4284,8.5106,60.6767],[-68.4529,8.5468,61.9769],[-68.495,8.5954,61.9305],[-68.5131,8.6124,63.3706],[-68.5393,8.6311,67.2072],[-68.5637,8.6446,77.6948],[-68.5785,8.6562,67.4207],[-68.6181,8.7104,68.0822],[-68.6439,8.731,69.0277],[-68.6765,8.7514,74.7032],[-68.6889,8.7636,70.5889],[-68.6941,8.7762,69.0348],[-68.6919,8.7886,71.5638],[-68.682,8.7956,71.1757],[-68.6376,8.8013,72.5372],[-68.6376,8.8086,73.5204],[-68.6391,8.8105,67.0061],[-68.6544,8.8155,67.1247],[-68.7009,8.8169,67.8428],[-68.7134,8.8142,68.5603],[-68.7437,8.8006,75.0734],[-68.7733,8.7789,74.1833],[-68.7834,8.7776,77.012],[-68.8071,8.7838,74.2869],[-68.8399,8.7811,75.4798],[-68.867,8.7754,77.8331],[-68.8952,8.7755,81.4052],[-68.9065,8.7779,82.3669],[-68.9283,8.7904,79.986],[-68.9475,8.7964,78.4041],[-68.9597,8.798,85.6134],[-69.0093,8.8166,83.8107],[-69.0292,8.8211,84.1111],[-69.0391,8.8199,85.7058],[-69.0531,8.8151,87.7133],[-68.9966,8.7149,89.5151],[-69.0162,8.7046,86.9841],[-69.0532,8.6884,82.3601],[-69.0777,8.6792,84.1456],[-69.0998,8.6738,85.5452],[-69.1253,8.6963,86.5422],[-69.137,8.7046,86.9693],[-69.1507,8.7111,87.8488],[-69.1804,8.718,89.5667],[-69.191,8.7226,90.3191],[-69.2351,8.7309,90.3107],[-69.2585,8.7323,91.4513],[-69.2911,8.7303,94.953],[-69.3619,8.7355,99.0762],[-69.3712,8.7312,97.1892],[-69.3807,8.7299,101.9979],[-69.3933,8.7321,96.6096],[-69.4086,8.7314,99.812],[-69.4369,8.7239,99.0707],[-69.4483,8.723,100.6217],[-69.4628,8.7301,101.8868],[-69.494,8.7339,104.4854],[-69.5189,8.7406,104.7895],[-69.5331,8.747,109.067],[-69.5477,8.7508,108.218],[-69.5576,8.7501,111.9115],[-69.5341,8.6994,111.8039],[-69.5195,8.679,105.4749],[-69.4767,8.6321,99.3912],[-69.4492,8.6143,98.0729],[-69.3897,8.5941,93.4199],[-69.3098,8.5602,90.3102],[-69.2298,8.5441,92.8781],[-69.1521,8.4792,82.4746],[-69.1354,8.4573,83.79],[-69.1242,8.4382,82.7126],[-69.1114,8.3914,79.1169],[-69.1117,8.3777,79.7553],[-69.1089,8.354,77.7473],[-69.0896,8.3264,76.73],[-69.0854,8.3071,76.4031],[-69.0839,8.2886,75.628],[-69.0807,8.2799,75.0375],[-69.0681,8.2691,79.9892],[-69.0479,8.2576,73.7421],[-69.0064,8.2385,81.6346],[-68.9871,8.2267,70.7924],[-68.9718,8.2122,82.2099],[-68.9686,8.2047,70.0786],[-68.9696,8.1875,70.0709],[-68.9684,8.1759,70.3997],[-68.9603,8.1652,71.2831],[-68.9213,8.138,69.2478],[-68.8617,8.0913,67.6775],[-68.8437,8.0797,67.4323],[-68.8196,8.0677,75.6686],[-68.8059,8.0669,66.3383],[-68.7992,8.0708,67.0748],[-68.7985,8.084,70.3138],[-68.8062,8.1238,66.4249],[-68.7993,8.144,65.4249],[-68.767,8.1978,69.8816],[-68.7429,8.2491,72.2544],[-68.7296,8.2596,64.7072],[-68.6865,8.2706,65.5493],[-68.6565,8.2839,63.1778],[-68.5714,8.3716,62.2365],[-68.5127,8.4405,63.0505],[-68.4862,8.468,65.6295],[-68.4284,8.5106,60.6767]]]]}
,"properties": {"GID_2": "VEN.19.5_1","GID_0": "VEN","country": "Venezuela","GID_1": "VEN.19_1","province": "Portuguesa","NL_NAME_1": "NA","county": "Guanarito","VARNAME_2": "NA","NL_NAME_2": "NA","TYPE_2": "Municipio","ENGTYPE_2": "Municipality","CC_2": "NA","HASC_2": "NA","name": "Guanarito.county","area_km2": 4654.407,"hist_schema_id": "Elevation0-9000","hist_area_km2": {"50": 62.256,"75": 3960.659,"100": 629.983,"125": 1.509}}}