{"type":"Feature","properties":{"GID_2":"VEN.4.17_1","GID_0":"VEN","country":"Venezuela","GID_1":"VEN.4_1","province":"Aragua","NL_NAME_1":"NA","county":"Urdaneta","VARNAME_2":"NA","NL_NAME_2":"NA","TYPE_2":"Municipio","ENGTYPE_2":"Municipality","CC_2":"NA","HASC_2":"NA","name":"Urdaneta.county"},
"geometry":{"type": "MultiPolygon","coordinates": [[[[-66.8681,9.6804,224.0101],[-66.867,9.6399,215.6578],[-66.8695,9.6243,215.732],[-66.8757,9.6069,198.9448],[-66.8898,9.5918,194.8963],[-66.9076,9.5802,187.4619],[-66.93,9.5723,190.7],[-66.9644,9.5635,177.3424],[-66.982,9.5482,186.132],[-67.0095,9.4985,182.6733],[-67.0112,9.4894,177.6075],[-67.0096,9.4769,194.8592],[-67.0022,9.4663,162.7043],[-66.9912,9.4594,158.5696],[-66.9734,9.4557,159.4316],[-66.956,9.449,171.7652],[-66.9378,9.437,173.577],[-66.8372,9.319,156.1047],[-66.7965,9.2824,158.417],[-66.7553,9.2481,146.9991],[-66.7393,9.2385,152.6315],[-66.7292,9.2354,144.1936],[-66.7124,9.2377,145.1885],[-66.6899,9.2608,148.2068],[-66.661,9.2979,155.9763],[-66.6175,9.3471,157.2721],[-66.6071,9.3685,160.0069],[-66.6004,9.3871,166.5327],[-66.5952,9.4284,178.5789],[-66.5882,9.4448,172.9716],[-66.5777,9.4864,181.8375],[-66.5961,9.5196,206.2585],[-66.5996,9.5384,209.1378],[-66.5965,9.5599,219.0171],[-66.5885,9.5881,224.9477],[-66.5863,9.6558,262.2427],[-66.6201,9.7014,270.6615],[-66.6322,9.7145,261.3258],[-66.6388,9.7286,280.2231],[-66.6386,9.7392,337.1805],[-66.6334,9.7486,281.8913],[-66.6389,9.7483,287.6964],[-66.6358,9.7591,306.2744],[-66.6318,9.7682,354.1516],[-66.6193,9.786,390.2662],[-66.6131,9.802,414.4815],[-66.6099,9.8206,419.9927],[-66.6104,9.8506,436.0738],[-66.6068,9.8822,701.9843],[-66.609,9.8956,668.3062],[-66.6155,9.9056,571.8021],[-66.6208,9.9176,594.1447],[-66.6228,9.9271,618.094],[-66.6177,9.956,824.9573],[-66.6183,9.9627,859.5634],[-66.6291,9.9847,715.6202],[-66.6356,9.9905,574.3062],[-66.6524,9.9913,693.1686],[-66.6629,9.9882,827.2014],[-66.6761,9.9874,694.6506],[-66.6851,9.9899,745.6223],[-66.6914,9.9991,617.1495],[-66.6977,9.8871,500.9228],[-66.6995,9.8164,658.7975],[-66.7016,9.8005,556.1498],[-66.7145,9.7828,338.3825],[-66.7241,9.7648,289.2996],[-66.732,9.7583,281.5305],[-66.7389,9.7559,271.9233],[-66.7866,9.7559,278.235],[-66.8037,9.7522,237.8581],[-66.8123,9.7457,236.1374],[-66.8167,9.7403,234.9202],[-66.8271,9.72,215.9096],[-66.8345,9.7144,217.3177],[-66.8445,9.6919,203.1012],[-66.8511,9.685,200.2122],[-66.8634,9.6804,205.9424],[-66.8681,9.6804,224.0101]]]]}}