{"type":"Feature","properties":{"GID_2":"VEN.13.5_1","GID_0":"VEN","country":"Venezuela","GID_1":"VEN.13_1","province":"Guárico","NL_NAME_1":"NA","county":"LasMercedes","VARNAME_2":"NA","NL_NAME_2":"NA","TYPE_2":"Municipio","ENGTYPE_2":"Municipality","CC_2":"NA","HASC_2":"NA","name":"Las_Mercedes.county"},
"geometry":{"type": "MultiPolygon","coordinates": [[[[-66.3033,7.555,33.3547],[-66.2791,7.5523,32.1426],[-66.2591,7.548,32.184],[-66.2409,7.5418,33.1024],[-66.2166,7.5407,31.3243],[-66.2009,7.5481,39.5665],[-66.1721,7.5741,39.9494],[-66.1583,7.5804,37.0971],[-66.1351,7.581,55.2051],[-66.1123,7.5735,32.8676],[-66.1207,7.6239,34.2378],[-66.1386,7.6478,28.3776],[-66.1473,7.6639,32.1891],[-66.1584,7.6912,29.8682],[-66.1609,7.7063,33.9344],[-66.1631,7.7596,33.4377],[-66.1609,7.7683,33.2025],[-66.1504,7.79,33.9568],[-66.1479,7.7999,34.3323],[-66.1491,7.8149,36.5145],[-66.1603,7.837,39.3368],[-66.1636,7.8501,41.1245],[-66.1635,7.8682,44.7721],[-66.1661,7.8892,44.1725],[-66.1855,7.9638,43.8481],[-66.1946,8.04,51.1935],[-66.2172,8.1604,55.6248],[-66.2253,8.2383,60.3577],[-66.2328,8.2714,63.1962],[-66.2293,8.2885,68.6476],[-66.2162,8.3157,74.3847],[-66.2138,8.3353,96.9302],[-66.2128,8.4197,83.9591],[-66.2156,8.4512,82.916],[-66.221,8.4863,112.7991],[-66.2259,8.5076,90.1232],[-66.2499,8.5741,91.4963],[-66.2548,8.5951,84.5022],[-66.2597,8.6219,84.8855],[-66.258,8.6658,87.172],[-66.26,8.6826,96.2368],[-66.278,8.7394,89.1482],[-66.2827,8.7586,90.5948],[-66.289,8.8025,107.7404],[-66.2963,8.8363,105.6585],[-66.2959,8.8546,115.252],[-66.2904,8.8739,109.6696],[-66.2626,8.925,114.22],[-66.2404,8.9698,121.5696],[-66.2549,8.9808,109.1325],[-66.334,9.0644,147.4549],[-66.3728,9.0902,155.0134],[-66.4687,9.1141,150.6112],[-66.5208,9.1356,155.3145],[-66.6132,9.1561,149.7049],[-66.6507,9.1732,158.2208],[-66.6607,9.1754,149.0304],[-66.6475,9.142,147.5152],[-66.6339,9.0964,147.7231],[-66.6252,9.0469,137.3417],[-66.6297,8.9093,161.4961],[-66.6381,8.8671,186.9782],[-66.6379,8.8033,134.3022],[-66.6402,8.7723,122.39],[-66.6461,8.708,130.0533],[-66.6533,8.6508,143.5265],[-66.6802,8.5207,109.6837],[-66.6897,8.4903,106.2412],[-66.7039,8.4294,84.0316],[-66.7087,8.3963,74.8475],[-66.7143,8.3269,63.4701],[-66.7096,8.3026,61.3139],[-66.702,8.2835,60.8787],[-66.6947,8.2546,55.6845],[-66.6945,8.2272,51.7634],[-66.6999,8.2038,49.5669],[-66.7271,8.1575,45.5441],[-66.7331,8.1387,44.8821],[-66.7355,8.123,43.2162],[-66.736,8.0981,41.6268],[-66.731,8.0441,36.7378],[-66.7314,7.9787,34.4328],[-66.7363,7.9473,40.5272],[-66.7557,7.9162,34.7449],[-66.764,7.8966,35.0234],[-66.7664,7.875,35.0432],[-66.7655,7.8656,35.109],[-66.7575,7.8626,35.0531],[-66.7195,7.859,35.1244],[-66.6996,7.8548,34.0104],[-66.6622,7.8357,32.8267],[-66.6317,7.8225,32.9611],[-66.6089,7.8058,31.7743],[-66.595,7.7855,32.9725],[-66.5699,7.8024,32.9032],[-66.5551,7.8026,32.7525],[-66.5353,7.7926,33.5225],[-66.5093,7.7693,34.8765],[-66.4994,7.7571,32.1579],[-66.472,7.7035,32.666],[-66.4411,7.6787,31.6864],[-66.404,7.6763,33.3204],[-66.3836,7.6726,32.6239],[-66.3633,7.6614,33.0075],[-66.356,7.6524,27.0],[-66.3438,7.6261,27.0],[-66.3326,7.6087,31.0046],[-66.3145,7.5977,33.0979],[-66.3192,7.5963,33.6798],[-66.3033,7.555,33.3547]]]]}}