{"type":"Feature","properties":{"GID_2":"VEN.25.16_1","GID_0":"VEN","country":"Venezuela","GID_1":"VEN.25_1","province":"Zulia","NL_NAME_1":"NA","county":"RosariodePerijá","VARNAME_2":"NA","NL_NAME_2":"NA","TYPE_2":"Municipio","ENGTYPE_2":"Municipality","CC_2":"NA","HASC_2":"NA","name":"Rosariode_Perijá.county"},
"geometry":{"type": "MultiPolygon","coordinates": [[[[-72.0001,9.9999,0.0],[-71.9999,9.9999,0.0],[-71.9999,10.0001,0.0],[-72.0001,10.0001,0.0],[-72.0001,9.9999,0.0]]],
[[[-72.8981,10.3628,3265.3535],[-72.8679,10.3559,2571.4541],[-72.8458,10.348,2182.0967],[-72.8198,10.3283,1730.8591],[-72.8107,10.3262,1615.7483],[-72.7994,10.327,1664.3109],[-72.7711,10.3328,1861.1538],[-72.7666,10.3267,1530.9121],[-72.7672,10.3048,1766.1292],[-72.7662,10.2972,1698.5193],[-72.7634,10.2926,1729.2322],[-72.7564,10.2893,1395.8276],[-72.737,10.2888,1499.5198],[-72.72,10.2839,1947.4753],[-72.7148,10.2797,2078.8044],[-72.7054,10.2636,1978.0486],[-72.6989,10.2575,1900.0],[-72.6691,10.254,1431.7749],[-72.6509,10.2555,1280.9167],[-72.6414,10.253,777.5479],[-72.6139,10.233,634.4164],[-72.5985,10.2179,543.1827],[-72.5913,10.2181,309.3671],[-72.5881,10.2268,271.138],[-72.5854,10.2529,439.1237],[-72.5791,10.2679,631.764],[-72.5741,10.2749,657.4769],[-72.566,10.2758,630.0936],[-72.5281,10.2632,156.6049],[-72.5097,10.2635,125.7145],[-72.5007,10.2579,119.2246],[-72.4737,10.2208,96.8051],[-72.451,10.1983,95.637],[-72.4311,10.172,74.1032],[-72.4037,10.144,66.1034],[-72.3907,10.1225,59.4273],[-72.3812,10.1136,69.583],[-72.3708,10.1068,71.5429],[-72.3553,10.092,54.8959],[-72.3343,10.0759,44.4642],[-72.3037,10.0617,47.4833],[-72.2856,10.0513,38.9601],[-72.2513,10.0172,28.8395],[-72.2388,9.9892,25.8947],[-72.2357,9.9858,24.5927],[-72.2246,9.98,28.1481],[-72.2128,9.9775,22.5574],[-72.181,9.9577,16.6223],[-72.1485,9.9433,10.9105],[-72.1306,9.9301,10.8937],[-72.1188,9.9122,6.7273],[-72.1001,9.8739,2.3147],[-72.0912,9.8644,1.0814],[-72.0813,9.8721,0.3593],[-72.0796,9.8782,0.0],[-72.0771,9.8793,0.0],[-72.0746,9.8849,0.0],[-72.0721,9.8862,0.9176],[-72.0687,9.8929,0.0],[-72.0615,9.901,1.4633],[-72.0604,9.9046,0.0],[-72.0515,9.9143,0.0],[-72.041,9.9329,0.8837],[-72.0279,9.9701,0.0],[-72.0237,9.9788,0.1725],[-72.0201,9.9807,1.4862],[-72.0143,9.9985,0.3637],[-72.0126,9.9993,0.6355],[-72.0126,10.0043,1.4416],[-72.011,10.0038,1.5881],[-72.0101,10.0076,1.0581],[-72.0082,10.0088,0.0],[-72.0076,10.0176,0.0],[-72.0046,10.0201,0.0],[-72.0032,10.0268,0.9158],[-71.9996,10.0335,0.985],[-71.999,10.0465,0.0],[-71.9901,10.0732,0.0],[-71.9788,10.0863,0.0],[-71.9729,10.0888,4.4892],[-71.9671,10.0949,6.7062],[-71.9632,10.0957,1.3051],[-71.9571,10.1015,0.619],[-71.961,10.1065,4.6286],[-71.9507,10.1026,1.3247],[-71.9454,10.1062,0.4345],[-71.9404,10.1054,0.0],[-71.9385,10.1065,0.0],[-71.9385,10.1068,0.0],[-71.9472,10.1064,2.6715],[-71.9537,10.1096,7.0145],[-72.0596,10.2453,19.6235],[-72.0914,10.2897,25.1378],[-72.1075,10.3089,30.6046],[-72.1555,10.3582,37.4247],[-72.1892,10.3862,44.8512],[-72.203,10.3956,48.7816],[-72.2169,10.4032,49.3031],[-72.2498,10.4164,52.4044],[-72.2777,10.4334,54.8706],[-72.2818,10.4397,57.6146],[-72.2833,10.4459,58.8464],[-72.2804,10.4722,63.7438],[-72.2824,10.48,62.8178],[-72.3088,10.5199,75.7802],[-72.3316,10.5421,83.9941],[-72.3424,10.5614,92.7251],[-72.3588,10.5756,99.7537],[-72.3718,10.5999,102.4114],[-72.3813,10.6127,143.2904],[-72.3944,10.6237,167.4888],[-72.4089,10.6318,515.535],[-72.4487,10.64,769.0243],[-72.465,10.6402,897.8768],[-72.4904,10.6343,479.792],[-72.5246,10.6392,704.5081],[-72.5357,10.6388,876.1039],[-72.5516,10.636,907.9871],[-72.6315,10.6058,1507.6216],[-72.6703,10.5875,668.0546],[-72.6832,10.5781,870.1538],[-72.7119,10.5435,714.4152],[-72.7356,10.4988,794.3579],[-72.7484,10.4593,1434.6934],[-72.7653,10.4319,1771.2908],[-72.7703,10.4307,1662.2788],[-72.7779,10.4498,1067.3127],[-72.7807,10.452,986.457],[-72.7845,10.4507,1140.4187],[-72.7968,10.4324,1180.9636],[-72.8035,10.4164,1370.9642],[-72.8039,10.3793,1905.3171],[-72.8062,10.3703,2182.5454],[-72.8115,10.3651,2512.4551],[-72.8203,10.365,2869.6357],[-72.8491,10.379,2851.1111],[-72.8617,10.3833,2872.2119],[-72.8776,10.3841,2605.4033],[-72.8834,10.3836,2578.3875],[-72.8906,10.3752,2934.9033],[-72.8981,10.3628,3265.3535]]]]}}