{"type": "Feature","bbox": [-71.7022,8.7057,-71.3889,9.0724],"geometry": {"type": "MultiPolygon","coordinates": [[[[-71.6136,8.7525,45.4135],[-71.5619,8.7912,38.4005],[-71.502,8.8421,23.2945],[-71.4507,8.8777,22.2237],[-71.4141,8.9091,22.5173],[-71.4057,8.9215,23.886],[-71.3933,8.9525,25.0546],[-71.3889,8.9595,24.7928],[-71.3935,8.9621,23.9133],[-71.4053,8.9633,21.49],[-71.411,8.9659,20.0552],[-71.4289,8.9875,13.18],[-71.4545,9.0006,4.4509],[-71.4641,9.0075,2.1055],[-71.5027,9.0423,1.301],[-71.5024,9.0435,1.301],[-71.5251,9.0407,0.7304],[-71.5454,9.0363,0.7763],[-71.5518,9.0371,0.5309],[-71.5537,9.0401,0.6011],[-71.556,9.0407,0.2491],[-71.5596,9.0368,1.7268],[-71.5646,9.036,1.3673],[-71.5732,9.036,1.268],[-71.5774,9.0379,0.0],[-71.5854,9.0374,0.0],[-71.5876,9.0357,0.8147],[-71.6079,9.0365,0.1443],[-71.6185,9.0399,0.3989],[-71.6162,9.0435,0.0],[-71.6179,9.0488,0.0],[-71.6176,9.0593,0.8358],[-71.621,9.0596,1.5932],[-71.6246,9.0624,2.7019],[-71.6246,9.0654,1.9314],[-71.6221,9.0676,1.5489],[-71.624,9.0724,0.0],[-71.6268,9.0704,1.0813],[-71.6301,9.0713,0.0],[-71.6343,9.0699,0.0],[-71.6354,9.066,0.0],[-71.6404,9.0635,0.6892],[-71.654,9.0654,0.8836],[-71.6593,9.0704,0.0],[-71.6668,9.0704,0.0],[-71.6726,9.0668,0.0],[-71.6813,9.003,4.3953],[-71.6775,8.984,4.8025],[-71.6794,8.9689,5.8933],[-71.6794,8.9043,15.051],[-71.6851,8.8872,16.3663],[-71.6908,8.8815,19.3876],[-71.6965,8.8796,20.4863],[-71.7003,8.8701,24.3992],[-71.7022,8.8454,28.8703],[-71.7022,8.8246,31.8075],[-71.6889,8.7809,36.8495],[-71.6836,8.7057,52.7885],[-71.6136,8.7525,45.4135]]]]}
,"properties": {"GID_2": "VEN.25.6_1","GID_0": "VEN","country": "Venezuela","GID_1": "VEN.25_1","province": "Zulia","NL_NAME_1": "NA","county": "FranciscoJavierPulgar","VARNAME_2": "NA","NL_NAME_2": "NA","TYPE_2": "Municipio","ENGTYPE_2": "Municipality","CC_2": "NA","HASC_2": "NA","name": "Francisco_Javier_Pulgar.county","area_km2": 778.8477,"hist_schema_id": "Elevation0-9000","hist_area_km2": {"0": 375.962,"25": 352.9914,"50": 49.8943}}}