{"type":"Feature","properties":{"GID_2":"VEN.3.3_1","GID_0":"VEN","country":"Venezuela","GID_1":"VEN.3_1","province":"Apure","NL_NAME_1":"NA","county":"Muñoz","VARNAME_2":"NA","NL_NAME_2":"NA","TYPE_2":"Municipio","ENGTYPE_2":"Municipality","CC_2":"NA","HASC_2":"NA","name":"Muñoz.county"},
"geometry":{"type": "MultiPolygon","coordinates": [[[[-68.8007,7.8501,67.3216],[-68.8276,7.8564,66.4025],[-68.8395,7.8571,66.6084],[-68.8625,7.8547,68.1164],[-68.898,7.8709,68.2088],[-68.9058,7.8771,67.9898],[-68.9386,7.8962,68.7176],[-68.9552,7.9168,68.7867],[-68.9612,7.9365,71.7561],[-68.9652,7.9655,69.456],[-68.9706,7.9706,69.6717],[-68.9797,7.973,69.8011],[-69.0123,7.9734,71.9338],[-69.0316,7.979,77.3968],[-69.0411,7.9736,73.6919],[-69.0437,7.9631,74.5584],[-69.0562,7.9632,73.5872],[-69.0662,7.9662,73.1311],[-69.0858,7.9768,81.2557],[-69.0955,7.9797,74.1983],[-69.117,7.981,74.9132],[-69.1258,7.9836,76.0969],[-69.1318,7.9885,72.7725],[-69.1348,7.9932,73.2316],[-69.135,7.999,75.9916],[-69.1337,8.0029,75.1202],[-69.1275,8.0104,84.506],[-69.125,8.0181,75.3836],[-69.1252,8.0387,77.9572],[-69.1281,8.0471,75.5672],[-69.1314,8.0524,84.8198],[-69.1389,8.0568,75.7951],[-69.1459,8.0575,76.3066],[-69.1535,8.0607,75.5909],[-69.1785,8.0754,76.0035],[-69.1882,8.0787,79.7465],[-69.229,8.078,77.797],[-69.2432,8.0816,76.1814],[-69.2863,8.087,77.4278],[-69.3005,8.0875,79.251],[-69.3239,8.0855,78.7744],[-69.3328,8.082,80.5615],[-69.3454,8.0642,76.0],[-69.3594,8.0595,79.1136],[-69.3681,8.0617,79.5035],[-69.3762,8.0679,81.3876],[-69.388,8.074,88.0526],[-69.4075,8.0803,81.0447],[-69.4129,8.0884,87.5075],[-69.4189,8.0932,82.9865],[-69.4337,8.0992,83.9451],[-69.4515,8.1001,91.1772],[-69.4637,8.0931,89.5635],[-69.4784,8.0664,82.0456],[-69.4908,8.0497,82.1318],[-69.512,8.0407,82.7306],[-69.5291,8.04,83.7306],[-69.5487,8.0351,89.6543],[-69.5658,8.0243,92.1599],[-69.5755,8.0098,85.9679],[-69.5887,7.9668,85.4945],[-69.5923,7.9611,87.1416],[-69.6007,7.9548,86.0848],[-69.6237,7.9471,86.0265],[-69.6389,7.9398,86.3799],[-69.6659,7.9131,87.3715],[-69.7079,7.8807,87.6757],[-69.7374,7.8684,89.1136],[-69.7481,7.8557,88.5719],[-69.7583,7.8369,89.5465],[-69.7723,7.8176,91.2706],[-69.7882,7.8073,94.0973],[-69.851,7.7924,97.7831],[-69.8736,7.7805,93.9107],[-69.9186,7.7503,95.4889],[-69.9271,7.7395,95.99],[-69.9359,7.7181,96.1083],[-69.9269,7.7214,96.4263],[-69.9221,7.7297,96.1787],[-69.8889,7.6994,97.0224],[-69.8218,7.6246,94.3377],[-69.7693,7.5688,94.0377],[-69.7141,7.5148,91.4988],[-69.6854,7.4827,91.1731],[-69.6763,7.4624,91.3655],[-69.631,7.3185,92.6055],[-69.6124,7.3019,91.8855],[-69.5633,7.2458,96.6173],[-69.5324,7.2028,92.1449],[-69.5163,7.1776,89.725],[-69.4876,7.1439,88.519],[-69.482,7.1407,88.2446],[-69.4748,7.1396,91.504],[-69.4642,7.1462,87.635],[-69.4497,7.1605,92.8087],[-69.4433,7.1626,91.8304],[-69.4248,7.1603,89.2844],[-69.3561,7.1416,84.7418],[-69.2896,7.1268,82.8077],[-69.2483,7.1155,85.9601],[-69.1918,7.1043,81.7071],[-69.1701,7.0983,87.8703],[-69.1622,7.0983,84.3418],[-69.1496,7.1048,80.681],[-69.1445,7.1102,79.9899],[-69.1359,7.1243,86.4278],[-69.1201,7.1409,85.8815],[-69.1006,7.1546,79.0233],[-69.0692,7.1726,77.3941],[-69.0416,7.1822,78.7467],[-69.0288,7.191,78.409],[-69.0205,7.2009,82.971],[-69.0139,7.2132,75.3522],[-68.9786,7.2576,80.9655],[-68.96,7.2754,80.7295],[-68.9495,7.2821,73.5943],[-68.9342,7.2866,73.0608],[-68.8049,7.8277,66.852],[-68.8007,7.8501,67.3216]]]]}}