{"type":"Feature","properties":{"GID_2":"VEN.12.22_1","GID_0":"VEN","country":"Venezuela","GID_1":"VEN.12_1","province":"Falcón","NL_NAME_1":"NA","county":"Tocópero","VARNAME_2":"NA","NL_NAME_2":"NA","TYPE_2":"Municipio","ENGTYPE_2":"Municipality","CC_2":"NA","HASC_2":"NA","name":"Tocópero.county"},
"geometry":{"type": "MultiPolygon","coordinates": [[[[-69.1358,11.4913,11.826599999999999],[-69.1426,11.4901,25.7693],[-69.1504,11.4929,1.2503],[-69.1537,11.4913,4.8247],[-69.1626,11.4951,6.6732],[-69.1765,11.5085,27.6756],[-69.1826,11.5107,1.0268],[-69.1965,11.5093,4.5962],[-69.2021,11.5026,1.3491],[-69.2074,11.5032,6.2769],[-69.2215,11.511,0.0],[-69.2229,11.5085,10.3477],[-69.226,11.5085,12.2057],[-69.2382,11.5146,21.1407],[-69.2496,11.5224,4.53],[-69.2543,11.5279,0.0],[-69.266,11.5346,2.6098],[-69.2751,11.5329,11.1456],[-69.2824,11.534,0.0],[-69.2874,11.5257,0.9525],[-69.2943,11.5254,4.3037],[-69.3001,11.5201,4.0592],[-69.3112,11.5149,4.9142],[-69.308,11.5028,53.8023],[-69.307,11.4867,148.7211],[-69.3013,11.4791,169.2757],[-69.288,11.4734,216.6793],[-69.2738,11.4696,94.0882],[-69.2174,11.4629,7.8621],[-69.216,11.4679,8.1748],[-69.1895,11.4455,185.287],[-69.1714,11.4402,68.763],[-69.1462,11.4413,51.7992],[-69.1434,11.4594,38.6458],[-69.1377,11.4641,11.6541],[-69.1347,11.4719,12.5166],[-69.1358,11.4913,11.826599999999999]]]]}}