{"type": "Feature","bbox": [-68.9292,10.1524,-68.6887,10.3582],"geometry": {"type": "MultiPolygon","coordinates": [[[[-68.8825,10.3582,1397.614],[-68.9101,10.3573,994.7729],[-68.9213,10.3459,560.4846],[-68.913,10.3456,810.6677],[-68.9103,10.3439,1024.4529],[-68.9076,10.3357,909.7775],[-68.9096,10.3264,989.0687],[-68.9152,10.316,1107.936],[-68.9269,10.3014,1083.0435],[-68.9292,10.2929,1201.2502],[-68.9287,10.2843,1448.4434],[-68.9146,10.2714,1030.5745],[-68.9089,10.263,1015.4235],[-68.8968,10.2345,474.1133],[-68.893,10.2288,434.2259],[-68.8726,10.2079,322.3367],[-68.8524,10.1921,268.1222],[-68.8438,10.1767,240.9739],[-68.84,10.1638,229.7827],[-68.807,10.1555,201.5],[-68.7867,10.1524,400.9474],[-68.7722,10.153,387.5618],[-68.7606,10.1558,343.4322],[-68.7514,10.1623,362.8266],[-68.7354,10.1825,373.444],[-68.7247,10.1907,337.7608],[-68.7147,10.1969,610.7012],[-68.6887,10.2063,546.4225],[-68.7362,10.2444,156.2863],[-68.7443,10.2533,174.6185],[-68.746,10.258,180.3144],[-68.7582,10.2549,197.8357],[-68.7797,10.2542,240.5575],[-68.7888,10.2563,264.3066],[-68.7942,10.26,283.3291],[-68.8111,10.2922,424.5948],[-68.8327,10.3136,654.8558],[-68.8533,10.34,1156.7413],[-68.862,10.3474,1578.3463],[-68.8825,10.3582,1397.614]]]]}
,"properties": {"GID_2": "VEN.24.3_1","GID_0": "VEN","country": "Venezuela","GID_1": "VEN.24_1","province": "Yaracuy","NL_NAME_1": "NA","county": "Bruzual","VARNAME_2": "NA","NL_NAME_2": "NA","TYPE_2": "Municipio","ENGTYPE_2": "Municipality","CC_2": "NA","HASC_2": "NA","name": "Bruzual.county","area_km2": 285.9014,"hist_schema_id": "Elevation0-9000","hist_area_km2": {"125": 0.1461,"150": 13.2912,"175": 17.9238,"200": 22.0145,"225": 21.3885,"250": 17.9033,"275": 15.4824,"300": 14.4181,"325": 16.046,"350": 18.571,"375": 12.7487,"400": 9.6604,"425": 7.8866,"450": 7.4692,"475": 6.3633,"500": 5.0071,"525": 4.2977,"550": 3.2545,"575": 2.4408,"600": 2.2113,"625": 1.4186,"650": 1.4603,"675": 1.3142,"700": 1.1891,"725": 1.502,"750": 1.356,"775": 1.3977,"800": 1.4602,"825": 1.6689,"850": 1.7314,"875": 1.3351,"900": 1.3559,"925": 1.7105,"950": 1.94,"975": 1.4394,"1000": 1.8982,"1025": 2.0651,"1050": 2.1068,"1075": 2.2946,"1100": 2.0443,"1125": 2.3154,"1150": 2.2945,"1175": 2.2946,"1200": 2.6909,"1225": 2.5866,"1250": 2.2111,"1275": 2.0442,"1300": 2.0442,"1325": 1.627,"1350": 1.5019,"1375": 2.0025,"1400": 1.5227,"1425": 1.3141,"1450": 1.3141,"1475": 1.5435,"1500": 1.2515,"1525": 0.8343,"1550": 0.7509,"1575": 0.7926,"1600": 0.7092,"1625": 0.4172,"1650": 0.5006,"1675": 0.1251}}}