{"type": "Feature","bbox": [-70.8611,9.8051,-69.5987,10.5583],"geometry": {"type": "MultiPolygon","coordinates": [[[[-70.4916,10.4389,775.2299],[-70.516,10.4007,713.4095],[-70.5293,10.3668,1009.7828],[-70.5395,10.354,1012.8468],[-70.5594,10.3503,1113.7965],[-70.5726,10.3504,907.6199],[-70.5908,10.3459,1137.183],[-70.6149,10.3358,1753.1809],[-70.6313,10.3262,1998.4895],[-70.649,10.3106,1522.9012],[-70.6599,10.2986,1714.1699],[-70.6686,10.2847,1597.7574],[-70.6863,10.2532,1156.6685],[-70.7032,10.1989,1281.0929],[-70.7159,10.1828,1046.0007],[-70.7329,10.1698,1258.8795],[-70.7744,10.1474,558.6105],[-70.838,10.108,596.3786],[-70.8544,10.092,430.321],[-70.8608,10.0779,244.4401],[-70.8611,10.0566,215.1186],[-70.855,10.038,296.9418],[-70.843,10.0207,346.0982],[-70.8082,9.9809,228.7979],[-70.7899,9.9647,329.2535],[-70.7699,9.9549,545.4628],[-70.7331,9.9427,497.45],[-70.7217,9.9345,626.5038],[-70.712,9.9237,643.8486],[-70.6957,9.9098,825.4392],[-70.6805,9.9016,875.3075],[-70.662,9.9007,622.0124],[-70.6622,9.9364,657.3073],[-70.6577,9.9563,644.6635],[-70.6475,9.9804,679.9208],[-70.6303,10.0148,975.9438],[-70.6173,10.0317,911.0927],[-70.6098,10.0364,762.4523],[-70.6002,10.0362,724.7252],[-70.587,10.0323,666.9778],[-70.5747,10.0261,737.9922],[-70.5642,10.0176,735.0226],[-70.563,10.0095,830.6788],[-70.5635,9.9902,814.991],[-70.5579,9.9776,858.5743],[-70.5397,9.9579,1032.0162],[-70.5299,9.9356,1201.4476],[-70.5217,9.9273,960.0598],[-70.4924,9.9177,1088.1987],[-70.4583,9.8914,893.1656],[-70.4497,9.8912,835.8896],[-70.4356,9.8977,772.8566],[-70.4258,9.906,1015.931],[-70.4106,9.9155,819.8458],[-70.3635,9.923,913.2793],[-70.3528,9.9229,831.3176],[-70.3327,9.8844,972.8935],[-70.3258,9.8751,932.1946],[-70.3204,9.8748,842.4757],[-70.297,9.879,774.938],[-70.2827,9.8746,918.8146],[-70.2778,9.8681,873.5964],[-70.2625,9.8356,679.9144],[-70.2512,9.8232,574.998],[-70.2458,9.8211,522.4526],[-70.238,9.8214,513.0015],[-70.2337,9.826,505.4347],[-70.2276,9.8523,487.1939],[-70.2228,9.8642,479.5138],[-70.2148,9.8688,499.8202],[-70.2041,9.8664,481.7022],[-70.1903,9.8555,491.8471],[-70.1544,9.8185,820.7366],[-70.1392,9.811,1167.4829],[-70.1085,9.8094,1330.9879],[-70.0978,9.8051,1258.5627],[-70.087,9.8146,1374.5538],[-70.0828,9.8244,1446.9667],[-70.0794,9.8387,1761.4873],[-70.0749,9.8816,1301.4457],[-70.0713,9.8909,1218.2208],[-70.0485,9.9183,1556.1553],[-70.025,9.9365,1423.7418],[-70.0131,9.943,1138.6836],[-70.0012,9.9469,1101.1107],[-69.993,9.9476,1314.1417],[-69.9885,9.9458,1314.4318],[-69.9868,9.9399,1284.2366],[-69.9878,9.916,885.5138],[-69.9813,9.9118,717.6022],[-69.9734,9.9116,706.0734],[-69.9359,9.921,1234.9041],[-69.9285,9.9258,1456.3997],[-69.9219,9.9353,1563.291],[-69.9186,9.9446,1241.0809],[-69.918,9.953,1024.1436],[-69.9251,9.971,694.3105],[-69.9231,9.9773,656.228],[-69.914,9.9862,645.8208],[-69.8911,9.9918,706.5013],[-69.8702,9.9913,958.355],[-69.8613,9.9943,802.4415],[-69.8472,10.0094,843.3335],[-69.8326,10.0317,628.7053],[-69.8157,10.0502,500.0],[-69.806,10.0576,562.7],[-69.7972,10.0588,571.0941],[-69.7903,10.056,558.892],[-69.7813,10.049,582.8901],[-69.7737,10.0497,588.0697],[-69.7521,10.0628,589.939],[-69.7299,10.0724,577.2246],[-69.723,10.08,634.0044],[-69.7095,10.1137,636.2532],[-69.7029,10.1243,710.5215],[-69.686,10.139,737.9695],[-69.6668,10.171,1001.551],[-69.6472,10.1864,885.5824],[-69.6303,10.1943,884.6849],[-69.6381,10.2103,816.8612],[-69.6376,10.2289,776.8362],[-69.6398,10.2362,779.931],[-69.6439,10.2413,788.9265],[-69.6579,10.2513,882.645],[-69.6626,10.2566,1023.5369],[-69.6649,10.2628,876.624],[-69.6646,10.2846,814.2554],[-69.6626,10.2952,739.4053],[-69.6597,10.3014,731.0878],[-69.6543,10.3071,712.4734],[-69.6336,10.3411,748.5637],[-69.6316,10.3491,658.0365],[-69.6263,10.3575,654.7324],[-69.6194,10.3643,651.4495],[-69.599,10.4034,568.3123],[-69.5987,10.4205,572.7689],[-69.6059,10.4452,597.6262],[-69.618,10.439,629.6149],[-69.6309,10.4432,712.2305],[-69.6434,10.4521,994.8513],[-69.6436,10.457,1013.9034],[-69.6387,10.4675,834.8703],[-69.6401,10.4742,873.7693],[-69.6448,10.48,925.46489999999994],[-69.6502,10.4827,962.5742],[-69.6909,10.4921,919.7805],[-69.7333,10.4985,585.5948],[-69.7611,10.5056,592.8373],[-69.7764,10.5051,593.668],[-69.7851,10.5005,512.0661],[-69.817,10.4699,570.4686],[-69.8282,10.4613,630.2845],[-69.8695,10.4455,661.83],[-69.9277,10.4372,682.3768],[-69.933,10.4404,790.4227],[-69.94,10.4636,1075.4424],[-69.9464,10.47,1174.2279],[-69.9559,10.472,1119.4192],[-69.9703,10.468,1083.5972],[-70.002,10.4489,1095.6134],[-70.0116,10.4477,1127.464],[-70.0446,10.4497,1023.4169],[-70.0533,10.4477,908.2147],[-70.0614,10.443,918.1569],[-70.0713,10.4401,1100.5237],[-70.092,10.4441,925.0151],[-70.1225,10.4625,755.0355],[-70.1306,10.4715,719.3906],[-70.1691,10.5375,747.2452],[-70.178,10.5505,603.8588],[-70.1832,10.5548,607.8263],[-70.1909,10.558,664.0175],[-70.2033,10.5579,681.8892],[-70.2156,10.5558,705.5722],[-70.2539,10.5425,653.1945],[-70.2786,10.5408,701.1272],[-70.300299999999993,10.5522,858.3691],[-70.3278,10.5583,838.0679],[-70.3541,10.5453,915.6099],[-70.3611,10.5388,904.2327],[-70.3785,10.4936,962.8588],[-70.391,10.481,1047.8594],[-70.4055,10.4754,1076.1317],[-70.4597,10.4677,1031.6853],[-70.4742,10.4598,934.1133],[-70.4855,10.4484,926.2021],[-70.4916,10.4389,775.2299]]]]}
,"properties": {"GID_2": "VEN.14.8_1","GID_0": "VEN","country": "Venezuela","GID_1": "VEN.14_1","province": "Lara","NL_NAME_1": "NA","county": "Torres","VARNAME_2": "NA","NL_NAME_2": "NA","TYPE_2": "Municipio","ENGTYPE_2": "Municipality","CC_2": "NA","HASC_2": "NA","name": "Torres.county","area_km2": 6948.873,"hist_schema_id": "Elevation0-9000","hist_area_km2": {"200": 0.501,"225": 2.735,"250": 6.765,"275": 10.418,"300": 12.819,"325": 17.472,"350": 24.126,"375": 63.799,"400": 206.487,"425": 596.15,"450": 588.472,"475": 474.957,"500": 407.333,"525": 344.034,"550": 336.806,"575": 316.049,"600": 322.013,"625": 314.491,"650": 289.541,"675": 256.145,"700": 248.114,"725": 231.96,"750": 206.056,"775": 183.139,"800": 167.067,"825": 153.082,"850": 143.544,"875": 129.207,"900": 116.206,"925": 106.876,"950": 94.585,"975": 84.614,"1000": 75.621,"1025": 65.672,"1050": 58.184,"1075": 45.376,"1100": 40.517,"1125": 32.111,"1150": 27.417,"1175": 22.953,"1200": 18.865,"1225": 16.132,"1250": 12.836,"1275": 10.999,"1300": 8.808,"1325": 7.389,"1350": 7.306,"1375": 6.429,"1400": 5.323,"1425": 4.551,"1450": 2.798,"1475": 3.048,"1500": 3.194,"1525": 2.171,"1550": 2.463,"1575": 2.004,"1600": 1.628,"1625": 1.127,"1650": 1.273,"1675": 0.709,"1700": 0.772,"1725": 0.688,"1750": 0.668,"1775": 0.668,"1800": 0.73,"1825": 0.542,"1850": 0.459,"1875": 0.459,"1900": 0.48,"1925": 0.25,"1950": 0.188,"1975": 0.271,"2025": 0.063,"2050": 0.104}}}