{"type": "Feature","bbox": [-70.6689,8.6051,-70.3332,9.0656],"geometry": {"type": "MultiPolygon","coordinates": [[[[-70.3332,8.8001,463.9554],[-70.3354,8.8148,583.9492],[-70.3392,8.8254,650.964],[-70.3482,8.8411,916.9029],[-70.3624,8.8412,848.2856],[-70.3766,8.8448,963.449],[-70.401,8.8554,1267.0288],[-70.4173,8.8669,744.1177],[-70.422,9.0656,2711.4688],[-70.4459,9.0654,2303.9231],[-70.4632,9.0579,2162.5088],[-70.5498,8.9915,3412.4438],[-70.5606,8.9704,3359.1274],[-70.5772,8.9021,1697.399],[-70.5887,8.8854,1908.9724],[-70.6128,8.8571,2080.1646],[-70.6236,8.8288,2639.439],[-70.635,8.8064,2757.1628],[-70.6416,8.7792,2184.6929],[-70.6494,8.7615,2029.3689],[-70.6607,8.7476,2384.062],[-70.6689,8.7417,2875.335],[-70.6527,8.7313,2838.0762],[-70.6454,8.7238,2020.2926],[-70.6354,8.7115,2496.9351],[-70.6122,8.6753,856.0431],[-70.5937,8.6537,740.9309],[-70.5739,8.637,481.1268],[-70.5587,8.628,394.595],[-70.5392,8.6224,326.6052],[-70.5192,8.6272,339.064],[-70.5072,8.6356,275.7499],[-70.4979,8.638,331.7261],[-70.4846,8.6346,298.4412],[-70.4518,8.6151,323.3576],[-70.4447,8.6077,409.9114],[-70.4438,8.6051,433.4073],[-70.4445,8.6696,302.6749],[-70.4423,8.6836,310.842],[-70.4428,8.6968,313.0322],[-70.4452,8.7011,320.5724],[-70.4575,8.7064,433.8933],[-70.4605,8.71,408.1331],[-70.4627,8.7166,548.1013],[-70.4631,8.7242,657.087],[-70.459,8.7325,487.444],[-70.4495,8.7402,601.1154],[-70.4418,8.7489,580.3646],[-70.438,8.7646,695.2582],[-70.4321,8.7746,601.3051],[-70.4273,8.7785,568.354],[-70.4182,8.7819,386.0084],[-70.4117,8.7819,410.2048],[-70.3944,8.7743,356.914],[-70.3699,8.7755,394.54],[-70.3587,8.78,324.6434],[-70.3332,8.8001,463.9554]]]]}
,"properties": {"GID_2": "VEN.5.6_1","GID_0": "VEN","country": "Venezuela","GID_1": "VEN.5_1","province": "Barinas","NL_NAME_1": "NA","county": "Bolívar","VARNAME_2": "NA","NL_NAME_2": "NA","TYPE_2": "Municipio","ENGTYPE_2": "Municipality","CC_2": "NA","HASC_2": "NA","name": "Bolívar.county","area_km2": 928.7077,"hist_schema_id": "Elevation0-9000","hist_area_km2": {"225": 0.1258,"250": 5.1984,"275": 10.1031,"300": 14.5674,"325": 13.8962,"350": 14.0425,"375": 13.7903,"400": 13.601,"425": 15.3192,"450": 16.8704,"475": 16.7864,"500": 16.7231,"525": 17.771,"550": 18.0641,"575": 18.1477,"600": 17.875,"625": 18.1468,"650": 16.5332,"675": 16.3023,"700": 15.0868,"725": 14.3113,"750": 13.7663,"775": 14.353,"800": 13.4309,"825": 14.4992,"850": 13.2419,"875": 13.0322,"900": 13.1788,"925": 12.1728,"950": 12.4659,"975": 12.0467,"1000": 11.2504,"1025": 9.8887,"1050": 8.3803,"1075": 8.4849,"1100": 8.0451,"1125": 7.8564,"1150": 7.3746,"1175": 5.9709,"1200": 6.1805,"1225": 6.5994,"1250": 6.5367,"1275": 5.5519,"1300": 6.8718,"1325": 5.9082,"1350": 6.1595,"1375": 6.1804,"1400": 6.0968,"1425": 6.5994,"1450": 6.6833,"1475": 5.887,"1500": 6.3061,"1525": 6.2223,"1550": 6.2015,"1575": 6.0129,"1600": 6.1385,"1625": 6.2434,"1650": 6.2851,"1675": 6.0755,"1700": 6.1593,"1725": 6.8297,"1750": 5.8451,"1775": 6.6621,"1800": 6.1173,"1825": 6.3476,"1850": 5.8869,"1875": 5.8238,"1900": 6.1173,"1925": 5.8029,"1950": 6.0543,"1975": 5.1745,"2000": 5.1744,"2025": 4.504,"2050": 4.9439,"2075": 4.7553,"2100": 4.7344,"2125": 4.4202,"2150": 4.3992,"2175": 4.3781,"2200": 4.7552,"2225": 4.6083,"2250": 4.4616,"2275": 4.3779,"2300": 4.7131,"2325": 4.0426,"2350": 4.4198,"2375": 4.1264,"2400": 4.3987,"2425": 3.9798,"2450": 4.5242,"2475": 4.1892,"2500": 3.9587,"2525": 4.2519,"2550": 4.1681,"2575": 4.2099,"2600": 3.9377,"2625": 4.0424,"2650": 3.6024,"2675": 3.8118,"2700": 3.8329,"2725": 3.4348,"2750": 4.1679,"2775": 3.7279,"2800": 3.9583,"2825": 3.3509,"2850": 3.0785,"2875": 3.4557,"2900": 3.6021,"2925": 2.9738,"2950": 3.7278,"2975": 3.2252,"3000": 3.3927,"3025": 2.9528,"3050": 3.0785,"3075": 2.7643,"3100": 2.7643,"3125": 2.7433,"3150": 2.7643,"3175": 2.6177,"3200": 2.869,"3225": 2.89,"3250": 2.6387,"3275": 2.6177,"3300": 2.5758,"3325": 2.89,"3350": 2.0942,"3375": 2.9738,"3400": 2.5131,"3425": 2.4712,"3450": 1.4032,"3475": 1.487,"3500": 1.3613,"3525": 1.4032,"3550": 1.3404,"3575": 0.9844,"3600": 1.1938,"3625": 0.8796,"3650": 0.6912,"3675": 0.9006,"3700": 0.6702,"3725": 0.6493,"3750": 0.3979,"3775": 0.3142,"3800": 0.2304,"3825": 0.2513,"3850": 0.1466,"3875": 0.1047}}}