{"type": "Feature","bbox": [-70.5891,8.9988,-70.0798,9.5638],"geometry": {"type": "MultiPolygon","coordinates": [[[[-70.1976,9.0468,496.5334],[-70.2031,9.072,666.4359],[-70.2032,9.0858,575.1633],[-70.1978,9.1031,827.7374],[-70.1863,9.1137,1070.9946],[-70.1291,9.1481,1327.5104],[-70.1183,9.164,1102.3212],[-70.1154,9.226,741.64],[-70.1052,9.2553,1089.5457],[-70.0843,9.2924,1307.5721],[-70.0798,9.3033,1381.6837],[-70.0817,9.3132,1517.1758],[-70.0911,9.3229,1748.062],[-70.1003,9.3293,1821.7531],[-70.1129,9.3455,1221.011],[-70.1091,9.3968,1770.5815],[-70.1027,9.4153,1979.3724],[-70.1027,9.4317,1915.3586],[-70.107,9.4374,1857.8943],[-70.1205,9.4402,2072.3086],[-70.1269,9.4466,2415.3264],[-70.1269,9.4559,2229.6011],[-70.1219,9.463,2375.7166],[-70.1077,9.478,2215.001],[-70.0991,9.4808,2301.5173],[-70.0913,9.4901,2507.9375],[-70.0813,9.4979,2485.2593],[-70.0806,9.5178,2526.4426],[-70.1174,9.5638,3205.1572],[-70.1567,9.5202,1928.6077],[-70.186,9.4975,2296.8499],[-70.1911,9.4866,2500.6479],[-70.1921,9.4695,2558.4875],[-70.207,9.4726,2110.0854],[-70.2306,9.4749,1881.1206],[-70.2356,9.4773,1757.5142],[-70.2449,9.4907,1607.1293],[-70.2504,9.5079,1624.9021],[-70.2542,9.5144,1439.1578],[-70.2604,9.5177,1348.6368],[-70.2731,9.5173,1852.9333],[-70.2797,9.5072,1922.0516],[-70.3048,9.4796,1854.2098],[-70.3196,9.4718,1767.0784],[-70.3086,9.469,2149.4619],[-70.3046,9.4645,2075.7251],[-70.3036,9.4524,2067.7583],[-70.2912,9.4349,1763.3568],[-70.2826,9.4165,2032.4229],[-70.2862,9.405,2201.1133],[-70.3101,9.3835,2629.8608],[-70.3165,9.38,2136.2505],[-70.3185,9.3702,2281.4727],[-70.3348,9.3572,1526.649],[-70.3446,9.3445,1889.0872],[-70.3508,9.3417,1948.3247],[-70.3723,9.3205,1690.5254],[-70.3891,9.2947,2171.5906],[-70.4006,9.2667,2122.8472],[-70.4042,9.2611,2322.4351],[-70.4093,9.2575,2615.3755],[-70.418,9.2548,2181.0942],[-70.4254,9.2367,2564.6167],[-70.4456,9.2298,2715.6562],[-70.4521,9.2137,2376.3262],[-70.4407,9.1848,2951.0583],[-70.4417,9.1747,2938.6545],[-70.448,9.1699,3099.2412],[-70.4575,9.1684,2970.3167],[-70.4632,9.1627,2841.4658],[-70.4782,9.1618,2825.7415],[-70.498,9.1579,3046.6584],[-70.5165,9.1433,2759.0305],[-70.5388,9.13,2933.7002],[-70.5439,9.1246,2651.8735],[-70.5448,9.1181,2801.1016],[-70.5405,9.1088,3210.3423],[-70.546,9.0978,3655.7136],[-70.5705,9.0895,3626.1033],[-70.5803,9.0723,3031.1387],[-70.5891,9.0615,3031.0166],[-70.5737,9.0443,3544.6958],[-70.5641,9.0384,3456.8804],[-70.5565,9.0298,3441.8777],[-70.547,9.0083,3556.6086],[-70.5404,8.9988,3476.8418],[-70.4632,9.0579,2162.5088],[-70.4459,9.0654,2303.9231],[-70.4125,9.0649,2767.9629],[-70.3939,9.067,2726.4751],[-70.3632,9.0801,2553.8274],[-70.341,9.0824,1901.3566],[-70.3182,9.0778,2512.1201],[-70.2732,9.0814,1323.4564],[-70.2514,9.0905,787.3815],[-70.236,9.0855,534.3589],[-70.2121,9.0676,473.5965],[-70.1976,9.0468,496.5334]]]]}
,"properties": {"GID_2": "VEN.22.2_1","GID_0": "VEN","country": "Venezuela","GID_1": "VEN.22_1","province": "Trujillo","NL_NAME_1": "NA","county": "Boconó","VARNAME_2": "NA","NL_NAME_2": "NA","TYPE_2": "Municipio","ENGTYPE_2": "Municipality","CC_2": "NA","HASC_2": "NA","name": "Boconó.county","area_km2": 1546.55,"hist_schema_id": "Elevation0-9000","hist_area_km2": {"400": 0.126,"425": 0.272,"450": 0.356,"475": 0.419,"500": 0.356,"525": 0.712,"550": 0.586,"575": 0.817,"600": 0.942,"625": 1.026,"650": 1.151,"675": 1.319,"700": 1.717,"725": 1.884,"750": 2.114,"775": 2.282,"800": 2.554,"825": 2.742,"850": 3.056,"875": 3.768,"900": 4.249,"925": 3.747,"950": 5.254,"975": 5.317,"1000": 5.421,"1025": 5.212,"1050": 5.107,"1075": 5.777,"1100": 6.908,"1125": 7.535,"1150": 7.368,"1175": 9.377,"1200": 9.69,"1225": 8.581,"1250": 10.025,"1275": 9.104,"1300": 10.087,"1325": 10.673,"1350": 11.971,"1375": 12.2,"1400": 12.786,"1425": 13.749,"1450": 14.732,"1475": 16.364,"1500": 17.912,"1525": 20.214,"1550": 19.147,"1575": 20.047,"1600": 20.862,"1625": 21.302,"1650": 22.724,"1675": 21.217,"1700": 22.117,"1725": 22.41,"1750": 23.184,"1775": 21.886,"1800": 21.803,"1825": 23.037,"1850": 23.853,"1875": 24.522,"1900": 22.179,"1925": 24.125,"1950": 24.439,"1975": 22.911,"2000": 23.874,"2025": 23.602,"2050": 21.782,"2075": 21.426,"2100": 21.719,"2125": 21.74,"2150": 20.82,"2175": 19.773,"2200": 19.648,"2225": 19.585,"2250": 20.192,"2275": 18.853,"2300": 19.543,"2325": 19.606,"2350": 18.895,"2375": 19.229,"2400": 19.187,"2425": 18.329,"2450": 18.581,"2475": 19.104,"2500": 18.413,"2525": 18.1,"2550": 20.087,"2575": 19.397,"2600": 18.707,"2625": 16.217,"2650": 17.807,"2675": 16.636,"2700": 17.954,"2725": 16.092,"2750": 15.967,"2775": 15.967,"2800": 16.114,"2825": 14.9,"2850": 13.498,"2875": 11.343,"2900": 11.656,"2925": 10.339,"2950": 9.439,"2975": 9.146,"3000": 8.853,"3025": 8.832,"3050": 8.058,"3075": 8.247,"3100": 7.012,"3125": 6.258,"3150": 5.84,"3175": 5.463,"3200": 5.902,"3225": 5.421,"3250": 6.049,"3275": 4.835,"3300": 6.238,"3325": 5.714,"3350": 5.212,"3375": 5.798,"3400": 5.464,"3425": 5.736,"3450": 5.715,"3475": 5.066,"3500": 4.627,"3525": 4.229,"3550": 3.894,"3575": 3.078,"3600": 2.889,"3625": 2.659,"3650": 1.926,"3675": 1.235,"3700": 1.11,"3725": 0.796,"3750": 0.377,"3775": 0.481,"3800": 0.335,"3825": 0.209,"3850": 0.167,"3875": 0.084,"3900": 0.063,"3925": 0.063,"3950": 0.021}}}