{"type":"Feature","properties":{"GID_1":"VEN.19_1","GID_0":"VEN","country":"Venezuela","province":"Portuguesa","VARNAME_1":"NA","NL_NAME_1":"NA","TYPE_1":"Estado","ENGTYPE_1":"State","CC_1":"NA","HASC_1":"NA","ISO_1":"VE-P","name":"Portuguesa.province"},
"geometry":{"type": "MultiPolygon","coordinates": [[[[-68.544,8.4043,62.8301],[-68.5127,8.4405,63.0505],[-68.4862,8.468,65.6295],[-68.4284,8.5106,60.6767],[-68.4529,8.5468,61.9769],[-68.495,8.5954,61.9305],[-68.5131,8.6124,63.3706],[-68.5393,8.6311,67.2072],[-68.5637,8.6446,77.6948],[-68.5785,8.6562,67.4207],[-68.6181,8.7104,68.0822],[-68.6439,8.731,69.0277],[-68.6765,8.7514,74.7032],[-68.6889,8.7636,70.5889],[-68.6941,8.7762,69.0348],[-68.6919,8.7886,71.5638],[-68.682,8.7956,71.1757],[-68.66,8.7994,78.4978],[-68.6028,8.8055,65.6245],[-68.5289,8.8174,64.1876],[-68.5199,8.8246,64.0677],[-68.5163,8.8378,64.0002],[-68.5164,8.8457,65.1064],[-68.523,8.8548,69.1425],[-68.5358,8.8607,64.7175],[-68.5697,8.8697,65.623],[-68.5855,8.8777,65.8774],[-68.5979,8.8879,66.2726],[-68.6172,8.9136,67.1044],[-68.631,8.9542,67.9711],[-68.6352,8.9795,68.8438],[-68.6346,9.0034,69.1909],[-68.6005,9.1993,84.7574],[-68.6002,9.2228,78.6666],[-68.6091,9.2443,80.8956],[-68.6164,9.2549,83.359],[-68.6319,9.2692,81.683],[-68.6635,9.2935,84.4754],[-68.7079,9.3187,97.5115],[-68.8006,9.4035,107.4462],[-68.8305,9.4206,106.424],[-68.8566,9.4309,104.75],[-68.8665,9.4374,106.1781],[-68.876,9.4526,109.9902],[-68.8877,9.4895,116.6007],[-68.8895,9.5057,117.6257],[-68.8874,9.529,119.5444],[-68.8843,9.5432,121.5804],[-68.8837,9.5714,125.728],[-68.8912,9.6223,134.8925],[-68.9013,9.6518,143.8992],[-68.9072,9.675,176.2842],[-68.9145,9.6915,175.1037],[-68.9412,9.7345,255.4341],[-68.9448,9.7553,467.0323],[-68.9633,9.7796,271.8307],[-68.9732,9.7899,193.6402],[-68.9871,9.8007,268.843],[-69.0021,9.8017,268.4063],[-69.0083,9.7978,271.2173],[-69.032,9.7632,344.7256],[-69.0523,9.7609,404.6801],[-69.0655,9.7613,332.1582],[-69.093,9.754,286.7024],[-69.1061,9.7582,272.4539],[-69.1613,9.7632,251.2379],[-69.1973,9.7764,357.2495],[-69.2112,9.7857,570.5632],[-69.2216,9.8007,658.1218],[-69.2232,9.8111,513.7411],[-69.2193,9.8216,514.0043],[-69.2107,9.8331,439.4714],[-69.2027,9.8475,479.007],[-69.204,9.86,410.834],[-69.2165,9.8789,485.0396],[-69.2181,9.8875,548.0216],[-69.2175,9.9029,526.2842],[-69.2128,9.9166,428.8983],[-69.211,9.9304,466.3483],[-69.2185,9.9369,463.3289],[-69.2314,9.9363,706.6683],[-69.2364,9.9332,791.7607],[-69.2418,9.9234,968.8289],[-69.2485,9.901,895.6622],[-69.2546,9.8895,949.3863],[-69.2659,9.8764,1074.8792],[-69.2728,9.8693,1335.1581],[-69.2825,9.8632,1385.1417],[-69.3135,9.847,1449.7269],[-69.3204,9.8413,1264.819],[-69.3261,9.8318,1239.4485],[-69.3251,9.8045,987.4608],[-69.3199,9.7789,754.2651],[-69.3193,9.7658,912.7898],[-69.329,9.7432,782.1808],[-69.3306,9.7056,878.5198],[-69.3346,9.6916,924.95],[-69.3463,9.6666,672.9262],[-69.3597,9.6589,622.358],[-69.3718,9.655,387.0055],[-69.3834,9.6491,467.4831],[-69.4013,9.633,925.4827],[-69.4211,9.6274,1259.0959],[-69.4384,9.6246,1409.4783],[-69.5622,9.6232,1226.1732],[-69.5803,9.6201,956.8499],[-69.5944,9.6112,1168.907],[-69.5979,9.6033,1358.811],[-69.6026,9.5656,1792.1099],[-69.6256,9.5538,1640.473],[-69.6292,9.5456,1475.0532],[-69.6281,9.5379,1519.9421],[-69.6106,9.5155,1388.516],[-69.6087,9.4959,1363.0974],[-69.6166,9.4858,1575.9692],[-69.6481,9.4749,1005.0933],[-69.6881,9.4685,928.6733],[-69.6989,9.4739,884.744],[-69.7109,9.486,858.3764],[-69.7217,9.4935,1026.6219],[-69.7438,9.4996,1009.7294],[-69.7567,9.4971,1066.6565],[-69.7971,9.4792,1030.9674],[-69.8136,9.4739,986.1395],[-69.8578,9.4711,1470.868],[-69.8769,9.4726,1184.9395],[-69.8932,9.4763,893.4768],[-69.8952,9.4802,817.7233],[-69.8939,9.4876,855.0616],[-69.8872,9.4975,1039.29],[-69.876,9.5105,1177.9229],[-69.8582,9.5259,1228.8027],[-69.8423,9.5447,1350.8286],[-69.8261,9.5678,1691.0116],[-69.8256,9.5755,1588.1222],[-69.8297,9.5818,1550.3091],[-69.837,9.5835,1557.537],[-69.851,9.5836,1471.0217],[-69.8904,9.5736,1337.5759],[-69.9081,9.5729,1482.568],[-69.9198,9.5752,1932.9084],[-69.935,9.5851,2032.3552],[-69.948,9.5869,1931.2856],[-69.9566,9.5836,1892.1985],[-69.9659,9.577,1491.5531],[-69.9757,9.5598,1366.948],[-69.9887,9.5244,1958.3579],[-69.9992,9.5033,1955.9901],[-70.0164,9.4785,1924.9806],[-70.0288,9.4666,1663.5576],[-70.0518,9.4396,1305.7278],[-70.0666,9.4257,1452.8936],[-70.0954,9.4028,1903.929],[-70.1086,9.3885,1873.1528],[-70.1129,9.3455,1221.011],[-70.1003,9.3293,1821.7531],[-70.0911,9.3229,1748.062],[-70.0817,9.3132,1517.1758],[-70.0798,9.3033,1381.6837],[-70.0843,9.2924,1307.5721],[-70.1052,9.2553,1089.5457],[-70.1154,9.226,741.64],[-70.1183,9.164,1102.3212],[-70.1291,9.1481,1327.5104],[-70.1863,9.1137,1070.9946],[-70.1978,9.1031,827.7374],[-70.2032,9.0858,575.1633],[-70.2031,9.072,666.4359],[-70.1976,9.0468,496.5334],[-70.194,9.0411,479.9091],[-70.1834,9.0304,378.2421],[-70.1695,9.0203,756.7757],[-70.1324,9.006,646.3441],[-70.1128,8.9939,346.793],[-70.0989,8.9807,321.8802],[-70.0907,8.9686,324.246],[-70.0739,8.9307,303.5093],[-70.0666,8.9182,303.543],[-70.0453,8.9009,262.5],[-69.9542,8.8438,164.567],[-69.9036,8.807,146.9527],[-69.8871,8.7968,143.5031],[-69.796,8.7737,126.3445],[-69.7762,8.7654,123.8091],[-69.7526,8.7582,123.9903],[-69.7037,8.7495,120.9472],[-69.6854,8.75,116.7672],[-69.6187,8.7702,112.5137],[-69.561,8.7569,109.5643],[-69.5341,8.6994,111.8039],[-69.5195,8.679,105.4749],[-69.4767,8.6321,99.3912],[-69.4492,8.6143,98.0729],[-69.3897,8.5941,93.4199],[-69.3098,8.5602,90.3102],[-69.2298,8.5441,92.8781],[-69.1521,8.4792,82.4746],[-69.1354,8.4573,83.79],[-69.1242,8.4382,82.7126],[-69.1114,8.3914,79.1169],[-69.1117,8.3777,79.7553],[-69.1089,8.354,77.7473],[-69.0896,8.3264,76.73],[-69.0854,8.3071,76.4031],[-69.0839,8.2886,75.628],[-69.0807,8.2799,75.0375],[-69.0681,8.2691,79.9892],[-69.0479,8.2576,73.7421],[-69.0064,8.2385,81.6346],[-68.9871,8.2267,70.7924],[-68.9718,8.2122,82.2099],[-68.9686,8.2047,70.0786],[-68.9696,8.1875,70.0709],[-68.9684,8.1759,70.3997],[-68.9603,8.1652,71.2831],[-68.9213,8.138,69.2478],[-68.8617,8.0913,67.6775],[-68.8437,8.0797,67.4323],[-68.8196,8.0677,75.6686],[-68.8059,8.0669,66.3383],[-68.7992,8.0708,67.0748],[-68.7985,8.084,70.3138],[-68.8062,8.1238,66.4249],[-68.7993,8.144,65.4249],[-68.767,8.1978,69.8816],[-68.7429,8.2491,72.2544],[-68.7296,8.2596,64.7072],[-68.6865,8.2706,65.5493],[-68.6565,8.2839,63.1778],[-68.5714,8.3716,62.2365],[-68.544,8.4043,62.8301]]]]}}