{"type":"Feature","properties":{"ISO3166-1-Alpha-3":"VEN","country":"Venezuela","fill":"#F00","id":"35","name":"Portuguesa"},
"geometry":{"type": "Polygon","coordinates": [[[-69.17399,9.6867,216.2291],[-69.21218,9.68923,258.2875],[-69.22321,9.69204,262.048],[-69.23109,9.69646,283.1861],[-69.24034,9.70352,300.1055],[-69.25688,9.71998,488.8163],[-69.26398,9.72912,625.8445],[-69.26758,9.73734,526.5532],[-69.26747,9.74354,535.0364],[-69.26509,9.75519,639.6828],[-69.26158,9.76535,608.0876],[-69.26052,9.77072,644.3098],[-69.26166,9.78204,813.9226],[-69.26685,9.80392,1167.6371],[-69.26975,9.84054,1243.8319],[-69.27238,9.84426,1183.6628],[-69.27856,9.84426,1158.8983],[-69.28465,9.83968,1034.3896],[-69.29114,9.83162,937.4182],[-69.31109,9.79281,819.546],[-69.33718,9.7686,740.7133],[-69.36049,9.69623,434.3146],[-69.36602,9.67776,416.1004],[-69.37842,9.65789,579.8248],[-69.40325,9.64052,974.2367],[-69.43056,9.63058,1326.5028],[-69.4827,9.62809,1789.532],[-69.53237,9.62313,1457.4255],[-69.56213,9.62065,1268.7708],[-69.59195,9.61817,1092.5457],[-69.60435,9.60577,1276.9231],[-69.61427,9.59334,1395.8174],[-69.62523,9.56812,1445.311],[-69.62355,9.55564,1675.061],[-69.62166,9.54353,1689.2911],[-69.61675,9.52833,1511.1549],[-69.61572,9.52275,1497.3043],[-69.61564,9.51056,1577.3715],[-69.61657,9.5056,1454.8435],[-69.62998,9.47146,1316.5532],[-69.63091,9.46247,1212.749],[-69.63006,9.45555,1271.4117],[-69.62797,9.4509,1200.7484],[-69.62665,9.44539,1117.5935],[-69.62626,9.43919,1048.7521],[-69.62686,9.43258,1042.5994],[-69.62794,9.42653,974.9069],[-69.64375,9.41475,565.3511],[-69.70688,9.39565,1000.8296],[-69.72114,9.40581,1069.4303],[-69.72344,9.417,1412.7747],[-69.72357,9.42304,1585.8066],[-69.72507,9.42824,1580.8805],[-69.72806,9.4318,1775.3831],[-69.73323,9.43242,1837.0676],[-69.73943,9.42963,1682.9158],[-69.7491,9.42374,1469.803],[-69.76341,9.41746,1380.7213],[-69.85134,9.41235,1139.8046],[-69.8587,9.41297,1188.7357],[-69.86733,9.41506,1047.6245],[-69.87224,9.42157,1402.4358],[-69.87322,9.42731,1416.8145],[-69.87219,9.43312,1541.172],[-69.85912,9.46167,1429.5833],[-69.8503,9.47371,1534.7184],[-69.84372,9.48092,1468.1261],[-69.82571,9.50474,1132.9128],[-69.7909,9.53903,1127.2224],[-69.78865,9.5436,1112.1487],[-69.7871,9.54856,1171.3147],[-69.78726,9.55402,1192.1051],[-69.78868,9.5589,1316.1062],[-69.79292,9.56223,1485.6854],[-69.79987,9.56332,1381.223],[-69.81054,9.56262,1508.9789],[-69.81798,9.56316,1483.9871],[-69.82449,9.56433,1655.0234],[-69.83529,9.56727,1702.0208],[-69.84108,9.56774,1695.0948],[-69.84994,9.56526,1776.9766],[-69.88227,9.55285,1482.4138],[-69.89211,9.55192,1316.3049],[-69.89898,9.55239,1225.5903],[-69.9041,9.55665,1276.9543],[-69.90686,9.55975,1351.0111],[-69.914,9.56611,1597.7297],[-69.92221,9.57192,1869.4255],[-69.92653,9.57402,2087.0972],[-69.93405,9.57161,2117.4961],[-69.94332,9.56456,1967.0005],[-70.00675,9.49761,1969.7964],[-70.0097,9.49157,2066.5674],[-70.01296,9.48216,2081.1528],[-70.01892,9.45175,1264.517],[-70.02345,9.43857,1137.1213],[-70.03298,9.43033,1109.376],[-70.05466,9.37299,915.7158],[-70.06458,9.35633,1564.5587],[-70.06934,9.35281,1667.3688],[-70.08616,9.33607,1989.5089],[-70.10603,9.30054,1958.2617],[-70.13111,9.27455,2181.0271],[-70.13584,9.26564,2318.5117],[-70.13783,9.25801,2309.5117],[-70.13636,9.25298,1900.4108],[-70.13328,9.24933,1702.2561],[-70.12871,9.24701,1414.0012],[-70.12349,9.24577,1468.1312],[-70.11207,9.24561,1104.4919],[-70.10667,9.24437,975.0966],[-70.0974,9.24026,704.0073],[-70.09233,9.23923,738.7123],[-70.08716,9.23985,707.4207],[-70.08225,9.2415,680.5923],[-70.06536,9.25228,762.5009],[-70.05936,9.23683,1288.2996],[-70.06272,9.14365,760.1813],[-70.07995,9.10038,1190.2448],[-70.08807,9.08562,1234.301],[-70.10326,9.06978,968.3773],[-70.10644,9.06064,771.3541],[-70.11336,9.03154,441.8567],[-70.11827,9.0241,434.5932],[-70.12411,9.02007,667.0672],[-70.15029,9.01914,686.1288],[-70.15615,9.01805,593.8346],[-70.16737,9.01454,729.4357],[-70.18245,9.00787,348.8643],[-70.17243,8.99183,328.0988],[-70.04112,8.89173,247.936],[-70.01683,8.8583,180.039],[-70.00407,8.84706,170.1878],[-69.90803,8.78985,152.971],[-69.81961,8.7513,133.9695],[-69.81411,8.74983,131.4784],[-69.79563,8.74758,128.8819],[-69.77108,8.75006,126.0913],[-69.74853,8.74448,124.8321],[-69.72613,8.7281,125.2228],[-69.70538,8.72383,123.3009],[-69.69807,8.725,119.7313],[-69.69215,8.7267,120.1693],[-69.68375,8.73205,120.6179],[-69.66181,8.75231,115.2428],[-69.64892,8.76091,123.0669],[-69.64047,8.76892,116.5065],[-69.63453,8.77311,114.7708],[-69.62311,8.77791,114.0903],[-69.61748,8.77288,112.5115],[-69.6027,8.74657,111.5814],[-69.57355,8.73337,111.1194],[-69.53743,8.70296,111.5267],[-69.46687,8.67038,101.1799],[-69.44715,8.66417,101.1395],[-69.43121,8.66123,98.1572],[-69.39909,8.66092,97.1546],[-69.39351,8.65743,96.0752],[-69.38209,8.65363,98.2244],[-69.31783,8.6496,92.115],[-69.30003,8.64671,91.5681],[-69.29184,8.64322,94.892],[-69.28636,8.63896,91.3154],[-69.26944,8.60141,92.0391],[-69.25874,8.58426,90.5516],[-69.25199,8.57674,88.3493],[-69.19854,8.53312,85.5948],[-69.19528,8.52956,85.6281],[-69.17557,8.50046,83.5381],[-69.17156,8.49147,83.2858],[-69.170419999999993,8.48612,82.7938],[-69.17006,8.48036,82.4127],[-69.17135,8.46889,84.1797],[-69.17084,8.46292,84.3524],[-69.16706,8.45525,81.9897],[-69.16247,8.44173,83.8428],[-69.15815,8.43871,84.2316],[-69.15221,8.43747,83.6824],[-69.13001,8.43708,85.767],[-69.11939,8.43514,82.1694],[-69.11441,8.43189,83.9348],[-69.1128,8.42739,82.0959],[-69.1143,8.42287,81.6315],[-69.11699,8.41884,80.2649],[-69.12397,8.41202,80.893],[-69.12707,8.40807,80.2758],[-69.13229,8.39944,88.6159],[-69.13663,8.38982,90.4939],[-69.13934,8.37882,85.9545],[-69.13965,8.37246,79.3717],[-69.13554,8.36298,84.8776],[-69.12764,8.35104,77.5645],[-69.08955,8.31138,85.6186],[-69.08092,8.29758,83.8006],[-69.07632,8.29285,76.3381],[-69.07151,8.2896,82.1911],[-69.02524,8.26601,75.9695],[-68.98615,8.23939,73.5757],[-68.9808,8.23389,72.2661],[-68.97051,8.21666,81.7742],[-68.9484,8.18601,84.0844],[-68.94168,8.17997,70.725],[-68.93576,8.17586,71.5877],[-68.88936,8.15258,72.7505],[-68.88339,8.147,71.5821],[-68.87995,8.14108,77.9248],[-68.8769,8.12875,70.2141],[-68.87388,8.12178,67.798],[-68.86972,8.1178,71.478],[-68.86491,8.11509,67.5791],[-68.8537,8.1123,75.0887],[-68.84739,8.11199,68.3086],[-68.84145,8.11245,68.2113],[-68.83605,8.11392,66.9406],[-68.83117,8.11671,66.7158],[-68.82786,8.1193,66.2915],[-68.82104,8.12674,66.6232],[-68.816,8.14503,66.4012],[-68.81737,8.15684,67.5501],[-68.82791,8.19237,72.4751],[-68.82845,8.20053,72.9087],[-68.81432,8.25815,70.9741],[-68.7922,8.31714,68.7115],[-68.7876,8.32559,74.9874],[-68.78306,8.33164,77.1047],[-68.73262,8.36422,69.3403],[-68.67852,8.39246,67.6168],[-68.65423,8.42287,66.7279],[-68.60364,8.49984,67.8849],[-68.59069,8.53615,72.5145],[-68.58214,8.56883,65.1948],[-68.58095,8.58123,68.6168],[-68.57994,8.58658,71.2365],[-68.57467,8.60351,73.2061],[-68.57281,8.62195,65.1575],[-68.57353,8.63539,76.7964],[-68.63172,8.66921,75.0189],[-68.64803,8.68211,72.5984],[-68.65474,8.69459,68.4013],[-68.66242,8.70389,68.6382],[-68.66978,8.7081,68.598],[-68.67872,8.71097,67.8566],[-68.6828,8.71461,76.1503],[-68.68464,8.71988,68.5158],[-68.68456,8.72616,69.8415],[-68.68554,8.73461,76.3634],[-68.68859,8.74479,71.1283],[-68.69787,8.76133,68.1006],[-68.70399,8.76908,68.8338],[-68.70955,8.77443,69.0251],[-68.71862,8.77931,76.0287],[-68.72378,8.78094,69.7764],[-68.73893,8.78404,74.2135],[-68.74911,8.78861,73.2988],[-68.75032,8.79218,69.9914],[-68.74843,8.79546,72.403],[-68.738,8.79879,73.5319],[-68.69857,8.80724,69.0139],[-68.68926,8.8115,67.9643],[-68.68454,8.81298,67.5644],[-68.67981,8.81313,67.1995],[-68.67598,8.81088,69.167],[-68.67239,8.80786,71.4327],[-68.66834,8.80546,71.5303],[-68.66368,8.80461,71.8867],[-68.65947,8.80631,72.7992],[-68.65167,8.81189,70.9846],[-68.6472,8.81429,68.2278],[-68.63705,8.81796,66.706],[-68.63286,8.82075,66.7486],[-68.62978,8.82447,66.5115],[-68.62524,8.83378,66.5541],[-68.62203,8.83788,77.1969],[-68.61847,8.84013,74.9487],[-68.61012,8.84277,71.8147],[-68.5901,8.84571,66.0767],[-68.58614,8.84853,65.8053],[-68.5824,8.85279,66.0545],[-68.58204,8.85775,66.2088],[-68.58405,8.86194,66.633],[-68.58738,8.8652,66.601],[-68.59157,8.86806,66.0764],[-68.60108,8.8724,66.0792],[-68.61183,8.87574,67.1317],[-68.61839,8.87894,67.9358],[-68.63619,8.89747,68.3279],[-68.65025,8.93175,68.5893],[-68.65211,8.94545,71.3782],[-68.65066,8.95542,79.5251],[-68.6464,8.97103,69.0425],[-68.63079,9.03066,73.2814],[-68.60666,9.1783,86.7633],[-68.60379,9.20104,89.4189],[-68.60524,9.22517,78.8143],[-68.6109,9.24362,80.0839],[-68.62798,9.26491,83.4326],[-68.64216,9.27768,82.9259],[-68.66203,9.29189,84.2104],[-68.68332,9.30465,92.3367],[-68.71738,9.32739,87.7836],[-68.75004,9.35579,92.468],[-68.77135,9.37563,93.7092],[-68.78272,9.387,95.4507],[-68.7983,9.40121,110.257],[-68.82104,9.41966,106.1128],[-68.84517,9.42534,102.5069],[-68.8622,9.431,105.0919],[-68.87212,9.43953,106.7958],[-68.88791,9.48952,116.6007],[-68.89917,9.49707,115.5329],[-68.90543,9.50921,119.7562],[-68.90879,9.52704,122.9876],[-68.91093,9.55549,125.3283],[-68.91837,9.57252,129.3384],[-68.94044,9.6098,138.2507],[-68.94933,9.64672,146.997],[-68.96811,9.67993,154.2827],[-68.97237,9.7029,251.9991],[-68.97514,9.71049,231.9726],[-68.98811,9.72191,170.8292],[-68.9924,9.72835,176.3228],[-68.99229,9.73832,228.2669],[-68.98013,9.7692,205.1632],[-68.9808,9.78227,213.9168],[-68.98118,9.78204,206.3708],[-69.01379,9.74953,346.5823],[-69.01798,9.7469,352.6715],[-69.04364,9.73951,615.0568],[-69.04852,9.73486,535.2532],[-69.05128,9.72897,570.1028],[-69.05252,9.72339,551.5264],[-69.05493,9.71881,632.854],[-69.05798,9.71501,505.1779],[-69.06206,9.71212,587.7603],[-69.06679,9.70995,508.8045],[-69.12513,9.69305,581.6259],[-69.17399,9.6867,216.2291]]]}}