{"type": "Feature","bbox": [-70.6692,9.7322,-70.328,10.0364],"geometry": {"type": "MultiPolygon","coordinates": [[[[-70.662,9.9007,622.0124],[-70.6552,9.8688,705.1681],[-70.64,9.8321,605.6891],[-70.6329,9.8099,515.5142],[-70.6349,9.7959,484.1496],[-70.646,9.783,441.9602],[-70.6692,9.7738,577.4588],[-70.6398,9.7667,372.8832],[-70.6373,9.7607,390.7527],[-70.6409,9.7494,382.6211],[-70.631,9.7322,389.4808],[-70.5598,9.7646,561.0665],[-70.328,9.8781,894.7997],[-70.3327,9.8844,972.8935],[-70.3528,9.9229,831.3176],[-70.3635,9.923,913.2793],[-70.4106,9.9155,819.8458],[-70.4258,9.906,1015.931],[-70.4356,9.8977,772.8566],[-70.4497,9.8912,835.8896],[-70.4583,9.8914,893.1656],[-70.4924,9.9177,1088.1987],[-70.5217,9.9273,960.0598],[-70.5299,9.9356,1201.4476],[-70.5397,9.9579,1032.0162],[-70.5579,9.9776,858.5743],[-70.5635,9.9902,814.991],[-70.563,10.0095,830.6788],[-70.5642,10.0176,735.0226],[-70.5747,10.0261,737.9922],[-70.587,10.0323,666.9778],[-70.6002,10.0362,724.7252],[-70.6098,10.0364,762.4523],[-70.6173,10.0317,911.0927],[-70.6303,10.0148,975.9438],[-70.6475,9.9804,679.9208],[-70.6577,9.9563,644.6635],[-70.6622,9.9364,657.3073],[-70.662,9.9007,622.0124]]]]}
,"properties": {"GID_2": "VEN.22.7_1","GID_0": "VEN","country": "Venezuela","GID_1": "VEN.22_1","province": "Trujillo","NL_NAME_1": "NA","county": "JoséFelipeMárquezCañizalez","VARNAME_2": "NA","NL_NAME_2": "NA","TYPE_2": "Municipio","ENGTYPE_2": "Municipality","CC_2": "NA","HASC_2": "NA","name": "José_Felipe_Márquez_Cañizalez.county","area_km2": 572.8085,"hist_schema_id": "Elevation0-9000","hist_area_km2": {"250": 1.0239,"275": 5.1193,"300": 11.5335,"325": 9.2143,"350": 9.8411,"375": 11.1573,"400": 10.5509,"425": 11.2192,"450": 12.6187,"475": 12.3052,"500": 11.8662,"525": 12.4092,"550": 12.6806,"575": 13.7875,"600": 15.0196,"625": 16.3771,"650": 14.7059,"675": 16.2094,"700": 16.3132,"725": 16.6054,"750": 16.7094,"775": 16.8346,"800": 18.7561,"825": 19.988,"850": 19.0898,"875": 20.844,"900": 20.2176,"925": 19.6538,"950": 17.5232,"975": 15.2048,"1000": 16.7089,"1025": 15.8524,"1050": 14.7872,"1075": 13.868,"1100": 12.3433,"1125": 11.7795,"1150": 10.4427,"1175": 8.7927,"1200": 8.1034,"1225": 6.7667,"1250": 6.1191,"1275": 4.9914,"1300": 3.9889,"1325": 3.4877,"1350": 2.8194,"1375": 2.2138,"1400": 1.9005,"1425": 1.0651,"1450": 0.5847,"1475": 0.2297,"1500": 0.2506,"1525": 0.2297,"1550": 0.0418,"1575": 0.0626}}}