{"type":"Feature","properties":{"GID_2":"VEN.20.13_1","GID_0":"VEN","country":"Venezuela","GID_1":"VEN.20_1","province":"Sucre","NL_NAME_1":"NA","county":"Ribero","VARNAME_2":"NA","NL_NAME_2":"NA","TYPE_2":"Municipio","ENGTYPE_2":"Municipality","CC_2":"NA","HASC_2":"NA","name":"Ribero.county"},
"geometry":{"type": "MultiPolygon","coordinates": [[[[-63.6084,10.2317,1206.5518],[-63.5747,10.2515,612.616],[-63.5581,10.263,787.3065],[-63.549,10.2716,431.722],[-63.5156,10.2944,280.6691],[-63.4963,10.305,505.3511],[-63.4832,10.3101,183.0311],[-63.4658,10.3123,237.7034],[-63.4494,10.3117,276.9879],[-63.4154,10.304,523.4591],[-63.4107,10.3471,92.1571],[-63.4043,10.3656,19.0949],[-63.3998,10.3741,13.0685],[-63.3933,10.38,11.1649],[-63.3663,10.3868,5.2874],[-63.3439,10.396,3.8887],[-63.3347,10.3981,4.6556],[-63.3094,10.3957,5.741],[-63.3208,10.4105,16.3344],[-63.333,10.4224,152.7734],[-63.3695,10.4444,384.5034],[-63.3786,10.4551,415.5251],[-63.3937,10.4782,122.94],[-63.4226,10.5365,106.3217],[-63.436,10.5768,238.2835],[-63.4476,10.6059,106.619],[-63.4498,10.6325,95.5379],[-63.449,10.6449,15.7674],[-63.4447,10.6582,26.9678],[-63.4468,10.6615,0.0],[-63.4515,10.6604,53.3839],[-63.4538,10.6615,0.0],[-63.4543,10.6596,16.0768],[-63.4565,10.6593,5.704],[-63.4571,10.6615,0.0],[-63.4604,10.6599,5.5983],[-63.4649,10.6624,0.0],[-63.4685,10.6526,0.0],[-63.4704,10.6526,0.0],[-63.4699,10.6496,16.8568],[-63.4721,10.6474,2.9992],[-63.4754,10.6474,1.3341],[-63.4801,10.651,0.0],[-63.4857,10.649,1.4086],[-63.4912,10.6557,0.0],[-63.4957,10.6563,0.0],[-63.4982,10.6538,4.1951],[-63.5024,10.6538,0.0],[-63.5021,10.6504,0.0],[-63.4935,10.6485,0.9366],[-63.4929,10.6468,0.3768],[-63.494,10.6412,2.6911],[-63.496,10.6401,0.3143],[-63.4985,10.6343,3.345],[-63.5279,10.629,0.0],[-63.5321,10.6271,0.0],[-63.5499,10.6307,0.0],[-63.5543,10.6301,13.9734],[-63.5585,10.6324,0.0],[-63.5679,10.6288,0.0],[-63.5774,10.6321,0.9533],[-63.5801,10.6349,0.0],[-63.5868,10.6338,0.0],[-63.5862,10.6313,2.4589],[-63.589,10.629,1.2601],[-63.6085,10.6351,6.248],[-63.6176,10.6338,0.0],[-63.6271,10.636,0.0],[-63.6321,10.6343,0.0],[-63.6393,10.6379,0.0],[-63.6487,10.6376,6.846],[-63.6532,10.6399,5.3168],[-63.6832,10.6412,11.6528],[-63.7007,10.649,0.9162],[-63.7007,10.631,116.0228],[-63.7044,10.6203,257.9184],[-63.7275,10.5835,184.8073],[-63.7438,10.553,85.5967],[-63.7564,10.5382,26.3681],[-63.7654,10.5243,0.7206],[-63.7429,10.5046,3.9291],[-63.739,10.4932,0.2561],[-63.734,10.4979,1.0539],[-63.731,10.4957,3.1965],[-63.7243,10.4965,3.8067],[-63.7185,10.4935,0.0],[-63.7115,10.4935,0.7094],[-63.7062,10.4907,2.3188],[-63.7043,10.4801,0.0],[-63.6929,10.4815,0.0],[-63.6813,10.4857,0.5034],[-63.669,10.4926,3.7652],[-63.6557,10.4963,4.4834],[-63.6487,10.4946,7.3275],[-63.644,10.4907,2.76],[-63.6443,10.4896,3.7995],[-63.6518,10.4907,0.0],[-63.6546,10.4896,1.8607],[-63.658,10.4758,6.6808],[-63.6563,10.4593,163.1883],[-63.6706,10.4343,348.1492],[-63.6768,10.4103,388.5368],[-63.6854,10.3879,285.3956],[-63.6925,10.3775,223.7849],[-63.7217,10.3494,392.4134],[-63.7384,10.3262,597.6356],[-63.7158,10.2842,688.9185],[-63.6998,10.26,958.1582],[-63.6943,10.245,1172.093],[-63.6928,10.2344,1167.8296],[-63.6977,10.2191,814.0447],[-63.7035,10.2091,998.2236],[-63.6596,10.2152,1541.6616],[-63.6084,10.2317,1206.5518]]],
[[[-63.5079,10.6582,0.0],[-63.5096,10.6579,0.0],[-63.5101,10.6549,0.0],[-63.504,10.6537,0.0],[-63.5074,10.6565,1.1984],[-63.5079,10.6582,0.0]]]]}}