{"type": "Feature","bbox": [-68.0248,7.5404,-64.7607,10.0594],"geometry": {"type": "MultiPolygon","coordinates": [[[[-66.6683,7.7679,34.2396],[-66.6493,7.7686,32.3302],[-66.6258,7.7728,33.0678],[-66.6053,7.7794,32.8384],[-66.5699,7.8024,32.9032],[-66.5551,7.8026,32.7525],[-66.5353,7.7926,33.5225],[-66.5093,7.7693,34.8765],[-66.4994,7.7571,32.1579],[-66.472,7.7035,32.666],[-66.4411,7.6787,31.6864],[-66.404,7.6763,33.3204],[-66.3836,7.6726,32.6239],[-66.3633,7.6614,33.0075],[-66.356,7.6524,27.0],[-66.3438,7.6261,27.0],[-66.3326,7.6087,31.0046],[-66.3145,7.5977,33.0979],[-66.3192,7.5963,33.6798],[-66.3033,7.555,33.3547],[-66.2791,7.5523,32.1426],[-66.2591,7.548,32.184],[-66.2409,7.5418,33.1024],[-66.2258,7.5404,31.5896],[-66.2166,7.5407,31.3243],[-66.2009,7.5481,39.5665],[-66.1721,7.5741,39.9494],[-66.1583,7.5804,37.0971],[-66.1351,7.581,55.2051],[-66.1143,7.5735,36.4529],[-66.1038,7.5732,36.7331],[-66.0443,7.5885,32.3039],[-66.0226,7.5903,38.0999],[-66.0047,7.5896,41.4928],[-65.9673,7.5812,32.0414],[-65.9474,7.5794,34.6649],[-65.926,7.5804,38.5434],[-65.9068,7.5848,43.8715],[-65.8599,7.6117,48.7169],[-65.8118,7.6297,39.7881],[-65.7863,7.6545,36.4331],[-65.7726,7.6745,33.6735],[-65.7695,7.6821,32.3618],[-65.752,7.7061,30.8323],[-65.7307,7.7275,32.3135],[-65.7031,7.7621,38.0315],[-65.6918,7.7706,49.3803],[-65.6775,7.7751,48.1005],[-65.6684,7.7848,50.6023],[-65.651,7.7961,86.5035],[-65.6434,7.7976,115.1881],[-65.6344,7.7969,67.492],[-65.6234,7.7932,82.1562],[-65.6073,7.7921,65.9536],[-65.5826,7.7939,55.305],[-65.552,7.7879,63.8111],[-65.5004,7.7845,49.4803],[-65.4919,7.783,52.3993],[-65.4672,7.7735,47.0],[-65.4212,7.7693,46.2919],[-65.3983,7.7605,43.7244],[-65.3838,7.7575,30.1288],[-65.3597,7.7559,47.7512],[-65.3298,7.7451,43.9646],[-65.3318,7.796,29.3233],[-65.3519,7.816,22.5],[-65.3774,7.8322,27.623],[-65.3936,7.8389,22.5],[-65.4281,7.8454,23.0],[-65.4691,7.8458,23.5],[-65.4761,7.8487,23.5],[-65.4824,7.8636,23.5],[-65.4868,7.8856,24.0],[-65.486,7.9031,39.5939],[-65.4825,7.9236,32.8855],[-65.4803,7.9313,35.284],[-65.474,7.9435,53.5895],[-65.4345,7.9834,57.1278],[-65.4221,7.9986,59.2015],[-65.4099,8.0241,58.563],[-65.4028,8.0341,65.4154],[-65.3691,8.0569,62.5735],[-65.3683,8.0824,79.6198],[-65.3486,8.1185,93.2147],[-65.3411,8.127,94.4709],[-65.3126,8.149,114.5778],[-65.3017,8.1606,106.2587],[-65.2946,8.1724,105.0591],[-65.2908,8.1833,100.2887],[-65.2811,8.1979,114.8905],[-65.2628,8.2149,99.3277],[-65.2475,8.2401,89.4941],[-65.2366,8.2515,88.0816],[-65.2079,8.2927,100.4674],[-65.1827,8.3501,83.7257],[-65.1686,8.4028,84.4303],[-65.1614,8.4209,86.272],[-65.1477,8.4368,84.4918],[-65.1411,8.4476,88.3505],[-65.1307,8.472,112.1516],[-65.1287,8.4825,117.1653],[-65.1315,8.5067,103.9656],[-65.1391,8.5296,98.6517],[-65.1495,8.5495,92.5383],[-65.1505,8.5658,93.2501],[-65.1484,8.6023,104.211],[-65.1448,8.6178,105.025],[-65.1378,8.6311,111.4427],[-65.1219,8.65,121.6744],[-65.1074,8.6612,158.1514],[-65.0844,8.6695,133.9539],[-65.0727,8.6723,125.1844],[-65.0651,8.6719,129.0933],[-65.0584,8.6701,137.1113],[-65.0408,8.6605,136.9369],[-65.0144,8.6398,145.699],[-65.0041,8.6341,138.9145],[-64.9836,8.6262,147.688],[-64.9726,8.6235,156.267],[-64.9477,8.6214,208.4121],[-64.8905,8.6115,204.1315],[-64.8653,8.6088,204.036],[-64.8502,8.6088,195.5478],[-64.8412,8.6134,195.2411],[-64.8186,8.6401,195.8035],[-64.7861,8.6895,212.5543],[-64.7701,8.7189,214.371],[-64.7636,8.7346,253.2676],[-64.7607,8.7558,232.6843],[-64.7673,8.779,215.9932],[-64.7862,8.8074,232.2808],[-64.7982,8.8213,223.4327],[-64.8444,8.8571,204.033],[-64.8819,8.8817,165.213],[-64.9194,8.9316,138.0976],[-64.9527,8.9537,141.4372],[-64.9634,8.9649,137.2547],[-64.9689,8.9749,133.6763],[-64.9756,8.9978,117.897],[-64.9794,9.0055,109.7281],[-65.0199,9.0256,109.572],[-65.044,9.0431,97.0868],[-65.0545,9.0462,97.4839],[-65.0815,9.0646,89.3295],[-65.0909,9.0679,98.7209],[-65.1361,9.0655,74.2761],[-65.1653,9.074,78.8484],[-65.1762,9.0814,90.7464],[-65.184,9.1017,83.7096],[-65.1987,9.1887,55.379],[-65.2036,9.2053,67.241],[-65.2289,9.274,48.2097],[-65.2391,9.3128,49.0117],[-65.2496,9.3304,52.1613],[-65.2626,9.3601,49.3599],[-65.2625,9.3705,33.6455],[-65.2573,9.3818,29.3189],[-65.2464,9.3935,30.1095],[-65.2193,9.4071,33.3558],[-65.1857,9.4337,31.5114],[-65.181,9.4392,32.4657],[-65.18,9.4496,45.5598],[-65.1858,9.4747,45.8896],[-65.1911,9.4885,32.5548],[-65.1995,9.4995,28.5533],[-65.208,9.5065,21.9375],[-65.2478,9.5262,41.8127],[-65.2951,9.542,45.3355],[-65.318,9.554,54.7225],[-65.326,9.5601,61.6241],[-65.3523,9.5877,74.1937],[-65.368,9.5987,83.3333],[-65.3827,9.6117,84.3122],[-65.41,9.6402,114.7943],[-65.4175,9.6421,107.6465],[-65.4314,9.639,107.3917],[-65.4562,9.6254,125.2035],[-65.4721,9.6137,123.3321],[-65.5046,9.5764,116.4402],[-65.5143,9.5709,104.2173],[-65.5232,9.5683,111.2779],[-65.5422,9.5762,116.8748],[-65.5764,9.604,161.496],[-65.6088,9.6234,166.52],[-65.6663,9.6674,170.2172],[-65.6924,9.7029,159.0932],[-65.6974,9.711,180.2953],[-65.7014,9.7229,163.9073],[-65.7019,9.7423,172.172],[-65.6978,9.7605,171.1023],[-65.6856,9.7992,216.3026],[-65.6811,9.8203,235.2148],[-65.6815,9.8334,259.8521],[-65.6983,9.8752,482.2885],[-65.7021,9.8943,447.0968],[-65.7207,9.9272,515.0343],[-65.7223,9.9358,498.1625],[-65.7219,9.948,629.7633],[-65.7266,9.9679,506.5558],[-65.7732,9.9729,446.9786],[-65.9588,9.9749,497.2975],[-66.0206,9.9854,711.7497],[-66.0437,9.9858,454.7796],[-66.0633,9.9798,515.5731],[-66.0844,9.9707,771.9612],[-66.1167,9.9649,648.2081],[-66.135,9.9652,621.7773],[-66.2286,9.9853,703.7244],[-66.2812,9.994,684.0983],[-66.2988,10.0001,863.2501],[-66.3092,10.0077,759.4006],[-66.3385,10.0412,1052.5938],[-66.359,10.0529,620.685],[-66.3821,10.0589,1034.2725],[-66.4017,10.0594,810.9246],[-66.4313,10.0489,656.2465],[-66.4534,10.036,502.2319],[-66.4788,10.0158,1139.4803],[-66.5037,10.0,760.7949],[-66.5243,9.9913,655.9048],[-66.5485,9.983,543.6869],[-66.5697,9.9794,869.3901],[-66.5993,9.9777,985.2593],[-66.6258,9.9792,748.471],[-66.6183,9.9627,859.5634],[-66.6177,9.956,824.9573],[-66.6228,9.9271,618.094],[-66.6208,9.9176,594.1447],[-66.6155,9.9056,571.8021],[-66.609,9.8956,668.3062],[-66.6068,9.8822,701.9843],[-66.6104,9.8506,436.0738],[-66.6099,9.8206,419.9927],[-66.6131,9.802,414.4815],[-66.6193,9.786,390.2662],[-66.6318,9.7682,354.1516],[-66.6358,9.7591,306.2744],[-66.6389,9.7483,287.6964],[-66.6334,9.7486,281.8913],[-66.6386,9.7392,337.1805],[-66.6388,9.7286,280.2231],[-66.6322,9.7145,261.3258],[-66.6201,9.7014,270.6615],[-66.5863,9.6558,262.2427],[-66.5885,9.5881,224.9477],[-66.5965,9.5599,219.0171],[-66.5996,9.5384,209.1378],[-66.5961,9.5196,206.2585],[-66.5777,9.4864,181.8375],[-66.5882,9.4448,172.9716],[-66.5952,9.4284,178.5789],[-66.6004,9.3871,166.5327],[-66.6071,9.3685,160.0069],[-66.6175,9.3471,157.2721],[-66.661,9.2979,155.9763],[-66.6899,9.2608,148.2068],[-66.7078,9.241,146.3104],[-66.7124,9.2377,145.1885],[-66.7292,9.2354,144.1936],[-66.7393,9.2385,152.6315],[-66.7553,9.2481,146.9991],[-66.7965,9.2824,158.417],[-66.8372,9.319,156.1047],[-66.9378,9.437,173.577],[-66.956,9.449,171.7652],[-66.9734,9.4557,159.4316],[-66.9912,9.4594,158.5696],[-67.0022,9.4663,162.7043],[-67.0096,9.4769,194.8592],[-67.0112,9.4894,177.6075],[-67.0095,9.4985,182.6733],[-66.982,9.5482,186.132],[-66.9644,9.5635,177.3424],[-66.93,9.5723,190.7],[-66.9076,9.5802,187.4619],[-66.8898,9.5918,194.8963],[-66.8757,9.6069,198.9448],[-66.8695,9.6243,215.732],[-66.867,9.6399,215.6578],[-66.8682,9.6816,218.5439],[-66.871,9.6907,217.2348],[-66.8914,9.7066,221.7409],[-66.9108,9.7172,234.1728],[-66.9464,9.7301,457.8254],[-66.9631,9.7397,561.7746],[-66.9688,9.7457,445.0763],[-66.9789,9.7747,335.2206],[-66.9839,9.7805,309.5222],[-67.0122,9.7873,316.5928],[-67.0265,9.7972,302.2847],[-67.0472,9.818,298.0],[-67.0582,9.8247,415.0443],[-67.0842,9.8288,500.8365],[-67.0969,9.8366,350.9648],[-67.113,9.8591,317.9106],[-67.1386,9.879,413.277],[-67.1664,9.9233,347.6997],[-67.1771,9.9323,370.2852],[-67.1924,9.9393,356.4253],[-67.2073,9.9409,467.8102],[-67.2475,9.9409,531.0364],[-67.2653,9.95,472.231],[-67.2786,9.9591,587.8765],[-67.2898,9.9633,568.6486],[-67.3054,9.9634,585.83],[-67.3277,9.9666,476.3549],[-67.3453,9.9721,533.639],[-67.3881,9.9971,588.1608],[-67.4081,10.0014,828.5809],[-67.4275,9.9983,530.2505],[-67.4627,9.9859,615.9298],[-67.4821,9.9812,893.4609],[-67.5008,9.981,675.0067],[-67.5083,9.983,849.2241],[-67.5105,9.9553,594.724],[-67.5075,9.9406,944.2784],[-67.5009,9.9244,945.5087],[-67.5006,9.9081,894.1558],[-67.5037,9.9045,979.1535],[-67.5168,9.9031,1266.197],[-67.5242,9.9076,1073.7729],[-67.535,9.9193,795.1643],[-67.5439,9.9206,883.231],[-67.5562,9.914,1085.4033],[-67.5645,9.9032,1357.8962],[-67.5716,9.8890999999999991,1037.9717],[-67.579,9.8806,929.9122],[-67.6257,9.8768,656.356],[-67.6426,9.8647,784.2838],[-67.6524,9.8545,604.4462],[-67.6727,9.8418,522.752],[-67.6901,9.8409,509.3829],[-67.6996,9.8454,612.317],[-67.717,9.8729,903.3744],[-67.7317,9.8905,1167.8999],[-67.7582,9.9147,763.6017],[-67.7697,9.9235,694.0685],[-67.7834,9.9281,709.6861],[-67.799,9.9239,1021.3145],[-67.8074,9.9143,881.966],[-67.8091,9.9016,1031.9039],[-67.8025,9.855,834.5732],[-67.7963,9.8531,823.4971],[-67.7892,9.8467,1201.7631],[-67.7811,9.833,1164.8535],[-67.7674,9.8033,541.0756],[-67.7586,9.7921,532.5958],[-67.7494,9.7608,655.6235],[-67.7332,9.7359,327.0173],[-67.7283,9.7165,303.649],[-67.7332,9.7012,312.4139],[-67.7596,9.6875,299.2965],[-67.7738,9.6698,286.4574],[-67.8051,9.6444,259.0462],[-67.8363,9.6318,262.2009],[-67.854,9.6296,232.5491],[-67.8711,9.6308,244.57],[-67.8834,9.629,262.3956],[-67.896,9.618,184.5939],[-67.9058,9.5892,436.6434],[-67.931,9.5739,161.8268],[-67.937,9.5635,151.6353],[-67.9396,9.547,160.1064],[-67.9341,9.5292,130.5007],[-67.9151,9.4985,131.6695],[-67.9098,9.4871,119.7564],[-67.908,9.4748,125.2899],[-67.9041,9.4662,116.5747],[-67.9033,9.4505,126.1041],[-67.9052,9.4284,110.6504],[-67.8949,9.4007,116.0872],[-67.8969,9.3853,111.6979],[-67.9157,9.3351,96.5289],[-67.9179,9.3224,103.5766],[-67.9136,9.3086,94.2045],[-67.9046,9.2972,92.037],[-67.8816,9.2753,87.7285],[-67.8623,9.2421,91.5283],[-67.862,9.2239,89.4723],[-67.8644,9.1952,84.3277],[-67.8629,9.1785,81.5903],[-67.8668,9.1411,85.8922],[-67.8651,9.1287,80.1596],[-67.856,9.1149,74.4261],[-67.8453,9.1029,73.2494],[-67.8401,9.0862,74.801],[-67.8434,9.0686,72.1286],[-67.8524,9.0503,70.7606],[-67.8655,9.0106,67.96],[-67.8782,8.9879,69.5831],[-67.9101,8.9497,68.0574],[-67.941,8.9215,67.9467],[-67.9686,8.8819,62.8742],[-67.9878,8.8414,66.2812],[-67.9916,8.8262,67.8248],[-67.9903,8.8043,67.0958],[-67.9931,8.7913,66.6269],[-68.0123,8.7769,63.5843],[-68.0206,8.7618,61.0965],[-68.0224,8.7507,61.9987],[-68.0245,8.7077,60.2924],[-68.0124,8.6894,63.9104],[-68.0081,8.6754,68.4073],[-68.0119,8.6414,54.4384],[-68.0076,8.6204,56.3539],[-68.0228,8.5906,53.876],[-68.0196,8.5711,53.5023],[-67.9991,8.5281,53.1255],[-67.9949,8.5123,53.025],[-67.9996,8.4868,68.988],[-68.0147,8.4601,56.9821],[-68.0248,8.4476,53.7901],[-68.0123,8.4275,52.0793],[-67.9924,8.4085,52.1089],[-67.9707,8.3939,53.0724],[-67.9236,8.3757,54.6728],[-67.8925,8.3776,52.1506],[-67.8808,8.37,50.82],[-67.8751,8.3448,54.8905],[-67.8622,8.3292,53.3481],[-67.8401,8.3101,49.9968],[-67.8367,8.3043,50.285],[-67.8352,8.2936,49.9172],[-67.8382,8.276,49.5286],[-67.8316,8.2681,52.7453],[-67.8115,8.2681,49.0842],[-67.7985,8.264,49.9776],[-67.7902,8.2524,48.9197],[-67.7921,8.2322,48.6214],[-67.7888,8.223,47.1158],[-67.7671,8.2074,48.4554],[-67.7411,8.1971,51.3893],[-67.6951,8.1655,47.4306],[-67.6782,8.1509,49.0528],[-67.6605,8.1225,45.8103],[-67.6506,8.1144,47.7819],[-67.6388,8.1098,45.8041],[-67.6315,8.1047,46.3217],[-67.6266,8.0978,48.9926],[-67.6248,8.0795,45.5852],[-67.6194,8.0628,45.8073],[-67.5916,8.0155,45.2148],[-67.5905,8.0106,44.5408],[-67.5946,8.0042,44.9335],[-67.6031,8.0013,44.7217],[-67.6064,7.9982,45.1509],[-67.6079,7.9896,45.2562],[-67.5937,7.9561,49.3639],[-67.5908,7.9416,46.0303],[-67.5849,7.9296,50.9481],[-67.5588,7.9063,44.9673],[-67.5524,7.8922,44.3113],[-67.5503,7.8804,49.0969],[-67.5501,7.8591,46.4555],[-67.541,7.8507,45.9529],[-67.5305,7.8479,46.3737],[-67.5004,7.8483,42.6363],[-67.4889,7.8455,43.9078],[-67.4568,7.8536,42.2169],[-67.4377,7.8803,43.3538],[-67.4218,7.8815,43.9609],[-67.4094,7.8787,43.3844],[-67.378,7.8624,43.4753],[-67.3532,7.853,42.9962],[-67.3343,7.8407,40.6506],[-67.3156,7.8342,40.4309],[-67.2754,7.8303,43.3076],[-67.2422,7.8241,40.8906],[-67.2073,7.8202,39.5857],[-67.1929,7.8168,38.8507],[-67.1565,7.7943,37.7088],[-67.1386,7.7925,38.836],[-67.0445,7.7902,38.1236],[-67.0154,7.7829,37.4948],[-66.9854,7.7708,36.921],[-66.9557,7.7664,36.633],[-66.9357,7.7581,36.9637],[-66.8879,7.743,36.1931],[-66.8717,7.7344,35.7594],[-66.861,7.7217,36.7939],[-66.8547,7.7109,34.7105],[-66.8382,7.6913,35.6461],[-66.8134,7.679,33.7747],[-66.792,7.6906,35.1639],[-66.7756,7.6877,34.7717],[-66.7358,7.6865,33.829],[-66.7082,7.69,33.8824],[-66.6967,7.6947,34.5589],[-66.6935,7.7038,33.6381],[-66.6951,7.7154,34.1936],[-66.7043,7.7345,34.6078],[-66.7056,7.7444,34.8896],[-66.7014,7.7568,38.9375],[-66.6848,7.7643,34.3651],[-66.6683,7.7679,34.2396]]]]}
,"properties": {"GID_1": "VEN.13_1","GID_0": "VEN","country": "Venezuela","province": "Guárico","VARNAME_1": "NA","NL_NAME_1": "NA","TYPE_1": "Estado","ENGTYPE_1": "State","CC_1": "NA","HASC_1": "NA","ISO_1": "NA","name": "Guárico.province","area_km2": 67533.58,"hist_schema_id": "Elevation0-9000","hist_area_km2": {"25": 4183.93,"50": 13176.74,"75": 9225.83,"100": 8994.42,"125": 9767.61,"150": 7969.92,"175": 3991.79,"200": 2134.89,"225": 1685.54,"250": 1269.49,"275": 922.14,"300": 692.64,"325": 500.88,"350": 402.33,"375": 333.07,"400": 265.59,"425": 218.97,"450": 176.16,"475": 146.97,"500": 127.63,"525": 115.24,"550": 108.74,"575": 102.72,"600": 97.06,"625": 91.0,"650": 83.56,"675": 78.93,"700": 71.12,"725": 66.9,"750": 60.99,"775": 55.14,"800": 48.04,"825": 43.17,"850": 39.01,"875": 33.58,"900": 28.93,"925": 25.94,"950": 22.68,"975": 19.71,"1000": 17.33,"1025": 14.91,"1050": 13.91,"1075": 12.78,"1100": 12.11,"1125": 10.98,"1150": 8.75,"1175": 8.88,"1200": 7.6,"1225": 7.06,"1250": 5.72,"1275": 5.43,"1300": 4.97,"1325": 3.76,"1350": 3.28,"1375": 3.34,"1400": 2.11,"1425": 2.36,"1450": 1.52,"1475": 1.19,"1500": 0.96,"1525": 1.09,"1550": 0.69,"1600": 0.54,"1675": 0.54}}}