{"type":"Feature","properties":{"featurecla":"River","scalerank":8,"rivernum":644,"dissolve":"644River","name":"Guárico3","name_alt":null,"note":null,"min_zoom":7.0,"strokeweig":0.2,"name_en":"Guárico","min_label":8.0},
"geometry":{"type": "LineString","coordinates": [[-67.40234375,8.96137116093162,98.0],[-67.436572265624989,8.94147369999412,82.0584],[-67.452734374999991,8.9278506531191084,75.8109],[-67.456396484374991,8.92157623905662,83.5994],[-67.458178710937489,8.9135928406191169,84.6558],[-67.456469726562489,8.90875885624412,85.7872],[-67.453173828124989,8.90570709843162,85.098],[-67.451269531249991,8.9011416687441169,84.2493],[-67.45087890625,8.89386627811912,83.3239],[-67.454443359374991,8.87592194218162,75.8205],[-67.455004882812489,8.86591217655662,77.1673],[-67.453857421875,8.85858795780662,78.7965],[-67.448828124999991,8.8501162781191169,82.3115],[-67.447119140624991,8.84503815311912,78.3523],[-67.4453125,8.83331940311912,85.7425],[-67.441357421875,8.8200869812441169,77.0955],[-67.439624023437489,8.80866119999412,74.4061],[-67.438085937499991,8.77277252811912,76.7952],[-67.436206054687489,8.7646670593691169,71.1325],[-67.431689453124989,8.7575869812441169,71.7511],[-67.430029296874991,8.75397369999412,74.6179],[-67.428320312499991,8.74811432499412,71.4778],[-67.42919921875,8.74323151249412,70.7044],[-67.431884765625,8.7378115906191169,74.3092],[-67.4296875,8.68207428593162,69.6174],[-67.431494140624991,8.66950104374412,68.4985],[-67.43408203125,8.66120026249412,74.3344],[-67.447021484375,8.64630768436912,75.8336],[-67.482470703124989,8.61969635624412,68.6888],[-67.499121093749991,8.60333893436912,65.8102],[-67.505786132812489,8.5935244812441169,68.1239],[-67.508056640625,8.5857119812441169,67.4156],[-67.509082031249989,8.5715518249941169,73.0389],[-67.512866210937489,8.5672549499941084,71.7944],[-67.518969726562489,8.5617861999941169,71.2486],[-67.520263671875,8.5570010437441084,64.7427],[-67.51611328125,8.54254791874412,62.9636],[-67.515673828124989,8.5258975281191169,65.4437],[-67.519580078124989,8.5124697937441169,63.607],[-67.519677734375,8.50470612186912,64.395],[-67.51904296875,8.5010928406191084,63.787],[-67.5146484375,8.49469635624412,70.5822],[-67.510107421874991,8.48444244999412,68.0341],[-67.508227539062489,8.47662994999412,66.339],[-67.505541992187489,8.4724307312441169,63.9411],[-67.498950195312489,8.4683779968691084,61.1968],[-67.495458984374991,8.46539948124412,65.2086],[-67.492919921875,8.45990631718162,61.3142],[-67.493359375,8.45514557499412,64.8639],[-67.495898437499989,8.45209381718162,64.6554],[-67.500170898437489,8.44928619999412,60.074]]}}