{"type":"Feature","properties":{"featurecla":"Lake Centerline","scalerank":8,"rivernum":644,"dissolve":"644Lake Centerline","name":"Guárico1","name_alt":null,"note":null,"min_zoom":7.0,"strokeweig":0.2,"name_en":"Guárico","min_label":8.0},
"geometry":{"type": "LineString","coordinates": [[-67.40234375,8.96137116093162,98.0],[-67.402270507812489,8.9614444031191169,98.0],[-67.402270507812489,8.9614444031191169,98.0],[-67.392333984375,8.97443268436912,98.0],[-67.386157226562489,8.9912295593691169,98.0],[-67.378662109375,9.03961823124412,98.0],[-67.360107421875,9.08808014530662,98.0],[-67.363134765624991,9.11102936405662,101.0314],[-67.369970703124991,9.12653229374412,99.4117],[-67.38232421875,9.1446475281191084,98.0],[-67.392822265625,9.1580752624941084,105.983]]}}