{"type": "Feature","id": "45","bbox": [-68.03649,7.63612,-64.78994,10.01944],"geometry": {"type": "Polygon","coordinates": [[[-66.28817,9.97864,1063.7546],[-66.29835,9.98011,837.1801],[-66.30582,9.98229,931.8452],[-66.33416,9.99701,1195.245],[-66.33654,9.99898,1298.4169],[-66.3377,10.00006,1298.4169],[-66.35109,10.00712,971.0055],[-66.37168,10.01556,983.7538],[-66.38341,10.01859,1119.0166],[-66.39248,10.01944,810.8657],[-66.39845,10.01859,814.843],[-66.41809,10.01246,818.7108],[-66.42062,10.01107,819.5011],[-66.42377,10.00882,727.5963],[-66.42677,10.00603,589.8557],[-66.43868,9.98988,755.4921],[-66.45012,9.98198,942.8376],[-66.48604,9.97593,822.0435],[-66.52782,9.96838,659.3737],[-66.61275,9.96645,933.5356],[-66.58477,9.82532,428.0305],[-66.5835,9.81183,419.892],[-66.58376,9.79878,460.791],[-66.58655,9.78746,452.9159],[-66.59167,9.77878,360.7825],[-66.5996,9.77274,321.2253],[-66.60944,9.76876,369.136],[-66.61776,9.76418,320.1332],[-66.62275,9.75481,296.5362],[-66.6236,9.74245,281.3824],[-66.62107,9.72098,298.6031],[-66.61704,9.70755,271.0016],[-66.6113,9.69685,266.7291],[-66.60453,9.69011,248.1807],[-66.59691,9.6838,249.3744],[-66.57123,9.66783,230.8069],[-66.56262,9.65982,232.8851],[-66.55428,9.65021,238.2591],[-66.54555,9.63401,234.6434],[-66.54306,9.62275,216.4337],[-66.54407,9.6112,222.976],[-66.55069,9.59032,219.3809],[-66.56774,9.55107,195.3485],[-66.57154,9.53957,194.1549],[-66.5742,9.52771,189.3526],[-66.57575,9.51311,187.8199],[-66.57322,9.50498,185.5254],[-66.57115,9.50063,184.198],[-66.5634,9.4911,180.651],[-66.55759,9.48007,181.8062],[-66.55658,9.47092,186.2434],[-66.55844,9.4609,189.0631],[-66.57549,9.40948,173.3806],[-66.58056,9.40193,167.2621],[-66.58528,9.39868,166.2838],[-66.59381,9.3955,166.8201],[-66.60272,9.39348,170.2254],[-66.62319,9.39162,175.7478],[-66.6797,9.39348,183.048],[-66.68582,9.3948,174.4944],[-66.69391,9.39806,174.2956],[-66.72393,9.41506,188.1749],[-66.74241,9.4225,203.0472],[-66.76186,9.42723,197.976],[-66.80018,9.43188,213.2925],[-66.80974,9.43446,212.7961],[-66.83033,9.4433,203.2195],[-66.84982,9.45384,181.57],[-66.85945,9.45694,183.0303],[-66.88165,9.45989,187.9226],[-66.96146,9.45725,169.7021],[-66.99058,9.45198,156.3433],[-66.99733,9.45229,156.6606],[-67.00169,9.45973,156.9978],[-66.99805,9.4717,162.8757],[-66.99242,9.48299,159.6947],[-66.98624,9.50089,162.6244],[-66.98389,9.50562,162.6291],[-66.98051,9.50932,165.6007],[-66.95433,9.52363,181.5291],[-66.93345,9.53012,170.4977],[-66.90392,9.53461,177.0377],[-66.89899,9.53655,186.6172],[-66.8947,9.53903,176.4201],[-66.88713,9.54601,179.0717],[-66.87638,9.56177,179.312],[-66.85723,9.59905,184.1523],[-66.85586,9.60456,184.8723],[-66.85511,9.61037,196.2214],[-66.85785,9.63962,191.3073],[-66.8564,9.66026,196.8053],[-66.85757,9.66848,197.9376],[-66.85873,9.67225,202.9127],[-66.86609,9.67559,220.6072],[-66.87343,9.67551,223.7665],[-66.8855,9.67342,214.2869],[-66.89775,9.67248,235.6133],[-66.90392,9.67318,235.7191],[-66.90911,9.67497,214.5258],[-66.92622,9.68589,252.957],[-66.93146,9.68825,286.4801],[-66.94854,9.69173,385.7118],[-66.97376,9.73726,472.4911],[-66.98622,9.75,413.1284],[-66.99128,9.75163,503.5487],[-66.9965,9.7524,468.5846],[-67.00634,9.75287,336.7778],[-67.0141,9.75395,311.7213],[-67.02637,9.75744,349.1671],[-67.03249,9.76155,333.5538],[-67.03707,9.76705,319.7917],[-67.04001,9.7732,367.0572],[-67.0452,9.78134,358.2252],[-67.05112,9.78467,371.5144],[-67.05756,9.78607,435.6166],[-67.07283,9.7877,378.8715],[-67.10161,9.79951,406.416],[-67.10634,9.81408,515.0468],[-67.1091,9.81772,417.2137],[-67.11458,9.82361,420.1583],[-67.13471,9.84154,375.7803],[-67.14161,9.85061,405.6689],[-67.14587,9.85759,459.2834],[-67.1676,9.90524,419.921],[-67.17295,9.9119,403.1966],[-67.18135,9.91983,430.5466],[-67.21184,9.92433,374.5104],[-67.2254,9.92374,441.5844],[-67.23891,9.91805,412.7636],[-67.25504,9.91412,352.5681],[-67.25935,9.91201,353.8697],[-67.26385,9.91113,357.3465],[-67.26873,9.91219,365.4534],[-67.27408,9.91885,377.4247],[-67.27721,9.92448,446.4904],[-67.28103,9.92898,455.9567],[-67.28558,9.93138,406.0615],[-67.31253,9.93128,402.3654],[-67.34061,9.92642,400.9218],[-67.36108,9.93665,435.3281],[-67.42813,9.9874,542.6648],[-67.43298,9.98585,705.4047],[-67.43608,9.98639,588.1804],[-67.44283,9.98585,515.5762],[-67.46161,9.97694,610.2701],[-67.53412,9.95149,708.1727],[-67.52577,9.91875,1082.3335],[-67.52903,9.90679,912.1302],[-67.53285,9.90524,887.3942],[-67.5368,9.90648,951.6419],[-67.54001,9.90973,993.841],[-67.54608,9.91751,862.0601],[-67.55083,9.91999,1037.5952],[-67.5575,9.92014,1221.6145],[-67.5667,9.91689,1173.8291],[-67.57155,9.91252,1163.8496],[-67.57473,9.90741,1128.2594],[-67.576,9.9019,1353.0903],[-67.58285,9.88374,951.1776],[-67.59142,9.86637,836.9232],[-67.59726,9.86017,765.7325],[-67.60251,9.85886,814.2748],[-67.61287,9.86886,686.2711],[-67.61721,9.87126,654.0331],[-67.62222,9.87234,637.4134],[-67.62734,9.87157,680.7054],[-67.63184,9.86963,766.2133],[-67.64925,9.85948,641.4496],[-67.68103,9.84534,446.4238],[-67.69077,9.84286,512.155],[-67.69907,9.84232,549.6531],[-67.70392,9.84441,598.2462],[-67.70733,9.84767,687.5869],[-67.7086,9.85224,785.36],[-67.70798,9.85728,754.6074],[-67.70625,9.86227,722.8824],[-67.70188,9.87157,703.5381],[-67.70049,9.87575,785.9019],[-67.70142,9.87971,744.5331],[-67.70441,9.88296,864.9305],[-67.70904,9.88508,699.2576],[-67.72751,9.88795,975.3271],[-67.73235,9.8902,1099.2584],[-67.73658,9.89299,1221.9889],[-67.74007,9.89632,1113.6396],[-67.7464,9.90376,947.9958],[-67.75681,9.92038,714.6534],[-67.75979,9.9234,751.8336],[-67.76537,9.92627,633.1038],[-67.77273,9.9289,694.3182],[-67.78534,9.93208,692.8458],[-67.79307,9.93185,837.4434],[-67.79919,9.93045,1004.227],[-67.80748,9.92542,1075.3679],[-67.81407,9.91759,803.29],[-67.80715,9.87165,832.6596],[-67.80113,9.85201,826.8694],[-67.78883,9.82705,876.5814],[-67.78937,9.79839,673.5396],[-67.78581,9.78568,918.8475],[-67.78338,9.78142,932.1597],[-67.75787,9.7098,304.1595],[-67.75521,9.69259,296.5197],[-67.7563,9.68272,277.5538],[-67.76165,9.68179,287.0209],[-67.77211,9.68132,291.9559],[-67.77668,9.67962,312.55],[-67.78059,9.67683,311.4276],[-67.81629,9.64316,252.3535],[-67.82487,9.63789,261.5458],[-67.84833,9.62716,252.0512],[-67.85402,9.62569,240.2597],[-67.86009,9.62484,257.5324],[-67.86647,9.62507,244.9207],[-67.87213,9.62616,219.8354],[-67.87681,9.62848,239.3941],[-67.88097,9.6312,242.3586],[-67.88551,9.63316,258.7536],[-67.8904,9.63386,255.2737],[-67.89484,9.63244,251.0801],[-67.89916,9.63011,288.5746],[-67.91533,9.61647,185.4234],[-67.92637,9.60422,176.0419],[-67.93096,9.59637,195.9305],[-67.93342,9.58954,191.9122],[-67.92947,9.5727,157.534],[-67.9314,9.56859,148.7464],[-67.93481,9.56541,150.4255],[-67.94983,9.55774,148.5013],[-67.95585,9.55386,147.7364],[-67.96331,9.54639,143.5544],[-67.96406,9.54182,140.9206],[-67.96127,9.5395,146.3697],[-67.95693,9.53857,143.286],[-67.95246,9.5357,139.6568],[-67.94838,9.52035,131.7168],[-67.94636,9.51474,127.6345],[-67.943,9.5118,125.4199],[-67.93835,9.5097,125.7388],[-67.93443,9.50707,123.2809],[-67.93164,9.5042,122.9928],[-67.92996,9.49932,121.0461],[-67.92947,9.49645,121.6829],[-67.9198,9.46712,120.9613],[-67.9174,9.45593,120.781],[-67.91673,9.44973,116.6037],[-67.91673,9.40759,110.4072],[-67.91934,9.3786,113.3573],[-67.92471,9.35881,109.4618],[-67.93993,9.32708,107.6228],[-67.94195,9.3176,99.3058],[-67.94218,9.31,102.7476],[-67.94001,9.30543,96.5243],[-67.90724,9.26243,96.9808],[-67.87105,9.18259,83.6535],[-67.85397,9.08516,76.7722],[-67.855,9.07257,71.9525],[-67.8657,9.03736,74.2174],[-67.87526,9.01594,67.1923],[-67.90327,8.96739,79.9317],[-67.90905,8.95925,70.6012],[-67.91254,8.95581,74.9543],[-67.92577,8.94829,71.5868],[-67.92972,8.94535,74.5653],[-67.93959,8.93449,69.425],[-67.94944,8.92865,66.5628],[-67.95554,8.92385,61.6052],[-67.96344,8.91509,67.1413],[-67.96698,8.9078,72.5867],[-67.96964,8.89747,61.575],[-67.97685,8.85233,69.0279],[-67.99272,8.83114,66.1534],[-68.01272,8.7496,65.0339],[-68.01372,8.73611,64.2228],[-68.01217,8.72856,63.3993],[-68.00951,8.72438,67.247],[-68.00698,8.71794,55.7015],[-68.00517,8.70911,62.6924],[-68.00367,8.68125,62.0024],[-67.99897,8.66193,54.8941],[-67.99863,8.65464,55.9945],[-67.9992,8.64898,60.5865],[-68.01117,8.61761,61.7448],[-68.01287,8.608,58.9741],[-68.01334,8.59986,59.7358],[-68.01181,8.59451,55.5098],[-68.00972,8.58984,60.3119],[-68.00112,8.57953,56.3718],[-67.99925,8.5762,57.5594],[-67.99716,8.57092,54.2622],[-67.9953,8.5616,60.6757],[-67.99602,8.55547,59.5512],[-67.99789,8.55074,59.3221],[-68.00029,8.5485,54.0958],[-68.00339,8.54702,53.7577],[-68.01357,8.54524,55.3306],[-68.0169,8.54369,54.8571],[-68.0244,8.53281,55.1786],[-68.03649,8.5385,53.5131],[-68.00507,8.50519,53.9714],[-68.00003,8.49542,58.2458],[-67.99571,8.49008,52.7258],[-67.97466,8.47563,52.5329],[-67.97181,8.46959,53.898],[-67.97791,8.45644,55.2523],[-67.97964,8.44894,56.8431],[-67.97523,8.44569,58.1831],[-67.96962,8.44481,52.0363],[-67.96406,8.44243,51.8749],[-67.95983,8.43912,51.9481],[-67.95817,8.43545,51.8281],[-67.95618,8.42589,51.3831],[-67.95122,8.41463,52.727],[-67.94458,8.40435,54.3477],[-67.93768,8.39789,52.4648],[-67.93011,8.39706,51.8018],[-67.91657,8.40419,51.4343],[-67.91037,8.40411,51.2748],[-67.90761,8.40011,50.5372],[-67.90479,8.38734,51.2725],[-67.90293,8.38362,52.2249],[-67.888,8.37277,51.4032],[-67.88306,8.36998,50.9086],[-67.87546,8.3697,50.8626],[-67.86107,8.37706,50.8521],[-67.85575,8.3768,50.8635],[-67.85081,8.36716,50.6909],[-67.85391,8.35608,51.41],[-67.85968,8.34337,50.5419],[-67.86257,8.329,53.3481],[-67.85575,8.329,55.8916],[-67.84983,8.3345,55.8544],[-67.84655,8.33388,50.1025],[-67.84358,8.33084,50.0301],[-67.83836,8.329,51.6226],[-67.83911,8.32629,49.9429],[-67.83206,8.32066,49.9262],[-67.82379,8.31577,50.3331],[-67.821,8.31536,49.8926],[-67.82002,8.30867,49.8039],[-67.82141,8.29154,49.6653],[-67.81759,8.28805,49.7184],[-67.80785,8.28776,49.4435],[-67.8019,8.28621,49.2841],[-67.79785,8.28213,49.1707],[-67.79369,8.27438,48.5863],[-67.79154,8.2797,48.6335],[-67.78929,8.28376,49.0275],[-67.78756,8.28828,49.0353],[-67.78686,8.29487,49.3188],[-67.78002,8.29487,51.2371],[-67.77583,8.28756,49.3924],[-67.77382,8.27895,48.8452],[-67.77185,8.24291,48.6638],[-67.76787,8.23908,48.7137],[-67.76144,8.24001,49.4627],[-67.71516,8.24025,50.9729],[-67.70806,8.23694,49.258],[-67.69289,8.22244,49.0321],[-67.68754,8.21914,47.8134],[-67.67741,8.20953,47.5557],[-67.66563,8.16731,47.7888],[-67.65992,8.15769,47.2277],[-67.64845,8.15136,47.5854],[-67.63561,8.13571,46.0675],[-67.6255,8.11568,46.405],[-67.62238,8.09625,46.8757],[-67.60946,8.09889,43.8084],[-67.5992,8.09369,49.0262],[-67.58861,8.0863,48.6689],[-67.57458,8.08258,47.2271],[-67.57913,8.07336,50.8281],[-67.58021,8.06625,58.1575],[-67.57851,8.06034,47.4383],[-67.57458,8.05465,47.4289],[-67.57458,8.04845,43.9313],[-67.59688,8.05455,45.829],[-67.59509,8.04731,50.413],[-67.57458,8.02734,44.7283],[-67.56357,7.9952,50.341],[-67.55274,7.98468,49.2715],[-67.53362,7.99321,44.8245],[-67.51673,7.9813,45.8601],[-67.519,7.97161,45.6501],[-67.53194,7.96417,45.7089],[-67.54422,7.95877,45.2236],[-67.53551,7.94228,45.2908],[-67.54665,7.92494,45.0086],[-67.53812,7.91701,41.8973],[-67.52794,7.91585,45.9808],[-67.51693,7.91737,48.1967],[-67.50567,7.91748,40.0],[-67.48089,7.90582,47.658],[-67.46812,7.90383,45.3726],[-67.43368,7.90383,42.4563],[-67.42632,7.90554,42.3126],[-67.41805,7.90903,43.546],[-67.40813,7.91174,43.1675],[-67.39583,7.91127,45.668],[-67.3379,7.88908,44.9388],[-67.32754,7.88024,49.5272],[-67.32082,7.85626,45.0859],[-67.30454,7.84293,41.6884],[-67.26672,7.82872,44.7768],[-67.25157,7.81766,45.8913],[-67.24077,7.80676,42.7972],[-67.22649,7.79852,42.4427],[-67.17742,7.7902,39.2483],[-67.15871,7.78009,37.0995],[-67.13969,7.77224,38.4324],[-67.11528,7.7741,41.4811],[-67.07854,7.79363,37.7291],[-67.05675,7.79746,37.6335],[-67.0157,7.76953,37.84],[-66.99428,7.77255,37.4027],[-66.97262,7.78257,36.7152],[-66.95079,7.78839,36.8225],[-66.94317,7.78614,36.9212],[-66.93813,7.78123,36.5053],[-66.93183,7.77635,36.8373],[-66.83067,7.76046,35.9536],[-66.82462,7.76154,35.2794],[-66.81548,7.76619,35.0611],[-66.81052,7.76728,34.9856],[-66.80282,7.76534,35.1091],[-66.79196,7.75661,35.0999],[-66.78631,7.75426,35.0594],[-66.76478,7.75511,34.4133],[-66.66303,7.78296,33.5331],[-66.63954,7.78508,31.9083],[-66.62244,7.78092,33.2728],[-66.61577,7.78454,32.553],[-66.57404,7.79521,32.8931],[-66.56751,7.79565,33.2862],[-66.55203,7.79384,34.044],[-66.54609,7.79521,34.5429],[-66.54376,7.79994,33.6062],[-66.54523,7.80565,33.3818],[-66.54555,7.81107,34.0839],[-66.53989,7.81508,34.6398],[-66.52751,7.81634,37.0557],[-66.51942,7.81182,33.9156],[-66.49831,7.78839,34.0984],[-66.48728,7.78229,36.0384],[-66.47576,7.77782,34.1849],[-66.47041,7.7717,33.2903],[-66.47782,7.76046,31.4827],[-66.45653,7.74622,31.942],[-66.42594,7.73322,34.3825],[-66.3948,7.72787,35.3884],[-66.3614,7.74128,31.3707],[-66.35261,7.73578,41.31],[-66.33005,7.70354,32.2847],[-66.3246,7.68759,33.4237],[-66.32476,7.6701,28.5],[-66.33036,7.64946,27.0],[-66.33052,7.64842,27.0],[-66.31796,7.64834,27.0],[-66.26466,7.63775,27.0],[-66.23629,7.63612,27.0],[-66.21569,7.64129,30.4615],[-66.17546,7.66739,27.0],[-66.13089,7.68382,27.0],[-66.08175,7.68351,27.0],[-65.9838,7.66951,30.6817],[-65.95966,7.6715,27.0],[-65.93946,7.67917,27.0],[-65.83399,7.75715,32.1274],[-65.78699,7.82262,31.1503],[-65.76849,7.84107,32.592],[-65.74658,7.85469,26.5],[-65.64816,7.89991,25.5],[-65.59783,7.90972,27.113],[-65.54287,7.89996,24.5],[-65.47316,7.86663,23.5],[-65.44677,7.86146,27.3094],[-65.41967,7.86151,27.853],[-65.35665,7.86942,26.0202],[-65.35911,7.87869,24.7262],[-65.36693,7.89848,28.6766],[-65.37091,7.90469,34.2148],[-65.37737,7.91158,27.1355],[-65.38494,7.91786,26.3841],[-65.38921,7.9206,26.8099],[-65.39972,7.92417,27.4943],[-65.41153,7.92665,30.8953],[-65.43771,7.92758,25.5],[-65.46264,7.92556,34.8419],[-65.46905,7.92564,36.5519],[-65.47517,7.92642,37.7565],[-65.48031,7.92835,31.1496],[-65.4845,7.93099,33.6489],[-65.48786,7.93463,31.6066],[-65.49047,7.93882,42.7991],[-65.49248,7.94362,46.5672],[-65.49483,7.9545,31.075],[-65.49636,7.96659,34.8583],[-65.49607,7.97964,35.4182],[-65.49434,7.99166,35.9212],[-65.48907,8.00773,35.6929],[-65.48047,8.02393,39.821],[-65.46571,8.03853,48.8276],[-65.45073,8.04992,39.1145],[-65.44329,8.05713,40.9272],[-65.3951,8.11299,47.6228],[-65.38161,8.1456,54.86],[-65.37781,8.16389,53.4136],[-65.37156,8.17625,56.1123],[-65.36593,8.18493,60.592],[-65.30247,8.24862,64.623],[-65.29293,8.26136,63.3685],[-65.26772,8.3089,68.5066],[-65.26043,8.31768,67.5981],[-65.21627,8.35585,70.5932],[-65.21165,8.36151,67.58],[-65.20663,8.36936,71.3783],[-65.18387,8.42856,80.0448],[-65.17764,8.46478,83.3278],[-65.17444,8.47571,82.792],[-65.16261,8.49977,98.0297],[-65.1501,8.55664,91.7208],[-65.14964,8.56937,91.5264],[-65.15095,8.581,92.7099],[-65.15057,8.59917,95.7998],[-65.15119,8.60506,95.1215],[-65.15289,8.61025,98.8588],[-65.16056,8.62314,100.2409],[-65.16359,8.62702,99.9239],[-65.16847,8.6357,98.4084],[-65.17015,8.64074,101.6034],[-65.17077,8.64663,99.8007],[-65.17054,8.65278,103.0149],[-65.16824,8.66448,102.6333],[-65.16558,8.69009,112.9187],[-65.16354,8.69575,115.9705],[-65.1609,8.70125,122.2187],[-65.15703,8.70753,120.9452],[-65.14938,8.72469,112.0338],[-65.1455,8.73112,112.0609],[-65.14191,8.73554,121.5706],[-65.13783,8.73913,120.6824],[-65.13147,8.74215,123.4256],[-65.10638,8.74797,118.1964],[-65.09098,8.75339,126.9344],[-65.08631,8.75587,123.0419],[-65.07995,8.75688,123.3481],[-65.07222,8.75642,120.8639],[-65.06018,8.75223,127.3485],[-65.04683,8.74564,128.1907],[-65.0407,8.74347,130.3476],[-65.03236,8.74146,131.2385],[-65.00884,8.73882,142.1793],[-64.93828,8.74394,159.6775],[-64.92355,8.74874,155.2279],[-64.91079,8.74998,163.3666],[-64.9043,8.74975,169.6239],[-64.892,8.74797,176.7911],[-64.87575,8.74293,191.868],[-64.86407,8.74099,196.675],[-64.85834,8.74394,191.5027],[-64.85322,8.75177,211.4057],[-64.84596,8.77311,224.9089],[-64.8441,8.78443,236.7641],[-64.84456,8.79282,244.6352],[-64.85216,8.81298,228.0977],[-64.85079,8.81998,207.8243],[-64.84627,8.82959,199.1557],[-64.8335,8.84618,196.4018],[-64.81733,8.86225,219.4729],[-64.78994,8.87809,164.1377],[-64.80457,8.90796,169.9082],[-64.8096,8.91493,169.9955],[-64.81519,8.9199,170.3161],[-64.82586,8.9261,154.4706],[-64.83617,8.93356,154.1758],[-64.84769,8.94395,155.2058],[-64.86795,8.96622,136.5979],[-64.88575,8.98242,126.4425],[-64.8941,8.98808,123.6313],[-64.8988,8.99036,121.3985],[-64.93303,8.99997,124.3686],[-64.93482,9.00082,118.4437],[-64.93735,9.00377,114.006],[-64.94019,9.00904,111.0254],[-64.94205,9.01984,116.5471],[-64.94197,9.04893,106.78],[-64.94308,9.05575,101.8751],[-64.94515,9.06281,102.3279],[-64.94934,9.0718,103.0685],[-64.95373,9.08454,96.9917],[-64.95761,9.0912,88.9225],[-64.96373,9.09898,93.2871],[-64.9776,9.11154,86.3475],[-64.98595,9.11727,86.2437],[-64.99285,9.12084,79.9834],[-65.02091,9.1289,73.5538],[-65.02936,9.13451,73.2207],[-65.05641,9.16275,73.8627],[-65.06406,9.16895,71.6478],[-65.06825,9.17166,75.7094],[-65.07315,9.17383,63.8867],[-65.07879,9.17531,66.0416],[-65.08519,9.17585,67.3704],[-65.14917,9.17345,61.2675],[-65.15514,9.17438,61.8401],[-65.16018,9.17631,59.3824],[-65.16488,9.17864,69.0541],[-65.16938,9.18239,72.127],[-65.17366,9.18727,68.5339],[-65.19206,9.21334,68.0185],[-65.20539,9.2276,57.9039],[-65.22069,9.24016,54.9768],[-65.22973,9.25143,46.6908],[-65.2363,9.26321,54.4757],[-65.24289,9.26796,47.7761],[-65.24906,9.27137,49.9375],[-65.2542,9.27354,48.0538],[-65.25829,9.27719,49.6703],[-65.26141,9.28215,46.7318],[-65.26371,9.28982,41.8688],[-65.26472,9.31713,42.7365],[-65.26627,9.32243,47.7966],[-65.26865,9.32692,49.9352],[-65.2797,9.34173,45.7537],[-65.28113,9.34444,39.7375],[-65.2826,9.34809,35.2018],[-65.28394,9.35276,34.4196],[-65.28508,9.36447,32.7691],[-65.28459,9.37656,33.8499],[-65.27733,9.38519,36.7546],[-65.2688,9.39356,31.8043],[-65.21857,9.41816,30.6637],[-65.21162,9.42545,33.4868],[-65.20674,9.43431,33.0947],[-65.20483,9.43927,33.5577],[-65.20338,9.44485,29.1609],[-65.20304,9.4509,25.8731],[-65.20343,9.45694,27.9929],[-65.20444,9.46263,24.9128],[-65.20483,9.46852,29.2869],[-65.20441,9.48038,29.6593],[-65.20519,9.48588,29.693],[-65.20676,9.491,24.4613],[-65.20855,9.49529,26.5898],[-65.21131,9.50017,26.9272],[-65.21821,9.50684,25.6122],[-65.22904,9.51211,27.3512],[-65.24599,9.5173,51.8668],[-65.28229,9.52384,41.9577],[-65.33174,9.53733,51.0089],[-65.35107,9.54508,61.0813],[-65.36957,9.55479,68.9218],[-65.37745,9.56076,68.0553],[-65.38086,9.56417,72.315],[-65.38696,9.57192,76.4664],[-65.4306,9.65052,114.9233],[-65.43786,9.64548,120.0387],[-65.44264,9.64006,111.6794],[-65.48884,9.56921,109.0165],[-65.6941,9.68062,151.9524],[-65.70038,9.68582,148.9986],[-65.70195,9.68902,160.6741],[-65.70146,9.69546,157.1806],[-65.69844,9.70228,175.7676],[-65.67586,9.72974,166.1428],[-65.67035,9.74271,167.4411],[-65.66495,9.77398,147.7178],[-65.67555,9.79971,198.75],[-65.69679,9.83092,281.6619],[-65.69898,9.83558,311.8194],[-65.70262,9.84627,333.4355],[-65.70405,9.87374,431.5765],[-65.6966,9.95342,384.5],[-65.74541,9.93924,722.0842],[-65.76603,9.93673,449.9557],[-65.79296,9.93859,308.1213],[-65.79913,9.93955,336.0486],[-65.80391,9.94172,360.3377],[-65.80825,9.94443,363.0656],[-65.816,9.948,387.5062],[-65.82675,9.95172,432.8238],[-65.8499,9.95614,529.9141],[-65.86179,9.95683,474.9806],[-65.87055,9.95606,552.2662],[-65.88026,9.95203,551.5323],[-65.8846,9.94947,574.6754],[-65.88848,9.94652,574.8767],[-65.91199,9.93805,606.4246],[-65.95951,9.92914,533.0737],[-65.97103,9.9289,533.8806],[-66.04594,9.95311,681.0229],[-66.06183,9.95645,671.6988],[-66.07066,9.95645,619.6749],[-66.07764,9.95536,499.2848],[-66.08389,9.95265,517.3834],[-66.1041,9.9473,645.2096],[-66.1117,9.94777,600.6063],[-66.11717,9.95001,541.6841],[-66.11958,9.95288,659.0208],[-66.1219,9.959,666.1592],[-66.13268,9.9666,757.5062],[-66.13702,9.96614,625.2181],[-66.14534,9.96366,659.8442],[-66.17477,9.95133,769.3679],[-66.18365,9.94901,762.4885],[-66.19048,9.9487,614.8889],[-66.20936,9.95676,887.5914],[-66.23365,9.97267,853.3752],[-66.24484,9.97787,711.3232],[-66.26797,9.97934,635.6063],[-66.28817,9.97864,1063.7546]]]}
,"properties": {"ISO3166-1-Alpha-3": "VEN","country": "Venezuela","fill": "#0F0","name": "Guárico","area_km2": 65115.91,"hist_schema_id": "Elevation0-9000","hist_area_km2": {"25": 3057.15,"50": 12258.47,"75": 9162.65,"100": 9084.95,"125": 9752.12,"150": 8067.24,"175": 4270.28,"200": 2120.06,"225": 1492.97,"250": 1209.1,"275": 912.13,"300": 686.9,"325": 487.4,"350": 377.6,"375": 305.41,"400": 238.83,"425": 188.35,"450": 150.43,"475": 121.45,"500": 105.11,"525": 96.61,"550": 90.07,"575": 81.71,"600": 75.88,"625": 70.01,"650": 64.83,"675": 64.08,"700": 57.69,"725": 55.22,"750": 49.79,"775": 44.36,"800": 38.35,"825": 34.21,"850": 30.24,"875": 26.55,"900": 22.6,"925": 19.97,"950": 17.92,"975": 15.33,"1000": 12.8,"1025": 10.97,"1050": 9.98,"1075": 9.44,"1100": 7.64,"1125": 7.56,"1150": 6.12,"1175": 5.93,"1200": 5.41,"1225": 5.05,"1250": 4.28,"1275": 4.32,"1300": 3.7,"1325": 2.84,"1350": 2.44,"1375": 2.28,"1400": 1.44,"1425": 1.65,"1450": 0.92,"1475": 0.86,"1500": 0.73,"1525": 0.96,"1550": 0.69,"1600": 0.54,"1675": 0.54}}}