{"type": "Feature","bbox": [-71.4799,10.332,-70.882,10.4835],"geometry": {"type": "MultiPolygon","coordinates": [[[[-70.9213,10.4626,270.4253],[-70.9514,10.4569,239.2327],[-70.9701,10.4555,235.0557],[-71.0248,10.4572,177.1745],[-71.1667,10.4812,112.2377],[-71.2131,10.4651,85.0248],[-71.2353,10.4644,143.7855],[-71.2773,10.4695,56.3831],[-71.324,10.4704,31.5866],[-71.3629,10.476,37.2976],[-71.3939,10.4758,32.6284],[-71.4255,10.4835,25.3202],[-71.4393,10.4826,17.6372],[-71.4537,10.4772,12.207],[-71.4571,10.4791,0.0],[-71.4579,10.4738,2.1324],[-71.454,10.4682,8.4929],[-71.4512,10.4563,1.1801],[-71.4524,10.4479,0.5701],[-71.4674,10.4282,0.0],[-71.4685,10.4137,8.0073],[-71.471,10.4121,0.0],[-71.4707,10.4087,2.3556],[-71.4779,10.3974,0.0],[-71.4799,10.3915,0.6237],[-71.4768,10.3896,0.0],[-71.4732,10.3901,1.3609],[-71.471,10.3871,0.5053],[-71.4679,10.3874,2.1388],[-71.4613,10.3829,1.2819],[-71.4615,10.3768,0.0],[-71.459,10.3737,0.0],[-71.4574,10.3746,0.0],[-71.4571,10.3712,0.0],[-71.4532,10.3746,1.2779],[-71.4512,10.3743,3.4542],[-71.4413,10.3657,0.6569],[-71.4421,10.3618,0.0],[-71.4396,10.3604,0.0],[-71.4371,10.3629,3.3683],[-71.4238,10.3446,0.3528],[-71.4235,10.3413,0.0],[-71.4207,10.3382,3.2875],[-71.4218,10.3343,0.0],[-71.3946,10.332,15.7942],[-71.3491,10.332,24.0719],[-71.3415,10.3377,34.8117],[-71.3415,10.3453,31.5525],[-71.3434,10.3491,29.4729],[-71.3434,10.3624,42.1376],[-71.3415,10.37,39.3192],[-71.3358,10.3757,66.1397],[-71.2883,10.3776,71.7721],[-71.2257,10.3852,73.3678],[-71.1397,10.3864,101.1095],[-71.1281,10.3912,111.4258],[-71.1148,10.3919,121.5346],[-71.0752,10.391,165.1332],[-70.9986,10.3925,233.8985],[-70.9517,10.4118,247.5524],[-70.882,10.4558,343.9013],[-70.9125,10.4594,273.7325],[-70.9213,10.4626,270.4253]]]]}
,"properties": {"GID_2": "VEN.25.3_1","GID_0": "VEN","country": "Venezuela","GID_1": "VEN.25_1","province": "Zulia","NL_NAME_1": "NA","county": "Cabimas","VARNAME_2": "NA","NL_NAME_2": "NA","TYPE_2": "Municipio","ENGTYPE_2": "Municipality","CC_2": "NA","HASC_2": "NA","name": "Cabimas.county","area_km2": 596.2337,"hist_schema_id": "Elevation0-9000","hist_area_km2": {"0": 52.7182,"25": 112.5403,"50": 93.5038,"75": 73.6317,"100": 54.175,"125": 57.0294,"150": 34.6135,"175": 20.6014,"200": 21.5817,"225": 23.7713,"250": 20.8521,"275": 17.4322,"300": 9.6961,"325": 2.8775,"350": 0.7507,"375": 0.4171,"400": 0.0417}}}