{"type": "Feature","bbox": [-67.8506,4.1379,-66.2737,5.7973],"geometry": {"type": "MultiPolygon","coordinates": [[[[-67.8434,4.5744,78.0],[-67.7038,4.514,105.356],[-67.607,4.4798,106.5193],[-67.5101,4.4057,105.5013],[-67.4873,4.3601,140.4144],[-67.4303,4.2632,105.2414],[-67.3619,4.2062,112.1483],[-67.2764,4.1493,127.0696],[-67.2252,4.1379,147.1242],[-67.1169,4.2062,264.7944],[-67.0086,4.2689,229.9601],[-66.9231,4.4114,358.3814],[-66.8604,4.4912,872.6693],[-66.8205,4.5539,1119.1493],[-66.6895,4.6051,301.1091],[-66.604,4.6906,184.4473],[-66.6211,4.7419,495.8048],[-66.6268,4.7533,903.1459],[-66.6325,4.7533,953.5251],[-66.6781,4.7305,1071.3005],[-66.718,4.7305,1342.7312],[-66.7351,4.7419,1415.3248],[-66.7408,4.759,1511.1354],[-66.7408,4.7647,1630.0514],[-66.7237,4.7875,1391.6288],[-66.6667,4.8103,1456.4216],[-66.5812,4.8388,608.4301],[-66.5664,4.8624,682.6],[-66.6325,4.8929,623.4128],[-66.6866,4.9129,927.0453],[-66.7579,4.9642,966.6763],[-66.8348,4.9727,1560.5854],[-66.9146,5.0069,1082.6637],[-66.9887,5.0297,802.869],[-67.0143,5.0553,712.4625],[-66.9602,5.1323,668.5559],[-66.9231,5.1693,950.4553],[-66.9174,5.1978,904.5251],[-66.9003,5.2463,910.2578],[-66.8462,5.3004,793.3664],[-66.7465,5.3488,954.5666],[-66.6752,5.3802,743.6873],[-66.604,5.3973,740.1406],[-66.547,5.4087,403.6535],[-66.4843,5.4315,854.5219],[-66.4387,5.4714,967.168],[-66.4273,5.5169,736.7252],[-66.4045,5.5739,1027.6133],[-66.3931,5.6224,1126.2297],[-66.3789,5.6594,363.2812],[-66.3475,5.6936,169.7415],[-66.2906,5.762,190.7435],[-66.2737,5.7771,446.7121],[-66.3014,5.7863,307.9654],[-66.3394,5.7943,482.725],[-66.3667,5.7953,1656.397],[-66.3854,5.7935,1663.8108],[-66.4093,5.7872,1477.0699],[-66.4323,5.7838,719.5619],[-66.4577,5.7858,543.9814],[-66.484,5.7951,838.2648],[-66.5031,5.7973,1320.9751],[-66.5171,5.795,1210.2793],[-66.5569,5.7796,1495.2095],[-66.5902,5.7708,1255.0266],[-66.6166,5.7714,872.4703],[-66.6392,5.7765,1111.0337],[-66.6778,5.7819,1145.875],[-66.6983,5.7817,1222.8458],[-66.7484,5.7735,797.7657],[-66.7692,5.7618,887.0649],[-66.7803,5.7519,931.1808],[-66.7988,5.7273,688.0584],[-66.8123,5.7127,830.0862],[-66.844,5.6932,1038.238],[-66.8568,5.6739,1289.4653],[-66.8659,5.6659,1335.7468],[-66.8811,5.6567,898.9622],[-66.9131,5.643,758.3364],[-66.9227,5.6407,652.2756],[-66.9293,5.6411,716.4],[-66.9409,5.645,1108.8009],[-67.0133,5.5829,452.2531],[-67.0703,5.5516,647.9601],[-67.1358,5.5202,624.5487],[-67.3154,5.4718,161.9229],[-67.3837,5.4376,241.4669],[-67.4578,5.412,297.1364],[-67.5718,5.3692,275.3654],[-67.6772,5.355,89.7026],[-67.8054,5.3008,78.8559],[-67.8505,5.2936,66.0],[-67.8506,5.2878,66.0],[-67.8397,5.277,66.5],[-67.8365,5.2756,66.5],[-67.8271,5.276,66.5],[-67.8194,5.2726,67.0],[-67.8134,5.265,67.625],[-67.8099,5.2504,68.5],[-67.8117,5.2318,69.5],[-67.8145,5.2277,69.5],[-67.8122,5.225,70.0],[-67.8129,5.2197,70.5],[-67.8114,5.2107,71.0],[-67.8082,5.2044,71.0],[-67.814,5.1889,71.0],[-67.8165,5.1884,71.0],[-67.8206,5.1907,71.0],[-67.8222,5.1968,71.0],[-67.825,5.1978,71.0],[-67.8266,5.1968,71.0],[-67.8384,5.1813,71.5],[-67.8413,5.1672,72.0],[-67.8313,5.148,73.0],[-67.832,5.1402,73.0],[-67.8403,5.1148,74.0],[-67.8369,5.1035,74.0],[-67.8338,5.0997,74.0],[-67.8333,5.094,74.5],[-67.8258,5.0867,74.5],[-67.8238,5.0827,74.5],[-67.8246,5.0783,74.5],[-67.8365,5.0733,74.5],[-67.8384,5.0684,75.0],[-67.8359,5.0645,75.0],[-67.8326,5.0627,75.0],[-67.8143,5.0585,75.0],[-67.81,5.0522,75.0],[-67.8093,5.0487,75.0],[-67.8098,5.044,75.0],[-67.8131,5.037,75.0],[-67.8203,5.0253,75.0],[-67.8245,5.0215,75.0],[-67.822,5.0042,75.0],[-67.8255,4.9705,75.5],[-67.8335,4.9544,75.5],[-67.8411,4.9453,76.0],[-67.841,4.9249,76.0],[-67.8379,4.9051,76.5],[-67.8392,4.8814,76.5],[-67.8304,4.864,77.5],[-67.827,4.8518,77.5],[-67.8288,4.8316,77.5],[-67.8252,4.8116,77.5],[-67.8279,4.7852,78.0],[-67.8219,4.7052,78.0],[-67.8231,4.696,78.0],[-67.8434,4.6657,78.0],[-67.8447,4.6517,78.0],[-67.8482,4.6385,78.0],[-67.8461,4.6124,78.0],[-67.8474,4.596,78.0],[-67.8434,4.5744,78.0]]]]}
,"properties": {"GID_2": "VEN.1.4_1","GID_0": "VEN","country": "Venezuela","GID_1": "VEN.1_1","province": "Amazonas","NL_NAME_1": "NA","county": "Autana","VARNAME_2": "NA","NL_NAME_2": "NA","TYPE_2": "Municipio","ENGTYPE_2": "Municipality","CC_2": "NA","HASC_2": "NA","name": "Autana.county","area_km2": 16398.91,"hist_schema_id": "Elevation0-9000","hist_area_km2": {"75": 290.24,"100": 2405.44,"125": 2216.67,"150": 908.85,"175": 629.62,"200": 507.0,"225": 403.79,"250": 299.89,"275": 223.92,"300": 201.23,"325": 185.64,"350": 206.54,"375": 240.97,"400": 266.54,"425": 283.35,"450": 287.95,"475": 254.55,"500": 214.37,"525": 200.69,"550": 189.32,"575": 180.64,"600": 171.47,"625": 169.78,"650": 187.02,"675": 175.77,"700": 165.45,"725": 161.27,"750": 155.91,"775": 156.21,"800": 143.99,"825": 137.0,"850": 138.34,"875": 148.22,"900": 155.1,"925": 150.25,"950": 156.06,"975": 160.23,"1000": 159.6,"1025": 162.47,"1050": 153.25,"1075": 151.12,"1100": 151.08,"1125": 153.3,"1150": 156.86,"1175": 150.55,"1200": 148.42,"1225": 137.63,"1250": 132.34,"1275": 137.0,"1300": 133.6,"1325": 133.84,"1350": 140.77,"1375": 152.96,"1400": 138.38,"1425": 121.94,"1450": 106.31,"1475": 94.1,"1500": 82.01,"1525": 69.59,"1550": 61.65,"1575": 56.87,"1600": 46.77,"1625": 39.4,"1650": 28.37,"1675": 20.26,"1700": 12.27,"1725": 9.21,"1750": 7.84,"1775": 5.94,"1800": 4.25,"1825": 3.19,"1850": 2.51,"1875": 1.8,"1900": 1.1,"1925": 0.46,"1950": 0.32,"1975": 0.23}}}