{"type": "Feature","bbox": [-72.3572,7.417,-72.0462,7.6693],"geometry": {"type": "MultiPolygon","coordinates": [[[[-72.1638,7.417,1342.235],[-72.156,7.4195,1196.0093],[-72.1414,7.4188,1067.2744],[-72.1284,7.4208,929.6392],[-72.1206,7.4275,821.0925],[-72.0978,7.4398,638.6863],[-72.0949,7.4466,567.5329],[-72.0905,7.4516,682.2245],[-72.0481,7.4757999999999996,462.6178],[-72.0462,7.478,429.4351],[-72.0466,7.4887,371.9204],[-72.0652,7.488,447.091],[-72.08,7.4931,450.1068],[-72.0847,7.497,416.6024],[-72.0906,7.5074,352.1335],[-72.0991,7.5149,360.9031],[-72.1354,7.525,817.7524],[-72.1476,7.5313,934.5021],[-72.1541,7.5365,1120.3431],[-72.1726,7.5592,1104.5162],[-72.2143,7.5996,1217.906],[-72.251,7.6439,645.3008],[-72.2793,7.6693,679.6293],[-72.2862,7.6659,773.2905],[-72.2995,7.6527,851.4927],[-72.3013,7.6445,731.5875],[-72.3005,7.6402,784.1462],[-72.2902,7.6253,983.0377],[-72.2895,7.621,913.3662],[-72.2929,7.6175,1021.2715],[-72.3366,7.6202,955.2799],[-72.3539,7.6151,1267.3202],[-72.3541,7.6092,1305.9504],[-72.3464,7.5754,1178.9862],[-72.3289,7.5343,1562.3657],[-72.3297,7.5169,1961.1044],[-72.3344,7.506,1799.9797],[-72.3572,7.4684,2182.6851],[-72.3384,7.4712,2366.0415],[-72.3151,7.4722,2990.0337],[-72.2865,7.47,1845.9585],[-72.2481,7.4618,1377.5057],[-72.1638,7.417,1342.235]]]]}
,"properties": {"GID_2": "VEN.21.6_1","GID_0": "VEN","country": "Venezuela","GID_1": "VEN.21_1","province": "Táchira","NL_NAME_1": "NA","county": "Córdoba","VARNAME_2": "NA","NL_NAME_2": "NA","TYPE_2": "Municipio","ENGTYPE_2": "Municipality","CC_2": "NA","HASC_2": "NA","name": "Córdoba.county","area_km2": 456.3775,"hist_schema_id": "Elevation0-9000","hist_area_km2": {"350": 0.7357,"375": 2.8588,"400": 3.6577,"425": 3.931,"450": 6.1382,"475": 4.7929,"500": 4.12,"525": 4.8138,"550": 4.4774,"575": 5.4231,"600": 6.39,"625": 6.2428,"650": 6.6419,"675": 8.7435,"700": 8.5123,"725": 9.6893,"750": 8.9958,"775": 9.6473,"800": 9.4371,"825": 9.4583,"850": 8.975,"875": 8.6597,"900": 9.4376,"925": 8.639,"950": 8.7441,"975": 8.2185,"1000": 8.9121,"1025": 8.3236,"1050": 7.8822,"1075": 8.3655,"1100": 8.0293,"1125": 8.7859,"1150": 8.5967,"1175": 8.0502,"1200": 7.3566,"1225": 7.6299,"1250": 7.3987,"1275": 7.2096,"1300": 6.7683,"1325": 6.6422,"1350": 6.1588,"1375": 5.8015,"1400": 5.6754,"1425": 5.9277,"1450": 5.7595,"1475": 5.8436,"1500": 5.7595,"1525": 4.8768,"1550": 4.8767,"1575": 4.4353,"1600": 4.7926,"1625": 4.2881,"1650": 4.8556,"1675": 4.8136,"1700": 4.3721,"1725": 4.6875,"1750": 4.3302,"1775": 4.162,"1800": 4.2041,"1825": 4.4563,"1850": 3.7836,"1875": 3.7206,"1900": 3.9098,"1925": 3.8047,"1950": 3.4263,"1975": 3.4473,"2000": 3.3633,"2025": 2.6696,"2050": 3.111,"2075": 2.3123,"2100": 1.7657,"2125": 1.9129,"2150": 1.7658,"2175": 2.0601,"2200": 1.4715,"2225": 1.4925,"2250": 1.8709,"2275": 1.7448,"2300": 1.4925,"2325": 1.5766,"2350": 1.3664,"2375": 1.4294,"2400": 1.2402,"2425": 1.2613,"2450": 1.0931,"2475": 0.9249,"2500": 0.9249,"2525": 0.7988,"2550": 1.1141,"2575": 0.946,"2600": 0.7147,"2625": 0.5466,"2650": 0.6517,"2675": 0.6306,"2700": 0.6096,"2725": 0.6727,"2750": 0.5045,"2775": 0.4414,"2800": 0.4204,"2825": 0.5045,"2850": 0.3784,"2875": 0.3784,"2900": 0.3153,"2925": 0.1472,"2950": 0.042,"2975": 0.042,"3000": 0.0631,"3075": 0.0631,"3100": 0.042}}}