{"type": "Feature","bbox": [-72.2187,8.1031,-72.0871,8.2911],"geometry": {"type": "MultiPolygon","coordinates": [[[[-72.1793,8.1031,1275.3722],[-72.1617,8.1245,716.387],[-72.1531,8.1387,840.4612],[-72.1427,8.152,503.9316],[-72.1265,8.1795,670.5568],[-72.1199,8.1994,474.677],[-72.1142,8.2327,291.6486],[-72.109,8.2502,327.8561],[-72.1052,8.2517,359.678],[-72.1038,8.2502,376.9968],[-72.0924,8.2498,452.733],[-72.0871,8.2526,468.06],[-72.0897,8.2592,306.9554],[-72.0893,8.2726,377.8706],[-72.0916,8.2784,353.3826],[-72.0993,8.2843,284.3596],[-72.131,8.2911,126.5443],[-72.1577,8.2644,116.5457],[-72.2187,8.1932,380.5284],[-72.2043,8.1889,345.5595],[-72.1994,8.1815,382.4117],[-72.1807,8.1368,436.7644],[-72.1788,8.1256,734.2419],[-72.1793,8.1031,1275.3722]]]]}
,"properties": {"GID_2": "VEN.21.2_1","GID_0": "VEN","country": "Venezuela","GID_1": "VEN.21_1","province": "Táchira","NL_NAME_1": "NA","county": "AntonioRómuloCosta","VARNAME_2": "NA","NL_NAME_2": "NA","TYPE_2": "Municipio","ENGTYPE_2": "Municipality","CC_2": "NA","HASC_2": "NA","name": "Antonio_Rómulo_Costa.county","area_km2": 127.90279,"hist_schema_id": "Elevation0-9000","hist_area_km2": {"100": 0.02098,"125": 2.91647,"150": 5.3294,"175": 6.27374,"200": 6.75645,"225": 8.28831,"250": 10.17695,"275": 8.66633,"300": 9.50596,"325": 9.38035,"350": 9.86313,"375": 8.28931,"400": 8.20549,"425": 6.79952,"450": 6.10704,"475": 3.96651,"500": 3.29497,"525": 2.26662,"550": 1.88886,"575": 1.36419,"600": 1.46912,"625": 1.15433,"650": 0.83952,"675": 0.92346,"700": 0.67162,"725": 0.67162,"750": 0.44075,"775": 0.41977,"800": 0.31483,"825": 0.16791,"850": 0.1889,"875": 0.10495,"900": 0.10495,"925": 0.12594,"950": 0.10495,"975": 0.02099,"1000": 0.06297,"1025": 0.06297,"1050": 0.08396,"1075": 0.04198,"1100": 0.02099,"1125": 0.08396,"1150": 0.04198,"1175": 0.04198,"1200": 0.10495,"1225": 0.02099,"1250": 0.04198,"1275": 0.06297,"1300": 0.04198,"1325": 0.10495}}}