{"type": "Feature","bbox": [-66.1493,9.974,-65.6312,10.3874],"geometry": {"type": "MultiPolygon","coordinates": [[[[-65.9218,9.9745,665.4337],[-65.861,9.974,748.1671],[-65.8666,9.9874,579.4468],[-65.8662,10.046,443.861],[-65.8643,10.0552,607.1061],[-65.8598,10.0631,392.706],[-65.851,10.0718,347.4129],[-65.8282,10.0862,447.8601],[-65.8188,10.1023,230.3498],[-65.8178,10.1123,484.6393],[-65.8199,10.1271,379.3438],[-65.8279,10.1449,156.9799],[-65.8342,10.1653,106.7812],[-65.8339,10.1993,77.4053],[-65.6312,10.2007,0.233],[-65.6862,10.2199,2.0584],[-65.7624,10.2501,3.5929],[-65.8468,10.2899,2.2259],[-65.8913,10.3151,2.3013],[-65.8921,10.3171,0.0],[-65.9171,10.3329,0.7871],[-65.9404,10.3518,0.3664],[-65.9437,10.3529,1.793],[-65.9507,10.3599,0.7206],[-65.9582,10.364,4.8164],[-65.9799,10.3874,0.3798],[-65.991,10.3801,9.1622],[-65.9894,10.3431,7.6876],[-65.9838,10.294,16.2884],[-65.9841,10.2719,13.4656],[-65.9888,10.2464,22.79],[-65.996,10.2356,26.2553],[-66.0087,10.2279,19.9333],[-66.0334,10.2192,22.7248],[-66.0617,10.2127,23.9802],[-66.0716,10.2057,21.1005],[-66.0701,10.2037,30.3163],[-66.0707,10.1848,23.1604],[-66.0692,10.1792,28.2602],[-66.0647,10.1743,141.7042],[-66.0589,10.1627,491.6106],[-66.0589,10.1514,679.2711],[-66.0622,10.1453,632.3927],[-66.0761,10.131,837.6589],[-66.0827,10.127,792.2725],[-66.0951,10.1258,706.9905],[-66.1107,10.1217,510.0472],[-66.118,10.1094,655.6286],[-66.1462,10.091,564.3492],[-66.1493,10.0845,687.9176],[-66.1484,10.0795,932.0984],[-66.1439,10.0734,911.2156],[-66.1241,10.0626,621.2592],[-66.1223,10.0575,593.629],[-66.125,10.0489,750.5723],[-66.1302,10.044,824.6219],[-66.1317,10.0401,675.6839],[-66.1305,10.0377,730.0699],[-66.1146,10.0226,377.4594],[-66.0869,10.009,324.8158],[-66.0798,9.9997,487.607],[-66.0722,9.976,680.4096],[-66.0437,9.9858,454.7796],[-66.0206,9.9854,711.7497],[-65.9588,9.9749,497.2975],[-65.9218,9.9745,665.4337]]]]}
,"properties": {"GID_2": "VEN.16.14_1","GID_0": "VEN","country": "Venezuela","GID_1": "VEN.16_1","province": "Miranda","NL_NAME_1": "NA","county": "Páez","VARNAME_2": "NA","NL_NAME_2": "NA","TYPE_2": "Municipio","ENGTYPE_2": "Municipality","CC_2": "NA","HASC_2": "NA","name": "Páez.county","area_km2": 1056.425,"hist_schema_id": "Elevation0-9000","hist_area_km2": {"0": 276.9612,"25": 193.4338,"50": 34.4553,"75": 20.0767,"100": 20.6001,"125": 13.7549,"150": 14.486,"175": 15.3841,"200": 17.9729,"225": 19.5596,"250": 22.0858,"275": 24.9047,"300": 27.8904,"325": 29.0598,"350": 28.9138,"375": 26.7637,"400": 27.9538,"425": 27.5573,"450": 26.075,"475": 23.4028,"500": 22.0254,"525": 20.0003,"550": 18.8311,"575": 16.5346,"600": 14.1339,"625": 13.2989,"650": 9.9585,"675": 8.5804,"700": 6.9101,"725": 5.7409,"750": 5.0726,"775": 4.4254,"800": 3.5904,"825": 3.3816,"850": 2.9223,"875": 2.2543,"900": 2.2125,"925": 1.8577,"950": 1.4193,"975": 0.981,"1000": 0.5009,"1025": 0.2922,"1050": 0.167,"1075": 0.0417}}}