{"type": "Feature","bbox": [-64.9749,9.7321,-64.2328,10.1988],"geometry": {"type": "MultiPolygon","coordinates": [[[[-64.9068,9.7321,73.7933],[-64.8705,9.7641,62.5131],[-64.8495,9.8436,115.7899],[-64.8364,9.8861,140.9863],[-64.8322,9.8944,133.7364],[-64.7964,9.8759,171.9304],[-64.7541,9.8585,156.587],[-64.7428,9.8587,125.9917],[-64.6601,9.8692,85.6085],[-64.5234,9.8644,69.2099],[-64.466,9.8779,118.2562],[-64.4414,9.8954,145.4841],[-64.3922,9.9346,222.0063],[-64.3048,9.9356,503.0072],[-64.2713,9.9396,512.0408],[-64.2647,9.9431,649.1257],[-64.2541,9.9549,964.7943],[-64.2494,9.9629,888.1593],[-64.239,9.9929,929.8432],[-64.2328,10.0051,815.1227],[-64.2459,10.009,809.0496],[-64.2625,10.0209,638.2101],[-64.2929,10.0326,1000.389],[-64.3173,10.034,756.8201],[-64.3425,10.0305,338.824],[-64.3536,10.0307,390.3447],[-64.3613,10.0332,339.4475],[-64.3665,10.0372,520.2869],[-64.3733,10.0436,672.7979],[-64.3815,10.0627,653.2289],[-64.4026,10.1224,748.3185],[-64.4129,10.1469,1051.7812],[-64.4399,10.1944,872.1626],[-64.4385,10.1874,737.9062],[-64.4455,10.1317,644.0362],[-64.4571,10.1133,683.4953],[-64.4614,10.0967,570.3637],[-64.4683,10.0934,468.8316],[-64.4836,10.0951,651.4777],[-64.5033,10.0893,584.8718],[-64.5133,10.0881,542.0882],[-64.5259,10.0898,339.801],[-64.5622,10.0995,42.789],[-64.5893,10.1145,111.1078],[-64.5967,10.1234,81.2159],[-64.6013,10.1337,93.7517],[-64.6118,10.1459,124.0127],[-64.6193,10.1584,262.4624],[-64.6278,10.1782,184.1064],[-64.6441,10.1916,89.1082],[-64.6609,10.1988,8.0619],[-64.6668,10.1969,2.9539],[-64.6965,10.1949,0.0],[-64.6968,10.1893,0.0],[-64.701,10.1801,0.0],[-64.7001,10.1765,0.4887],[-64.711,10.1701,0.0],[-64.711,10.1651,0.0],[-64.7076,10.1576,0.1244],[-64.7151,10.1424,0.0],[-64.7138,10.1368,1.4579],[-64.7174,10.1338,0.0],[-64.7176,10.1282,0.4026],[-64.7237,10.1232,0.0],[-64.7237,10.1215,0.9611],[-64.7296,10.1193,0.0],[-64.7424,10.1093,1.2283],[-64.7474,10.1082,1.0248],[-64.7474,10.1068,1.8875],[-64.7501,10.1062,0.0],[-64.7521,10.1037,1.4302],[-64.7665,10.0974,0.5553],[-64.8018,10.0888,0.0],[-64.8179,10.0857,1.0238],[-64.8446,10.0835,2.8079],[-64.8568,10.084,2.8713],[-64.8557,10.1024,0.0],[-64.8571,10.1004,0.0],[-64.8576,10.084,3.4739],[-64.8807,10.086,2.1124],[-64.8774,10.1043,0.0],[-64.8793,10.0999,0.0],[-64.8815,10.086,2.1124],[-64.8842,10.0863,2.8443],[-64.8723,10.0149,48.7859],[-64.9456,9.9745,188.837],[-64.9104,9.8686,94.7739],[-64.9749,9.7381,51.808],[-64.9068,9.7321,73.7933]]],
[[[-64.8262,10.1401,9.4761],[-64.829,10.1396,0.0],[-64.829,10.1382,0.0],[-64.8274,10.1374,4.3088],[-64.8262,10.1401,9.4761]]]]}
,"properties": {"GID_2": "VEN.2.3_1","GID_0": "VEN","country": "Venezuela","GID_1": "VEN.2_1","province": "Anzoátegui","NL_NAME_1": "NA","county": "Bolívar","VARNAME_2": "NA","NL_NAME_2": "NA","TYPE_2": "Municipio","ENGTYPE_2": "Municipality","CC_2": "NA","HASC_2": "NA","name": "Bolívar.county","area_km2": 1852.034,"hist_schema_id": "Elevation0-9000","hist_area_km2": {"0": 162.164,"25": 130.128,"50": 157.875,"75": 253.952,"100": 244.938,"125": 139.753,"150": 89.148,"175": 70.729,"200": 48.235,"225": 40.8,"250": 42.909,"275": 39.401,"300": 39.692,"325": 37.291,"350": 33.679,"375": 30.525,"400": 26.349,"425": 22.487,"450": 21.819,"475": 20.649,"500": 19.25,"525": 16.348,"550": 16.389,"575": 15.679,"600": 13.905,"625": 12.694,"650": 12.38,"675": 11.295,"700": 10.522,"725": 9.646,"750": 8.518,"775": 7.6,"800": 6.911,"825": 6.013,"850": 5.178,"875": 4.572,"900": 3.466,"925": 3.612,"950": 2.631,"975": 2.568,"1000": 2.672,"1025": 2.38,"1050": 2.025,"1075": 0.981,"1100": 0.898,"1125": 0.585,"1150": 0.459,"1175": 0.146,"1200": 0.146,"1225": 0.042}}}