{"type":"Feature","properties":{"GID_2":"VEN.17.2_1","GID_0":"VEN","country":"Venezuela","GID_1":"VEN.17_1","province":"Monagas","NL_NAME_1":"NA","county":"Aguasay","VARNAME_2":"NA","NL_NAME_2":"NA","TYPE_2":"Municipio","ENGTYPE_2":"Municipality","CC_2":"NA","HASC_2":"NA","name":"Aguasay.county"},
"geometry":{"type": "MultiPolygon","coordinates": [[[[-63.3997,8.9951,94.1114],[-63.4318,9.1818,111.2815],[-63.5427,9.5056,148.3979],[-63.5486,9.5027,151.5823],[-63.5524,9.497,152.3612],[-63.5628,9.4922,155.8152],[-63.5875,9.497,151.8823],[-63.598,9.4922,162.8905],[-63.6056,9.4922,165.3071],[-63.6396,9.5001,159.3593],[-63.6452,9.4972,158.6084],[-63.6534,9.4977,163.3682],[-63.6841,9.5115,165.2978],[-63.7171,9.5195,188.0966],[-63.727,9.5209,177.5385],[-63.7534,9.5173,185.3673],[-63.7675,9.5199,208.2656],[-63.7819,9.5247,200.2628],[-63.8025,9.5358,198.0611],[-63.8145,9.539,206.8467],[-63.8251,9.5384,208.4064],[-63.8339,9.5435,208.6684],[-63.8789,9.5047,279.1963],[-63.9393,9.4493,304.9418],[-63.9686,9.4191,293.863],[-63.9754,9.4057,310.3891],[-63.9768,9.3989,321.6406],[-63.9773,9.3721,305.6315],[-63.9856,9.3184,259.2428],[-63.9861,9.3029,235.8056],[-63.9844,9.2943,221.2014],[-63.9757,9.2759,215.4769],[-63.94,9.2411,185.029],[-63.9317,9.2253,191.7175],[-63.9284,9.2053,207.9398],[-63.9231,9.1975,213.3125],[-63.9145,9.1919,222.2036],[-63.9027,9.1903,228.6264],[-63.889,9.1909,224.2715],[-63.8056,9.2093,198.9011],[-63.7811,9.2113,203.7474],[-63.7422,9.2093,182.001],[-63.7214,9.2075,172.1488],[-63.6964,9.2009,200.5513],[-63.6774,9.1897,188.031],[-63.6516,9.1777,166.6609],[-63.6376,9.1745,152.6054],[-63.6257,9.1746,168.726],[-63.6139,9.1723,150.9282],[-63.6045,9.1621,154.8938],[-63.6028,9.1551,146.4865],[-63.6027,9.1379,140.5759],[-63.6,9.1315,132.8262],[-63.5949,9.1267,146.0631],[-63.5873,9.1231,141.8894],[-63.5782,9.1215,150.38],[-63.5682,9.1149,138.7083],[-63.5592,9.1037,129.7732],[-63.5348,9.0959,141.4211],[-63.517,9.0817,131.233],[-63.4979,9.0709,132.0259],[-63.4696,9.0419,112.1675],[-63.4571,9.0331,122.5091],[-63.4229,9.0181,97.302],[-63.4114,9.0087,97.143],[-63.4011,8.9985,98.2949],[-63.3997,8.9951,94.1114]]]]}}