{"type": "Feature","bbox": [-70.8042,9.0644,-70.5768,9.4017],"geometry": {"type": "MultiPolygon","coordinates": [[[[-70.8025,9.1116,2986.0383],[-70.7817,9.0972,3711.7141],[-70.7697,9.094,3479.5261],[-70.752,9.0857,2930.6455],[-70.7348,9.0644,2161.5835],[-70.7217,9.0815,2379.8105],[-70.7106,9.1023,2460.9619],[-70.7073,9.1125,2292.1062],[-70.7031,9.1435,1851.0623],[-70.7002,9.1477,1643.3679],[-70.6931,9.1523,1540.697],[-70.6725,9.1571,1830.2297],[-70.6636,9.1611,1661.9657],[-70.6577,9.1648,1654.2848],[-70.6527,9.1708,1662.9111],[-70.6528,9.1821,1388.0358],[-70.6578,9.188,1773.1831],[-70.6571,9.1901,1724.4641],[-70.6502,9.2003,1660.955],[-70.6333,9.2181,1638.2063],[-70.6256,9.2385,1718.3906],[-70.6259,9.244,1591.0575],[-70.6196,9.2519,1632.1406],[-70.6103,9.2791,941.9852],[-70.6049,9.2857,603.4084],[-70.5981,9.2896,537.5821],[-70.584,9.2897,1043.1018],[-70.5768,9.3105,555.1382],[-70.5848,9.3114,588.608],[-70.5901,9.3143,620.9186],[-70.5947,9.3196,449.8172],[-70.5929,9.3564,402.4964],[-70.5939,9.3842,331.2644],[-70.5967,9.4017,446.2037],[-70.6087,9.4004,547.664],[-70.6178,9.3928,569.3317],[-70.6163,9.3816,473.2681],[-70.6169,9.3671,610.3561],[-70.6256,9.3391,801.3276],[-70.6379,9.3226,819.9541],[-70.6596,9.3066,971.2701],[-70.6752,9.2865,1036.1444],[-70.6951,9.2713,1505.7849],[-70.7127,9.2487,2186.9231],[-70.7249,9.2419,1828.4318],[-70.727,9.2292,2365.9727],[-70.7324,9.2198,2224.6643],[-70.7545,9.1903,2171.8091],[-70.7769,9.1491,2650.3064],[-70.7974,9.124,2571.3271],[-70.8042,9.1125,3067.7883],[-70.8025,9.1116,2986.0383]]]]}
,"properties": {"GID_2": "VEN.22.20_1","GID_0": "VEN","country": "Venezuela","GID_1": "VEN.22_1","province": "Trujillo","NL_NAME_1": "NA","county": "Valera","VARNAME_2": "NA","NL_NAME_2": "NA","TYPE_2": "Municipio","ENGTYPE_2": "Municipality","CC_2": "NA","HASC_2": "NA","name": "Valera.county","area_km2": 283.1215,"hist_schema_id": "Elevation0-9000","hist_area_km2": {"350": 1.1087,"375": 2.0082,"400": 2.4267,"425": 2.4267,"450": 2.7614,"475": 3.2218,"500": 3.18,"525": 4.2261,"550": 3.7032,"575": 2.7618,"600": 3.2011,"625": 2.6153,"650": 2.8455,"675": 2.9501,"700": 2.6363,"725": 2.72,"750": 1.925,"775": 2.2179,"800": 1.7785,"825": 1.9459,"850": 1.5065,"875": 1.946,"900": 2.0297,"925": 1.7786,"950": 2.3017,"975": 1.7158,"1000": 2.0925,"1025": 1.9251,"1050": 2.3227,"1075": 2.26,"1100": 1.8624,"1125": 1.7997,"1150": 1.9671,"1175": 1.7788,"1200": 1.9252,"1225": 1.988,"1250": 2.3857,"1275": 2.0509,"1300": 2.4485,"1325": 2.2183,"1350": 2.5113,"1375": 2.4904,"1400": 2.6996,"1425": 2.6159,"1450": 2.8462,"1475": 2.8881,"1500": 2.6997,"1525": 2.9927,"1550": 2.8881,"1575": 3.0765,"1600": 3.5159,"1625": 3.0974,"1650": 2.5952,"1675": 3.1811,"1700": 2.951,"1725": 3.0975,"1750": 2.7418,"1775": 3.6208,"1800": 2.9511,"1825": 2.6372,"1850": 2.7837,"1875": 2.4906,"1900": 2.7418,"1925": 2.8256,"1950": 2.9302,"1975": 3.1604,"2000": 2.9721,"2025": 3.2232,"2050": 3.0557,"2075": 3.014,"2100": 2.6372,"2125": 2.9302,"2150": 2.407,"2175": 2.6373,"2200": 2.8676,"2225": 2.8467,"2250": 2.5746,"2275": 2.9513,"2300": 2.5327,"2325": 2.7631,"2350": 2.2816,"2375": 1.863,"2400": 2.0514,"2425": 2.2189,"2450": 2.0514,"2475": 1.9677,"2500": 2.2608,"2525": 2.3026,"2550": 2.2817,"2575": 2.3445,"2600": 1.9049,"2625": 1.8212,"2650": 1.7584,"2675": 2.1561,"2700": 2.0305,"2725": 2.0514,"2750": 1.6746,"2775": 1.5072,"2800": 1.5281,"2825": 1.6537,"2850": 1.5072,"2875": 1.549,"2900": 1.6118,"2925": 1.6328,"2950": 1.4863,"2975": 1.6537,"3000": 1.4653,"3025": 1.6119,"3050": 1.4654,"3075": 0.9629,"3100": 1.0676,"3125": 1.3816,"3150": 1.3607,"3175": 1.1723,"3200": 0.9211,"3225": 1.1723,"3250": 0.963,"3275": 1.0467,"3300": 0.942,"3325": 0.7118,"3350": 0.8792,"3375": 0.8583,"3400": 1.0677,"3425": 0.7536,"3450": 0.7118,"3475": 0.6908,"3500": 0.6908,"3525": 1.0467,"3550": 0.7746,"3575": 0.5024,"3600": 0.7746,"3625": 0.8793,"3650": 0.2512,"3675": 0.2512,"3700": 0.1256,"3725": 0.0628}}}