{"type":"Feature","properties":{"GID_2":"VEN.2.14_1","GID_0":"VEN","country":"Venezuela","GID_1":"VEN.2_1","province":"Anzoátegui","NL_NAME_1":"NA","county":"Libertad","VARNAME_2":"NA","NL_NAME_2":"NA","TYPE_2":"Municipio","ENGTYPE_2":"Municipality","CC_2":"NA","HASC_2":"NA","name":"Libertad.county"},
"geometry":{"type": "MultiPolygon","coordinates": [[[[-64.4836,9.4887,187.4227],[-64.4716,9.495,191.4767],[-64.4594,9.5119,216.4638],[-64.4239,9.5759,198.5705],[-64.4007,9.6075,196.2874],[-64.3527,9.6568,227.5496],[-64.3267,9.6793,247.457],[-64.3039,9.7051,255.4018],[-64.2872,9.7275,227.0584],[-64.269,9.7442,226.5475],[-64.2368,9.7837,279.5327],[-64.2166,9.8014,280.0474],[-64.2002,9.8231,392.4172],[-64.1916,9.8363,421.4599],[-64.1727,9.8774,731.317],[-64.1563,9.8976,671.2163],[-64.1523,9.9049,804.3866],[-64.1568,9.9175,985.6735],[-64.1697,9.9343,824.8721],[-64.1748,9.9435,766.5096],[-64.1699,9.9525,939.6861],[-64.1529,9.9706,1304.7096],[-64.1369,10.0123,1497.0146],[-64.1344,10.0244,2061.5122],[-64.179,10.0066,1312.6414],[-64.1908,10.0035,943.959],[-64.2328,10.0051,815.1227],[-64.239,9.9929,929.8432],[-64.2494,9.9629,888.1593],[-64.2541,9.9549,964.7943],[-64.2647,9.9431,649.1257],[-64.2713,9.9396,512.0408],[-64.3048,9.9356,503.0072],[-64.3922,9.9346,222.0063],[-64.4414,9.8954,145.4841],[-64.466,9.8779,118.2562],[-64.5234,9.8644,69.2099],[-64.6601,9.8692,85.6085],[-64.7428,9.8587,125.9917],[-64.7541,9.8585,156.587],[-64.7964,9.8759,171.9304],[-64.8322,9.8944,133.7364],[-64.8364,9.8861,140.9863],[-64.8495,9.8436,115.7899],[-64.8705,9.7641,62.5131],[-64.8896,9.7473,62.698],[-64.888,9.7453,59.9532],[-64.8792,9.7354,63.2856],[-64.8614,9.7218,73.0447],[-64.7857,9.6885,88.734],[-64.7715,9.6802,100.9547],[-64.7577,9.6672,121.6784],[-64.7529,9.6579,135.102],[-64.7408,9.6009,158.119],[-64.7369,9.591,176.0586],[-64.7278,9.5822,165.6227],[-64.7113,9.5738,166.2879],[-64.6777,9.5663,164.8608],[-64.6358,9.5363,180.3432],[-64.6211,9.5285,186.7021],[-64.6021,9.515,171.5794],[-64.5723,9.4889,175.1249],[-64.5616,9.4864,169.2371],[-64.5518,9.4862,167.4339],[-64.5226,9.4958,178.1393],[-64.4836,9.4887,187.4227]]]]}}