{"type":"Feature","properties":{"GID_2":"VEN.7.9_1","GID_0":"VEN","country":"Venezuela","GID_1":"VEN.7_1","province":"Carabobo","NL_NAME_1":"NA","county":"Miranda","VARNAME_2":"NA","NL_NAME_2":"NA","TYPE_2":"Municipio","ENGTYPE_2":"Municipality","CC_2":"NA","HASC_2":"NA","name":"Miranda.county"},
"geometry":{"type": "MultiPolygon","coordinates": [[[[-68.2453,10.1822,676.439],[-68.2504,10.1883,669.815],[-68.252,10.1961,685.9696],[-68.2567,10.1988,681.2401],[-68.2608,10.1991,693.3295],[-68.277,10.1882,663.2332],[-68.2805,10.1885,653.9738],[-68.2867,10.1922,638.191],[-68.2925,10.1976,636.8571],[-68.2968,10.2088,641.9631],[-68.2999,10.2236,652.897],[-68.3092,10.235,733.061],[-68.3226,10.266,1500.2285],[-68.3298,10.2727,1645.176],[-68.3417,10.2565,1464.422],[-68.3592,10.2227,1244.392],[-68.3603,10.1977,715.0308],[-68.3587,10.176,687.5712],[-68.3544,10.1566,767.155],[-68.3415,10.1081,772.8137],[-68.3228,10.0517,662.2486],[-68.3201,10.0307,806.6216],[-68.3163,10.0313,708.3904],[-68.2985,10.0428,693.7239],[-68.2887,10.0561,705.9954],[-68.2814,10.0738,800.875],[-68.2705,10.1088,939.6066],[-68.2606,10.1137,851.3208],[-68.2502,10.1136,902.8822],[-68.2481,10.1251,1098.6335],[-68.2421,10.143,815.0318],[-68.241,10.1588,740.4827],[-68.2367,10.1736,693.5637],[-68.2396,10.1788,686.1727],[-68.2453,10.1822,676.439]]]]}}