{"type": "Feature","bbox": [-64.5808,8.9512,-64.3462,9.4958],"geometry": {"type": "MultiPolygon","coordinates": [[[[-64.5672,9.3978,174.893],[-64.5808,9.2282,183.2835],[-64.5358,9.1702,237.0163],[-64.521,9.1453,272.5655],[-64.476,9.0841,313.0919],[-64.4688,9.0723,306.3569],[-64.4153,8.9512,299.6456],[-64.3923,8.9757,308.5032],[-64.3618,9.0166,298.8152],[-64.3578,9.025,288.4099],[-64.3575,9.0336,287.8686],[-64.3645,9.0501,278.2561],[-64.3764,9.066,262.3925],[-64.3806,9.0739,270.9649],[-64.3834,9.0905,257.0667],[-64.3796,9.1149,262.7964],[-64.3771,9.1616,273.1851],[-64.3778,9.1803,275.2917],[-64.3909,9.2241,289.415],[-64.3963,9.2714,262.4283],[-64.3893,9.3269,206.7333],[-64.3854,9.335,203.1508],[-64.3759,9.3465,199.6126],[-64.3617,9.3599,212.6217],[-64.3504,9.3777,231.1697],[-64.3485,9.3894,234.1546],[-64.3483,9.4049,241.1457],[-64.3498,9.4222,252.5654],[-64.3462,9.4441,254.8988],[-64.347,9.4537,261.4526],[-64.3507,9.4623,264.3703],[-64.366,9.4734,237.876],[-64.3779,9.4789,242.4807],[-64.3895,9.4828,226.2379],[-64.4014,9.4835,222.199],[-64.4193,9.4815,225.0684],[-64.4336,9.4845,208.7576],[-64.4487,9.4927,206.5604],[-64.457,9.4932,201.6844],[-64.4831,9.4886,187.4227],[-64.5226,9.4958,178.1393],[-64.5518,9.4862,167.4339],[-64.5607,9.4864,169.2371],[-64.5672,9.3978,174.893]]]]}
,"properties": {"GID_2": "VEN.2.1_1","GID_0": "VEN","country": "Venezuela","GID_1": "VEN.2_1","province": "Anzoátegui","NL_NAME_1": "NA","county": "Anaco","VARNAME_2": "NA","NL_NAME_2": "NA","TYPE_2": "Municipio","ENGTYPE_2": "Municipality","CC_2": "NA","HASC_2": "NA","name": "Anaco.county","area_km2": 998.267,"hist_schema_id": "Elevation0-9000","hist_area_km2": {"150": 22.4468,"175": 207.7519,"200": 242.9087,"225": 149.3945,"250": 55.0524,"275": 115.7253,"300": 168.9818,"325": 35.8381,"350": 0.1675}}}