{"type":"Feature","properties":{"GID_2":"VEN.15.18_1","GID_0":"VEN","country":"Venezuela","GID_1":"VEN.15_1","province":"Mérida","NL_NAME_1":"NA","county":"RivasDavila","VARNAME_2":"NA","NL_NAME_2":"NA","TYPE_2":"Municipio","ENGTYPE_2":"Municipality","CC_2":"NA","HASC_2":"NA","name":"Rivas_Davila.county"},
"geometry":{"type": "MultiPolygon","coordinates": [[[[-71.7644,8.2449,2371.7681],[-71.7719,8.2517,2067.3149],[-71.7822,8.2734,1674.8728],[-71.7991,8.2952,1313.9509],[-71.8058,8.2981,1571.4399],[-71.8282,8.3018,2316.5056],[-71.8354,8.2862,2476.7727],[-71.8472,8.2681,2442.0264],[-71.8927,8.2204,3223.8901],[-71.9,8.2073,3173.8779],[-71.9015,8.1924,3140.8882],[-71.8985,8.1774,2995.1648],[-71.8904,8.1653,3152.2078],[-71.8723,8.1525,2659.9033],[-71.8401,8.1435,2961.1597],[-71.8331,8.1494,2955.3491],[-71.8231,8.1625,3099.4163],[-71.8161,8.1756,2804.2795],[-71.8029,8.2096,3427.1589],[-71.8028,8.2157,3193.8647],[-71.7899,8.2279,3298.9614],[-71.7644,8.2449,2371.7681]]]]}}