{"type":"Feature","properties":{"GID_1":"VEN.10_1","GID_0":"VEN","country":"Venezuela","province":"DependenciasFederales","VARNAME_1":"NA","NL_NAME_1":"NA","TYPE_1":"Estado","ENGTYPE_1":"State","CC_1":"NA","HASC_1":"VE.DP","ISO_1":"NA","name":"Dependencias_Federales.province"},
"geometry":{"type": "MultiPolygon","coordinates": [[[[-66.7285,11.7765,1.2667],[-66.7368,11.7776,0.0],[-66.746,11.776,0.0],[-66.7468,11.7735,2.1847],[-66.7615,11.7657,0.0],[-66.7624,11.7638,2.7482],[-66.7774,11.7574,0.0],[-66.7832,11.7518,1.9401],[-66.7885,11.7521,0.0],[-66.7887,11.749,3.2638],[-66.8029,11.7435,0.0],[-66.8432,11.7396,0.7026],[-66.8549,11.7454,1.3023],[-66.8557,11.7485,0.7666],[-66.8579,11.7476,0.0],[-66.8579,11.7457,0.0],[-66.856,11.7432,0.0],[-66.8496,11.7404,0.0],[-66.8485,11.7379,0.0],[-66.8421,11.7363,0.0],[-66.8004,11.7429,0.0],[-66.7854,11.7485,0.0],[-66.7754,11.7571,0.8131],[-66.7596,11.7624,0.0],[-66.7426,11.7743,2.3375],[-66.7337,11.776,2.365],[-66.7218,11.7732,0.0],[-66.724,11.776,0.0],[-66.7285,11.7765,1.2667]]],
[[[-66.7321,11.8429,1.8055],[-66.7337,11.8454,4.8006],[-66.7379,11.8454,0.0],[-66.7396,11.8438,0.0],[-66.7365,11.8429,0.0],[-66.7357,11.8443,0.0],[-66.7343,11.8421,1.4012],[-66.7321,11.8429,1.8055]]],
[[[-66.8115,11.8532,0.0],[-66.811,11.8543,0.542],[-66.8154,11.8549,0.5397],[-66.8168,11.8526,0.0],[-66.8129,11.8518,0.0],[-66.8115,11.8532,0.0]]],
[[[-66.769,11.8568,1.4028],[-66.7726,11.8574,0.0],[-66.7735,11.856,0.0],[-66.7718,11.8537,0.0],[-66.7693,11.8535,0.0],[-66.766,11.8571,0.0],[-66.7693,11.8546,1.4265],[-66.769,11.8568,1.4028]]],
[[[-66.8824,11.7857,0.0],[-66.881,11.7854,0.0],[-66.8812,11.7882,0.0],[-66.8826,11.7882,0.0],[-66.8824,11.7857,0.0]]],
[[[-66.8901,11.7965,0.8047],[-66.8924,11.7979,0.0],[-66.896,11.7935,0.3345],[-66.8904,11.7932,0.0],[-66.8901,11.7965,0.8047]]],
[[[-66.8899,11.8049,0.4558],[-66.8926,11.8057,0.0],[-66.8935,11.8046,0.8029],[-66.8904,11.8004,0.0],[-66.8887,11.8024,0.7051],[-66.8899,11.8049,0.4558]]],
[[[-66.9443,11.8229,0.952],[-66.9457,11.8251,0.7965],[-66.9488,11.824,0.0],[-66.9476,11.8201,0.0],[-66.939,11.8176,2.0713],[-66.9313,11.8193,0.8509],[-66.929,11.8218,0.0],[-66.9313,11.8235,0.0],[-66.9385,11.819,0.3622],[-66.9418,11.8196,2.8147],[-66.9443,11.8229,0.952]]],
[[[-66.951,11.8318,0.9432],[-66.9535,11.8335,1.3627],[-66.9549,11.8313,1.4956],[-66.9563,11.8318,0.0],[-66.9518,11.8257,0.6924],[-66.951,11.8257,1.7383],[-66.9521,11.8293,3.5941],[-66.951,11.8318,0.9432]]],
[[[-66.9318,11.8507,0.7808],[-66.9385,11.8521,0.0],[-66.9413,11.851,0.0],[-66.9415,11.849,0.0],[-66.9374,11.8476,0.9236],[-66.9335,11.8496,1.4595],[-66.9307,11.849,0.0],[-66.9254,11.8432,0.0],[-66.9232,11.8368,0.0],[-66.9204,11.8376,0.0],[-66.926,11.8474,0.0],[-66.9318,11.8507,0.7808]]],
[[[-66.8504,11.8707,0.0],[-66.8532,11.871,0.0],[-66.8529,11.8676,1.048],[-66.8437,11.8665,0.0],[-66.8435,11.8682,0.0],[-66.8504,11.8707,0.0]]],
[[[-66.9379,11.8801,0.0],[-66.9388,11.8826,0.0],[-66.941,11.8812,0.0],[-66.9399,11.8768,0.0],[-66.9379,11.8776,0.0],[-66.9379,11.8801,0.0]]],
[[[-66.7926,11.8571,0.0],[-66.7935,11.8588,0.0],[-66.7954,11.8588,0.0],[-66.7985,11.8549,1.1791],[-66.794,11.8524,3.5653],[-66.7926,11.8535,0.0],[-66.7926,11.8571,0.0]]],
[[[-66.8171,11.866,0.0],[-66.8215,11.8668,0.7468],[-66.8232,11.8651,0.0],[-66.821,11.8624,0.0],[-66.8176,11.8649,2.3585],[-66.8076,11.8621,1.6575],[-66.7965,11.8643,0.0],[-66.7918,11.8632,0.0],[-66.7915,11.8618,0.0],[-66.7829,11.8604,3.4869],[-66.7812,11.8582,0.0],[-66.7815,11.8562,1.6134],[-66.7829,11.8565,1.6134],[-66.7821,11.8549,3.4128],[-66.786,11.8526,1.4583],[-66.7857,11.8568,0.7134],[-66.7874,11.8585,0.0],[-66.7879,11.8529,1.78],[-66.7918,11.8515,0.0],[-66.7915,11.8501,0.0],[-66.7871,11.8499,0.0],[-66.7821,11.8507,0.7649],[-66.7804,11.8537,0.0],[-66.7754,11.8537,0.0],[-66.7751,11.8551,0.0],[-66.7782,11.8549,0.2348],[-66.7749,11.8562,0.9383],[-66.7751,11.8579,0.7194],[-66.7765,11.8576,0.7194],[-66.776,11.8604,0.0],[-66.7643,11.859,2.1374],[-66.766,11.8574,0.0],[-66.7637,11.8565,0.0],[-66.7596,11.8576,0.4856],[-66.7596,11.8535,0.0],[-66.7554,11.8546,0.0],[-66.7496,11.8535,0.0],[-66.7471,11.8604,0.0],[-66.7429,11.8607,0.6169],[-66.7401,11.8588,0.1941],[-66.7307,11.8601,0.0],[-66.7276,11.859,0.0],[-66.7268,11.8612,0.7343],[-66.7213,11.8604,0.0],[-66.721,11.8615,1.6971],[-66.7176,11.859,0.4104],[-66.7149,11.861,1.3858],[-66.7138,11.8579,0.0],[-66.7157,11.8543,0.0],[-66.7235,11.8526,0.7086],[-66.7285,11.8554,0.0],[-66.7343,11.8546,0.0],[-66.7332,11.8526,1.1288],[-66.731,11.8537,0.0],[-66.7301,11.8524,0.0],[-66.7279,11.854,0.0],[-66.7279,11.8504,0.0],[-66.7251,11.8496,2.825],[-66.7274,11.8485,0.0],[-66.7271,11.8468,0.0],[-66.7246,11.8471,0.0],[-66.7226,11.8496,0.4337],[-66.7196,11.8479,0.0],[-66.7157,11.849,0.0],[-66.7162,11.8449,0.0],[-66.7143,11.8479,0.0],[-66.7157,11.8504,0.0],[-66.7101,11.8546,0.0],[-66.7096,11.8582,0.6319],[-66.7079,11.8593,0.0],[-66.7093,11.8646,0.3164],[-66.7126,11.8657,0.0],[-66.7174,11.8632,0.6463],[-66.7318,11.8615,0.4335],[-66.7418,11.8624,0.0],[-66.7554,11.8599,0.0],[-66.7579,11.8607,0.0],[-66.7601,11.8593,0.322],[-66.7688,11.8624,0.0],[-66.7712,11.8604,0.0],[-66.7751,11.8624,0.0],[-66.7874,11.8629,1.6988],[-66.7976,11.8657,0.0],[-66.8171,11.866,0.0]]],
[[[-66.796,11.889,0.0],[-66.7999,11.8899,0.0],[-66.8018,11.8882,0.0],[-66.7968,11.8871,1.6901],[-66.791,11.8801,0.0],[-66.7899,11.8824,0.0],[-66.791,11.8835,0.0],[-66.7862,11.8829,6.0615],[-66.7879,11.8812,0.9808],[-66.7899,11.8818,0.0],[-66.7896,11.8804,0.0],[-66.7818,11.8824,3.7385],[-66.7699,11.8807,0.0],[-66.771,11.886,0.0],[-66.7787,11.8851,5.6071],[-66.781,11.8865,0.0],[-66.7874,11.8843,1.5211],[-66.7929,11.886,1.1449],[-66.796,11.889,0.0]]],
[[[-66.8218,11.8876,0.0],[-66.8262,11.8885,0.7091],[-66.8274,11.8871,0.0],[-66.824,11.8857,0.0],[-66.8218,11.8876,0.0]]],
[[[-66.8021,11.8968,1.4528],[-66.8054,11.8976,0.0],[-66.804,11.8904,0.0],[-66.7999,11.8918,0.5366],[-66.7999,11.8946,1.7659],[-66.8021,11.8968,1.4528]]],
[[[-66.7487,11.904,0.0],[-66.7457,11.9046,0.0],[-66.7457,11.9057,0.0],[-66.749,11.9057,0.0],[-66.7487,11.904,0.0]]],
[[[-66.831,11.914,1.0274],[-66.8318,11.9151,1.0274],[-66.8396,11.9143,0.0],[-66.8396,11.9115,0.0],[-66.8337,11.911,0.0],[-66.831,11.914,1.0274]]],
[[[-66.8235,11.9124,1.1049],[-66.8221,11.9124,0.0],[-66.8224,11.914,0.0],[-66.8268,11.9135,0.0],[-66.8265,11.9121,0.0],[-66.8235,11.9124,1.1049]]],
[[[-66.8482,11.8826,1.7225],[-66.8457,11.8851,0.8263],[-66.8507,11.8846,1.3516],[-66.8507,11.8832,0.4266],[-66.8482,11.8826,1.7225]]],
[[[-66.8426,11.8888,0.0],[-66.8457,11.8901,0.0],[-66.8476,11.8888,0.0],[-66.8446,11.8868,3.4861],[-66.8432,11.8826,0.0],[-66.8407,11.8865,0.4533],[-66.8407,11.8882,1.2363],[-66.8426,11.8888,0.0]]],
[[[-66.879,11.8982,0.4554],[-66.8874,11.8993,0.0],[-66.8957,11.8954,0.6575],[-66.8924,11.8935,0.0],[-66.8874,11.8982,0.0],[-66.8818,11.8982,0.0],[-66.8574,11.894,1.4357],[-66.8493,11.8901,0.0],[-66.8518,11.8932,0.0],[-66.851,11.8949,0.0],[-66.8543,11.8968,0.0],[-66.8582,11.8971,0.0],[-66.8599,11.8957,0.0],[-66.879,11.8982,0.4554]]],
[[[-67.4224,11.9463,0.8138],[-67.4271,11.9479,0.0],[-67.4279,11.946,2.1453],[-67.4329,11.9451,7.8718],[-67.4365,11.9471,0.0],[-67.4376,11.946,0.0],[-67.4365,11.9443,3.9456],[-67.4393,11.9424,2.9916],[-67.4463,11.9432,1.167],[-67.449,11.9421,0.3279],[-67.446,11.9404,0.0],[-67.4393,11.9401,0.0],[-67.4265,11.9449,0.4813],[-67.416,11.9435,0.0],[-67.4163,11.9418,0.0],[-67.4137,11.9432,0.0],[-67.4149,11.9457,0.0],[-67.4224,11.9463,0.8138]]],
[[[-67.4693,11.9707,0.891],[-67.4707,11.9718,0.0],[-67.4696,11.9688,0.4013],[-67.471,11.9674,0.0],[-67.4746,11.9657,0.9103],[-67.4776,11.9665,1.6145],[-67.4771,11.9643,3.5944],[-67.4785,11.964,3.5944],[-67.479,11.9657,2.4273],[-67.4779,11.9663,1.6145],[-67.481,11.9699,0.0],[-67.4801,11.9626,0.2498],[-67.4696,11.9663,0.0],[-67.4699,11.9676,0.8311],[-67.4685,11.9671,0.8311],[-67.4693,11.9707,0.891]]],
[[[-67.6693,11.9874,0.0],[-67.674,11.9879,2.0625],[-67.6804,11.984,0.0],[-67.6687,11.9765,0.0],[-67.6557,11.9751,0.0],[-67.6526,11.9729,0.0],[-67.6393,11.974,-0.5],[-67.6354,11.9713,0.0],[-67.6329,11.9718,0.3501],[-67.6346,11.9746,0.0],[-67.6396,11.9765,0.5218],[-67.6457,11.9771,0.0],[-67.6487,11.9757,0.0],[-67.6543,11.9776,0.0],[-67.6546,11.979,0.0],[-67.6612,11.9782,2.3871],[-67.6626,11.9821,0.0],[-67.6649,11.9812,3.502],[-67.6646,11.984,0.0],[-67.6668,11.9843,0.8355],[-67.6676,11.9871,0.0],[-67.6693,11.9874,0.0]]],
[[[-66.6532,11.9326,0.0],[-66.6529,11.9354,0.0],[-66.6568,11.936,0.0],[-66.6599,11.9329,0.2922],[-66.6551,11.9282,0.0],[-66.6535,11.929,1.2503],[-66.6532,11.9326,0.0]]],
[[[-66.6626,11.9393,0.3867],[-66.664,11.9401,0.0],[-66.6635,11.9335,0.3749],[-66.6612,11.9321,0.2922],[-66.6593,11.934,0.797],[-66.6596,11.9376,2.2138],[-66.6626,11.9393,0.3867]]],
[[[-66.6479,11.9485,0.0],[-66.6474,11.9499,0.9596],[-66.6487,11.9501,0.9596],[-66.6504,11.9479,1.1357],[-66.6487,11.9471,0.0],[-66.6479,11.9485,0.0]]],
[[[-66.6907,11.9585,0.0],[-66.6951,11.9588,0.0],[-66.6965,11.9571,0.0],[-66.6851,11.9504,0.0],[-66.6824,11.9504,0.0],[-66.6818,11.9485,0.0],[-66.6726,11.9429,0.0],[-66.6701,11.9435,0.0],[-66.6704,11.9451,1.5655],[-66.6654,11.9463,0.0],[-66.6649,11.949,1.7359],[-66.6621,11.9496,1.3679],[-66.6643,11.9532,0.0],[-66.669,11.9513,1.4376],[-66.6735,11.9554,0.0],[-66.6751,11.9537,5.4533],[-66.679,11.9551,0.0],[-66.6799,11.9537,13.1137],[-66.6821,11.9571,0.0],[-66.6868,11.9546,21.4169],[-66.6907,11.9585,0.0]]],
[[[-66.6293,11.9563,0.0],[-66.6346,11.9571,0.0],[-66.6374,11.9554,0.0],[-66.6315,11.9524,0.2463],[-66.6299,11.9532,0.0],[-66.6293,11.9563,0.0]]],
[[[-66.6415,11.9599,0.0],[-66.6465,11.9601,1.0744],[-66.6474,11.9568,0.0],[-66.6432,11.9565,0.0],[-66.6415,11.9599,0.0]]],
[[[-66.6468,11.9549,2.9217],[-66.6507,11.9554,2.9753],[-66.6504,11.9515,0.0],[-66.6462,11.951,0.0],[-66.6465,11.9532,0.0],[-66.6432,11.9554,0.8529],[-66.6468,11.9549,2.9217]]],
[[[-66.6471,11.9682,0.0],[-66.6532,11.9693,0.0],[-66.6543,11.9663,0.0],[-66.6532,11.9635,1.5567],[-66.656,11.961,0.0],[-66.6549,11.9579,0.0],[-66.6574,11.9549,0.0],[-66.654,11.9551,0.5718],[-66.6518,11.9615,2.7815],[-66.6487,11.9626,0.0],[-66.6482,11.9651,0.0],[-66.6462,11.9651,0.0],[-66.6471,11.9682,0.0]]],
[[[-65.3065,10.986,0.0],[-65.3087,10.9868,0.0],[-65.3099,10.9854,0.0],[-65.3087,10.9804,0.3747],[-65.3124,10.9771,0.0],[-65.3432,10.9813,0.6429],[-65.3451,10.981,0.0],[-65.3454,10.9787,0.9151],[-65.3493,10.9754,5.3303],[-65.3554,10.9771,0.0],[-65.3671,10.9757,0.2422],[-65.3671,10.9737,5.7208],[-65.3721,10.9713,0.0],[-65.3732,10.9685,3.1525],[-65.3815,10.966,1.0753],[-65.3935,10.9582,2.4271],[-65.4001,10.9493,4.3291],[-65.4085,10.9446,0.0],[-65.4101,10.939,3.2876],[-65.4174,10.9363,0.5213],[-65.4204,10.9326,1.374],[-65.4221,10.9235,0.3153],[-65.4035,10.9249,0.5482],[-65.3999,10.924,4.2909],[-65.4001,10.921,0.8909],[-65.3943,10.9179,0.0],[-65.3846,10.9201,0.0],[-65.3824,10.9196,0.0],[-65.3821,10.9168,0.0],[-65.3793,10.916,0.0],[-65.374,10.9179,1.5871],[-65.3643,10.9143,3.298],[-65.361,10.9082,1.505],[-65.3526,10.9085,4.1342],[-65.3374,10.9004,0.0],[-65.3313,10.9001,3.1462],[-65.3254,10.8968,0.0],[-65.3157,10.8979,7.6804],[-65.3096,10.891,4.1532],[-65.3043,10.8913,2.7215],[-65.301,10.8893,2.4519],[-65.2929,10.8907,8.0332],[-65.2882,10.8899,0.0],[-65.2787,10.8938,7.5707],[-65.2685,10.891,1.0888],[-65.259,10.894,1.0897],[-65.2538,10.8926,0.0],[-65.2493,10.896,0.0],[-65.256,10.896,0.9095],[-65.2462,10.9018,0.0],[-65.2365,10.9049,0.0],[-65.2326,10.904,0.9934],[-65.244,10.901,0.0],[-65.2468,10.8963,0.0],[-65.2374,10.9007,1.3663],[-65.2288,10.9018,0.0],[-65.2257,10.9046,2.9974],[-65.209,10.9021,1.0439],[-65.2026,10.9035,0.0],[-65.1982,10.9065,0.0],[-65.1965,10.9099,0.0],[-65.2012,10.909,0.0],[-65.2012,10.9126,0.0],[-65.2046,10.9176,0.0],[-65.2004,10.9207,0.0],[-65.2024,10.926,0.0],[-65.2082,10.9304,0.3662],[-65.2104,10.9301,1.6954],[-65.219,10.9382,0.0],[-65.2232,10.9449,0.2679],[-65.2224,10.959,0.0],[-65.2251,10.9624,0.0],[-65.2237,10.9629,0.0],[-65.2162,10.9576,0.0],[-65.2165,10.9521,0.0],[-65.2149,10.9521,0.0],[-65.2138,10.9557,0.0],[-65.2162,10.9596,0.0],[-65.226,10.9649,0.0],[-65.2282,10.9621,0.0851],[-65.2274,10.9593,0.0],[-65.226,10.9596,0.176],[-65.2243,10.9571,0.0],[-65.2279,10.9518,1.5303],[-65.234,10.9501,2.8062],[-65.2393,10.9524,0.0],[-65.2499,10.9535,5.056],[-65.2796,10.9668,1.347],[-65.2954,10.9763,1.242],[-65.3065,10.986,0.0]]],
[[[-63.1332,11.346,2.9873],[-63.1354,11.3471,0.0],[-63.1379,11.344,0.0],[-63.1321,11.3429,0.0],[-63.1312,11.3451,0.0],[-63.1332,11.346,2.9873]]],
[[[-63.1312,11.3621,2.999],[-63.1307,11.3638,0.0],[-63.1385,11.3618,7.46],[-63.1387,11.359,33.1293],[-63.1418,11.3571,3.3246],[-63.1387,11.3543,3.1567],[-63.1338,11.3551,0.0],[-63.1307,11.3529,0.0],[-63.1299,11.3554,0.0],[-63.1324,11.3562,0.0],[-63.1312,11.3621,2.999]]],
[[[-63.0599,11.366,2.1754],[-63.0599,11.3693,0.0],[-63.0618,11.3696,0.0],[-63.0621,11.3626,0.0],[-63.0571,11.3632,0.0],[-63.0599,11.366,2.1754]]],
[[[-65.4299,10.9713,0.1926],[-65.4287,10.9718,0.0],[-65.434,10.9704,0.0],[-65.4376,10.9674,0.0],[-65.4382,10.9649,0.0],[-65.4282,10.9626,0.0],[-65.4299,10.9713,0.1926]]],
[[[-65.416,10.9763,0.0],[-65.4201,10.9771,0.0],[-65.4243,10.9737,0.0],[-65.424,10.9715,0.0],[-65.4146,10.9693,0.0],[-65.4157,10.9729,0.8298],[-65.414,10.9704,0.0],[-65.4132,10.9713,0.0],[-65.416,10.9763,0.0]]],
[[[-65.3768,10.9988,0.0],[-65.3868,10.9996,0.0],[-65.3876,10.9979,0.1694],[-65.3846,10.9951,0.0],[-65.3832,10.9957,0.0],[-65.3846,10.9976,0.2448],[-65.3793,10.9965,0.0971],[-65.3765,10.9893,0.0],[-65.3737,10.9901,0.0],[-65.3732,10.9926,0.0],[-65.3765,10.9932,0.2084],[-65.3768,10.9988,0.0]]],
[[[-66.6143,11.8235,0.1977],[-66.6179,11.8246,0.0],[-66.6212,11.8218,0.0],[-66.6218,11.811,0.6687],[-66.6188,11.8057,0.0],[-66.6188,11.801,0.0],[-66.6154,11.8018,0.7462],[-66.6132,11.7985,2.2666],[-66.6154,11.7968,1.253],[-66.6162,11.799,0.0],[-66.6176,11.7988,0.0],[-66.6193,11.7901,1.2749],[-66.6221,11.7918,1.1495],[-66.6268,11.7901,0.0],[-66.6268,11.7796,0.0],[-66.6282,11.7763,0.4017],[-66.6321,11.7765,0.9583],[-66.6312,11.7743,0.8452],[-66.6326,11.7726,1.7445],[-66.6376,11.7721,0.0],[-66.6385,11.7671,1.6271],[-66.6415,11.7671,0.0],[-66.6415,11.7646,0.2258],[-66.6582,11.7599,1.5232],[-66.661,11.7612,0.3607],[-66.6626,11.7588,0.0],[-66.6699,11.7585,0.0],[-66.6735,11.7565,2.002],[-66.6837,11.761,0.0],[-66.6913,11.7621,0.4206],[-66.6946,11.7654,4.6259],[-66.7012,11.7657,0.0],[-66.7007,11.764,0.4581],[-66.6829,11.7576,0.7696],[-66.6729,11.7515,0.0],[-66.6462,11.7588,3.6516],[-66.6274,11.7601,0.0],[-66.6121,11.759,0.397],[-66.5857,11.7704,0.0],[-66.5821,11.7749,0.2759],[-66.5879,11.7724,0.0],[-66.5899,11.7749,0.7544],[-66.5899,11.7785,0.0],[-66.5912,11.7785,0.0],[-66.596,11.776,0.0],[-66.5921,11.7757,0.5205],[-66.5921,11.7743,0.0],[-66.5949,11.7735,0.4463],[-66.5949,11.7693,0.7083],[-66.5985,11.7693,0.0],[-66.5993,11.7674,0.0],[-66.6015,11.7674,0.0],[-66.6015,11.7651,0.392],[-66.6093,11.7662,1.6772],[-66.6096,11.7774,1.028],[-66.601,11.7851,0.4959],[-66.6004,11.7832,0.0],[-66.6062,11.7757,0.0],[-66.601,11.7746,0.0],[-66.6035,11.774,0.0],[-66.604,11.7724,0.0],[-66.5987,11.7735,0.0],[-66.5976,11.7751,0.0],[-66.5974,11.7849,0.0],[-66.5926,11.7896,0.0],[-66.5951,11.7904,0.4305],[-66.5963,11.7929,0.94],[-66.5965,11.7988,1.7375],[-66.594,11.7971,0.7413],[-66.591,11.7982,0.0],[-66.5921,11.7951,0.6861],[-66.596,11.7935,0.94],[-66.5929,11.7929,0.0],[-66.5907,11.7946,0.538],[-66.5879,11.801,0.0],[-66.5868,11.8099,0.0],[-66.589,11.8168,0.0],[-66.5915,11.8185,1.5214],[-66.5934,11.8179,0.8273],[-66.5929,11.8204,0.0],[-66.596,11.8226,0.0],[-66.5974,11.8207,1.0831],[-66.5946,11.8171,0.9601],[-66.5954,11.8151,3.8842],[-66.5999,11.8157,0.0],[-66.5999,11.8099,0.0],[-66.5985,11.8085,0.0],[-66.6018,11.8071,0.0],[-66.5987,11.8063,0.0],[-66.599,11.8024,0.0],[-66.6026,11.801,0.0],[-66.604,11.7993,0.0],[-66.6029,11.7974,0.3169],[-66.6046,11.7968,0.0],[-66.6038,11.7951,2.3952],[-66.6054,11.7957,0.0],[-66.6062,11.7937,5.9377],[-66.6074,11.8079,0.3736],[-66.6107,11.811,0.538],[-66.611,11.8163,0.0],[-66.6143,11.8235,0.1977]]],
[[[-63.1146,11.3921,0.0],[-63.1168,11.3935,0.0],[-63.1168,11.3893,0.0],[-63.1285,11.3862,0.0],[-63.1301,11.3843,28.6688],[-63.134,11.3838,0.0],[-63.1346,11.3821,4.9052],[-63.1324,11.381,22.7989],[-63.131,11.3726,0.0],[-63.1271,11.3743,18.8454],[-63.1237,11.3726,12.8521],[-63.1224,11.3699,0.0],[-63.1199,11.371,2.1585],[-63.1143,11.3657,1.8504],[-63.1126,11.3574,0.0],[-63.1101,11.3563,0.0],[-63.1087,11.3579,5.4825],[-63.104,11.356,0.0],[-63.1026,11.3596,0.0],[-63.1065,11.3604,3.1719],[-63.1015,11.3654,0.0],[-63.1043,11.3651,18.5225],[-63.1087,11.3676,0.0],[-63.1115,11.3665,15.53],[-63.1126,11.3743,0.0],[-63.1168,11.3743,18.3071],[-63.1157,11.3793,3.532],[-63.1129,11.3804,0.0],[-63.1126,11.3854,4.5812],[-63.1099,11.3862,0.0],[-63.111,11.3904,5.7868],[-63.1146,11.3921,0.0]]],
[[[-63.0874,11.3813,4.9723],[-63.0882,11.384,0.0],[-63.0899,11.3838,0.0],[-63.089,11.3776,17.2375],[-63.0843,11.3713,0.9781],[-63.0782,11.3729,0.0],[-63.0785,11.376,0.0],[-63.0832,11.3818,0.7765],[-63.0874,11.3813,4.9723]]],
[[[-63.1387,11.3901,4.9423],[-63.1401,11.3921,1.9683],[-63.1407,11.3857,4.635],[-63.1379,11.386,3.8194],[-63.1368,11.3843,0.0],[-63.1343,11.3882,0.0],[-63.1362,11.3901,3.9622],[-63.1387,11.3896,4.9423],[-63.1387,11.3901,4.9423]]],
[[[-64.3999,11.7271,0.0],[-64.4062,11.7271,0.0],[-64.4068,11.721,0.0],[-64.4029,11.7207,8.9078],[-64.3987,11.7235,0.0],[-64.3985,11.7265,62.507],[-64.3999,11.7271,0.0]]],
[[[-64.3893,11.7449,6.921],[-64.3943,11.746,0.0],[-64.3976,11.7399,0.0],[-64.3904,11.7424,42.4187],[-64.3893,11.7449,6.921]]],
[[[-64.4251,11.7901,83.237],[-64.4276,11.7915,1.1804],[-64.4301,11.7876,16.5009],[-64.4235,11.7849,0.0],[-64.4224,11.7907,33.8103],[-64.4251,11.7901,83.237]]],
[[[-64.4315,11.8149,0.0],[-64.4332,11.8163,0.0],[-64.4335,11.8129,0.0],[-64.4315,11.8115,0.0],[-64.4274,11.8118,1.5072],[-64.4274,11.814,65.253],[-64.4315,11.8149,0.0]]],
[[[-64.4388,11.8224,64.8243],[-64.4396,11.8249,78.5029],[-64.4413,11.8249,78.5029],[-64.4443,11.8237,14.2122],[-64.4451,11.8212,30.3671],[-64.444,11.8193,2.9092],[-64.4393,11.8199,0.0],[-64.4388,11.8224,64.8243]]],
[[[-66.7029,11.7668,1.1475],[-66.7054,11.7679,0.0],[-66.7057,11.7662,0.0],[-66.7012,11.7643,0.0],[-66.7015,11.766,0.0],[-66.7029,11.7668,1.1475]]],
[[[-66.7168,11.7732,1.2791],[-66.7179,11.7743,0.0],[-66.7193,11.7737,0.0],[-66.7154,11.7718,0.0],[-66.7168,11.7732,1.2791]]],
[[[-66.7218,11.8565,4.0801],[-66.7224,11.8579,1.5893],[-66.7249,11.8576,1.546],[-66.7232,11.8549,0.0],[-66.7213,11.8554,0.0],[-66.7218,11.8565,4.0801]]],
[[[-66.6832,11.874,0.0],[-66.6837,11.876,0.0],[-66.6879,11.8763,0.0],[-66.6929,11.8735,1.0708],[-66.6954,11.8737,0.0],[-66.6965,11.8721,0.0],[-66.6918,11.8707,2.3991],[-66.6913,11.8685,0.0],[-66.6896,11.869,3.66],[-66.6921,11.8657,0.0],[-66.6918,11.8643,0.0],[-66.6896,11.8646,2.293],[-66.6901,11.8599,0.0],[-66.6835,11.8621,0.0],[-66.6829,11.8685,0.0],[-66.6854,11.8726,0.0],[-66.6832,11.874,0.0]]],
[[[-66.0979,11.8704,1.9497],[-66.0999,11.8713,0.0],[-66.1035,11.8685,1.1729],[-66.0996,11.8626,0.4857],[-66.0999,11.8576,0.0],[-66.0968,11.8551,0.0],[-66.0935,11.8557,0.4987],[-66.0924,11.8543,0.0],[-66.0949,11.8438,1.0203],[-66.0979,11.841,0.0],[-66.0987,11.8374,0.0],[-66.1046,11.8379,0.0],[-66.1071,11.8335,1.1367],[-66.1099,11.8338,0.0],[-66.1124,11.829,0.0],[-66.1212,11.8265,0.0],[-66.1201,11.8243,0.8925],[-66.1174,11.826,1.5315],[-66.114,11.8254,0.0],[-66.1126,11.8282,0.53],[-66.1082,11.8285,0.0],[-66.101,11.824,0.5143],[-66.1015,11.8268,0.9308],[-66.0987,11.8293,1.411],[-66.0888,11.8521,0.0],[-66.0921,11.8562,0.4987],[-66.0912,11.8674,0.0],[-66.0979,11.8704,1.9497]]],
[[[-66.6118,11.864,0.0],[-66.6137,11.8657,0.0],[-66.6165,11.8635,0.0],[-66.6165,11.8457,0.0],[-66.6076,11.8426,0.4525],[-66.6071,11.8471,3.3931],[-66.6054,11.8465,0.8471],[-66.6051,11.849,1.9571],[-66.6032,11.8485,0.0],[-66.6032,11.8507,0.0],[-66.6079,11.8601,1.6766],[-66.6118,11.864,0.0]]],
[[[-66.1121,11.8615,0.0],[-66.1104,11.8646,0.0],[-66.1196,11.8565,0.0],[-66.1199,11.8535,0.0],[-66.1154,11.8535,0.0],[-66.1154,11.8585,0.0],[-66.1121,11.8615,0.0]]],
[[[-66.6493,11.8921,0.0],[-66.6504,11.894,0.0],[-66.6543,11.894,0.0],[-66.6535,11.8913,0.0],[-66.6513,11.8907,0.0],[-66.6513,11.8918,0.0],[-66.6482,11.8901,0.0],[-66.6468,11.8826,0.44],[-66.6432,11.884,1.357],[-66.6368,11.8835,0.234],[-66.6351,11.8801,0.0],[-66.6299,11.8776,0.8506],[-66.6279,11.8787,0.0],[-66.6268,11.8829,1.4549],[-66.636,11.8907,0.0],[-66.6399,11.8924,0.0],[-66.6429,11.8915,2.546],[-66.6451,11.8935,0.5009],[-66.6454,11.8921,0.0],[-66.6493,11.8921,0.0]]],
[[[-66.6999,11.8674,0.0],[-66.6999,11.8718,0.0],[-66.7026,11.8721,0.0],[-66.704,11.8696,0.0],[-66.6999,11.8674,0.0]]],
[[[-66.7168,11.8746,0.0],[-66.7182,11.8771,0.0],[-66.7196,11.8746,1.0965],[-66.7204,11.8746,1.0965],[-66.7213,11.8765,1.2729],[-66.724,11.8765,0.6203],[-66.7296,11.8718,0.0],[-66.7235,11.8718,0.0],[-66.7182,11.8696,0.0],[-66.7165,11.8726,0.0],[-66.7199,11.8715,3.2804],[-66.7193,11.8746,1.0965],[-66.7162,11.8732,0.0],[-66.7168,11.8746,0.0]]],
[[[-66.7387,11.9021,0.0],[-66.7407,11.9032,0.0],[-66.7382,11.8993,0.0],[-66.7349,11.8976,0.4726],[-66.7343,11.8876,0.0],[-66.7318,11.884,0.0],[-66.7276,11.8835,0.0],[-66.7268,11.8807,0.7977],[-66.7251,11.8807,0.0],[-66.7229,11.884,0.0],[-66.7229,11.8899,0.0],[-66.7249,11.8899,0.9336],[-66.7254,11.8851,1.8651],[-66.726,11.8907,0.0],[-66.7301,11.8882,1.2817],[-66.7326,11.8935,1.289],[-66.7326,11.8974,0.0],[-66.7387,11.9021,0.0]]],
[[[-66.7299,11.9229,3.1175],[-66.7326,11.9246,0.0],[-66.734,11.9207,0.0],[-66.7307,11.919,0.4018],[-66.7299,11.9229,3.1175]]],
[[[-66.7412,11.9254,1.6932],[-66.7446,11.9263,0.4571],[-66.746,11.9235,0.0],[-66.7393,11.9207,0.4064],[-66.7363,11.9218,0.0],[-66.7382,11.9224,2.303],[-66.7412,11.9254,1.6932]]],
[[[-66.7474,11.9332,0.0],[-66.7551,11.9335,0.0],[-66.7562,11.9299,0.0],[-66.7513,11.9307,0.9366],[-66.7493,11.9285,0.0],[-66.7465,11.9287,0.0],[-66.746,11.9299,0.0],[-66.749,11.9307,1.0786],[-66.7462,11.9321,0.0],[-66.7474,11.9332,0.0]]],
[[[-66.1096,11.8232,0.5571],[-66.1151,11.824,0.0],[-66.1229,11.8201,1.6408],[-66.1479,11.8165,1.1766],[-66.1568,11.8165,0.0],[-66.1632,11.8132,1.2732],[-66.1643,11.814,0.2754],[-66.1626,11.8154,0.2591],[-66.186,11.814,0.0],[-66.1999,11.8149,12.4955],[-66.2046,11.8138,0.0],[-66.2049,11.8118,0.0],[-66.1982,11.8024,0.0],[-66.1932,11.801,1.9956],[-66.1913,11.7979,0.0],[-66.1676,11.7813,0.5335],[-66.1654,11.7813,1.183],[-66.1629,11.7788,0.4031],[-66.1593,11.779,1.9523],[-66.1465,11.7688,0.8114],[-66.1315,11.7676,0.8637],[-66.1254,11.7696,1.11],[-66.1254,11.7685,0.0],[-66.129,11.7679,0.5094],[-66.1257,11.7674,0.0],[-66.1212,11.7688,0.4617],[-66.1149,11.7754,0.0],[-66.1051,11.7896,0.0],[-66.0993,11.8015,0.0],[-66.0996,11.8104,0.0],[-66.1021,11.8199,4.6218],[-66.1096,11.8232,0.5571]]],
[[[-66.1346,11.8207,1.9066],[-66.1329,11.821,1.9066],[-66.1332,11.8224,0.0],[-66.1368,11.8221,0.0],[-66.1443,11.8179,0.0],[-66.141,11.8182,1.077],[-66.1346,11.8207,1.9066]]],
[[[-66.6004,11.8462,2.0846],[-66.604,11.8471,0.0],[-66.606,11.844,1.7363],[-66.6007,11.8401,0.0],[-66.5999,11.8374,0.0],[-66.5982,11.8376,1.6074],[-66.6001,11.8343,0.0],[-66.596,11.8265,0.694],[-66.5968,11.8237,0.0],[-66.5951,11.8232,0.0],[-66.5926,11.8251,0.0],[-66.5932,11.8293,0.0],[-66.5946,11.8299,2.4861],[-66.5929,11.8321,0.0],[-66.5949,11.8335,1.1046],[-66.5957,11.8382,0.0],[-66.5979,11.8379,1.6074],[-66.5968,11.8404,0.0],[-66.6004,11.8462,2.0846]]],
[[[-66.1224,11.8374,0.0],[-66.1218,11.8404,0.0],[-66.1229,11.8404,0.0],[-66.1257,11.8354,0.0],[-66.1243,11.8346,3.9967],[-66.1271,11.8326,0.0],[-66.1271,11.8307,0.0],[-66.1246,11.8304,0.0],[-66.1215,11.8332,0.0],[-66.121,11.8357,0.631],[-66.1224,11.8374,0.0]]],
[[[-64.6182,11.8985,3.065],[-64.6201,11.8993,0.1929],[-64.6221,11.8963,1.4833],[-64.6237,11.8854,9.9783],[-64.6288,11.8754,0.0],[-64.6307,11.8646,0.0],[-64.6401,11.854,2.6202],[-64.6443,11.8515,4.4727],[-64.6474,11.8518,0.571],[-64.6493,11.8479,0.0],[-64.6443,11.8401,2.6627],[-64.6462,11.8329,0.0],[-64.6451,11.8254,0.0],[-64.6399,11.8221,2.2046],[-64.6318,11.8207,3.9203],[-64.6271,11.8171,0.5233],[-64.624,11.8199,0.0],[-64.6151,11.8199,0.0],[-64.6137,11.8165,0.3207],[-64.6096,11.8151,0.0],[-64.6065,11.816,0.0],[-64.6054,11.8193,0.6308],[-64.6004,11.821,0.9793],[-64.5946,11.8124,2.1978],[-64.5949,11.8107,0.4567],[-64.5901,11.8099,0.0],[-64.5876,11.8076,0.0],[-64.5813,11.8099,2.2593],[-64.5687,11.8096,0.0],[-64.5626,11.819,0.0],[-64.5629,11.8229,2.4489],[-64.5604,11.8274,0.0],[-64.5612,11.8288,4.034],[-64.5585,11.8315,0.0],[-64.559,11.8385,3.7399],[-64.5579,11.8401,0.0],[-64.5626,11.8515,0.0],[-64.5632,11.8588,0.0],[-64.5663,11.864,0.0],[-64.5685,11.864,4.6275],[-64.5674,11.8679,1.9847],[-64.5693,11.8732,0.0],[-64.5904,11.8899,1.2279],[-64.5999,11.8943,1.7483],[-64.6182,11.8985,3.065]]],
[[[-63.6171,15.6715,0.0191],[-63.6179,15.6729,0.0],[-63.6212,15.6721,0.0],[-63.6185,15.6699,0.0],[-63.6188,15.666,0.0],[-63.6174,15.666,0.3301],[-63.6171,15.6715,0.0191]]]]}}