{"type":"Feature","properties":{"ISO3166-1-Alpha-3":"VEN","country":"Venezuela","fill":"#F0F","id":"44","name":"Dependencias Federales"},
"geometry":{"type": "MultiPolygon","coordinates": [[[[-65.2447,10.95466,0.0],[-65.25495,10.95653,0.0],[-65.30626,10.97647,0.2776],[-65.3299,10.97761,4.8849],[-65.35448,10.96747,11.5421],[-65.3767,10.96605,4.9264],[-65.40193,10.94843,5.0278],[-65.41177,10.92475,3.5707],[-65.38805,10.90546,0.0],[-65.37218,10.91096,0.0],[-65.35505,10.90518,0.0],[-65.33658,10.89594,0.0],[-65.31664,10.8911,0.0],[-65.27697,10.88955,0.0],[-65.25878,10.89142,0.0],[-65.23786,10.89859,0.0],[-65.24071,10.89484,0.0],[-65.24462,10.88496,0.0],[-65.22081,10.89452,0.0],[-65.20495,10.90436,3.4337],[-65.20198,10.91816,0.0],[-65.2167,10.9396,0.0],[-65.20824,10.9499,0.0],[-65.21133,10.95384,0.0],[-65.21984,10.95429,0.0],[-65.22761,10.9538,0.0],[-65.2447,10.95466,0.0]]],
[[[-66.80842,11.75121,0.0],[-66.77994,11.75853,0.0],[-66.77522,11.76276,0.0],[-66.72802,11.78205,0.0],[-66.72851,11.7836,0.0],[-66.73583,11.78311,0.0],[-66.74999,11.77757,0.0],[-66.80956,11.75296,0.0],[-66.8131,11.75226,0.0],[-66.81819,11.75104,0.0],[-66.83316,11.74909,0.0],[-66.8546,11.75137,0.0],[-66.85106,11.74702,0.0],[-66.82779,11.74624,0.0],[-66.81713,11.74897,0.0],[-66.80842,11.75121,0.0]]],
[[[-66.60827,11.78311,2.462],[-66.60167,11.7945,4.4051],[-66.60139,11.80671,0.0],[-66.60627,11.81737,0.0],[-66.6151,11.82404,0.0],[-66.63199,11.79597,0.0],[-66.65087,11.78018,0.0],[-66.67414,11.77603,0.0],[-66.7045,11.78311,0.0],[-66.67943,11.76655,0.0],[-66.64184,11.76146,10.0769],[-66.60652,11.76724,0.0],[-66.5878,11.78311,0.0],[-66.59276,11.78254,0.0],[-66.60827,11.78311,2.462]]],
[[[-66.10851,11.82583,0.0],[-66.13219,11.82404,0.0],[-66.16198,11.824769999999999,0.0],[-66.17955,11.82319,0.0],[-66.19433,11.81769,0.0],[-66.17455,11.79711,1.7537],[-66.14314,11.78181,1.2132],[-66.114,11.77993,1.9251],[-66.10119,11.79979,2.0392],[-66.10294,11.81928,4.6218],[-66.10851,11.82583,0.0]]],
[[[-66.81481,11.87324,0.0],[-66.81786,11.87108,0.0],[-66.7871,11.86835,0.0],[-66.78043,11.86587,0.0],[-66.77107,11.86587,0.0],[-66.75381,11.86237,0.0],[-66.74059,11.86587,0.0],[-66.73705,11.8653,0.0],[-66.71178,11.86791,0.0],[-66.71605,11.87059,0.0],[-66.73339,11.86994,0.0],[-66.81481,11.87324,0.0]]],
[[[-64.55285,11.82372,0.0],[-64.55215,11.83991,0.0],[-64.55679,11.85733,0.0],[-64.56286,11.86811,0.0],[-64.59463,11.89248,0.0],[-64.60717,11.89912,0.0],[-64.61889,11.88923,10.5257],[-64.63565,11.8614,0.0],[-64.64879,11.8513,0.571],[-64.64509,11.84321,0.0],[-64.6444,11.84073,3.3999],[-64.6459,11.83828,0.0],[-64.64879,11.83027,0.0],[-64.6293,11.82197,8.6974],[-64.60558,11.81802,0.0],[-64.56286,11.8166,0.0],[-64.55285,11.82372,0.0]]],
[[[-67.6376,11.98005,0.0],[-67.649,11.98395,0.0],[-67.65803,11.98493,0.0],[-67.66267,11.98753,0.0],[-67.66714,11.99177,0.0],[-67.67199,11.99311,0.0],[-67.67488,11.98965,0.0],[-67.67365,11.98534,3.2829],[-67.66588,11.982,5.7395],[-67.64623,11.97866,0.0],[-67.6376,11.98005,0.0]]],
[[[-67.67907,12.02814,0.0],[-67.68155,12.02578,0.0],[-67.68041,12.02505,0.4151],[-67.67907,12.02814,0.0]]],
[[[-67.67638,12.02782,0.0],[-67.67724,12.03002,0.0],[-67.6776,12.02782,0.0],[-67.67667,12.02692,0.0],[-67.67638,12.02782,0.0]]],
[[[-67.67467,12.04841,0.0],[-67.67724,12.05024,0.0],[-67.67699,12.04633,0.0],[-67.6761,12.04442,0.0],[-67.67467,12.04841,0.0]]],
[[[-67.68139,12.06371,0.0],[-67.68444,12.06346,0.0],[-67.68102,12.06184,0.0],[-67.68139,12.06371,0.0]]],
[[[-67.68708,12.06753,0.0],[-67.68883,12.069,0.0],[-67.68733,12.06558,0.0],[-67.68708,12.06753,0.0]]]]}}