{"type": "Feature","bbox": [-70.4615,10.5401,-69.7804,11.229],"geometry": {"type": "MultiPolygon","coordinates": [[[[-69.883,11.1828,565.1052],[-69.8769,11.1869,557.3719],[-69.8839,11.1863,422.7746],[-69.8899,11.1912,435.9071],[-69.9063,11.2198,385.5558],[-69.9221,11.2279,469.5579],[-69.9342,11.229,617.8163],[-69.943,11.2272,502.7612],[-69.9621,11.2145,304.8989],[-70.008,11.1903,187.9004],[-70.0321,11.1739,425.8105],[-70.055,11.156,253.8402],[-70.085,11.1274,350.1641],[-70.1009,11.1162,526.8071],[-70.1077,11.113,396.6404],[-70.1165,11.1125,570.3557],[-70.1215,11.1153,534.5776],[-70.1223,11.1177,501.7294],[-70.1946,11.0785,410.6304],[-70.206,11.0785,276.8636],[-70.2212,11.0728,186.3785],[-70.2193,11.0652,205.103],[-70.2136,11.0595,201.2106],[-70.2079,11.0595,205.7286],[-70.2098,11.0519,207.1803],[-70.2193,11.0462,210.8401],[-70.2231,11.0405,221.4619],[-70.2269,11.0291,227.9751],[-70.2402,11.012,254.1362],[-70.2421,11.0025,264.5574],[-70.2497,10.993,322.9832],[-70.2554,10.9779,336.8428],[-70.2592,10.9551,351.3364],[-70.2668,10.9437,463.39],[-70.2725,10.938,405.2628],[-70.2952,10.9247,629.5914],[-70.3142,10.9247,550.5427],[-70.3294,10.9228,507.6442],[-70.3446,10.9304,298.3784],[-70.3864,10.9247,451.7125],[-70.4164,10.9166,651.4308],[-70.4222,10.8843,694.0939],[-70.4304,10.8544,961.3731],[-70.4364,10.8226,833.3829],[-70.4408,10.7815,618.4823],[-70.4455,10.7618,539.1786],[-70.458,10.7367,503.6865],[-70.4615,10.7222,503.3158],[-70.4615,10.7072,567.1613],[-70.4587,10.6938,648.4082],[-70.4237,10.6285,598.2679],[-70.4143,10.5948,616.1526],[-70.4082,10.582,652.985],[-70.3825,10.5513,755.2331],[-70.3716,10.5441,1028.4991],[-70.3597,10.5401,904.2327],[-70.3541,10.5453,915.6099],[-70.3083,10.5688,800.5175],[-70.287,10.5765,710.8575],[-70.2661,10.5798,724.1594],[-70.2425,10.5881,925.1479],[-70.2118,10.6031,979.5641],[-70.1722,10.6257,842.0311],[-70.1319,10.6653,783.1706],[-70.1182,10.6715,669.6045],[-70.0944,10.6713,608.1665],[-70.0711,10.666,806.0144],[-70.0412,10.6632,907.2144],[-69.9827,10.6863,911.974],[-69.955,10.691,677.0756],[-69.9282,10.6984,779.7076],[-69.9034,10.7097,833.2362],[-69.8528,10.7386,964.4716],[-69.8316,10.747,826.225],[-69.8173,10.7487,862.8624],[-69.814,10.7475,932.4419],[-69.7804,10.7991,723.0917],[-69.7983,10.8251,344.8771],[-69.8462,10.8868,284.1673],[-69.8556,10.9034,341.9182],[-69.8546,10.9121,311.5827],[-70.0113,10.8847,421.5677],[-70.0111,10.9063,400.2844],[-70.0054,10.9671,219.3412],[-69.9967,11.0149,165.8229],[-69.9902,11.0336,156.6953],[-69.989,11.0438,150.6479],[-69.9952,11.0578,144.4274],[-69.9965,11.0753,134.015],[-69.9865,11.1101,144.0699],[-69.9791,11.1189,124.5482],[-69.9691,11.1271,95.3604],[-69.9006,11.1698,1028.7611],[-69.883,11.1828,565.1052]]]]}
,"properties": {"GID_2": "VEN.12.8_1","GID_0": "VEN","country": "Venezuela","GID_1": "VEN.12_1","province": "Falcón","NL_NAME_1": "NA","county": "Democracia","VARNAME_2": "NA","NL_NAME_2": "NA","TYPE_2": "Municipio","ENGTYPE_2": "Municipality","CC_2": "NA","HASC_2": "NA","name": "Democracia.county","area_km2": 2762.577,"hist_schema_id": "Elevation0-9000","hist_area_km2": {"75": 7.155,"100": 19.326,"125": 41.818,"150": 73.845,"175": 71.416,"200": 69.404,"225": 98.607,"250": 70.435,"275": 58.907,"300": 79.485,"325": 106.415,"350": 139.279,"375": 135.535,"400": 107.364,"425": 99.853,"450": 99.589,"475": 110.407,"500": 124.724,"525": 140.663,"550": 143.456,"575": 136.481,"600": 128.15,"625": 110.109,"650": 99.735,"675": 90.878,"700": 73.36,"725": 65.069,"750": 53.675,"775": 44.239,"800": 34.72,"825": 27.346,"850": 21.806,"875": 17.787,"900": 14.683,"925": 11.455,"950": 7.894,"975": 6.769,"1000": 5.123,"1025": 4.227,"1050": 3.415,"1075": 2.415,"1100": 2.04,"1125": 1.562,"1150": 0.874,"1175": 0.416,"1200": 0.437,"1225": 0.208}}}