{"type": "Feature","bbox": [-67.4765,10.1392,-67.4443,10.198],"geometry": {"type": "MultiPolygon","coordinates": [[[[-67.4696,10.198,459.4485],[-67.4731,10.1903,457.2488],[-67.4747,10.1817,453.9506],[-67.4695,10.1674,452.4596],[-67.47,10.1511,446.7947],[-67.4765,10.1401,443.0],[-67.466,10.1392,443.0],[-67.4574,10.1415,443.573],[-67.4443,10.1419,446.7974],[-67.4443,10.1904,587.8282],[-67.4559,10.191,466.4524],[-67.4641,10.1938,463.5439],[-67.4696,10.198,459.4485]]]]}
,"properties": {"GID_2": "VEN.4.5_1","GID_0": "VEN","country": "Venezuela","GID_1": "VEN.4_1","province": "Aragua","NL_NAME_1": "NA","county": "JoséAngelLamas","VARNAME_2": "NA","NL_NAME_2": "NA","TYPE_2": "Municipio","ENGTYPE_2": "Municipality","CC_2": "NA","HASC_2": "NA","name": "José_Angel_Lamas.county","area_km2": 18.05192,"hist_schema_id": "Elevation0-9000","hist_area_km2": {"450": 16.48683,"475": 1.31468,"500": 0.12521,"525": 0.02087,"550": 0.04174,"575": 0.04174,"600": 0.02087}}}