{"type":"Feature","properties":{"GID_2":"VEN.24.5_1","GID_0":"VEN","country":"Venezuela","GID_1":"VEN.24_1","province":"Yaracuy","NL_NAME_1":"NA","county":"Independencia","VARNAME_2":"NA","NL_NAME_2":"NA","TYPE_2":"Municipio","ENGTYPE_2":"Municipality","CC_2":"NA","HASC_2":"NA","name":"Independencia.county"},
"geometry":{"type": "MultiPolygon","coordinates": [[[[-68.7186,10.4559,939.1069],[-68.7186,10.4507,1004.5217],[-68.7129,10.4298,613.5592],[-68.711,10.4099,319.57],[-68.7043,10.3909,276.0372],[-68.6986,10.3805,189.9364],[-68.6948,10.3662,177.2793],[-68.6768,10.3368,134.491],[-68.6569,10.3159,101.9245],[-68.6195,10.2623,834.9916],[-68.614,10.2664,568.8701],[-68.6151,10.2931,465.4044],[-68.6132,10.314,385.4823],[-68.618,10.3615,75.107],[-68.6398,10.3814,76.4413],[-68.6673,10.4146,91.3671],[-68.7119,10.4602,962.2607],[-68.7186,10.4559,939.1069]]]]}}