{"type": "Feature","bbox": [-72.2425,7.5736,-72.0499,7.6902],"geometry": {"type": "MultiPolygon","coordinates": [[[[-72.1882,7.5736,480.9651],[-72.1787,7.5806,618.4439],[-72.1575,7.5882,576.1871],[-72.146,7.5888,664.1577],[-72.1141,7.5788,372.4103],[-72.0957,7.581,344.4046],[-72.0766,7.5883,620.4015],[-72.0641,7.5961,582.811],[-72.0589,7.6026,558.8928],[-72.0588,7.6072,692.2554],[-72.0643,7.625,1020.9829],[-72.0655,7.6375,652.7592],[-72.0603,7.6527,656.0449],[-72.0499,7.6621,593.5112],[-72.061,7.6617,468.8746],[-72.0762,7.6579,583.735],[-72.0857,7.655,951.1287],[-72.0905,7.6512,786.8056],[-72.1009,7.6493,743.7839],[-72.1028,7.6522,865.6542],[-72.1038,7.6617,1054.7018],[-72.1845,7.6683,530.6926],[-72.1996,7.6759,768.1383],[-72.212,7.6902,1097.3341],[-72.2215,7.6902,1088.1887],[-72.2262,7.6816,856.7333],[-72.2215,7.675,729.3807],[-72.2215,7.6693,667.7805],[-72.2243,7.6598,550.6039],[-72.23,7.6484,533.5164],[-72.2425,7.6331,740.6094],[-72.2143,7.5996,1217.906],[-72.1882,7.5736,480.9651]]]]}
,"properties": {"GID_2": "VEN.21.28_1","GID_0": "VEN","country": "Venezuela","GID_1": "VEN.21_1","province": "Táchira","NL_NAME_1": "NA","county": "Torbes","VARNAME_2": "NA","NL_NAME_2": "NA","TYPE_2": "Municipio","ENGTYPE_2": "Municipality","CC_2": "NA","HASC_2": "NA","name": "Torbes.county","area_km2": 164.8598,"hist_schema_id": "Elevation0-9000","hist_area_km2": {"350": 0.9668,"375": 2.5429,"400": 3.0262,"425": 4.8335,"450": 8.1538,"475": 8.2377,"500": 8.2166,"525": 8.8681,"550": 8.763,"575": 8.1326,"600": 9.1203,"625": 9.4144,"650": 8.6579,"675": 9.0783,"700": 7.5652,"725": 7.5022,"750": 7.0189,"775": 6.0943,"800": 5.5269,"825": 5.4008,"850": 5.2537,"875": 4.245,"900": 3.5305,"925": 3.5094,"950": 2.5848,"975": 2.3536,"1000": 1.429,"1025": 1.4921,"1050": 1.0927,"1075": 0.4833,"1100": 0.3993,"1125": 0.4833,"1150": 0.1471,"1175": 0.1681,"1200": 0.1261,"1225": 0.0841,"1250": 0.0841,"1275": 0.1051,"1300": 0.021,"1325": 0.0841,"1350": 0.042,"1375": 0.021}}}