{"type":"Feature","properties":{"GID_2":"VEN.7.4_1","GID_0":"VEN","country":"Venezuela","GID_1":"VEN.7_1","province":"Carabobo","NL_NAME_1":"NA","county":"Guacara","VARNAME_2":"NA","NL_NAME_2":"NA","TYPE_2":"Municipio","ENGTYPE_2":"Municipality","CC_2":"NA","HASC_2":"NA","name":"Guacara.county"},
"geometry":{"type": "MultiPolygon","coordinates": [[[[-67.8268,10.3921,1163.9872],[-67.91,10.3729,977.5127],[-67.8898,10.355,862.294],[-67.8865,10.3496,823.2468],[-67.8838,10.3362,576.8556],[-67.902,10.2858,466.1015],[-67.9053,10.2651,456.1964],[-67.9017,10.2556,453.9953],[-67.8892,10.2402,446.7245],[-67.8883,10.2364,445.9231],[-67.8784,10.2321,445.6978],[-67.8692,10.2248,437.0477],[-67.8729,10.2187,435.3239],[-67.8741,10.2127,434.2533],[-67.8698,10.1966,428.6671],[-67.8654,10.1893,424.513],[-67.8501,10.1721,411.5],[-67.8411,10.1666,411.5],[-67.8411,10.1721,411.5],[-67.8386,10.1783,411.5],[-67.828,10.1866,411.5],[-67.8175,10.1922,411.5],[-67.8123,10.1972,411.5],[-67.8025,10.2306,419.7386],[-67.8195,10.2451,423.0489],[-67.8236,10.2514,426.9779],[-67.8262,10.2646,441.1049],[-67.8261,10.2723,610.8353],[-67.8182,10.3098,875.8207],[-67.8036,10.3712,309.5815],[-67.8172,10.3799,810.2262],[-67.8268,10.3921,1163.9872]]]]}}