{"type":"Feature","properties":{"GID_2":"VEN.15.23_1","GID_0":"VEN","country":"Venezuela","GID_1":"VEN.15_1","province":"Mérida","NL_NAME_1":"NA","county":"Zea","VARNAME_2":"NA","NL_NAME_2":"NA","TYPE_2":"Municipio","ENGTYPE_2":"Municipality","CC_2":"NA","HASC_2":"NA","name":"Zea.county"},
"geometry":{"type": "MultiPolygon","coordinates": [[[[-71.7842,8.5476,114.0229],[-71.768,8.5114,248.7393],[-71.7628,8.492,310.1043],[-71.7644,8.4756,346.3602],[-71.7726,8.4565,401.8283],[-71.792,8.4342,415.6555],[-71.7979,8.4127,584.749],[-71.8003,8.397,891.4062],[-71.805,8.3836,1377.8157],[-71.8201,8.3573,1268.1361],[-71.8227,8.3227,1871.3168],[-71.8257,8.3104,2356.2546],[-71.7807,8.3352,1595.8682],[-71.7733,8.3412,1622.1315],[-71.7653,8.352,1410.8357],[-71.7599,8.363,1240.8884],[-71.753,8.3914,1112.6738],[-71.7486,8.4031,1020.2429],[-71.7424,8.4113,610.2397],[-71.7217,8.4236,597.2869],[-71.7199,8.4314,453.3163],[-71.7194,8.4628,362.6725],[-71.7221,8.4684,500.6438],[-71.74,8.4895,309.5575],[-71.7454,8.4988,261.3686],[-71.7652,8.545,95.038],[-71.7724,8.5488,89.2796],[-71.778,8.5493,123.8475],[-71.7842,8.5476,114.0229]]]]}}