{"type": "Feature","bbox": [-62.6625,4.0894,-60.5872,6.2112],"geometry": {"type": "MultiPolygon","coordinates": [[[[-61.5223,4.2995,951.8816],[-61.5348,4.3371,516.8589],[-61.5442,4.3599,513.4744],[-61.5426,4.3733,519.6125],[-61.5379,4.3838,527.3427],[-61.5118,4.4066,1049.386],[-61.4821,4.4364,1043.3015],[-61.475,4.4382,1087.2883],[-61.4553,4.4375,1142.7744],[-61.431399999999996,4.4335,1077.6672],[-61.3909,4.4302,1078.288],[-61.37,4.4329,1024.4587],[-61.3528,4.4414,1016.1028],[-61.3293,4.4637,943.2292],[-61.321,4.4809,965.3422],[-61.3217,4.4848,948.7439],[-61.3276,4.4943,976.0745],[-61.3457,4.5026,969.9203],[-61.3535,4.5084,966.555],[-61.3563,4.5153,956.6431],[-61.3539,4.5222,1059.2046],[-61.3447,4.5318,1183.5065],[-61.3303,4.5376,1067.9382],[-61.3099,4.5428,1097.0502],[-61.2558,4.5314,1051.6108],[-61.2225,4.5271,965.299],[-61.1973,4.5169,962.2302],[-61.1497,4.4844,918.9707],[-61.1442,4.4836,922.7357],[-61.1245,4.4917,938.488],[-61.1173,4.4969,875.6844],[-61.0824,4.5136,929.7937],[-61.0682,4.5189,925.8243],[-61.0464,4.5218,962.4615],[-61.0166,4.519,1014.354],[-61.012,4.5169,985.3287],[-60.9971,4.5152,970.0993],[-60.9913,4.5161,1016.7773999999999],[-60.9778,4.5239,818.5299],[-60.9633,4.5372,1132.6532],[-60.9569,4.5462,1248.3466],[-60.9449,4.5751,1077.5291],[-60.938,4.583,1132.7142],[-60.932,4.5942,994.4303],[-60.929,4.6073,913.6564],[-60.9324,4.6235,891.6285],[-60.9408,4.6451,1120.0159],[-60.9405,4.6479,1203.6879],[-60.9378,4.6552,1268.4391],[-60.9205,4.6704,1217.4854],[-60.9141,4.68,1180.0439],[-60.9099,4.6963,1135.6577],[-60.9061,4.7029,1115.7684],[-60.8973,4.7103,1062.9214],[-60.8895,4.7121,1057.464],[-60.8684,4.7056,981.942],[-60.8448,4.708,1021.1849],[-60.8345,4.7126,980.9116],[-60.8121,4.7326,1135.4872],[-60.8048,4.7371,1119.5551],[-60.763,4.7485,807.2145],[-60.7423,4.7581,1095.4788],[-60.7315,4.7654,944.7466],[-60.7241,4.7772,1139.4236],[-60.7162,4.7963,1108.8152],[-60.687,4.819,1275.1804],[-60.6778,4.828,1285.7213],[-60.652,4.8613,1235.3673],[-60.6444,4.8806,1200.3843],[-60.6363,4.8916,1149.6703],[-60.6188,4.907,1165.0071],[-60.5939,4.9331,1169.0591],[-60.5895,4.9428,1174.9296],[-60.5872,4.9552,1174.7717],[-60.5879,4.9658,1178.239],[-60.6027,4.999,1422.7933],[-60.6314,5.0476,1444.8879],[-60.6414,5.0682,1364.4849],[-60.6432,5.0806,1394.6884],[-60.6427,5.0985,1294.8385],[-60.6573,5.1262,1346.1161],[-60.6682,5.161,1324.5914],[-60.6742,5.17,1288.4739],[-60.6897,5.1827,1303.725],[-60.7016,5.1899,1460.9214],[-60.7099,5.1931,1570.778],[-60.7231,5.1941,2011.4517],[-60.7305,5.1971,2182.4839],[-60.7318,5.1961,2221.3276],[-60.7363,5.1975,2292.0195],[-60.7732,5.2542,832.7746],[-60.8284,5.3189,826.2011],[-60.995,5.5033,695.9791],[-61.1328,5.663,955.1257],[-61.2452,5.7833,1345.3348],[-61.3671,5.9224,1441.5732],[-61.3867,5.9463,1343.6311],[-61.3869,5.9485,1318.6874],[-61.3928,5.9497,1468.2719],[-61.4199,5.8916,1363.9219],[-61.4144,5.8915,1382.8917],[-61.4264,5.8565,1359.1292],[-61.429,5.8707,1358.5374],[-61.4409,5.8806,1408.2529],[-61.4533,5.8829,1400.8473],[-61.4593,5.8821,1399.4922],[-61.5095,5.865,1398.465],[-61.5398,5.8584,1383.1636],[-61.548,5.8537,1385.339],[-61.5664,5.837,1411.283],[-61.6049,5.8068,1472.699],[-61.6112,5.8043,1462.0095],[-61.6268,5.8015,1481.4177],[-61.6324,5.8048,1464.5051],[-61.6508,5.8057,1504.7263],[-61.6783,5.8209,1061.8918],[-61.6869,5.8231,1021.3013],[-61.7098,5.8247,936.3386],[-61.7175,5.8278,927.1049],[-61.7335,5.8407,976.9863],[-61.7404,5.8436,962.5975],[-61.7532,5.8463,905.048],[-61.7802,5.8436,933.1258],[-61.7999,5.8456,1186.9214],[-61.8089,5.8504,1005.4142],[-61.8212,5.8632,939.1974],[-61.8266,5.8651,943.4856],[-61.8497,5.8648,874.3249],[-61.8684,5.8598,881.8014],[-61.8764,5.8598,900.9608],[-61.9011,5.8674,885.5138],[-61.9085,5.8679,909.3516],[-61.9172,5.8669,865.882],[-61.9456,5.8587,994.9178],[-61.968,5.8604,1125.2573],[-61.9988,5.852,1600.144],[-62.0266,5.8528,1336.4464],[-62.0378,5.8502,1215.5522],[-62.0634,5.8355,1721.1287],[-62.073,5.8326,1018.1124],[-62.0896,5.834,975.5335],[-62.1052,5.8415,972.8146],[-62.112,5.848,952.8206],[-62.1322,5.8761,1695.665],[-62.1433,5.8855,1276.1124],[-62.1892,5.9081,926.9833],[-62.1955,5.9185,927.6462],[-62.2076,5.9258,483.4714],[-62.2204,5.9305,475.7626],[-62.2385,5.9334,497.1208],[-62.252,5.9345,500.0172],[-62.2667,5.9313,488.6637],[-62.2793,5.9232,482.0369],[-62.2828,5.9172,468.2986],[-62.2847,5.9095,475.8654],[-62.2865,5.8927,461.1253],[-62.2896,5.8868,462.6238],[-62.2952,5.8838,455.2585],[-62.3357,5.8826,477.3691],[-62.3414,5.8849,500.5843],[-62.3522,5.8955,518.4739],[-62.3575,5.9065,508.4455],[-62.3676,5.9172,512.5914],[-62.3819,5.9256,1043.0295],[-62.3882,5.9317,1306.0593],[-62.4026,5.9606,1836.292],[-62.4151,5.9775,1703.5846],[-62.4353,5.9907,1748.6021],[-62.4557,6.0098,1756.9308],[-62.4742,6.0213,966.3836],[-62.4858,6.0405,1007.0719],[-62.5063,6.057,643.9301],[-62.516,6.0725,976.113],[-62.5206,6.0883,1156.1423],[-62.5288,6.0963,1254.113],[-62.5592,6.1125,1256.6841],[-62.5796,6.1175,490.1483],[-62.5901,6.1217,482.1498],[-62.6046,6.1357,468.6068],[-62.6155,6.1517,462.392],[-62.6449,6.1743,464.9969],[-62.6384,6.1971,494.0098],[-62.6299,6.2112,592.8368],[-62.6382,6.2051,526.0242],[-62.6518,6.1983,500.2159],[-62.6562,6.1892,488.0934],[-62.6596,6.1578,495.0961],[-62.6595,6.1419,1014.4423],[-62.6493,6.115,670.3248],[-62.6363,6.0938,539.6592],[-62.6098,6.0581,494.2065],[-62.594,6.0338,1392.4641],[-62.5694,5.9818,1525.4635],[-62.5551,5.9571,1574.2516],[-62.5504,5.9439,1562.4226],[-62.5472,5.9274,1591.6471],[-62.5396,5.8595,1631.7826],[-62.5415,5.8155,1588.7974],[-62.5472,5.7904,1830.4781],[-62.5839,5.6984,970.2795],[-62.6032,5.657,1360.9485],[-62.6207,5.6004,1050.1399],[-62.6366,5.5323,1016.2341],[-62.6398,5.5012,578.6024],[-62.6502,5.4466,412.575],[-62.6593,5.4181,405.4216],[-62.659,5.3994,411.3492],[-62.6625,5.3848,395.4775],[-62.6554,5.3722,381.5196],[-62.6516,5.3518,374.891],[-62.6424,5.3227,481.4377],[-62.6317,5.3058,456.2886],[-62.5835,5.2476,743.8676],[-62.5745,5.2459,760.1443],[-62.5619,5.25,628.4339],[-62.5479,5.2519,454.626],[-62.5349,5.2482,428.9744],[-62.5018,5.225,461.5058],[-62.454,5.204,401.5733],[-62.4501,5.2014,404.4723],[-62.4403,5.1885,403.2339],[-62.4254,5.1503,400.5635],[-62.4187,5.1404,394.3962],[-62.3958,5.1245,572.6494],[-62.3875,5.1164,492.0791],[-62.3853,5.0986,400.0811],[-62.3876,5.0819,417.8336],[-62.3952,5.0624,438.9062],[-62.4141,5.0239,536.0132],[-62.4322,4.977,416.4008],[-62.4398,4.9517,668.2892],[-62.4415,4.9198,512.0964],[-62.4368,4.8878,405.5226],[-62.4288,4.8563,416.2769],[-62.4222,4.8208,435.981],[-62.4158,4.8096,413.2835],[-62.4063,4.7984,423.8185],[-62.3982,4.7691,446.8514],[-62.3904,4.759,426.8908],[-62.3713,4.7442,428.2944],[-62.3267,4.7203,552.7507],[-62.3187,4.7131,487.563],[-62.3106,4.7022,440.1778],[-62.3037,4.679,504.1885],[-62.3055,4.6503,684.6161],[-62.2753,4.6013,699.8732],[-62.2616,4.5727,647.0216],[-62.256,4.5568,627.1545],[-62.2541,4.5321,504.0652],[-62.2556,4.5179,511.2279],[-62.2643,4.4916,527.1727],[-62.264,4.4777,542.5104],[-62.2608,4.4684,525.0721],[-62.247,4.445,512.3712],[-62.2398,4.421,512.3457],[-62.243,4.3974,458.6254],[-62.2554,4.3702,495.172],[-62.258,4.3605,548.2216],[-62.2565,4.3533,551.64],[-62.25,4.3395,544.5321],[-62.2316,4.3185,529.5518],[-62.2302,4.3101,495.7224],[-62.232,4.2963,550.0656],[-62.2314,4.2797,483.2517],[-62.2259,4.2672,597.3425],[-62.216,4.2512,713.8875],[-62.2107,4.2383,604.3019],[-62.2006,4.1974,506.7136],[-62.1847,4.1719,501.2653],[-62.1627,4.141,508.1508],[-62.1576,4.13,515.2419],[-62.1548,4.1156,513.8188],[-62.1556,4.1068,510.1392],[-62.1603,4.0993,572.1074],[-62.1664,4.0951,603.0861],[-62.154,4.0901,616.4061],[-62.1419,4.0894,604.0874],[-62.1346,4.0913,606.3992],[-62.1226,4.0995,614.8203],[-62.105,4.1177,714.3877],[-62.0758,4.1347,702.9365],[-62.0671,4.1515,713.0748],[-62.0607,4.1567,788.0907],[-62.0244,4.1599,664.0946],[-62.0201,4.1622,662.8285],[-62.004,4.164,677.6208],[-61.9893,4.1628,616.4952],[-61.9859,4.158,601.8198],[-61.985,4.1543,598.1179],[-61.9876,4.1283,641.6654],[-61.9832,4.1207,647.4279],[-61.9656,4.1149,598.6627],[-61.9443,4.1156,695.0172],[-61.9344,4.1181,817.4283],[-61.928,4.122,799.173],[-61.9199,4.1408,752.3942],[-61.9031,4.165,683.1281],[-61.8949,4.1707,627.1344],[-61.8788,4.1725,651.5642],[-61.8352,4.1941,692.8607],[-61.7717,4.2342,737.086],[-61.7661,4.24,757.5201],[-61.7567,4.2554,685.2092],[-61.7517,4.2581,712.7827],[-61.7475,4.2593,747.5744],[-61.7232,4.2553,666.6165],[-61.6703,4.2594,699.8409],[-61.6508,4.2565,799.0519],[-61.6233,4.2489,786.4617],[-61.6096,4.2482,664.9936],[-61.5905,4.2504,684.0795],[-61.5655,4.266,675.7961],[-61.5441,4.2759,718.4822],[-61.5285,4.2793,828.0384],[-61.5233,4.2823,973.7158],[-61.5205,4.2903,1104.5591],[-61.5223,4.2995,951.8816]]]]}
,"properties": {"GID_2": "VEN.6.5_1","GID_0": "VEN","country": "Venezuela","GID_1": "VEN.6_1","province": "Bolívar","NL_NAME_1": "NA","county": "GranSabana","VARNAME_2": "NA","NL_NAME_2": "NA","TYPE_2": "Municipio","ENGTYPE_2": "Municipality","CC_2": "NA","HASC_2": "NA","name": "Gran_Sabana.county","area_km2": 30230.41,"hist_schema_id": "Elevation0-9000","hist_area_km2": {"375": 27.76,"400": 198.2,"425": 415.73,"450": 427.58,"475": 719.55,"500": 948.9,"525": 585.45,"550": 367.3,"575": 310.83,"600": 304.34,"625": 303.55,"650": 298.2,"675": 292.23,"700": 285.68,"725": 283.78,"750": 288.1,"775": 336.93,"800": 474.98,"825": 1304.55,"850": 2104.16,"875": 1652.39,"900": 1307.66,"925": 1081.47,"950": 1005.09,"975": 1156.02,"1000": 1178.21,"1025": 1061.02,"1050": 1009.99,"1075": 947.48,"1100": 814.26,"1125": 746.87,"1150": 708.44,"1175": 587.57,"1200": 549.23,"1225": 546.39,"1250": 525.15,"1275": 584.07,"1300": 477.06,"1325": 401.82,"1350": 369.74,"1375": 327.55,"1400": 280.53,"1425": 242.32,"1450": 199.87,"1475": 161.29,"1500": 139.29,"1525": 116.03,"1550": 96.55,"1575": 89.08,"1600": 87.79,"1625": 72.09,"1650": 61.56,"1675": 63.1,"1700": 60.15,"1725": 51.92,"1750": 46.68,"1775": 42.08,"1800": 39.91,"1825": 34.55,"1850": 35.27,"1875": 34.36,"1900": 35.06,"1925": 35.23,"1950": 37.93,"1975": 39.01,"2000": 44.43,"2025": 45.74,"2050": 43.4,"2075": 42.41,"2100": 39.2,"2125": 42.33,"2150": 44.84,"2175": 43.34,"2200": 42.35,"2225": 56.13,"2250": 52.53,"2275": 48.96,"2300": 42.08,"2325": 40.73,"2350": 31.33,"2375": 27.57,"2400": 24.93,"2425": 21.05,"2450": 16.19,"2475": 12.54,"2500": 12.79,"2525": 11.29,"2550": 9.2,"2575": 8.17,"2600": 4.31,"2625": 3.48,"2650": 2.01}}}