{"type": "Feature","bbox": [-69.2852,9.9431,-69.0969,10.149],"geometry": {"type": "MultiPolygon","coordinates": [[[[-69.234,9.9431,756.1884],[-69.2336,9.9518,683.6044],[-69.1843,9.9627,436.9809],[-69.1679,9.9682,559.1636],[-69.1555,9.9747,697.7062],[-69.1113,10.0082,304.919],[-69.1008,10.0138,404.7223],[-69.104,10.0323,303.5853],[-69.0991,10.0513,321.1596],[-69.0969,10.0689,366.2967],[-69.1,10.0847,427.5704],[-69.1108,10.0955,447.5551],[-69.1429,10.1115,399.8171],[-69.1519,10.1186,439.2821],[-69.168,10.149,582.7728],[-69.1763,10.1414,607.8796],[-69.2229,10.1207,408.8956],[-69.2427,10.11,508.7493],[-69.2703,10.092,555.7351],[-69.2803,10.0798,518.7613],[-69.2849,10.0676,522.5118],[-69.2852,10.0559,521.8983],[-69.2822,10.0355,470.6435],[-69.2789,10.0201,508.0024],[-69.2703,9.9958,599.5261],[-69.234,9.9431,756.1884]]]]}
,"properties": {"GID_2": "VEN.14.6_1","GID_0": "VEN","country": "Venezuela","GID_1": "VEN.14_1","province": "Lara","NL_NAME_1": "NA","county": "Palavecino","VARNAME_2": "NA","NL_NAME_2": "NA","TYPE_2": "Municipio","ENGTYPE_2": "Municipality","CC_2": "NA","HASC_2": "NA","name": "Palavecino.county","area_km2": 306.6438,"hist_schema_id": "Elevation0-9000","hist_area_km2": {"300": 5.011,"325": 21.7338,"350": 26.2618,"375": 54.7994,"400": 49.6654,"425": 35.7838,"450": 26.8491,"475": 16.7022,"500": 14.0715,"525": 14.864,"550": 9.2486,"575": 7.9125,"600": 6.8689,"625": 3.9254,"650": 3.0486,"675": 2.464,"700": 1.7749,"725": 1.6079,"750": 1.1694,"775": 0.8561,"800": 0.7309,"825": 0.4803,"850": 0.4385,"875": 0.2923,"900": 0.0835}}}