{"type":"Feature","properties":{"GID_2":"VEN.9.3_1","GID_0":"VEN","country":"Venezuela","GID_1":"VEN.9_1","province":"DeltaAmacuro","NL_NAME_1":"NA","county":"Pedernales","VARNAME_2":"NA","NL_NAME_2":"NA","TYPE_2":"Municipio","ENGTYPE_2":"Municipality","CC_2":"NA","HASC_2":"NA","name":"Pedernales.county"},
"geometry":{"type": "MultiPolygon","coordinates": [[[[-62.4275,9.4408,1.3329],[-62.4267,9.4353,7.1562],[-62.422,9.4334,10.3931],[-62.4088,9.4336,4.2855],[-62.3879,9.4366,1.4658],[-62.3523,9.4376,11.2784],[-62.3211,9.4422,2.7565],[-62.3167,9.4468,4.1096],[-62.3055,9.4529,2.1826],[-62.3046,9.4503,4.2205],[-62.2954,9.449,5.0683],[-62.2794,9.4425,7.3164],[-62.2655,9.4392,8.5504],[-62.2516,9.4319,13.1387],[-62.2352,9.4304,1.8246],[-62.2238,9.434,1.6841],[-62.2245,9.4272,9.7776],[-62.2068,9.4336,2.5839],[-61.8576,9.5826,23.8044],[-61.8511,9.5883,18.6676],[-61.8437,9.6093,8.2268],[-61.8409,9.6252,10.813],[-61.8392,9.6627,19.8986],[-61.8327,9.6903,5.4574],[-61.8292,9.6998,28.0895],[-61.8185,9.7184,28.3231],[-61.8111,9.7395,29.1457],[-61.8111,9.7465,30.9718],[-61.8139,9.753,29.4191],[-61.8073,9.7668,0.0],[-61.8043,9.7806,0.0],[-61.8041,9.7924,14.7887],[-61.8075,9.8143,11.8621],[-61.8137,9.8281,27.7569],[-61.8162,9.8298,21.0373],[-61.8204,9.8299,8.8484],[-61.829,9.8263,0.0],[-61.8246,9.8193,10.4388],[-61.8237,9.8124,20.7453],[-61.8249,9.8101,0.0],[-61.8226,9.8074,16.1105],[-61.8226,9.804,0.0],[-61.8257,9.7993,16.3746],[-61.8321,9.7985,21.9994],[-61.8465,9.8051,20.4169],[-61.8587,9.8068,21.2761],[-61.861,9.809,0.0],[-61.864,9.8074,7.6384],[-61.8657,9.8113,5.5594],[-61.8696,9.8118,4.6467],[-61.8704,9.8154,0.0],[-61.8749,9.8207,0.0],[-61.879,9.8213,0.0],[-61.8812,9.8243,2.5824],[-61.8804,9.8274,1.6741],[-61.889,9.8329,0.534],[-61.8899,9.836,1.5917],[-61.8926,9.8371,0.8255],[-61.8971,9.8471,0.0],[-61.9171,9.8732,0.4084],[-61.9324,9.8829,0.0],[-61.9618,9.9082,0.0],[-61.9649,9.9082,0.0],[-61.9671,9.9113,0.0],[-61.9699,9.9115,0.0],[-61.9776,9.9168,1.5447],[-62.0363,9.9651,0.6887],[-62.0671,9.9813,2.3113],[-62.1043,9.9954,13.7964],[-62.1224,9.9976,3.5901],[-62.149,10.009,0.0],[-62.1704,10.0135,12.0765],[-62.1943,10.0207,0.0],[-62.2001,10.0201,8.0823],[-62.2054,10.0149,10.0831],[-62.2124,10.0113,6.653],[-62.2199,10.0038,0.6216],[-62.2246,9.9954,18.0906],[-62.2401,9.9843,0.0],[-62.2426,9.9793,0.0],[-62.249,9.9735,10.4923],[-62.2532,9.9724,0.7398],[-62.2629,9.9643,0.0],[-62.266,9.961,8.4917],[-62.2663,9.9571,0.0],[-62.2737,9.9518,0.0],[-62.2796,9.9501,9.2164],[-62.2843,9.9451,13.7824],[-62.2863,9.9454,13.0804],[-62.2979,9.9365,21.5113],[-62.3007,9.9354,30.8752],[-62.3043,9.9377,4.3103],[-62.3051,9.9418,0.0],[-62.309,9.944,0.0],[-62.3132,9.9499,5.2156],[-62.3176,9.9457,25.3233],[-62.3196,9.9468,0.0],[-62.3254,9.9446,16.5413],[-62.3271,9.941,24.1006],[-62.326,9.9374,15.3696],[-62.3288,9.9385,2.8016],[-62.3332,9.931,16.5125],[-62.3326,9.916,0.0],[-62.3365,9.9188,26.1258],[-62.3393,9.9238,0.0],[-62.3454,9.9238,2.7566],[-62.3479,9.926,2.4814],[-62.3493,9.9257,0.0],[-62.3504,9.9218,18.7193],[-62.3521,9.8853,20.0668],[-62.3475,9.8811,24.7425],[-62.349,9.8725,26.6974],[-62.3476,9.8217,0.0],[-62.3456,9.8046,15.2098],[-62.3356,9.7689,11.6229],[-62.3356,9.7546,12.9285],[-62.3428,9.7318,16.9538],[-62.3637,9.6997,0.0],[-62.3825,9.6398,14.9635],[-62.3991,9.617,11.2032],[-62.4244,9.5878,12.0022],[-62.4575,9.5407,9.9215],[-62.4619,9.5179,19.8193],[-62.4605,9.4837,15.1003],[-62.4483,9.4558,12.7687],[-62.4275,9.4408,1.3329]]],
[[[-61.9999,10.0001,0.0],[-62.0001,10.0001,0.0],[-62.0001,9.9999,0.0],[-61.9999,9.9999,0.0],[-61.9999,10.0001,0.0]]],
[[[-62.2504,10.0593,4.8303],[-62.2535,10.0596,4.3899],[-62.2582,10.0563,7.5143],[-62.2768,10.0568,0.0],[-62.2829,10.051,0.0],[-62.2826,10.0474,17.7186],[-62.2915,10.0329,6.2857],[-62.2965,10.0174,4.9481],[-62.2982,10.0029,8.75],[-62.3029,9.986,6.5507],[-62.3032,9.9729,12.2503],[-62.306,9.964,0.0],[-62.3057,9.9613,0.0],[-62.3026,9.959,5.9978],[-62.2999,9.9582,0.0],[-62.294,9.966,18.0668],[-62.2876,9.9699,4.0429],[-62.2863,9.976,0.0],[-62.291,9.9779,9.643],[-62.291,9.9796,12.0377],[-62.2901,9.9832,0.0],[-62.2879,9.9851,0.0],[-62.2846,9.9829,0.0],[-62.2843,9.9851,0.0],[-62.2871,9.9893,14.2644],[-62.2821,9.9849,3.5246],[-62.2788,9.984,8.3727],[-62.2779,9.9807,6.1179],[-62.2751,9.9785,0.0],[-62.2701,9.9796,0.0],[-62.2429,10.0035,3.7353],[-62.2365,10.0046,0.0],[-62.2357,10.0063,0.0],[-62.2385,10.0071,0.0],[-62.2376,10.0096,11.5821],[-62.2282,10.0193,0.0],[-62.2257,10.0249,2.649],[-62.2262,10.0285,0.0],[-62.2346,10.0415,0.0],[-62.2371,10.0426,0.0],[-62.2385,10.0401,10.4321],[-62.2401,10.0451,15.8676],[-62.2404,10.0515,12.6815],[-62.2385,10.0479,10.4716],[-62.2368,10.0485,0.0],[-62.2382,10.0546,0.0],[-62.2429,10.0585,6.1522],[-62.2499,10.056,16.7753],[-62.2504,10.0593,4.8303]]],
[[[-62.3307,9.9451,24.5373],[-62.3376,9.9443,9.173],[-62.3418,9.9393,11.5421],[-62.3418,9.934,19.9041],[-62.3387,9.9326,21.8799],[-62.3357,9.924,0.0],[-62.3346,9.9243,0.0],[-62.334,9.9329,4.5927],[-62.3296,9.9396,5.2382],[-62.3307,9.9451,24.5373]]],
[[[-62.3057,9.9601,8.7885],[-62.3082,9.9604,6.7086],[-62.3096,9.9529,0.0],[-62.3049,9.9501,14.5347],[-62.3026,9.9504,10.6673],[-62.2993,9.9563,0.0],[-62.3057,9.9601,8.7885]]],
[[[-62.3301,9.9921,0.0],[-62.3324,9.9926,0.0],[-62.3376,9.9901,9.5597],[-62.3399,9.9799,18.9231],[-62.3443,9.9693,8.3461],[-62.3401,9.9687,0.0],[-62.3312,9.9715,8.0838],[-62.3301,9.9646,0.0],[-62.3315,9.9615,1.9031],[-62.3271,9.9607,10.8599],[-62.3112,9.9693,10.8928],[-62.3099,9.9835,18.4327],[-62.3115,9.9896,0.0],[-62.3138,9.9896,0.0],[-62.3182,9.9763,20.0979],[-62.3185,9.9776,4.1075],[-62.3207,9.9765,15.5818],[-62.3185,9.9807,0.0],[-62.319,9.9846,0.0],[-62.3265,9.9913,0.0],[-62.3301,9.9921,0.0]]]]}}