{"type":"Feature","properties":{"GID_2":"VEN.12.10_1","GID_0":"VEN","country":"Venezuela","GID_1":"VEN.12_1","province":"Falcón","NL_NAME_1":"NA","county":"Federación","VARNAME_2":"NA","NL_NAME_2":"NA","TYPE_2":"Municipio","ENGTYPE_2":"Municipality","CC_2":"NA","HASC_2":"NA","name":"Federación.county"},
"geometry":{"type": "MultiPolygon","coordinates": [[[[-69.8546,10.9121,311.5827],[-69.8556,10.9034,341.9182],[-69.8462,10.8868,284.1673],[-69.7983,10.8251,344.8771],[-69.7804,10.7991,723.0917],[-69.814,10.7475,932.4419],[-69.791,10.7388,835.0144],[-69.7714,10.735,971.5624],[-69.7535,10.739,1051.6619],[-69.7352,10.7491,954.4588],[-69.705,10.7607,767.066],[-69.6773,10.7664,836.0626],[-69.6354,10.7802,821.4578],[-69.605,10.7827,734.2834],[-69.5386,10.7754,731.6738],[-69.5276,10.7692,903.8777],[-69.5094,10.743,700.4404],[-69.5017,10.7365,854.0366],[-69.4897,10.7302,845.0643],[-69.4666,10.7267,640.0258],[-69.4489,10.7277,612.5584],[-69.3718,10.7423,524.1331],[-69.3436,10.7419,579.5046],[-69.2842,10.7334,707.6619],[-69.2535,10.7339,637.3029],[-69.235,10.7369,425.5917],[-69.2412,10.7446,578.4498],[-69.2493,10.759,569.0736],[-69.2572,10.7778,788.2224],[-69.2647,10.7777,856.0956],[-69.28,10.7906,881.1398],[-69.2977,10.7938,926.5114],[-69.3088,10.7936,901.4336],[-69.3169,10.7958,882.8951],[-69.3235,10.802,773.1073],[-69.3259,10.8094,951.775],[-69.3257,10.8455,643.6746],[-69.3305,10.8631,464.5413],[-69.3267,10.881,252.1364],[-69.3199,10.8944,185.5962],[-69.3155,10.9196,135.2685],[-69.3183,10.9249,194.9734],[-69.3234,10.9297,169.565],[-69.3576,10.9447,164.968],[-69.3711,10.9484,197.8393],[-69.3942,10.9507,219.8227],[-69.4088,10.947,219.4376],[-69.4198,10.9407,199.6852],[-69.4385,10.9218,276.2598],[-69.46,10.9118,300.1912],[-69.4705,10.911,275.612],[-69.4788,10.9137,302.9465],[-69.4956,10.9258,316.5652],[-69.5156,10.9441,347.9081],[-69.5467,10.9651,395.3742],[-69.5732,10.9641,400.8841],[-69.5999,10.9534,441.9066],[-69.6133,10.9534,483.5957],[-69.6323,10.9556,455.6791],[-69.6864,10.9715,474.7457],[-69.695,10.9689,449.0966],[-69.7027,10.9578,417.5528],[-69.7273,10.9467,431.3431],[-69.7542,10.9446,483.8487],[-69.7643,10.9481,327.6718],[-69.7735,10.9548,263.601],[-69.7877,10.961,310.0005],[-69.806,10.9624,263.1754],[-69.8255,10.9586,207.5997],[-69.8326,10.9539,210.7659],[-69.8383,10.9469,225.7884],[-69.8472,10.9305,260.7307],[-69.8546,10.9121,311.5827]]]]}}