{"type": "Feature","bbox": [-71.9706,8.4874,-71.5137,8.7525],"geometry": {"type": "MultiPolygon","coordinates": [[[[-71.5154,8.6872,1709.3076],[-71.5185,8.6952,1697.8867],[-71.5225,8.699,1352.2809],[-71.5525,8.709,635.7155],[-71.5666,8.7164,244.8209],[-71.5903,8.7314,58.287],[-71.6136,8.7525,45.4135],[-71.6992,8.6947,52.8477],[-71.7324,8.6676,55.5225],[-71.7436,8.6609,52.3325],[-71.7564,8.6578,49.3829],[-71.7645,8.6584,46.9679],[-71.776,8.6631,43.7311],[-71.7864,8.6719,41.6179],[-71.8067,8.6951,37.0545],[-71.8184,8.7024,33.6835],[-71.8326,8.7031,30.1123],[-71.8542,8.7001,28.0972],[-71.8709,8.6922,25.0887],[-71.8814,8.6826,22.4604],[-71.898,8.6734,19.5148],[-71.9367,8.6675,15.2646],[-71.9505,8.6633,11.0809],[-71.9588,8.6588,10.8433],[-71.9653,8.652,10.6795],[-71.969,8.6459,12.039],[-71.9706,8.6369,11.8618],[-71.9698,8.635,11.8681],[-71.9549,8.6268,13.3062],[-71.9244,8.617,15.4721],[-71.8497,8.6122,32.9101],[-71.8277,8.6053,41.2047],[-71.8174,8.5961,46.2742],[-71.8011,8.5764,59.7662],[-71.7842,8.5476,114.0229],[-71.778,8.5493,123.8475],[-71.7724,8.5488,89.2796],[-71.7652,8.545,95.038],[-71.7511,8.5107,164.2672],[-71.7416,8.4923,299.0793],[-71.7261,8.4961,181.9401],[-71.6619,8.5196,405.369],[-71.6333,8.5264,895.4535],[-71.6297,8.5161,882.801],[-71.6088,8.4934,789.2956],[-71.5986,8.4882,783.4896],[-71.5727,8.4874,381.5023],[-71.5612,8.4903,1096.1443],[-71.5727,8.5204,497.5168],[-71.5744,8.5444,636.1746],[-71.5574,8.5347,518.8976],[-71.5427,8.5298,689.533],[-71.5377,8.5301,783.1434],[-71.5418,8.5427,590.4672],[-71.5581,8.5635,839.0982],[-71.5631,8.5734,804.8716],[-71.5685,8.5887,300.1276],[-71.5671,8.5972,263.2003],[-71.5605,8.6037,308.2977],[-71.5259,8.6203,595.5995],[-71.5199,8.6293,755.7017],[-71.5157,8.641,921.9051],[-71.5137,8.6569,1590.2316],[-71.5154,8.6872,1709.3076]]]]}
,"properties": {"GID_2": "VEN.15.1_1","GID_0": "VEN","country": "Venezuela","GID_1": "VEN.15_1","province": "Mérida","NL_NAME_1": "NA","county": "AlbertoAdriani","VARNAME_2": "NA","NL_NAME_2": "NA","TYPE_2": "Municipio","ENGTYPE_2": "Municipality","CC_2": "NA","HASC_2": "NA","name": "Alberto_Adriani.county","area_km2": 748.3263,"hist_schema_id": "Elevation0-9000","hist_area_km2": {"0": 4.1084,"25": 118.7645,"50": 148.7141,"75": 110.0277,"100": 36.9363,"125": 27.4835,"150": 29.036,"175": 25.4512,"200": 23.0402,"225": 20.1057,"250": 17.9883,"275": 16.4789,"300": 14.9484,"325": 11.7826,"350": 11.0488,"375": 9.0779,"400": 8.9102,"425": 8.7005,"450": 8.2393,"475": 7.9878,"500": 7.2331,"525": 7.0234,"550": 6.1009,"575": 6.2478,"600": 6.1011,"625": 5.3253,"650": 4.4867,"675": 4.1721,"700": 3.7948,"725": 3.3545,"750": 2.8722,"775": 2.411,"800": 2.7883,"825": 1.9917,"850": 1.8868,"875": 1.3417,"900": 1.132,"925": 1.2158,"950": 1.1319,"975": 1.0481,"1000": 0.9852,"1025": 0.7756,"1050": 0.8175,"1075": 0.6917,"1100": 0.7965,"1125": 0.5449,"1150": 0.6917,"1175": 0.5869,"1200": 0.7336,"1225": 0.5659,"1250": 0.6078,"1275": 0.5869,"1300": 0.5659,"1325": 0.503,"1350": 0.4192,"1375": 0.4192,"1400": 0.4611,"1425": 0.3773,"1450": 0.3982,"1475": 0.3144,"1500": 0.3354,"1525": 0.4821,"1550": 0.3982,"1575": 0.3354,"1600": 0.3563,"1625": 0.4611,"1650": 1.069,"1675": 0.8384,"1700": 0.7126,"1725": 0.4192,"1750": 0.4192,"1775": 0.1467,"1800": 0.021}}}