{"type":"Feature","properties":{"GID_2":"VEN.19.8_1","GID_0":"VEN","country":"Venezuela","GID_1":"VEN.19_1","province":"Portuguesa","NL_NAME_1":"NA","county":"Páez","VARNAME_2":"NA","NL_NAME_2":"NA","TYPE_2":"Municipio","ENGTYPE_2":"Municipality","CC_2":"NA","HASC_2":"NA","name":"Páez.county"},
"geometry":{"type": "MultiPolygon","coordinates": [[[[-68.8983,9.6429,139.4541],[-68.9541,9.6338,146.8794],[-68.9498,9.62,141.7958],[-68.9445,9.6108,140.2928],[-68.9451,9.6094,140.4602],[-68.9624,9.6054,140.8676],[-69.0239,9.5962,143.674],[-69.0217,9.5899,142.2969],[-69.0256,9.5832,142.4088],[-69.0321,9.5806,142.5849],[-69.0407,9.5804,145.949],[-69.0523,9.5837,146.6933],[-69.0897,9.6005,157.8485],[-69.1206,9.6214,166.973],[-69.1429,9.6312,180.0333],[-69.1747,9.6533,201.9109],[-69.1842,9.6537,204.7669],[-69.1894,9.6522,209.529],[-69.1952,9.6421,210.3381],[-69.2175,9.573,200.2765],[-69.224,9.5596,228.8417],[-69.2356,9.548,224.6449],[-69.2205,9.5391,221.6502],[-69.19,9.528,177.3283],[-69.1827,9.5238,174.7902],[-69.177,9.516,174.5532],[-69.1734,9.5075,171.241],[-69.1457,9.5144,164.4982],[-69.1256,9.5167,149.6202],[-69.0809,9.5326,139.2868],[-69.0645,9.5362,138.3774],[-69.0445,9.5346,137.4087],[-69.0047,9.5173,126.759],[-68.9899,9.5049,123.94],[-68.9813,9.4918,120.1902],[-68.9666,9.4608,116.7804],[-68.9594,9.4545,115.1264],[-68.9339,9.4409,113.184],[-68.9108,9.4193,107.5728],[-68.8926,9.4084,106.2187],[-68.8533,9.4001,109.5416],[-68.8164,9.395,98.0854],[-68.796,9.3994,108.2626],[-68.8006,9.4035,107.4462],[-68.8305,9.4206,106.424],[-68.8566,9.4309,104.75],[-68.8665,9.4374,106.1781],[-68.876,9.4526,109.9902],[-68.8877,9.4895,116.6007],[-68.8895,9.5057,117.6257],[-68.8874,9.529,119.5444],[-68.8843,9.5432,121.5804],[-68.8837,9.5714,125.728],[-68.8912,9.6223,134.8925],[-68.8983,9.6429,139.4541]]]]}}