{"type":"Feature","properties":{"GID_1":"VEN.1_1","GID_0":"VEN","country":"Venezuela","province":"Amazonas","VARNAME_1":"NA","NL_NAME_1":"NA","TYPE_1":"Estado","ENGTYPE_1":"State","CC_1":"NA","HASC_1":"NA","ISO_1":"VE-Z","name":"Amazonas.province"},
"geometry":{"type": "MultiPolygon","coordinates": [[[[-64.338,1.3635,807.6643],[-64.3352,1.3707,659.2446],[-64.3419,1.3754,612.0348],[-64.3427,1.3843,613.5477],[-64.3374,1.3915,611.5255],[-64.3297,1.3949,641.0928],[-64.3261,1.4019,627.8253],[-64.325,1.4107,686.9048],[-64.3291,1.4193,610.1874],[-64.3261,1.436,594.042],[-64.318,1.4401,603.645],[-64.313,1.4479,610.3338],[-64.313,1.4563,617.998],[-64.3044,1.4605,603.6504],[-64.3022,1.4683,603.6647],[-64.2788,1.4785,603.5056],[-64.2758,1.4855,613.9631],[-64.2674,1.4846,662.7439],[-64.2616,1.4998,841.3933],[-64.2474,1.5082,805.1302],[-64.2402,1.5113,883.714],[-64.2233,1.5071,753.1111],[-64.2155,1.5085,1149.8613],[-64.1949,1.5249,1459.2496],[-64.1938,1.5427,1137.3043],[-64.1749,1.5629,805.5883],[-64.1738,1.571,872.8703],[-64.1677,1.576,931.3257],[-64.1599,1.5743,813.9034],[-64.1441,1.5824,742.6459],[-64.1355,1.5768,754.0293],[-64.1261,1.5776,867.6746],[-64.1122,1.5893,724.0717],[-64.1092,1.6031,949.4937],[-64.0952,1.6171,953.6461],[-64.0874,1.6401,960.6802],[-64.0755,1.6526,645.5107],[-64.0652,1.676,669.6146],[-64.0666,1.6838,643.8108],[-64.0613,1.7016,609.6089],[-64.0669,1.7079,617.5525],[-64.0722,1.7257,632.366],[-64.0663,1.7307,607.7896],[-64.0652,1.7398,618.0474],[-64.0688,1.7476,618.6837],[-64.0766,1.7512,623.8931],[-64.078,1.759,618.7148],[-64.0624,1.7896,611.8617],[-64.0619,1.8054,582.1138],[-64.058,1.8129,577.9155],[-64.0627,1.8207,597.0811],[-64.0552,1.8254,582.8694],[-64.0561,1.841,582.6135],[-64.0652,1.8446,604.6169],[-64.0711,1.8524,611.5947],[-64.0619,1.8827,588.2596],[-64.0641,1.8985,596.4354],[-64.0605,1.9138,592.6946],[-64.0619,1.9307,617.4047],[-64.0452,1.9341,597.4988],[-64.0416,1.9427,582.8683],[-64.0191,1.9513,603.9176],[-64.018,1.9588,581.0792],[-64.0113,1.9624,594.0088],[-64.0016,1.9749,584.9209],[-63.9955,1.9799,571.9171],[-63.9874,1.9791,592.4038],[-63.9755,1.9913,594.6661],[-63.9677,1.9882,599.4096],[-63.9613,1.9924,589.9548],[-63.9541,1.9882,590.0734],[-63.9385,1.9893,580.4374],[-63.9227,1.9829,587.2411],[-63.9066,1.9915,594.7927],[-63.8985,1.9924,611.1576],[-63.8908,1.9893,606.7778],[-63.8877,1.9824,610.2023],[-63.8541,1.9785,613.6569],[-63.846,1.964,606.7686],[-63.8297,1.9682,604.2772],[-63.8238,1.991,639.215],[-63.7999,1.9874,625.1043],[-63.7849,1.9815,618.4254],[-63.7774,1.9851,611.9758],[-63.7688,1.9996,613.206],[-63.7602,2.0041,605.9998],[-63.7519,1.996,663.4555],[-63.7405,1.9996,716.1985],[-63.7427,2.0085,628.6375],[-63.7391,2.0163,605.6215],[-63.731,2.0179,591.3816],[-63.7283,2.0262,588.3434],[-63.7033,2.0462,584.6182],[-63.6938,2.041,583.2101],[-63.6885,2.0315,606.2841],[-63.6922,2.0232,597.6407],[-63.6749,2.0213,605.8395],[-63.668,2.0169,608.211],[-63.6622,2.0235,599.9261],[-63.6608,2.0332,566.303],[-63.6649,2.0574,597.6858],[-63.6622,2.0654,590.7589],[-63.6538,2.068,574.6089],[-63.6449,2.0649,589.9495],[-63.638,2.0692,614.8538],[-63.6305,2.0846,606.4153],[-63.6227,2.0891,612.8127],[-63.6185,2.0963,616.8041],[-63.6174,2.1065,615.0283],[-63.6066,2.1073,606.3788],[-63.5944,2.1202,637.3069],[-63.5855,2.1196,665.3339],[-63.5688,2.1246,607.3076],[-63.5619,2.1323,649.4392],[-63.5363,2.131,621.4614],[-63.5144,2.1209,765.6272],[-63.5094,2.1135,714.428],[-63.4924,2.1154,787.3408],[-63.4755,2.1266,923.574],[-63.4743,2.1379,992.3824],[-63.4666,2.141,1007.2158],[-63.4441,2.1251,928.2084],[-63.4341,2.1263,940.2733],[-63.4277,2.1352,966.2395],[-63.423,2.1324,950.0452],[-63.4191,2.133,943.6698],[-63.4058,2.1443,970.3961],[-63.3977,2.1469,946.2978],[-63.3938,2.1568,978.526],[-63.3944,2.1657,1025.7164],[-63.3888,2.183,1032.0227],[-63.3952,2.1885,1137.2838],[-63.3952,2.1996,1130.0032],[-63.3723,2.2117,1036.0255],[-63.4012,2.2456,1022.3235],[-63.4027,2.253,999.4995],[-63.3978,2.2743,931.1609],[-63.4014,2.2966,1000.6792],[-63.4255,2.3642,763.5427],[-63.4223,2.3785,816.5388],[-63.3948,2.4071,849.3102],[-63.3959,2.4261,904.0465],[-63.4068,2.4359,982.924],[-63.4459,2.4424,965.5775],[-63.4999,2.436,883.3605],[-63.5908,2.4149,722.939],[-63.6559,2.3939,808.8433],[-63.6887,2.388,684.8399],[-63.7279,2.3862,914.7665],[-63.7808,2.3912,1001.5968],[-63.834,2.4081,1162.3086],[-63.8678,2.4245,1053.2743],[-63.8939,2.4318,1000.3488],[-63.9612,2.4546,1160.6732],[-63.978,2.4675,1233.4377],[-63.9883,2.4649,1207.6072],[-64.0005,2.4782,1267.7791],[-64.0056,2.478,1182.4343],[-64.0125,2.4697,1269.765],[-64.0208,2.4665,1303.0308],[-64.0249,2.4718,1233.453],[-64.032,2.4722,1249.7139],[-64.0302,2.4818,1235.8739],[-64.038,2.4868,1279.1519],[-64.0388,2.494,1179.5438],[-64.0561,2.4977,1262.1177],[-64.0588,2.5024,1215.8674],[-64.0572,2.5129,1191.6886],[-64.0454,2.5325,1177.4727],[-64.0489,2.5486,1227.459],[-64.0444,2.5588,1212.3884],[-64.0444,2.5732,1262.0482],[-64.0391,2.5785,1262.0466],[-64.0337,2.5749,1353.1775],[-64.0291,2.576,1429.0276],[-64.0244,2.5907,1336.9962],[-64.0091,2.6082,1317.9619],[-64.0099,2.6202,1371.1439],[-63.9916,2.6362,1307.4298],[-63.9849,2.6485,1360.3176],[-63.9844,2.6596,1241.7998],[-63.9914,2.6701,1325.5752],[-63.9872,2.6743,1331.5802],[-63.9855,2.686,1291.1769],[-64.0018,2.6996,1324.3047],[-64.0036,2.7071,1276.6775],[-63.9897,2.7165,1287.858],[-63.9827,2.7174,1269.5574],[-63.9866,2.7307,1310.3699],[-63.9997,2.7402,1208.6349],[-63.9991,2.7599,1311.4486],[-63.9944,2.7643,1194.5817],[-63.9938,2.7699,1224.9457],[-64.0045,2.7729,1292.7648],[-64.0094,2.7782,1191.4874],[-64.0094,2.7871,1270.0668],[-64.0141,2.7954,1217.1774],[-64.0147,2.8066,1372.6818],[-64.0105,2.8113,1308.3844],[-64.0133,2.819,1241.5417],[-64.0472,2.8363,1327.4006],[-64.0577,2.8504,1440.2202],[-64.0669,2.8796,1326.7433],[-64.0716,2.9376,1297.4429],[-64.1024,2.9515,1389.5573],[-64.1113,2.9604,1367.4771],[-64.1249,2.9804,1271.5079],[-64.1305,3.0043,1264.2423],[-64.1608,3.0327,1191.6726],[-64.178,3.0632,1193.5414],[-64.2205,3.0957,1437.5042],[-64.2352,3.1143,1220.3204],[-64.2336,3.1299,1214.7764],[-64.2191,3.1526,1341.7272],[-64.2108,3.1721,1217.0601],[-64.2083,3.1888,1238.4271],[-64.2138,3.2232,1084.0789],[-64.2138,3.2463,1143.4663],[-64.2413,3.3149,684.8726],[-64.2344,3.384,560.8302],[-64.2491,3.399,388.6415],[-64.2552,3.411,471.6234],[-64.2519,3.4279,539.9211],[-64.2399,3.4429,635.3386],[-64.2027,3.4771,630.4903],[-64.1899,3.4949,621.3722],[-64.1844,3.4893,643.3728],[-64.1869,3.4996,606.6775],[-64.1838,3.5379,626.6464],[-64.1858,3.5596,647.2648],[-64.2061,3.5904,778.4366],[-64.2444,3.6249,714.7644],[-64.2577,3.6476,711.4747],[-64.2758,3.6613,820.8043],[-64.2811,3.6693,858.78],[-64.2891,3.6996,1081.4868],[-64.328,3.7204,1070.2717],[-64.3427,3.7349,1139.0312],[-64.39,3.7596,1282.2932],[-64.4091,3.7657,1279.1084],[-64.4286,3.7799,1325.8953],[-64.4475,3.784,1382.3273],[-64.4725,3.7815,1364.1375],[-64.4855,3.7874,991.117],[-64.5055,3.8098,857.7388],[-64.5245,3.8419,865.7529],[-64.553,3.8636,1429.5775],[-64.5684,3.8817,1342.7659],[-64.5802,3.9283,1215.3947],[-64.6199,3.9513,1356.4298],[-64.634,3.975,1655.8904],[-64.6507,3.9919,1385.1665],[-64.6739,4.0046,1356.2764],[-64.6752,4.0123,1468.344],[-64.6808,4.0163,1406.3657],[-64.6839,4.0401,1438.4932],[-64.7086,4.0665,1402.9769],[-64.723,4.1049,1432.9613],[-64.7322,4.1201,1319.4944],[-64.7533,4.1368,1454.7875],[-64.7836,4.1526,1571.1213],[-64.8105,4.1746,1540.1594],[-64.8219,4.2118,1523.5968],[-64.825,4.244,1392.1448],[-64.8177,4.2651,1393.871],[-64.7969,4.2857,1372.1896],[-64.7805,4.2865,1390.2969],[-64.6914,4.2446,1396.1008],[-64.6586,4.2115,1249.6095],[-64.6386,4.1647,1178.5566],[-64.6378,4.1878,1054.313],[-64.6387,4.2005,1430.8126],[-64.6417,4.2127,1277.9426],[-64.6402,4.2216,1333.0012],[-64.6335,4.2329,1002.1548],[-64.615,4.2495,718.9107],[-64.6109,4.2514,762.0205],[-64.5985,4.2502,767.0756],[-64.567,4.2367,707.7164],[-64.5366,4.227,748.3451],[-64.5322,4.2383,793.665],[-64.5264,4.2643,833.2998],[-64.5244,4.2844,744.8954],[-64.5257,4.3245,965.1945],[-64.5296,4.3625,759.4934],[-64.5365,4.3933,923.1981],[-64.5383,4.4401,1026.9835],[-64.5484,4.4706,1150.1287],[-64.5523,4.5139,1006.5552],[-64.5602,4.5564,1142.0701],[-64.5672,4.5673,1134.5558],[-64.5795,4.5745,1044.7455],[-64.5944,4.579,1230.0933],[-64.629,4.5834,712.3185],[-64.6829,4.5858,589.2523],[-64.7009,4.5888,662.4229],[-64.7371,4.6013,669.8503],[-64.7532,4.6089,747.4596],[-64.7697,4.62,1006.3613],[-64.788,4.6414,489.7258],[-64.8032,4.6647,490.8492],[-64.8197,4.6927,507.7395],[-64.8467,4.7437,416.4319],[-64.8692,4.7789,426.162],[-64.8846,4.7983,435.9045],[-64.9,4.8225,448.823],[-64.919,4.8641,884.3379],[-64.9366,4.9108,899.8129],[-64.9643,4.967,661.1373],[-64.9758,4.9947,757.7945],[-64.9846,5.0222,688.3862],[-64.9945,5.0883,531.9228],[-65.0092,5.143,604.7191],[-65.0284,5.1951,622.9846],[-65.0524,5.2451,1155.76],[-65.0631,5.2725,1219.7155],[-65.0681,5.2973,1005.8264],[-65.0688,5.3159,745.2991],[-65.0662,5.3282,730.6117],[-65.0594,5.3356,731.8394],[-65.0385,5.3433,645.1119],[-65.0208,5.3448,573.8547],[-64.9975,5.3429,393.3738],[-64.9766,5.339,502.099],[-64.9594,5.3394,381.2718],[-64.9465,5.3446,345.0351],[-64.9377,5.3531,350.491],[-64.9108,5.3945,372.9198],[-64.8992,5.4184,345.5212],[-64.8942,5.4342,339.6652],[-64.8957,5.4479,401.0866],[-64.8995,5.456,559.1504],[-64.924,5.4707,376.6129],[-64.9379,5.4823,443.8015],[-64.9509,5.505,480.6078],[-64.9678,5.5291,398.2103],[-64.977,5.5471,465.7312],[-64.993,5.5668,519.9204],[-65.0102,5.607,1090.562],[-65.0218,5.6269,958.2802],[-65.0242,5.6368,899.2128],[-65.0212,5.652,809.4301],[-65.0162,5.661,815.2036],[-65.0009,5.6742,639.9172],[-64.9793,5.699,677.8828],[-64.9764,5.7072,650.7231],[-64.9767,5.7151,582.5742],[-64.9792,5.7227,689.5392],[-64.9857,5.7324,644.6606],[-64.9931,5.7381,714.9067],[-65.005,5.7426,684.8951],[-65.0141,5.7442,737.4268],[-65.0346,5.7428,688.2841],[-65.127,5.7438,1094.0521],[-65.171,5.7422,1194.2208],[-65.2077,5.7517,1548.2664],[-65.2164,5.7522,1654.2922],[-65.2277,5.7505,1678.8242],[-65.2381,5.746,1596.2913],[-65.2474,5.7396,1474.8948],[-65.2812,5.6985,1000.7861],[-65.286,5.6866,1223.819],[-65.2947,5.676,1207.0981],[-65.3011,5.6723,1151.1428],[-65.3125,5.6695,827.351],[-65.3469,5.6797,1585.7477],[-65.3549,5.6857,1556.259],[-65.3621,5.6939,1629.2738],[-65.3681,5.704,1801.9404],[-65.3822,5.7446,1287.3484],[-65.4,5.7821,774.3457],[-65.4089,5.8158,725.5753],[-65.4103,5.8486,693.9464],[-65.4186,5.9125,1192.9692],[-65.4189,5.9311,1150.1188],[-65.4159,5.945,1086.8882],[-65.3911,6.0098,1013.3696],[-65.3845,6.0323,1146.0718],[-65.3825,6.0537,1124.7976],[-65.3836,6.0658,1013.1442],[-65.3866,6.0871,910.9932],[-65.3912,6.1023,996.1039],[-65.402,6.1148,1069.1221],[-65.4229,6.1244,1171.2339],[-65.4444,6.1248,866.9155],[-65.4558,6.1233,610.0704],[-65.4775,6.117,410.2226],[-65.4957,6.1157,582.0581],[-65.5024,6.1159,519.5765],[-65.5213,6.1268,469.8286],[-65.5308,6.1268,469.6362],[-65.6714,6.0817,361.7668],[-65.6921,6.0662,378.7775],[-65.7148,6.0443,368.4127],[-65.7386,6.0309,496.4725],[-65.802,6.01,726.3278],[-65.8186,6.0001,694.9375],[-65.8334,5.9881,763.4852],[-65.8452,5.9709,1080.8459],[-65.8503,5.9568,723.2161],[-65.8695,5.9179,917.5121],[-65.8779,5.9056,953.014],[-65.8941,5.8871,986.0175],[-65.9392,5.8448,1013.158],[-65.9718,5.8105,1270.7372],[-66.0143,5.7699,1639.4224],[-66.0452,5.7357,1984.057],[-66.0619,5.7265,1881.8109],[-66.0752,5.7255,1587.4928],[-66.1044,5.7282,1613.9253],[-66.1856,5.7428,1965.8955],[-66.2219,5.7536,1674.906],[-66.2739,5.7772,446.7121],[-66.3014,5.7863,307.9654],[-66.3394,5.7943,482.725],[-66.3667,5.7953,1656.397],[-66.3854,5.7935,1663.8108],[-66.4093,5.7872,1477.0699],[-66.4323,5.7838,719.5619],[-66.4577,5.7858,543.9814],[-66.484,5.7951,838.2648],[-66.5031,5.7973,1320.9751],[-66.5171,5.795,1210.2793],[-66.5569,5.7796,1495.2095],[-66.5902,5.7708,1255.0266],[-66.6166,5.7714,872.4703],[-66.6392,5.7765,1111.0337],[-66.6778,5.7819,1145.875],[-66.6983,5.7817,1222.8458],[-66.7484,5.7735,797.7657],[-66.7692,5.7618,887.0649],[-66.7803,5.7519,931.1808],[-66.7988,5.7273,688.0584],[-66.8123,5.7127,830.0862],[-66.844,5.6932,1038.238],[-66.8568,5.6739,1289.4653],[-66.8659,5.6659,1335.7468],[-66.8811,5.6567,898.9622],[-66.9131,5.643,758.3364],[-66.9227,5.6407,652.2756],[-66.9293,5.6411,716.4],[-66.9409,5.645,1108.8009],[-66.9521,5.6536,994.057],[-66.9574,5.6647,1083.5247],[-66.9604,5.6774,912.8287],[-66.9675,5.6906,1117.924],[-66.9708,5.7027,833.2705],[-66.9758,5.713,869.6082],[-66.9858,5.7276,737.8587],[-67.0054,5.7412,434.8496],[-67.0161,5.7452,482.8711],[-67.0238,5.7462,620.7245],[-67.0398,5.744,710.1466],[-67.0587,5.7405,736.071],[-67.0905,5.7286,745.8226],[-67.1116,5.7246,673.8246],[-67.1315,5.7249,762.2749],[-67.1393,5.7284,720.6626],[-67.1482,5.7399,678.6646],[-67.1509,5.7547,616.8695],[-67.149,5.7714,491.1623],[-67.1384,5.8187,141.9883],[-67.136,5.8369,327.2325],[-67.1352,5.8727,145.8363],[-67.1327,5.8885,93.9155],[-67.1285,5.9094,187.7479],[-67.1219,5.9265,149.8301],[-67.1212,5.9535,146.6216],[-67.131,6.0038,505.5207],[-67.1322,6.0567,135.7835],[-67.1433,6.0818,115.342],[-67.1524,6.0923,285.3052],[-67.1666,6.1039,481.5152],[-67.1795,6.1093,550.1948],[-67.1961,6.1095,220.7204],[-67.2467,6.1055,210.2859],[-67.2606,6.1085,158.8165],[-67.2865,6.1312,77.173],[-67.2995,6.1325,70.2222],[-67.3154,6.1304,81.4555],[-67.356,6.1209,108.4267],[-67.374,6.1191,60.4051],[-67.3909,6.1244,55.2612],[-67.4004,6.1309,55.0247],[-67.4131,6.1473,51.3638],[-67.4228,6.152,51.6015],[-67.4346,6.1548,53.6707],[-67.4697,6.1566,41.0],[-67.4817,6.1509,64.2001],[-67.4909,6.1493,41.5],[-67.4934,6.132,42.0],[-67.4901,6.1226,42.0],[-67.4822,6.109,42.5],[-67.471,6.0941,43.0],[-67.4581,6.0634,44.5],[-67.4346,6.041,45.5],[-67.4275,6.0362,45.5],[-67.4258,6.0271,45.5],[-67.4054,6.0069,45.5],[-67.4042,6.0021,45.5],[-67.4051,5.9985,45.5],[-67.4095,5.993,45.5],[-67.424,5.984,45.5],[-67.4302,5.9718,45.5],[-67.4346,5.9674,45.5],[-67.4541,5.9586,45.5],[-67.4811,5.9419,46.1366],[-67.484,5.9379,48.9008],[-67.4889,5.9225,46.0],[-67.4917,5.9187,46.0],[-67.538,5.8935,46.5],[-67.5484,5.8844,47.0],[-67.5647,5.8611,47.0],[-67.5724,5.8558,47.0],[-67.5855,5.8499,47.0],[-67.5928,5.8401,47.0],[-67.6052,5.7926,47.5],[-67.6192,5.7491,48.5],[-67.6277,5.734,49.0],[-67.6313,5.6927,49.5],[-67.637,5.6753,49.5],[-67.6388,5.6507,50.0],[-67.6331,5.6358,50.0],[-67.635,5.6249,50.25],[-67.6291,5.6163,51.5],[-67.627,5.6005,53.0],[-67.622,5.5926,54.0],[-67.6246,5.579,55.0],[-67.6216,5.5747,55.5],[-67.6157,5.5714,55.625],[-67.6145,5.5626,56.25],[-67.6038,5.5516,57.5],[-67.6014,5.5439,57.75],[-67.6049,5.529,59.0],[-67.6142,5.5192,59.375],[-67.6197,5.5046,60.0],[-67.6237,5.4983,60.0],[-67.6218,5.4892,60.0],[-67.6247,5.4796,60.875],[-67.6295,5.4718,61.0],[-67.6329,5.4666,61.5],[-67.6471,5.4549,62.5],[-67.6663,5.443,63.0],[-67.6818,5.4304,63.5],[-67.6958,5.4243,63.5],[-67.7151,5.4129,63.5],[-67.7258,5.3975,64.0],[-67.7393,5.3874,64.0],[-67.7613,5.3803,64.5],[-67.796,5.3618,64.5],[-67.8095,5.3496,65.0],[-67.8229,5.3406,65.0],[-67.8468,5.3077,65.625],[-67.8505,5.2936,66.0],[-67.8506,5.2878,66.0],[-67.8397,5.277,66.5],[-67.8365,5.2756,66.5],[-67.8271,5.276,66.5],[-67.8169,5.271,67.0],[-67.8134,5.265,67.625],[-67.8102,5.2528,68.5],[-67.8117,5.2318,69.5],[-67.8145,5.2277,69.5],[-67.8122,5.225,70.0],[-67.8129,5.2197,70.5],[-67.8114,5.2107,71.0],[-67.8082,5.2044,71.0],[-67.8116,5.1947,71.0],[-67.814,5.1889,71.0],[-67.8165,5.1884,71.0],[-67.8206,5.1907,71.0],[-67.8222,5.1968,71.0],[-67.825,5.1978,71.0],[-67.8266,5.1968,71.0],[-67.8384,5.1813,71.5],[-67.8413,5.1672,72.0],[-67.8313,5.148,73.0],[-67.832,5.1402,73.0],[-67.8403,5.1148,74.0],[-67.8369,5.1035,74.0],[-67.8338,5.0997,74.0],[-67.8333,5.094,74.5],[-67.8258,5.0867,74.5],[-67.8238,5.0827,74.5],[-67.8246,5.0783,74.5],[-67.8365,5.0733,74.5],[-67.8384,5.0684,75.0],[-67.8359,5.0645,75.0],[-67.8326,5.0627,75.0],[-67.8143,5.0585,75.0],[-67.81,5.0522,75.0],[-67.8094,5.0471,75.0],[-67.8131,5.037,75.0],[-67.8203,5.0253,75.0],[-67.8245,5.0215,75.0],[-67.822,5.0042,75.0],[-67.8255,4.9705,75.5],[-67.8335,4.9544,75.5],[-67.8411,4.9453,76.0],[-67.841,4.9249,76.0],[-67.8379,4.9051,76.5],[-67.8392,4.8814,76.5],[-67.8304,4.864,77.5],[-67.827,4.8518,77.5],[-67.8288,4.8316,77.5],[-67.8252,4.8116,77.5],[-67.8279,4.7852,78.0],[-67.8219,4.7011,78.0],[-67.8247,4.6932,78.0],[-67.8309,4.686,78.0],[-67.8434,4.6657,78.0],[-67.8484,4.635,78.0],[-67.8461,4.6124,78.0],[-67.8474,4.596,78.0],[-67.8422,4.5649,78.0],[-67.8464,4.5509,78.0],[-67.8568,4.5382,78.0],[-67.8589,4.5242,78.0],[-67.8568,4.5177,78.0],[-67.8507,4.5106,78.0],[-67.8124,4.4883,78.0],[-67.8023,4.4772,78.0],[-67.795,4.4643,78.0],[-67.7952,4.4577,78.0],[-67.7993,4.4423,80.1327],[-67.7989,4.435,78.0],[-67.791,4.4274,78.0],[-67.7789,4.4212,78.0],[-67.7754,4.4176,78.0],[-67.7757,4.4116,78.0],[-67.7832,4.407,78.0],[-67.7868,4.402,78.0],[-67.7881,4.3916,78.0],[-67.7818,4.3785,78.0],[-67.7708,4.366,78.0],[-67.7674,4.3595,78.0],[-67.7658,4.3523,78.0],[-67.7661,4.3429,78.0],[-67.7682,4.3394,78.0],[-67.7705,4.3386,78.0],[-67.7777,4.3385,78.0],[-67.7871,4.3408,78.0],[-67.797,4.3383,78.0],[-67.8017,4.333,78.0],[-67.8061,4.3239,78.0],[-67.8064,4.3146,78.0],[-67.8046,4.3072,78.0],[-67.7942,4.2832,78.0],[-67.7932,4.2777,78.0],[-67.7938,4.2689,78.0],[-67.8054,4.2519,94.274],[-67.8057,4.24,78.0],[-67.7999,4.2272,78.0],[-67.7923,4.219,78.0],[-67.7875,4.2094,78.0],[-67.7798,4.1788,78.0],[-67.7741,4.1665,78.0],[-67.7479,4.1445,78.0],[-67.7435,4.139,78.0],[-67.7262,4.1023,78.0],[-67.7217,4.0707,78.0],[-67.7176,4.0572,78.0],[-67.7106,4.0452,78.0],[-67.7056,4.0425,78.0],[-67.6992,4.0351,78.0],[-67.6989,4.032,78.0],[-67.702,4.0271,78.0],[-67.702,4.0201,78.0],[-67.6991,4.011,78.0],[-67.7005,4.0038,78.0],[-67.6975,4.0009,78.0],[-67.6992,3.9957,78.0],[-67.6966,3.9926,78.0],[-67.6957,3.9872,78.0],[-67.698,3.9741,78.0],[-67.6961,3.9661,78.0],[-67.6894,3.9559,78.0],[-67.6904,3.942,78.0],[-67.6921,3.9394,78.0],[-67.6913,3.9333,79.3986],[-67.6828,3.9231,78.0],[-67.6804,3.9131,78.0],[-67.6762,3.9063,83.4959],[-67.6648,3.898,78.0],[-67.661,3.8807,78.0],[-67.6532,3.871,78.0],[-67.6495,3.8639,78.0],[-67.6497,3.8603,78.0],[-67.6466,3.855,78.0],[-67.648,3.8469,79.3359],[-67.6465,3.8414,78.0],[-67.6434,3.8383,78.0],[-67.644,3.8327,78.0],[-67.6483,3.8258,78.0],[-67.6481,3.8219,78.0],[-67.6361,3.794,78.0],[-67.6348,3.7887,78.0],[-67.6357,3.7838,78.0],[-67.6335,3.7819,83.7172],[-67.6263,3.7803,78.0],[-67.6263,3.7755,78.0],[-67.6205,3.7708,78.0],[-67.6149,3.7568,78.0],[-67.6093,3.7533,79.7349],[-67.5963,3.7493,81.0881],[-67.5563,3.7588,87.6214],[-67.547,3.7574,87.6492],[-67.5407,3.7586,82.7664],[-67.5214,3.7781,88.4827],[-67.514,3.7782,85.139],[-67.4976,3.7705,85.9665],[-67.4895,3.7548,88.118],[-67.4827,3.7465,86.1613],[-67.4813,3.7398,84.3926],[-67.4817,3.7273,85.2664],[-67.4779,3.7142,85.7146],[-67.4659,3.6961,90.1619],[-67.4621,3.6859,90.6374],[-67.4478,3.684,98.5111],[-67.4431,3.6788,86.0914],[-67.4436,3.6703,84.0806],[-67.4475,3.6607,85.4543],[-67.4466,3.655,85.2285],[-67.4374,3.6433,84.5162],[-67.4356,3.6375,85.3309],[-67.4367,3.6281,85.2535],[-67.4427,3.6089,87.5811],[-67.4398,3.5907,87.3466],[-67.4392,3.5885,99.343],[-67.4266,3.5797,111.4643],[-67.4234,3.5616,92.2873],[-67.4049,3.5402,92.8863],[-67.4009,3.5177,86.5603],[-67.4045,3.5135,82.5269],[-67.4065,3.5062,83.8751],[-67.4051,3.4934,83.3796],[-67.4018,3.482,82.0],[-67.3915,3.4726,87.4263],[-67.3724,3.4701,85.8492],[-67.3613,3.4663,85.7556],[-67.337,3.4536,95.9317],[-67.332,3.4466,105.9832],[-67.3244,3.4249,86.9664],[-67.3123,3.4035,94.3549],[-67.3074,3.3821,100.7827],[-67.3097,3.3752,86.0308],[-67.3197,3.3657,85.2057],[-67.3207,3.3567,86.9603],[-67.3261,3.3471,86.1955],[-67.3266,3.3402,98.2835],[-67.3366,3.3238,91.2724],[-67.3398,3.3222,99.1494],[-67.3509,3.3099,88.7308],[-67.3662,3.3027,86.8966],[-67.3743,3.2949,103.9905],[-67.3751,3.2729,113.649],[-67.3772,3.2661,94.3894],[-67.3736,3.25,95.1936],[-67.3912,3.2506,89.017],[-67.3919,3.2488,87.6667],[-67.43,3.2472,98.2106],[-67.4901,3.1963,86.5459],[-67.5083,3.1785,87.8208],[-67.7017,3.0054,107.6362],[-67.7057,2.9993,117.1192],[-67.7089,2.9989,107.5441],[-67.855,2.8672,101.9312],[-67.8572,2.8267,105.4678],[-67.857,2.7903,93.3224],[-67.8434,2.7949,108.6901],[-67.8338,2.8045,88.5],[-67.8315,2.8162,92.7537],[-67.8262,2.8256,88.0],[-67.8182,2.8328,106.7646],[-67.8108,2.8348,114.1669],[-67.8003,2.8342,107.5803],[-67.7837,2.8303,102.5078],[-67.7423,2.8407,97.6852],[-67.7385,2.84,95.8455],[-67.7347,2.8343,94.6345],[-67.7344,2.8305,88.1884],[-67.737799999999993,2.8265,100.1249],[-67.7381,2.8208,97.6117],[-67.7358,2.8177,88.8521],[-67.7197,2.8119,87.0],[-67.6576,2.7963,86.5],[-67.6465,2.801,90.6241],[-67.6424,2.8071,86.5],[-67.6316,2.8131,88.6923],[-67.6216,2.8135,97.1587],[-67.6135,2.812,87.8747],[-67.6101,2.8052,87.2723],[-67.5659,2.7691,102.5684],[-67.5682,2.7473,99.6879],[-67.5627,2.7371,85.3461],[-67.5476,2.7227,99.1897],[-67.5468,2.7122,108.4871],[-67.5538,2.6691,95.7445],[-67.5515,2.6584,83.0],[-67.545,2.6493,100.4586],[-67.5405,2.6486,97.051],[-67.5289,2.6605,99.4726],[-67.5084,2.6679,84.8673],[-67.4951,2.661,93.1007],[-67.4772,2.6587,104.5203],[-67.47,2.6539,116.2654],[-67.4627,2.6347,97.6436],[-67.4579,2.6161,106.4384],[-67.4524,2.6122,107.2109],[-67.4372,2.6121,111.7351],[-67.42,2.5933,102.4954],[-67.4162,2.5872,92.1924],[-67.4115,2.5844,99.445],[-67.4024,2.574,94.1085],[-67.3899,2.5681,83.0],[-67.3851,2.5639,92.4946],[-67.3827,2.5585,105.9202],[-67.3815,2.5443,95.6501],[-67.379,2.5379,110.5515],[-67.3689,2.5325,103.4144],[-67.3559,2.5226,109.3931],[-67.3447,2.52,95.2177],[-67.3373,2.5127,83.0],[-67.3334,2.5051,89.5195],[-67.3322,2.4888,83.0],[-67.3303,2.4853,84.9428],[-67.3236,2.476,106.0362],[-67.3124,2.4681,83.0],[-67.3085,2.4581,91.5507],[-67.2985,2.4472,93.172],[-67.2949,2.4349,83.75],[-67.2914,2.4299,102.3579],[-67.2857,2.4281,104.9764],[-67.2802,2.4227,81.9979],[-67.2729,2.4188,86.4727],[-67.266,2.4198,93.2319],[-67.2578,2.4188,97.9019],[-67.2386,2.3995,92.9829],[-67.2212,2.3896,89.8821],[-67.2015,2.3577,98.0565],[-67.1852,2.3389,86.7845],[-67.186,2.3319,95.3755],[-67.1967,2.3128,104.6024],[-67.2119,2.3008,93.4401],[-67.216,2.294,87.5875],[-67.2164,2.2858,84.2031],[-67.2131,2.2776,80.5],[-67.2128,2.2718,97.3938],[-67.216,2.2593,84.9356],[-67.221,2.2492,80.0],[-67.2217,2.2415,89.9836],[-67.2076,2.217,94.2],[-67.1973,2.1864,94.9963],[-67.193,2.1666,90.8009],[-67.174,2.1438,92.3876],[-67.1591,2.1188,87.8152],[-67.1518,2.1146,93.787],[-67.1467,2.1149,103.0711],[-67.132,2.1237,102.3957],[-67.1271,2.1257,94.444],[-67.1226,2.1251,89.0234],[-67.1161,2.1218,87.3744],[-67.1103,2.1095,94.1651],[-67.108,2.099,79.0],[-67.108,2.0855,91.6777],[-67.1012,2.0609,99.8595],[-67.0991,2.0446,90.521],[-67.1109,2.0162,89.3702],[-67.1179,2.0072,79.0],[-67.1181,1.9986,79.0],[-67.1244,1.9781,79.0],[-67.1254,1.9648,96.3779],[-67.1143,1.9615,94.2182],[-67.0922,1.9449,95.655],[-67.0862,1.9368,97.3835],[-67.0792,1.9176,87.6353],[-67.0701,1.9123,85.7379],[-67.0666,1.9076,85.094],[-67.0588,1.8691,91.3894],[-67.0514,1.8483,100.5498],[-67.0418,1.8327,86.1908],[-67.0421,1.8004,99.4886],[-67.0359,1.7723,98.2371],[-67.0216,1.7566,87.0219],[-67.0171,1.7304,100.9881],[-67.0087,1.7207,99.5195],[-66.9995,1.7032,95.7538],[-66.9888,1.6651,94.5387],[-66.9761,1.6531,93.6625],[-66.9627,1.6279,92.2737],[-66.9612,1.6216,77.0],[-66.9614,1.6065,77.0],[-66.9665,1.5842,98.4422],[-66.961,1.5784,95.7399],[-66.9564,1.5778,95.5823],[-66.9452,1.5725,86.0277],[-66.9205,1.5236,77.0],[-66.9093,1.4847,77.0],[-66.9105,1.4425,77.0],[-66.9077,1.4229,77.0],[-66.9014,1.4124,77.0],[-66.8984,1.41,77.0],[-66.8718,1.404,93.6679],[-66.8566,1.3852,96.1535],[-66.8496,1.373,92.2395],[-66.8457,1.3602,95.6887],[-66.8439,1.3453,92.5524],[-66.8453,1.3322,77.0],[-66.8495,1.3168,77.0],[-66.8541,1.3064,95.0324],[-66.8586,1.3018,87.2872],[-66.8676,1.2835,97.685],[-66.8687,1.2644,87.1065],[-66.864,1.2425,92.8331],[-66.8596,1.2335,92.4061],[-66.5994,0.9997,113.0185],[-66.3185,0.755,111.9274],[-66.213,0.7806,641.35],[-66.1882,0.7787,989.1845],[-66.1827,0.7671,882.0128],[-66.1634,0.7561,1018.7903],[-66.1611,0.7463,1026.5984],[-66.1511,0.7444,1255.0719],[-66.1212,0.752,1312.1384],[-66.1146,0.7634,1296.51],[-66.1023,0.7637,1551.2455],[-66.0886,0.759,1537.3901],[-66.0763,0.7683,1891.2838],[-66.0784,0.779,1855.9705],[-66.0745,0.7987,1963.892],[-66.0701,0.805,1917.8447],[-66.0557,0.8023,1945.9216],[-66.038,0.812,2158.927],[-66.0173,0.8,2220.6711],[-66.0007,0.8026,2387.4219],[-65.9931,0.807,2108.4468],[-65.9834,0.8062,1638.2947],[-65.9778,0.8118,1850.959],[-65.9714,0.806,1832.7581],[-65.9645,0.8095,2366.4824],[-65.9647,0.8197,2352.45],[-65.9519,0.8363,2321.5266],[-65.946,0.8526,2308.8586],[-65.9334,0.8625,1857.3218],[-65.9366,0.8821,1909.3311],[-65.9254,0.8913,2124.325],[-65.9084,0.8888,2048.4709],[-65.9012,0.8836,1357.512],[-65.8972,0.8922,1504.4883],[-65.8816,0.9016,1352.2986],[-65.8737,0.922,1361.8608],[-65.8798,0.9327,2016.0669],[-65.8623,0.9309,1154.2704],[-65.8317,0.94,632.2651],[-65.8164,0.9521,603.504],[-65.8092,0.949,611.5635],[-65.7939,0.9541,626.6974],[-65.7878,0.9618,595.3976],[-65.78,0.964,580.2624],[-65.7742,0.959,602.6041],[-65.7672,0.964,569.9592],[-65.7611,0.981,599.8569],[-65.7508,0.9824,571.192],[-65.7394,0.9996,562.7571],[-65.7217,1.0016,548.8133],[-65.7122,0.9974,559.1435],[-65.7058,1.0029,564.5696],[-65.6956,1.004,568.7036],[-65.6886,0.9996,568.6072],[-65.6867,0.9907,574.5972],[-65.6786,0.9888,561.7108],[-65.6694,1.0023,571.1342],[-65.6528,1.0117,570.9525],[-65.625,0.989,620.6124],[-65.6272,1.0092,563.4474],[-65.6175,1.0098,612.4442],[-65.6103,1.0142,598.6412],[-65.6067,1.0045,606.7891],[-65.5911,1.0022,618.2581],[-65.5856,1.0089,596.5347],[-65.5722,0.985,581.1208],[-65.5673,0.9942,594.8788],[-65.5578,0.9933,616.9341],[-65.5614,0.9858,627.1859],[-65.5581,0.9758,628.7338],[-65.5419,0.9755,603.3098],[-65.5372,0.961,611.3857],[-65.5309,0.9561,592.9607],[-65.5364,0.948,590.4591],[-65.5245,0.9375,605.4117],[-65.522,0.9293,609.4386],[-65.5084,0.9155,606.847],[-65.5139,0.8954,581.7371],[-65.5123,0.8852,596.4683],[-65.4962,0.8893,607.0829],[-65.4937,0.8821,623.2853],[-65.5053,0.8685,621.7348],[-65.5003,0.8424,600.6577],[-65.5089,0.8435,601.5377],[-65.5144,0.8371,564.4969],[-65.5214,0.8401,600.1957],[-65.5278,0.8332,611.4012],[-65.5242,0.8246,610.6416],[-65.5311,0.8051,630.6599],[-65.5408,0.8051,642.4648],[-65.5397,0.7968,611.8801],[-65.5486,0.7746,628.2477],[-65.5564,0.7776,589.831],[-65.5736,0.7643,684.2634],[-65.5758,0.7446,982.1777],[-65.5914,0.7216,1336.2273],[-65.585,0.7146,1500.5663],[-65.5764,0.7116,1234.4305],[-65.5642,0.6757,755.2602],[-65.5581,0.6699,774.8608],[-65.5536,0.6582,758.4196],[-65.5458,0.6555,641.3289],[-65.5406,0.6488,690.3469],[-65.5306,0.6679,917.0039],[-65.5005,0.6721,690.0609],[-65.495,0.6782,736.2125],[-65.4847,0.6788,741.5399],[-65.4803,0.6869,689.1455],[-65.4722,0.6827,665.761],[-65.4528,0.6854,637.7372],[-65.443,0.6898,623.5228],[-65.4386,0.7002,646.7046],[-65.4236,0.7079,611.9309],[-65.4214,0.7321,598.3159],[-65.4106,0.7396,590.7485],[-65.4158,0.7476,590.4848],[-65.4139,0.7551,595.9052],[-65.3975,0.7499,623.0468],[-65.3955,0.7582,632.6799],[-65.3997,0.7671,602.722],[-65.395,0.7743,614.9904],[-65.4003,0.7815,619.3693],[-65.3967,0.7905,603.4536],[-65.413,0.8157,608.9809],[-65.398,0.8213,594.0478],[-65.3917,0.8441,575.8785],[-65.3847,0.8491,578.0256],[-65.3769,0.8493,578.9136],[-65.3736,0.8646,575.7701],[-65.3519,0.873,576.4892],[-65.3564,0.8846,579.7715],[-65.3433,0.8935,562.1959],[-65.3292,0.9315,569.9811],[-65.3219,0.9279,570.2274],[-65.3028,0.9421,669.539],[-65.2775,0.9382,585.5847],[-65.27,0.9432,559.9495],[-65.2641,0.934,566.6779],[-65.2694,0.9268,607.6918],[-65.2636,0.9196,580.6873],[-65.2569,0.9252,594.1476],[-65.2408,0.921,629.6245],[-65.2213,0.9277,845.2132],[-65.2089,0.9287,621.9874],[-65.2053,0.9171,755.7933],[-65.2075,0.9068,832.8784],[-65.1972,0.9107,874.269],[-65.1825,0.9224,684.4751],[-65.165,0.9505,588.8634],[-65.1616,0.9785,632.4257],[-65.155,0.9868,562.2457],[-65.1473,1.0093,733.5228],[-65.1669,1.0113,669.3242],[-65.1695,1.0184,680.3118],[-65.1671,1.0269,860.6473],[-65.159,1.0334,758.8086],[-65.154,1.0563,687.7739],[-65.1542,1.0885,724.9499],[-65.1504,1.1073,652.9036],[-65.1551,1.1249,808.5177],[-65.1389,1.1275,623.1915],[-65.1225,1.1351,661.4462],[-65.1191,1.1464,830.6214],[-65.1031,1.1566,644.2726],[-65.0882,1.146,1151.8223],[-65.0787,1.1474,868.3364],[-65.0713,1.1534,780.7457],[-65.0609,1.1377,677.9518],[-65.0661,1.119,584.165],[-65.0613,1.1117,583.588],[-65.0458,1.1169,579.692],[-65.0222,1.1149,992.1594],[-65.0164,1.1244,1053.4646],[-65.0067,1.1288,1298.7124],[-64.9916,1.1505,1519.1295],[-64.9703,1.1729,1344.3383],[-64.9608,1.1896,1301.5952],[-64.9614,1.1982,1769.9783],[-64.9697,1.2171,1411.1771],[-64.9608,1.2302,1291.54],[-64.9516,1.2315,1555.9556],[-64.9458,1.2252,1703.6068],[-64.9436,1.2157,1131.9572],[-64.9352,1.2113,795.8475],[-64.9264,1.2146,611.8392],[-64.9144,1.2279,573.2413],[-64.9066,1.2416,589.538],[-64.9072,1.2513,588.4272],[-64.8983,1.2526,647.0631],[-64.8911,1.2482,584.4896],[-64.8866,1.2318,615.2263],[-64.8781,1.2286,676.2951],[-64.8707,1.2386,591.3612],[-64.8639,1.2621,606.109],[-64.8604,1.2685,592.2539],[-64.8616,1.2693,571.1837],[-64.8251,1.2951,819.083],[-64.8105,1.3144,870.1561],[-64.8033,1.3105,1239.3206],[-64.7891,1.2857,1454.7806],[-64.7905,1.2841,1509.7563],[-64.7829,1.2624,1898.5742],[-64.7836,1.2608,1842.9739],[-64.7805,1.2582,1569.2847],[-64.7639,1.2307,1372.4711],[-64.7575,1.2262,1441.6008],[-64.7466,1.2254,1826.0439],[-64.7225,1.2385,909.4962],[-64.7213,1.2471,785.0131],[-64.7144,1.251,935.0598],[-64.7097,1.2693,761.467],[-64.7044,1.276,812.2101],[-64.7052,1.2838,598.0004],[-64.7019,1.2912,689.1332],[-64.6847,1.2838,828.3455],[-64.6766,1.2854,1304.416],[-64.6686,1.2918,1721.2817],[-64.6602,1.2913,1710.139],[-64.6447,1.3049,1517.6019],[-64.635,1.3202,1189.7157],[-64.6241,1.3241,779.8212],[-64.6114,1.3357,713.3956],[-64.5908,1.3374,976.5349],[-64.5761,1.354,1071.339],[-64.5822,1.359,959.595],[-64.58,1.3674,872.6177],[-64.5827,1.3755,982.3507],[-64.5738,1.3835,1036.4987],[-64.5533,1.4168,607.415],[-64.5305,1.426,610.4175],[-64.5313,1.4352,602.4108],[-64.528,1.4441,598.8268],[-64.5219,1.4376,633.9633],[-64.5005,1.4426,597.5654],[-64.4872,1.4535,596.4001],[-64.4766,1.468,593.6916],[-64.4536,1.4802,619.8486],[-64.4494,1.4732,810.3942],[-64.4386,1.4718,795.7477],[-64.4247,1.4852,788.7839],[-64.4219,1.4935,692.5294],[-64.4108,1.506,764.9734],[-64.4091,1.5138,674.1974],[-64.3974,1.5268,705.5598],[-64.3836,1.5204,618.8002],[-64.3749,1.5237,590.7471],[-64.3513,1.5182,628.907],[-64.3488,1.5021,813.8895],[-64.3572,1.4838,882.5514],[-64.3788,1.4635,755.0397],[-64.3747,1.4565,804.4114],[-64.3774,1.4482,628.8271],[-64.3975,1.4243,608.0849],[-64.3936,1.4176,621.0178],[-64.4,1.3948,634.6078],[-64.3936,1.3885,620.2056],[-64.3774,1.3865,613.0018],[-64.3594,1.3899,608.5847],[-64.3569,1.3813,619.4821],[-64.3458,1.366,642.3624],[-64.338,1.3635,807.6643]]]]}}