{"type":"Feature","properties":{"ISO3166-1-Alpha-3":"VEN","country":"Venezuela","fill":"#00F","id":"38","name":"Amazonas"},
"geometry":{"type": "Polygon","coordinates": [[[-67.3742,6.11919,60.4051],[-67.38454,6.11996,54.2578],[-67.39095,6.12213,60.02],[-67.39622,6.12485,51.7898],[-67.40001,6.12795,49.1671],[-67.4035,6.13138,50.9544],[-67.40645,6.13526,58.7613],[-67.41642,6.16017,46.8314],[-67.42547,6.17117,46.2394],[-67.4563,6.19322,40.0],[-67.47616,6.17844,40.5],[-67.48696,6.16678,41.0],[-67.49141,6.15296,41.0],[-67.4912,6.11449,42.5],[-67.4543,6.05679,44.5],[-67.42857,6.03847,45.5],[-67.42097,6.01834,45.5],[-67.41859,5.99535,55.4815],[-67.42247,5.97824,45.5],[-67.43477,5.96816,45.5],[-67.47089,5.95284,45.5],[-67.4852,5.94408,46.0],[-67.53238,5.89256,46.5],[-67.54158,5.87672,47.0],[-67.60122,5.82058,47.375],[-67.62514,5.78451,53.4417],[-67.64116,5.74484,62.8115],[-67.64912,5.70195,53.2628],[-67.64907,5.65609,139.6742],[-67.63775,5.59731,62.4945],[-67.636,5.57759,67.5658],[-67.63259,5.57307,55.0],[-67.61765,5.55852,56.5],[-67.61429,5.55367,65.2687],[-67.61703,5.5416,76.9947],[-67.62297,5.53341,77.4765],[-67.63,5.5269,70.3707],[-67.636,5.51954,71.2551],[-67.647,5.48336,82.6842],[-67.65248,5.47796,79.8191],[-67.66447,5.47491,105.0938],[-67.67527,5.46719,87.8159],[-67.69372,5.44721,78.435],[-67.70214,5.4414,78.1798],[-67.73165,5.43013,67.5592],[-67.73702,5.42582,67.153],[-67.74669,5.41432,68.1973],[-67.75211,5.40967,68.6456],[-67.75671,5.40879,73.3065],[-67.76793,5.4105,75.7654],[-67.77258,5.40967,73.4575],[-67.80978,5.37882,71.4049],[-67.83459,5.33931,84.9236],[-67.84368,5.29725,68.5798],[-67.83402,5.25888,129.2337],[-67.82498,5.24278,91.8661],[-67.81862,5.22782,76.0872],[-67.81474,5.21028,79.6764],[-67.8135,5.18656,71.0],[-67.81557,5.1779,87.5438],[-67.82456,5.15434,87.6457],[-67.8272,5.14212,86.0222],[-67.82756,5.1307,79.3813],[-67.82663,5.12039,95.1217],[-67.82451,5.11059,90.7031],[-67.821,5.10059,87.3682],[-67.81474,5.09096,92.3366],[-67.79676,5.07016,75.0],[-67.79309,5.06334,85.4108],[-67.79521,5.05272,75.5],[-67.79986,5.04587,81.7376],[-67.80456,5.04086,91.3988],[-67.80673,5.03571,86.3115],[-67.80498,4.99125,95.0827],[-67.80668,4.97226,97.3958],[-67.8196,4.93332,94.158],[-67.82637,4.89484,94.694],[-67.8272,4.87154,77.5],[-67.82524,4.8649,88.3882],[-67.81614,4.8473,95.1798],[-67.8135,4.84051,87.8608],[-67.81387,4.82826,99.0629],[-67.81712,4.82152,77.5],[-67.81862,4.81568,79.5269],[-67.8135,4.80635,77.5],[-67.82053,4.78764,97.1263],[-67.82286,4.74359,78.0],[-67.83061,4.72754,90.3667],[-67.84063,4.7115,90.6376],[-67.84565,4.68974,103.5842],[-67.8488,4.63419,78.0],[-67.85516,4.60773,168.4865],[-67.85371,4.57582,98.3049],[-67.85516,4.56616,97.5372],[-67.86063,4.55797,132.5577],[-67.86761,4.55316,223.7184],[-67.8734,4.54652,101.9009],[-67.87505,4.53264,81.151],[-67.8718,4.52156,88.9326],[-67.86508,4.51208,95.7937],[-67.85655,4.50417,100.3217],[-67.84766,4.49789,98.0518],[-67.84766,4.50469,84.893],[-67.82906,4.49143,98.8002],[-67.82188,4.47823,97.0826],[-67.8135,4.44327,106.3238],[-67.80942,4.43929,96.931],[-67.79707,4.43492,78.0],[-67.79309,4.42898,78.0],[-67.79268,4.42084,86.6013],[-67.79836,4.40692,92.0659],[-67.79986,4.39891,88.2886],[-67.79666,4.38581,95.3535],[-67.78265,4.36379,98.009],[-67.7794,4.35079,100.323],[-67.78198,4.33888,78.0],[-67.79986,4.30607,78.0],[-67.80493,4.26847,96.5594],[-67.79945,4.23532,78.0],[-67.79077,4.20427,89.7223],[-67.78622,4.17298,80.8539],[-67.77774,4.15393,98.6731],[-67.75893,4.13856,97.2585],[-67.74018,4.11872,100.1802],[-67.73165,4.08637,99.3209],[-67.72064,4.07497,78.0],[-67.71408,4.0565,78.0],[-67.71693,4.03988,78.0],[-67.71702,4.03934,78.0],[-67.71041,4.03572,90.5193],[-67.70163,4.01195,78.0],[-67.69858,3.94997,86.4803],[-67.69387,3.9286,81.6925],[-67.65388,3.85925,86.8223],[-67.64442,3.83462,78.0],[-67.63879,3.78517,89.2044],[-67.63176,3.76186,102.4348],[-67.61414,3.74057,82.0066],[-67.59481,3.73091,90.5351],[-67.57652,3.7307,86.3724],[-67.55791,3.73417,83.8634],[-67.53745,3.73551,93.5807],[-67.49983,3.71791,84.8647],[-67.47141,3.68006,84.9044],[-67.40392,3.50446,86.9626],[-67.39012,3.48506,89.1355],[-67.37539,3.47491,86.4273],[-67.33782,3.4601,94.6265],[-67.30465,3.42571,114.4378],[-67.30945,3.38393,87.0025],[-67.33529,3.3421,86.071],[-67.3958,3.26657,101.0527],[-67.40805,3.25727,103.1232],[-67.41839,3.2537,92.6314],[-67.44025,3.24942,94.8122],[-67.45218,3.24368,87.6376],[-67.47094,3.22632,86.2491],[-67.51383,3.18673,88.4326],[-67.55662,3.14704,91.3659],[-67.59951,3.10746,96.489],[-67.6423,3.06782,100.6733],[-67.68514,3.02824,106.8894],[-67.72798,2.9886,117.4215],[-67.77077,2.94897,111.5793],[-67.81361,2.90933,105.1281],[-67.83862,2.88613,99.1655],[-67.85526,2.85817,110.3916],[-67.85593,2.78975,93.3224],[-67.84125,2.80143,109.2161],[-67.83335,2.81523,101.5278],[-67.82332,2.82732,91.9653],[-67.80332,2.83259,111.4727],[-67.78141,2.83151,105.5934],[-67.7702,2.83244,93.7463],[-67.75103,2.8421,103.1306],[-67.74255,2.83859,87.0],[-67.73165,2.82634,106.004],[-67.69041,2.80634,97.9934],[-67.66561,2.80133,98.5362],[-67.64566,2.80867,95.4351],[-67.62659,2.81342,86.5],[-67.60845,2.79859,102.5126],[-67.59429,2.77611,111.6705],[-67.58706,2.75813,84.5],[-67.58148,2.71307,91.6869],[-67.57559,2.6911,102.6339],[-67.5637,2.68175,97.9846],[-67.51879,2.68103,106.3581],[-67.50029,2.67534,94.9521],[-67.4852,2.66191,87.4883],[-67.48102,2.65353,83.0],[-67.47502,2.63467,91.5884],[-67.47089,2.62713,83.0],[-67.46174,2.62041,83.0],[-67.44035,2.61002,83.0],[-67.43616,2.60356,83.0],[-67.43265,2.5954,103.3081],[-67.41699,2.57576,104.7221],[-67.41291,2.57189,92.1891],[-67.40035,2.56822,108.5926],[-67.39322,2.55933,111.1746],[-67.3881,2.54817,98.0193],[-67.38154,2.53778,108.1955],[-67.37203,2.53044,108.828],[-67.34986,2.51845,102.5348],[-67.34061,2.51049,94.8967],[-67.33581,2.50031,83.0],[-67.33126,2.48667,90.8712],[-67.32542,2.47463,106.3801],[-67.31664,2.46946,92.0343],[-67.30568,2.46621,99.8817],[-67.29472,2.45835,97.7232],[-67.27571,2.43939,101.0166],[-67.26656,2.43375,103.1937],[-67.23137,2.42233,108.9836],[-67.19762,2.40203,114.1232],[-67.18972,2.39438,115.4483],[-67.1861,2.38446,116.4498],[-67.18574,2.36549,107.1048],[-67.18016,2.3565,101.2324],[-67.17375,2.33645,101.0261],[-67.18703,2.31598,104.009],[-67.20631,2.29779,93.5079],[-67.21768,2.28451,97.0487],[-67.21726,2.26606,80.5],[-67.20135,2.22793,88.3679],[-67.19427,2.19702,84.1654],[-67.17783,2.15449,91.4393],[-67.16925,2.14116,91.477],[-67.15411,2.13269,79.0],[-67.13603,2.12713,88.662],[-67.12099,2.1191,102.0959],[-67.11463,2.103,93.2875],[-67.11117,2.04884,107.1859],[-67.11463,2.0313,89.8769],[-67.11903,2.02399,81.9736],[-67.13515,2.00334,102.925],[-67.13262,1.99081,90.4692],[-67.12554,1.9805,79.0],[-67.11809,1.97239,93.397],[-67.11034,1.95952,89.3492],[-67.09158,1.94652,92.314],[-67.0873,1.93882,87.5752],[-67.08482,1.928,86.9771],[-67.06683,1.89412,92.7714],[-66.98089,1.66595,81.4683],[-66.97805,1.64429,92.4437],[-66.97805,1.59972,99.3004],[-66.97418,1.58003,97.3506],[-66.96446,1.5583,103.7511],[-66.94317,1.52319,99.2478],[-66.93361,1.50169,93.1771],[-66.92968,1.4795,102.5792],[-66.9365,1.43852,95.9224],[-66.93273,1.42464,97.3422],[-66.92338,1.41436,90.8976],[-66.91191,1.40519,89.6017],[-66.90173,1.39446,90.7891],[-66.89118,1.37454,83.3936],[-66.88354,1.34994,99.3875],[-66.8825,1.32602,96.9593],[-66.9009,1.28897,90.9872],[-66.89589,1.2653,97.8166],[-66.87506,1.22251,104.7469],[-66.85677,1.20608,94.4964],[-66.80855,1.16277,102.7023],[-66.74039,1.10159,102.3482],[-66.66221,1.03141,109.8319],[-66.58407,0.96113,112.8571],[-66.51591,0.89995,120.481],[-66.4677,0.85664,99.6648],[-66.44945,0.84021,106.7597],[-66.40708,0.80207,134.4783],[-66.3462,0.75939,101.9091],[-66.28507,0.74585,121.9153],[-66.22828,0.7628,126.2036],[-66.20874,0.76311,312.4878],[-66.18903,0.75494,770.8527],[-66.17306,0.74306,1012.2075],[-66.15634,0.73303,1043.1064],[-66.13438,0.73112,808.3375],[-66.11113,0.74182,1017.7188],[-66.07919,0.77758,1763.3574],[-66.05746,0.78698,1748.0344],[-66.01385,0.78967,2068.5244],[-65.99418,0.79473,1803.0117],[-65.97408,0.80698,1784.4265],[-65.95266,0.82796,2326.6311],[-65.91424,0.87462,1557.6035],[-65.89176,0.89561,1367.2498],[-65.87197,0.90899,1229.0922],[-65.78541,0.94914,563.3732],[-65.74544,0.97415,556.4466],[-65.72097,0.98191,549.4925],[-65.70105,0.98439,504.7261],[-65.62873,0.98201,580.7325],[-65.60811,0.98526,538.2808],[-65.59604,0.98361,545.2829],[-65.58294,0.97767,545.6676],[-65.57085,0.96857,628.0913],[-65.55984,0.95798,542.3923],[-65.53581,0.92847,572.0061],[-65.52512,0.90832,300.2932],[-65.5185,0.88651,575.0271],[-65.517,0.86279,527.1648],[-65.53318,0.81633,627.1201],[-65.56328,0.77794,629.9511],[-65.58734,0.73913,1506.918],[-65.58522,0.69148,1200.553],[-65.57431,0.67024,708.1669],[-65.56049,0.65603,759.4224],[-65.54266,0.64932,663.014],[-65.51969,0.65087,687.3253],[-65.49783,0.65872,740.4136],[-65.47287,0.67252,643.4883],[-65.45122,0.69014,648.2278],[-65.43275,0.72094,605.5204],[-65.41388,0.74161,603.2716],[-65.40944,0.75525,631.7548],[-65.41083,0.78388,618.1907],[-65.40962,0.79215,578.446],[-65.40001,0.81654,589.5907],[-65.38903,0.83566,580.438],[-65.3272,0.91028,555.7782],[-65.31027,0.91865,555.3195],[-65.28438,0.91938,561.5231],[-65.24338,0.91312,665.0664],[-65.22315,0.91436,588.6799],[-65.20304,0.92382,803.8907],[-65.17899,0.95539,601.7133],[-65.16845,0.99648,599.2777],[-65.16018,1.08019,642.7122],[-65.13677,1.12691,638.7936],[-65.10052,1.13611,601.9901],[-65.05962,1.13239,572.1153],[-65.02249,1.13998,743.8483],[-65.0207,1.14401,802.2419],[-65.0197,1.15771,886.9579],[-65.01745,1.16298,909.3386],[-65.01321,1.16577,943.606],[-65.00334,1.16939,1073.1012],[-64.99936,1.17197,1060.0165],[-64.96647,1.2006,1765.2506],[-64.95606,1.2068,1421.0598],[-64.93293,1.213,725.41],[-64.91466,1.21476,596.5941],[-64.8974,1.21967,546.5456],[-64.87771,1.23491,582.1531],[-64.85531,1.25868,716.7351],[-64.83929,1.27083,575.8955],[-64.82144,1.27057,584.7045],[-64.77131,1.24675,1183.9965],[-64.75121,1.24334,927.6578],[-64.73088,1.24757,981.234],[-64.60422,1.33129,716.0099],[-64.59117,1.3501,800.7925],[-64.57027,1.3955,897.489],[-64.5512,1.41953,604.5203],[-64.52792,1.43573,624.0356],[-64.47505,1.46301,560.1172],[-64.43309,1.49404,586.5273],[-64.40901,1.50751,837.1604],[-64.38643,1.51024,431.333],[-64.36459,1.49709,489.1279],[-64.36382,1.47735,889.0156],[-64.38503,1.4364,622.5862],[-64.39136,1.41772,619.9667],[-64.39477,1.39219,613.2931],[-64.38958,1.3693,586.3625],[-64.3701,1.35873,612.2535],[-64.35294,1.36584,593.1119],[-64.34074,1.38421,619.1456],[-64.32188,1.42444,580.823],[-64.30152,1.44666,583.7523],[-64.23215,1.49714,833.8012],[-64.17709,1.55115,912.8744],[-64.12972,1.57807,858.5394],[-64.10954,1.59846,852.4811],[-64.09296,1.62262,758.5917],[-64.08086,1.64739,772.365],[-64.07541,1.66543,716.3511],[-64.07254,1.68458,608.8292],[-64.07595,1.74537,645.8751],[-64.0603,1.80746,601.7205],[-64.0536,1.89371,576.5873],[-64.03663,1.92727,577.2421],[-63.99503,1.95802,566.96],[-63.95834,1.97071,563.8156],[-63.92082,1.97433,587.8864],[-63.80228,1.97231,631.7293],[-63.78321,1.975,603.2012],[-63.76264,1.98567,575.6538],[-63.61753,2.10116,604.9716],[-63.56198,2.12636,623.4413],[-63.54896,2.12837,641.3508],[-63.52054,2.1245,661.6375],[-63.51067,2.1246,640.0554],[-63.44344,2.13718,855.749],[-63.41176,2.14938,943.1887],[-63.4022,2.17051,900.5974],[-63.4039,2.1885,958.0851],[-63.4006,2.20462,988.62],[-63.38655,2.23589,1037.087],[-63.37264,2.26684,909.7418],[-63.37052,2.28115,996.0982],[-63.37279,2.34911,750.4882],[-63.37124,2.36513,1014.7384],[-63.36111,2.40001,890.236],[-63.36489,2.41308,936.7406],[-63.38483,2.42058,945.921],[-63.51067,2.42466,957.9745],[-63.57382,2.43437,761.1899],[-63.70409,2.43758,953.2539],[-63.76703,2.42931,948.2107],[-63.83132,2.42864,1031.4255],[-63.95183,2.4615,1193.8964],[-64.01079,2.46817,1198.0741],[-64.0325,2.463,1251.2029],[-64.04797,2.47132,1115.5281],[-64.05663,2.48853,1199.9426],[-64.05782,2.51044,1227.5366],[-64.05053,2.53468,1189.123],[-64.01219,2.60377,1337.9393],[-64.00769,2.62279,1386.8516],[-64.00443,2.67953,1247.4395],[-63.99787,2.70599,1221.9066],[-63.99756,2.71493,1279.3804],[-64.00087,2.72536,1200.4619],[-64.01224,2.74402,1234.6384],[-64.02908,2.79797,1222.1338],[-64.10595,2.94721,1348.1593],[-64.1375,2.98726,1283.6942],[-64.17347,3.05191,1289.5881],[-64.2053,3.08917,1390.597],[-64.22292,3.124,1327.739],[-64.22538,3.1656,1144.2012],[-64.21631,3.25143,1110.4712],[-64.21987,3.29288,1103.2584],[-64.24561,3.41894,463.0977],[-64.24215,3.44297,620.9962],[-64.23212,3.46113,635.4061],[-64.20507,3.49707,641.2799],[-64.19786,3.51508,644.3682],[-64.19564,3.53291,634.748],[-64.19574,3.57007,700.8051],[-64.20298,3.59472,681.9515],[-64.2221,3.61621,730.0132],[-64.26556,3.65221,741.9021],[-64.32416,3.72411,1175.1869],[-64.34736,3.7383,1200.9331],[-64.39449,3.75608,1178.7649],[-64.43454,3.77848,1303.4253],[-64.53143,3.85351,843.2065],[-64.57497,3.91421,1372.6815],[-64.5961,3.93588,1332.7832],[-64.6429,3.97296,1370.6222],[-64.66279,3.99691,1388.2123],[-64.66279,3.99699,1388.2123],[-64.6629,3.99699,1388.2123],[-64.6629,3.99704,1388.2123],[-64.70744,4.08296,1334.353],[-64.71953,4.12324,1229.5822],[-64.7271,4.14078,1277.007],[-64.74191,4.15719,1396.2479],[-64.76294,4.169,1200.9521],[-64.78366,4.17708,1460.6864],[-64.80126,4.18853,1577.9622],[-64.81304,4.21057,1469.3589],[-64.81555,4.23103,1496.4524],[-64.81291,4.25279,1373.1666],[-64.80506,4.27189,1386.0104],[-64.79162,4.28442,1399.8877],[-64.74594,4.28762,1303.8811],[-64.69987,4.26416,1348.675],[-64.66098,4.22747,1488.5664],[-64.64802,4.2079,1330.8287],[-64.64212,4.22401,1364.2914],[-64.6292,4.28816,852.001],[-64.62685,4.32997,1259.4664],[-64.6277,4.33899,1182.1377],[-64.63507,4.36513,1209.9175],[-64.6499,4.49585,679.1425],[-64.6601,4.54187,783.3601],[-64.6677,4.55833,733.2488],[-64.67674,4.57088,765.5363],[-64.68047,4.5746,769.8818],[-64.69261,4.58344,613.7311],[-64.69718,4.58572,641.277],[-64.70222,4.58765,687.3923],[-64.73827,4.59385,654.7189],[-64.82857,4.59789,1000.2505],[-64.93285,4.62039,708.4357],[-64.942,4.6252,629.0917],[-65.08507,4.79922,645.562],[-65.09749,4.82754,918.0013],[-65.10747,4.84477,854.0435],[-65.11408,4.85973,891.1754],[-65.14827,4.91358,854.0039],[-65.1841,4.99977,794.5192],[-65.22216,5.14392,1524.1593],[-65.23345,5.16,1545.8616],[-65.24317,5.171,1287.4618],[-65.25774,5.18397,948.5096],[-65.26322,5.19141,969.7485],[-65.28229,5.22601,1385.4446],[-65.28658,5.23891,1212.8541],[-65.28844,5.2489,1251.4526],[-65.28722,5.25487,1319.7019],[-65.28539,5.26017,1348.224],[-65.28089,5.26939,1461.375],[-65.27792,5.27335,1360.1091],[-65.27443,5.27676,1481.9287],[-65.26617,5.28218,1420.5999],[-65.26157,5.28443,1403.4366],[-65.25661,5.2864,1398.2773],[-65.25102,5.28748,1359.5637],[-65.24493,5.2881,1346.1799],[-65.18516,5.28536,1388.2666],[-65.1793,5.2864,1353.335],[-65.15904,5.29368,1450.4626],[-65.14628,5.30151,1480.1052],[-65.13568,5.31136,1523.4756],[-65.13256,5.31518,1441.5854],[-65.12853,5.32285,1132.0289],[-65.12418,5.3334,1041.5765],[-65.11747,5.35544,1206.2161],[-65.11646,5.36629,1268.3877],[-65.11749,5.37422,1484.5996],[-65.12023,5.37841,1668.5437],[-65.12682,5.38546,1752.7175],[-65.17534,5.4213,1832.3134],[-65.1795,5.42603,1580.2271],[-65.18361,5.43404,1512.281],[-65.18361,5.43977,1544.5496],[-65.18193,5.44489,1615.9282],[-65.17863,5.44845,1672.4475],[-65.17501,5.45179,1673.9254],[-65.14917,5.46693,1451.7147],[-65.14442,5.47305,1366.1959],[-65.13984,5.4823,1283.5413],[-65.13408,5.50246,1275.528],[-65.133,5.5131,1019.406],[-65.13362,5.52108,1164.2656],[-65.13558,5.52597,1240.6064],[-65.14085,5.53418,1378.6318],[-65.14424,5.53775,1416.7727],[-65.22772,5.59976,2255.7375],[-65.24183,5.61317,1870.298],[-65.25301,5.62924,1670.2853],[-65.25971,5.6449,1682.7612],[-65.26454,5.66175,1857.9009],[-65.26477,5.67105,1761.5786],[-65.2634,5.6781,1650.4414],[-65.26058,5.68216,1639.1554],[-65.23294,5.7097,1795.9924],[-65.22984,5.71358,1787.3734],[-65.22643,5.71955,1837.2328],[-65.22379,5.72769,1819.9685],[-65.22175,5.74345,1766.8579],[-65.22247,5.75197,1795.2444],[-65.22464,5.75856,1764.7606],[-65.22793,5.76208,1693.7451],[-65.23196,5.7651,1544.5879],[-65.23668,5.76766,1510.924],[-65.24203,5.76944,1492.319],[-65.26593,5.77394,1381.3284],[-65.4375,5.77518,950.359],[-65.46114,5.77192,814.0745],[-65.46633,5.77053,738.4568],[-65.47106,5.76836,818.2311],[-65.47509,5.76549,741.3488],[-65.48217,5.75872,655.7624],[-65.50424,5.73187,662.2632],[-65.53876,5.69813,800.9581],[-65.54284,5.69526,775.2292],[-65.55176,5.69053,724.5288],[-65.56253,5.6879,536.1563],[-65.57475,5.68735,491.003],[-65.58201,5.68937,517.3408],[-65.58953,5.69332,551.7066],[-65.60041,5.70247,926.0168],[-65.60547,5.70885,1262.1267],[-65.60886,5.7149,1243.2286],[-65.634,5.77867,825.3326],[-65.63674,5.78921,588.7137],[-65.63834,5.85432,529.0223],[-65.63671,5.87114,195.9058],[-65.62772,5.90615,681.5682],[-65.62082,5.92034,631.1078],[-65.6126,5.93284,670.3845],[-65.61018,5.93749,707.6061],[-65.60808,5.94253,699.3762],[-65.59919,5.99025,803.9714],[-65.59565,6.00025,623.0667],[-65.59281,6.01571,587.125],[-65.5878,6.03067,609.0674],[-65.58718,6.03539,626.3774],[-65.5871,6.04067,599.281],[-65.58547,6.05216,699.9148],[-65.58227,6.0634,739.4293],[-65.58093,6.07126,630.5867],[-65.58026,6.08064,615.0721],[-65.58124,6.09684,566.4279],[-65.58294,6.1057,644.3674],[-65.58532,6.11252,515.7827],[-65.59015,6.1212,470.0231],[-65.59679,6.12841,463.1976],[-65.61413,6.14061,527.4539],[-65.62085,6.14417,593.4388],[-65.62692,6.14611,677.9935],[-65.63333,6.14735,587.5782],[-65.65875,6.1465,410.5307],[-65.69451,6.14185,460.8928],[-65.76089,6.14154,399.9416],[-65.77272,6.13983,552.3652],[-65.77815,6.13851,626.5107],[-65.78296,6.13665,633.0736],[-65.82711,6.1102,533.6743],[-65.8299,6.10617,593.3613],[-65.83215,6.10151,553.6711],[-65.83595,6.09126,747.6944],[-65.84347,6.07785,549.2315],[-65.85889,6.03733,788.6758],[-65.9568,5.87052,1308.9255],[-65.96253,5.86254,1138.7478],[-65.96734,5.85331,1308.9818],[-65.97134,5.82918,1225.702],[-65.97475,5.81861,1266.4873],[-65.97685,5.81357,1324.9321],[-65.97933,5.80931,1229.5367],[-65.98227,5.8052,1332.813],[-65.98545,5.80164,1331.8542],[-65.99346,5.79629,1331.9086],[-66.02746,5.78223,2052.6587],[-66.03883,5.77998,1678.7539],[-66.11733,5.78525,1595.3092],[-66.1234,5.78463,1713.2126],[-66.12888,5.78339,1796.2946],[-66.13818,5.77936,1911.1733],[-66.15087,5.77146,1915.6346],[-66.1657,5.75864,1620.739],[-66.17779,5.75019,1894.6781],[-66.19588,5.74105,1812.2866],[-66.22047,5.73164,2042.3845],[-66.22688,5.73055,1841.2938],[-66.23396,5.73055,1710.1179],[-66.24383,5.73335,1428.8489],[-66.24918,5.73717,1109.6309],[-66.25321,5.74143,1049.7209],[-66.27094,5.77177,338.9985],[-66.27486,5.78146,600.8695],[-66.29587,5.88163,1032.0739],[-66.29918,5.88969,1156.4943],[-66.30437,5.89946,591.1569],[-66.31788,5.91553,367.8568],[-66.32677,5.92204,401.7488],[-66.33491,5.92499,436.7333],[-66.34078,5.92421,475.5968],[-66.34553,5.9222,524.2639],[-66.46651,5.82205,960.3625],[-66.53531,5.75314,1290.3315],[-66.54358,5.74756,1225.1329],[-66.55288,5.74275,1231.0383],[-66.60071,5.72544,1113.944],[-66.63321,5.7187,1003.3133],[-66.67319,5.70417,960.9273],[-66.69494,5.69906,1021.8734],[-66.80574,5.6958,1136.554],[-66.81757,5.69425,981.2623],[-66.87421,5.67624,923.8068],[-66.88374,5.67213,850.9181],[-66.95299,5.63211,978.3972],[-66.97221,5.62405,990.3693],[-66.97733,5.62234,909.0809],[-66.99384,5.61945,808.6454],[-67.00001,5.61906,849.8046],[-67.01673,5.62033,661.8994],[-67.02345,5.6224,614.6405],[-67.0289,5.62529,547.4569],[-67.03249,5.62862,551.161],[-67.03577,5.63227,667.4374],[-67.04084,5.64079,752.1385],[-67.0442,5.65102,649.8746],[-67.05122,5.68449,763.8372],[-67.05489,5.69433,759.6349],[-67.05903,5.69976,631.3888],[-67.06469,5.7058,697.0209],[-67.0767,5.71397,656.0851],[-67.08497,5.71753,727.6224],[-67.09254,5.71932,941.6648],[-67.11693,5.71707,558.1873],[-67.1398,5.71273,632.2079],[-67.15522,5.7073,520.0353],[-67.16243,5.70575,780.7866],[-67.17122,5.70503,696.9356],[-67.18685,5.70658,682.9636],[-67.19447,5.70963,711.399],[-67.19961,5.71358,590.3373],[-67.20209,5.71792,658.0895],[-67.20403,5.7228,569.9295],[-67.20656,5.73376,459.3671],[-67.20737,5.73965,419.2858],[-67.20737,5.74585,339.1746],[-67.20178,5.78215,522.013],[-67.14871,5.91049,340.1004],[-67.14592,5.92158,451.4225],[-67.14453,5.93432,229.6245],[-67.1446,5.97426,657.7459],[-67.14863,5.99568,228.9564],[-67.14962,6.00994,491.0139],[-67.16522,6.07482,396.6125],[-67.1691,6.08459,321.652],[-67.17796,6.09978,475.59],[-67.1839,6.1071,360.3921],[-67.18949,6.11089,258.7488],[-67.19571,6.11299,163.7995],[-67.20196,6.11368,210.8125],[-67.2147,6.11368,306.1692],[-67.24522,6.10973,210.4621],[-67.25837,6.10989,159.2568],[-67.27509,6.11291,109.2241],[-67.28829,6.11663,79.9843],[-67.29527,6.12004,86.0366],[-67.30082,6.12353,81.9564],[-67.31896,6.14107,69.5837],[-67.32534,6.14479,64.115],[-67.33152,6.14627,64.9695],[-67.33622,6.14487,58.9361],[-67.34023,6.14208,62.2859],[-67.35405,6.12852,61.2915],[-67.36201,6.12244,55.2468],[-67.36751,6.12027,56.1276],[-67.3742,6.11919,60.4051]]]}}