{"type":"Feature","properties":{"GID_2":"VEN.6.4_1","GID_0":"VEN","country":"Venezuela","GID_1":"VEN.6_1","province":"Bolívar","NL_NAME_1":"NA","county":"ElCallao","VARNAME_2":"NA","NL_NAME_2":"NA","TYPE_2":"Municipio","ENGTYPE_2":"Municipality","CC_2":"NA","HASC_2":"NA","name":"El_Callao.county"},
"geometry":{"type": "MultiPolygon","coordinates": [[[[-61.5979,6.6367,152.348],[-61.5877,6.6359,163.0883],[-61.5829,6.6336,151.5622],[-61.5807,6.6291,160.8393],[-61.5842,6.6073,177.7983],[-61.5814,6.6017,159.9203],[-61.5734,6.597,150.4254],[-61.5517,6.5944,156.429],[-61.5472,6.5908,159.8849],[-61.5434,6.5806,160.4553],[-61.5398,6.5523,147.6847],[-61.5379,6.5469,162.5998],[-61.5323,6.5424,177.1604],[-61.5254,6.5435,162.9004],[-61.51,6.5607,171.2968],[-61.4969,6.5708,168.8929],[-61.4671,6.6069,159.1958],[-61.4645,6.6146,176.8727],[-61.4639,6.6235,169.6975],[-61.466,6.6374,155.33],[-61.4696,6.6452,153.8916],[-61.4824,6.6604,160.5742],[-61.4813,6.6729,140.6718],[-61.4751,6.6823,151.7119],[-61.4728,6.6908,149.4891],[-61.4758,6.7093,143.3017],[-61.4799,6.7159,156.7451],[-61.4799,6.7238,134.9715],[-61.476,6.7348,145.5169],[-61.4719,6.7412,141.9698],[-61.4671,6.7568,129.7129],[-61.447,6.7862,146.2721],[-61.4413,6.7979,128.9974],[-61.438,6.8114,122.1149],[-61.4389,6.8626,158.3446],[-61.4411,6.8945,156.0638],[-61.434,6.9283,163.3436],[-61.4364,6.9837,188.0722],[-61.4401,7.0061,152.7037],[-61.4564,7.0356,168.227],[-61.4688,7.0532,180.5925],[-61.4781,7.0913,191.5168],[-61.4896,7.1227,187.7083],[-61.4918,7.1351,179.1237],[-61.4904,7.146,177.6398],[-61.4597,7.1868,172.9982],[-61.4474,7.207,174.6561],[-61.4437,7.2186,163.9235],[-61.4426,7.2276,157.8717],[-61.4454,7.3134,151.3101],[-61.4513,7.3391,151.1068],[-61.4596,7.4023,168.293],[-61.46,7.4184,170.8141],[-61.4558,7.4394,170.6409],[-61.455,7.4613,189.7132],[-61.4483,7.4841,210.0038],[-61.4523,7.4852,194.4582],[-61.4599,7.485,196.2364],[-61.4661,7.4829,204.4742],[-61.4894,7.4721,180.3449],[-61.4985,7.4626,175.076],[-61.5032,7.4541,176.5723],[-61.5204,7.4083,169.2254],[-61.5284,7.3665,168.2926],[-61.5383,7.2977,198.3456],[-61.5424,7.2788,203.1838],[-61.5499,7.2599,168.4078],[-61.5549,7.2538,169.3597],[-61.5663,7.2468,174.3011],[-61.5899,7.2401,160.6953],[-61.6048,7.2341,157.1199],[-61.6344,7.212,145.6337],[-61.6504,7.1975,158.213],[-61.6841,7.1617,170.6256],[-61.6981,7.1395,179.8791],[-61.7063,7.1179,172.8164],[-61.7085,7.1053,164.4482],[-61.7075,7.0977,159.5649],[-61.6999,7.0765,160.4167],[-61.6725,7.035,147.1198],[-61.6684,7.0179,157.6084],[-61.6696,6.9952,159.3116],[-61.6776,6.9734,157.8887],[-61.6791,6.9652,149.0849],[-61.6764,6.9579,167.425],[-61.6688,6.9489,129.1997],[-61.664,6.9362,149.5878],[-61.6633,6.9245,158.9509],[-61.6732,6.8646,208.1027],[-61.6735,6.8082,154.2606],[-61.6714,6.7913,146.9827],[-61.658,6.7541,157.9942],[-61.6291,6.7061,118.9428],[-61.6108,6.6578,144.551],[-61.605,6.6463,158.3316],[-61.5979,6.6367,152.348]]]]}}