{"type":"Feature","properties":{"GID_2":"VEN.8.9_1","GID_0":"VEN","country":"Venezuela","GID_1":"VEN.8_1","province":"Cojedes","NL_NAME_1":"NA","county":"Tinaco","VARNAME_2":"NA","NL_NAME_2":"NA","TYPE_2":"Municipio","ENGTYPE_2":"Municipality","CC_2":"NA","HASC_2":"NA","name":"Tinaco.county"},
"geometry":{"type": "MultiPolygon","coordinates": [[[[-68.4432,9.6471,135.7423],[-68.4421,9.6451,136.265],[-68.427,9.6399,130.8266],[-68.4146,9.6317,126.7168],[-68.3782,9.6197,118.8462],[-68.3484,9.6079,117.4401],[-68.3374,9.6053,123.8979],[-68.3228,9.5963,109.9165],[-68.3193,9.5927,112.9857],[-68.3162,9.5857,116.3848],[-68.3209,9.5728,110.5182],[-68.3209,9.5569,120.7166],[-68.3307,9.5272,219.5962],[-68.331,9.5107,205.2486],[-68.3334,9.4935,134.7052],[-68.3468,9.4781,102.7012],[-68.3508,9.471,97.8053],[-68.3516,9.446,97.0867],[-68.3486,9.42,93.9546],[-68.3489,9.4085,92.6624],[-68.3521,9.3986,94.9598],[-68.3528,9.3766,84.4081],[-68.3576,9.3483,81.1826],[-68.3749,9.3333,79.3336],[-68.3784,9.324,79.8742],[-68.377,9.2832,75.9261],[-68.3656,9.2624,73.7291],[-68.3616,9.2436,72.5349],[-68.3409,9.2026,71.3957],[-68.3336,9.1846,69.7071],[-68.3328,9.1727,80.6676],[-68.3402,9.1593,81.2849],[-68.3475,9.1376,71.0865],[-68.3479,9.1252,77.9913],[-68.3462,9.1191,79.0248],[-68.3419,9.116,66.9898],[-68.3315,9.117,77.4664],[-68.3222,9.1241,81.6637],[-68.3166,9.1327,80.086],[-68.3115,9.148,80.598],[-68.3081,9.169,69.7294],[-68.2925,9.2215,71.8018],[-68.2907,9.2365,72.4736],[-68.2918,9.252,82.4445],[-68.3092,9.294,85.4153],[-68.3113,9.3056,86.0651],[-68.3098,9.3333,87.2931],[-68.3064,9.3383,88.0451],[-68.3009,9.338,87.9409],[-68.2918,9.3273,83.029],[-68.2849,9.3252,82.4768],[-68.2767,9.3324,79.4587],[-68.264,9.3708,87.4855],[-68.2686,9.4227,101.4223],[-68.2643,9.4521,102.5505],[-68.2576,9.4681,195.0666],[-68.2457,9.4891,244.2551],[-68.2356,9.5043,261.6638],[-68.2277,9.512,242.5756],[-68.2156,9.5173,212.3913],[-68.2083,9.5185,239.2901],[-68.1974,9.5172,273.1956],[-68.1865,9.5268,240.196],[-68.1229,9.6291,126.5],[-68.0992,9.6768,146.3409],[-68.2253,9.6879,155.2304],[-68.2148,9.8003,437.0629],[-68.2392,9.7966,446.463],[-68.2496,9.7881,626.7202],[-68.2549,9.7862,575.9413],[-68.2786,9.7862,362.6084],[-68.2876,9.7829,393.411],[-68.2957,9.7843,418.8853],[-68.3037,9.7833,478.2646],[-68.3104,9.7981,313.92],[-68.317,9.8061,370.2805],[-68.3351,9.8123,384.9475],[-68.3412,9.8123,380.791],[-68.3569,9.8161,347.9304],[-68.3626,9.8142,350.4633],[-68.3735,9.7943,262.2759],[-68.3806,9.7914,266.6568],[-68.3958,9.7895,267.0403],[-68.4044,9.7933,240.5959],[-68.4205,9.7881,365.3512],[-68.4287,9.7896,486.0655],[-68.4332,9.7844,409.0544],[-68.4577,9.7671,640.6518],[-68.4611,9.7612,661.4382],[-68.4627,9.7552,469.8887],[-68.4622,9.7453,276.5186],[-68.4535,9.7316,228.0083],[-68.4521,9.724,251.8144],[-68.4531,9.7193,195.8969],[-68.4593,9.708,169.6807],[-68.4585,9.7017,163.223],[-68.4477,9.6831,147.5957],[-68.4455,9.6731,172.805],[-68.445,9.6527,132.4315],[-68.4432,9.6471,135.7423]]]]}}