{"type": "Feature","bbox": [-68.3464,8.5953,-67.7283,9.9246],"geometry": {"type": "MultiPolygon","coordinates": [[[[-68.0609,9.914,490.0404],[-68.0775,9.9044,381.6977],[-68.1047,9.8853,353.5],[-68.1147,9.8803,380.3696],[-68.1376,9.8754,432.167],[-68.1905,9.8714,461.465],[-68.2085,9.8677,490.3568],[-68.2253,9.6879,155.2304],[-68.0992,9.6768,146.3409],[-68.1229,9.6291,126.5],[-68.1865,9.5268,240.196],[-68.1974,9.5172,273.1956],[-68.2083,9.5185,239.2901],[-68.2156,9.5173,212.3913],[-68.2277,9.512,242.5756],[-68.2356,9.5043,261.6638],[-68.2576,9.4681,195.0666],[-68.2643,9.4521,102.5505],[-68.2686,9.4227,101.4223],[-68.264,9.3708,87.4855],[-68.2767,9.3324,79.4587],[-68.2849,9.3252,82.4768],[-68.2918,9.3273,83.029],[-68.3009,9.338,87.9409],[-68.3064,9.3383,88.0451],[-68.3098,9.3333,87.2931],[-68.3113,9.3056,86.0651],[-68.3092,9.294,85.4153],[-68.2918,9.252,82.4445],[-68.2907,9.2365,72.4736],[-68.2925,9.2215,71.8018],[-68.3081,9.169,69.7294],[-68.3115,9.148,80.598],[-68.3166,9.1327,80.086],[-68.3222,9.1241,81.6637],[-68.3315,9.117,77.4664],[-68.3419,9.116,66.9898],[-68.3457,9.1187,73.2978],[-68.3464,9.1134,69.0774],[-68.3445,9.1052,66.6368],[-68.3373,9.0965,66.7328],[-68.3124,9.0781,74.4265],[-68.3012,9.0729,65.5416],[-68.2624,9.0674,66.7449],[-68.2489,9.0635,66.9368],[-68.2422,9.0573,66.4497],[-68.2368,9.0463,69.5164],[-68.231,9.0286,103.227],[-68.2137,8.9994,68.8715],[-68.2027,8.9754,81.3983],[-68.1978,8.9697,92.174],[-68.1883,8.9637,71.8787],[-68.1588,8.96,69.4328],[-68.1474,8.9563,69.3461],[-68.1378,8.9487,84.5945],[-68.1095,8.933,73.975],[-68.0807,8.9132,63.6039],[-68.0774,8.9036,72.8519],[-68.0789,8.8956,74.8208],[-68.0866,8.8765,58.5053],[-68.0873,8.8629,58.4199],[-68.0825,8.8298,57.359],[-68.0691,8.7986,56.7006],[-68.0658,8.7633,56.3167],[-68.067,8.7457,55.9552],[-68.0705,8.7303,55.7289],[-68.079,8.7057,55.7064],[-68.0798,8.6903,55.1537],[-68.0705,8.6506,54.3453],[-68.0661,8.6413,57.3072],[-68.0572,8.6337,53.9961],[-68.0402,8.6121,56.4962],[-68.032,8.6071,54.0623],[-68.0212,8.5953,55.7587],[-68.0076,8.6204,56.3539],[-68.0119,8.6414,54.4384],[-68.0081,8.6754,68.4073],[-68.0124,8.6894,63.9104],[-68.0245,8.7077,60.2924],[-68.0224,8.7507,61.9987],[-68.0206,8.7618,61.0965],[-68.0123,8.7769,63.5843],[-67.9931,8.7913,66.6269],[-67.9903,8.8043,67.0958],[-67.9916,8.8262,67.8248],[-67.9878,8.8414,66.2812],[-67.9686,8.8819,62.8742],[-67.941,8.9215,67.9467],[-67.9101,8.9497,68.0574],[-67.8782,8.9879,69.5831],[-67.8655,9.0106,67.96],[-67.8524,9.0503,70.7606],[-67.8434,9.0686,72.1286],[-67.8401,9.0862,74.801],[-67.8453,9.1029,73.2494],[-67.856,9.1149,74.4261],[-67.8651,9.1287,80.1596],[-67.8668,9.1411,85.8922],[-67.8629,9.1785,81.5903],[-67.8644,9.1952,84.3277],[-67.862,9.2239,89.4723],[-67.8623,9.2421,91.5283],[-67.8816,9.2753,87.7285],[-67.9046,9.2972,92.037],[-67.9136,9.3086,94.2045],[-67.9179,9.3224,103.5766],[-67.9157,9.3351,96.5289],[-67.8969,9.3853,111.6979],[-67.8949,9.4007,116.0872],[-67.9052,9.4284,110.6504],[-67.9033,9.4505,126.1041],[-67.9041,9.4662,116.5747],[-67.908,9.4748,125.2899],[-67.9098,9.4871,119.7564],[-67.9151,9.4985,131.6695],[-67.9341,9.5292,130.5007],[-67.9396,9.547,160.1064],[-67.937,9.5635,151.6353],[-67.931,9.5739,161.8268],[-67.9058,9.5892,436.6434],[-67.896,9.618,184.5939],[-67.8834,9.629,262.3956],[-67.8711,9.6308,244.57],[-67.854,9.6296,232.5491],[-67.8363,9.6318,262.2009],[-67.8051,9.6444,259.0462],[-67.7738,9.6698,286.4574],[-67.7596,9.6875,299.2965],[-67.7332,9.7012,312.4139],[-67.7283,9.7165,303.649],[-67.7332,9.7359,327.0173],[-67.7494,9.7608,655.6235],[-67.7586,9.7921,532.5958],[-67.7674,9.8033,541.0756],[-67.7811,9.833,1164.8535],[-67.7892,9.8467,1201.7631],[-67.7963,9.8531,823.4971],[-67.8139,9.8584,758.6835],[-67.8464,9.8593,678.3695],[-67.8664,9.8562,813.4183],[-67.8847,9.8554,627.6421],[-67.9048,9.8573,634.5396],[-67.9313,9.8626,636.2545],[-67.9514,9.877,534.3954],[-67.9548,9.8888,651.8094],[-67.9519,9.9002,535.5988],[-67.9471,9.9098,541.9272],[-67.9469,9.9206,543.4229],[-67.9549,9.9246,550.0929],[-67.9701,9.9238,639.0861],[-67.9857,9.9164,622.6743],[-67.9982,9.9064,577.1982],[-68.0268,9.8915,522.6031],[-68.0405,9.8917,545.9821],[-68.0519,9.9016,505.1935],[-68.0609,9.914,490.0404]]]]}
,"properties": {"GID_2": "VEN.8.6_1","GID_0": "VEN","country": "Venezuela","GID_1": "VEN.8_1","province": "Cojedes","NL_NAME_1": "NA","county": "PaodeSanJuanBautista","VARNAME_2": "NA","NL_NAME_2": "NA","TYPE_2": "Municipio","ENGTYPE_2": "Municipality","CC_2": "NA","HASC_2": "NA","name": "Paode_San_Juan_Bautista.county","area_km2": 4690.085,"hist_schema_id": "Elevation0-9000","hist_area_km2": {"50": 207.569,"75": 1639.131,"100": 848.595,"125": 383.727,"150": 165.049,"175": 190.243,"200": 153.655,"225": 110.74,"250": 96.336,"275": 86.382,"300": 88.339,"325": 74.979,"350": 61.725,"375": 65.148,"400": 63.369,"425": 60.003,"450": 51.854,"475": 48.239,"500": 45.543,"525": 49.574,"550": 46.376,"575": 31.399,"600": 23.962,"625": 18.865,"650": 14.269,"675": 12.409,"700": 10.007,"725": 8.565,"750": 6.205,"775": 4.951,"800": 3.865,"825": 3.552,"850": 3.008,"875": 1.964,"900": 1.609,"925": 1.024,"950": 0.94,"975": 0.961,"1000": 0.731,"1025": 0.689,"1050": 0.585,"1075": 0.585,"1100": 0.355,"1125": 0.522,"1150": 0.376,"1175": 0.376,"1200": 0.397,"1225": 0.313,"1250": 0.313,"1275": 0.334,"1300": 0.23,"1325": 0.125}}}