{"type":"Feature","properties":{"GID_2":"VEN.18.4_1","GID_0":"VEN","country":"Venezuela","GID_1":"VEN.18_1","province":"NuevaEsparta","NL_NAME_1":"NA","county":"García","VARNAME_2":"NA","NL_NAME_2":"NA","TYPE_2":"Municipio","ENGTYPE_2":"Municipality","CC_2":"NA","HASC_2":"NA","name":"García.county"},
"geometry":{"type": "MultiPolygon","coordinates": [[[[-63.8922,10.9971,267.5529],[-63.9105,10.9935,600.8416],[-63.9176,10.9887,405.4377],[-63.9331,10.9515,10.4568],[-63.9379,10.931,0.8355],[-63.9382,10.9274,2.0421],[-63.936,10.9246,0.8533],[-63.9251,10.9254,0.0],[-63.921,10.9237,2.4883],[-63.9279,10.9179,0.5941],[-63.9207,10.9168,4.0912],[-63.9193,10.914,1.1272],[-63.9076,10.9171,3.0909],[-63.9021,10.9124,2.501],[-63.9085,10.9096,0.0],[-63.9118,10.9043,1.3395],[-63.9165,10.9032,0.4642],[-63.9204,10.9054,0.0719],[-63.9224,10.904,2.5085],[-63.9293,10.9068,6.114],[-63.9332,10.9115,2.8048],[-63.9368,10.9115,1.8352],[-63.939,10.9082,9.2851],[-63.9418,10.9071,0.0],[-63.934,10.9004,0.0],[-63.934,10.8965,1.9485],[-63.9382,10.8949,0.0],[-63.9343,10.8949,0.1252],[-63.9285,10.891,0.1501],[-63.9251,10.891,0.2763],[-63.9246,10.8926,2.8913],[-63.9182,10.8915,2.2391],[-63.9135,10.8868,0.0],[-63.9071,10.8879,2.959],[-63.9049,10.8832,0.0],[-63.9012,10.8846,3.3655],[-63.896,10.8835,0.0],[-63.8913,10.886,0.8714],[-63.8932,10.9028,-1.059],[-63.8851,10.9514,25.5479],[-63.8786,10.9583,33.7654],[-63.8638,10.9657,20.465699999999998],[-63.8515,10.9676,14.0737],[-63.8461,10.965,15.5021],[-63.8442,10.9659,17.5747],[-63.8461,10.9853,77.1784],[-63.8448,10.9899,41.5939],[-63.8385,10.994,31.6112],[-63.8367,10.997,65.194],[-63.8337,11.0198,30.9989],[-63.8371,11.0186,63.5931],[-63.8458,11.0098,74.4536],[-63.8482,11.0101,84.856],[-63.853,11.0151,45.8713],[-63.8557,11.0149,42.4449],[-63.8619,11.0086,108.7459],[-63.8683,11.0051,111.9904],[-63.8763,11.0012,173.197],[-63.8922,10.9971,267.5529]]]]}}