{"type": "Feature","bbox": [-70.2455,8.6592,-69.7291,9.0886],"geometry": {"type": "MultiPolygon","coordinates": [[[[-70.0237,8.7775,154.3027],[-70.0162,8.7643,153.978],[-69.9908,8.7329,145.8089],[-69.9763,8.7095,142.996],[-69.9668,8.7008,142.2442],[-69.958,8.6885,141.664],[-69.9506,8.6738,142.7972],[-69.9465,8.6685,142.5043],[-69.9324,8.6592,137.7472],[-69.7291,8.7534,123.2468],[-69.7526,8.7582,123.9903],[-69.7762,8.7654,123.8091],[-69.796,8.7737,126.3445],[-69.8871,8.7968,143.5031],[-69.9036,8.807,146.9527],[-69.9542,8.8438,164.567],[-70.0453,8.9009,262.5],[-70.0666,8.9182,303.543],[-70.0739,8.9307,303.5093],[-70.0907,8.9686,324.246],[-70.0989,8.9807,321.8802],[-70.1128,8.9939,346.793],[-70.1324,9.006,646.3441],[-70.1695,9.0203,756.7757],[-70.1834,9.0304,378.2421],[-70.194,9.0411,479.9091],[-70.2121,9.0676,473.5965],[-70.236,9.0855,534.3589],[-70.2455,9.0886,907.9249],[-70.2435,8.9922,1004.1285],[-70.2383,8.9843,769.2447],[-70.1848,8.9741,711.5146],[-70.1727,8.9676,565.2216],[-70.1397,8.9316,314.4218],[-70.1027,8.9045,446.9056],[-70.0599,8.8597,278.5009],[-70.0535,8.8472,419.4103],[-70.0384,8.8077,161.8907],[-70.0237,8.7775,154.3027]]]]}
,"properties": {"GID_2": "VEN.5.1_1","GID_0": "VEN","country": "Venezuela","GID_1": "VEN.5_1","province": "Barinas","NL_NAME_1": "NA","county": "AlbertoArveloTorrealba","VARNAME_2": "NA","NL_NAME_2": "NA","TYPE_2": "Municipio","ENGTYPE_2": "Municipality","CC_2": "NA","HASC_2": "NA","name": "Alberto_Arvelo_Torrealba.county","area_km2": 555.8851,"hist_schema_id": "Elevation0-9000","hist_area_km2": {"125": 112.5153,"150": 217.0262,"175": 24.7424,"200": 10.6211,"225": 4.6926,"250": 4.0641,"275": 22.4116,"300": 12.253,"325": 16.1691,"350": 13.2161,"375": 14.284,"400": 9.8855,"425": 8.5449,"450": 10.4719,"475": 7.8323,"500": 6.785,"525": 6.5754,"550": 6.3031,"575": 5.5701,"600": 5.0256,"625": 4.523,"650": 3.8948,"675": 3.0363,"700": 2.7013,"725": 2.094,"750": 2.5128,"775": 2.0102,"800": 1.7589,"825": 1.7589,"850": 1.9264,"875": 1.2564,"900": 1.8008,"925": 1.2983,"950": 1.1307,"975": 0.9423,"1000": 1.026,"1025": 0.5444,"1050": 0.4607,"1075": 0.335,"1100": 0.2513,"1125": 0.2303,"1150": 0.2722,"1175": 0.2094,"1200": 0.2513,"1225": 0.1047,"1250": 0.1256,"1275": 0.1047,"1300": 0.0838,"1325": 0.1256,"1350": 0.0419,"1375": 0.0209,"1400": 0.0209,"1425": 0.0209,"1450": 0.0209}}}