{"type": "Feature","bbox": [-68.0951,10.2556,-67.9441,10.3585],"geometry": {"type": "MultiPolygon","coordinates": [[[[-68.0811,10.282,955.7592],[-68.0738,10.284,921.9165],[-68.0696,10.2835,923.7003],[-68.0665,10.275,1127.1663],[-68.0662,10.2618,1097.7401],[-67.953,10.2556,467.2758],[-67.9517,10.287,489.8434],[-67.9537,10.3078,586.9236],[-67.9484,10.3263,1142.3394],[-67.9441,10.3494,1769.1774],[-67.97,10.3448,1443.562],[-68.003,10.3357,1608.7112],[-68.0123,10.3355,1352.3555],[-68.0334,10.3441,1005.4481],[-68.0487,10.3538,603.5538],[-68.0858,10.3585,259.0097],[-68.0951,10.3573,128.5746],[-68.0899,10.3449,389.2728],[-68.0798,10.3328,921.3525],[-68.0736,10.3028,432.1194],[-68.0746,10.2936,667.3745],[-68.0811,10.282,955.7592]]]]}
,"properties": {"GID_2": "VEN.7.11_1","GID_0": "VEN","country": "Venezuela","GID_1": "VEN.7_1","province": "Carabobo","NL_NAME_1": "NA","county": "Naguanagua","VARNAME_2": "NA","NL_NAME_2": "NA","TYPE_2": "Municipio","ENGTYPE_2": "Municipality","CC_2": "NA","HASC_2": "NA","name": "Naguanagua.county","area_km2": 133.4011,"hist_schema_id": "Elevation0-9000","hist_area_km2": {"125": 0.0209,"175": 0.0417,"200": 0.0834,"225": 0.146,"250": 0.3754,"275": 0.3963,"300": 0.3963,"325": 0.3337,"350": 0.3754,"375": 0.4171,"400": 0.4797,"425": 0.3129,"450": 0.438,"475": 6.2796,"500": 9.9096,"525": 8.741,"550": 5.6117,"575": 4.5477,"600": 4.0887,"625": 4.506,"650": 4.3182,"675": 3.6297,"700": 3.5254,"725": 2.8787,"750": 3.3376,"775": 3.3585,"800": 2.7952,"825": 3.1707,"850": 3.2542,"875": 3.0247,"900": 3.3376,"925": 3.0247,"950": 2.9412,"975": 2.8369,"1000": 2.8578,"1025": 2.7743,"1050": 2.7535,"1075": 2.1485,"1100": 2.378,"1125": 2.4614,"1150": 2.7743,"1175": 2.3571,"1200": 2.2528,"1225": 1.8147,"1250": 2.0233,"1275": 1.3558,"1300": 1.2307,"1325": 1.6687,"1350": 1.2098,"1375": 1.3558,"1400": 0.8969,"1425": 1.0638,"1450": 0.6049,"1475": 0.7509,"1500": 0.584,"1525": 0.5423,"1550": 0.4589,"1575": 0.4797,"1600": 0.4172,"1625": 0.292,"1650": 0.292,"1675": 0.1877,"1700": 0.2294,"1725": 0.0834,"1750": 0.0417,"1775": 0.0626,"1800": 0.0417,"1825": 0.0209}}}