{"type":"Feature","properties":{"GID_2":"VEN.12.4_1","GID_0":"VEN","country":"Venezuela","GID_1":"VEN.12_1","province":"Falcón","NL_NAME_1":"NA","county":"CaciqueManaure","VARNAME_2":"NA","NL_NAME_2":"NA","TYPE_2":"Municipio","ENGTYPE_2":"Municipality","CC_2":"NA","HASC_2":"NA","name":"Cacique_Manaure.county"},
"geometry":{"type": "MultiPolygon","coordinates": [[[[-68.5602,11.0423,62.5291],[-68.5611,11.0355,75.4538],[-68.565,11.0332,78.6607],[-68.5727,11.0319,73.7487],[-68.6145,11.0331,75.751],[-68.6257,11.0299,68.1952],[-68.5918,10.9278,27.2973],[-68.5705,10.9309,25.1404],[-68.5556,10.9306,24.0519],[-68.4991,10.9258,18.3456],[-68.48,10.9446,17.2458],[-68.4592,10.9712,11.2725],[-68.4431,10.9875,11.3358],[-68.4638,10.9993,18.1097],[-68.5068,11.0519,36.0142],[-68.5192,11.0716,59.7004],[-68.5522,11.0438,38.1049],[-68.5602,11.0423,62.5291]]]]}}