{"type": "Feature","bbox": [-66.2963,7.5732,-65.5635,9.6179],"geometry": {"type": "MultiPolygon","coordinates": [[[[-65.6395,7.7973,91.3534],[-65.6474,7.8491,53.0884],[-65.6469,7.884,25.5],[-65.6545,7.9146,25.5],[-65.6555,7.926,31.0582],[-65.6447,7.9992,50.4559],[-65.6442,8.0279,70.6762],[-65.6411,8.0484,75.6859],[-65.6359,8.064,66.0982],[-65.6198,8.0948,62.6535],[-65.5891,8.1311,60.6345],[-65.5771,8.155,64.5003],[-65.565,8.1995,84.6507],[-65.5635,8.2155,90.2649],[-65.5677,8.2301,92.507],[-65.5766,8.2507,118.8846],[-65.588,8.2674,95.7069],[-65.6169,8.2992,79.6364],[-65.6393,8.3355,85.4529],[-65.6551,8.3838,107.133],[-65.6601,8.3938,110.4232],[-65.6778,8.4155,111.3319],[-65.6811,8.4235,113.99],[-65.6808,8.4318,116.2031],[-65.6751,8.4421,102.3545],[-65.6418,8.4897,120.8866],[-65.6318,8.512,138.6525],[-65.6247,8.5342,163.3084],[-65.6254,8.5479,180.8222],[-65.6347,8.5964,223.7236],[-65.643,8.6624,202.2979],[-65.6559,8.7065,166.5394],[-65.6728,8.7407,189.7835],[-65.6811,8.7494,197.6276],[-65.6991,8.7615,179.4242],[-65.7125,8.7656,155.3513],[-65.737,8.7659,172.2123],[-65.7501,8.7706,178.4674],[-65.7556,8.7741,173.3589],[-65.7598,8.7792,173.8752],[-65.759,8.7951,145.659],[-65.761,8.8025,155.89],[-65.7718,8.8234,136.107],[-65.7885,8.8398,158.5431],[-65.7965,8.8443,195.8507],[-65.8299,8.8812,169.7971],[-65.8469,8.9037,132.0121],[-65.8606,8.9303,147.626],[-65.8655,8.9479,139.3625],[-65.8818,9.0297,149.5244],[-65.8843,9.0501,141.4129],[-65.8952,9.107,137.5699],[-65.8977,9.1358,136.1642],[-65.8956,9.1637,159.0277],[-65.8599,9.2706,136.0039],[-65.856,9.2902,137.3898],[-65.8534,9.3077,101.3281],[-65.8528,9.3286,113.7743],[-65.8561,9.3477,137.0122],[-65.8681,9.3823,127.2712],[-65.9037,9.4643,151.6742],[-65.9275,9.5255,191.2095],[-65.9437,9.5609,215.5332],[-65.9613,9.6094,212.7877],[-65.9695,9.6103,206.8033],[-65.984,9.6179,157.3663],[-66.0056,9.5856,158.8552],[-66.0377,9.5229,143.765],[-66.0576,9.49,135.5],[-66.0693,9.4742,135.5],[-66.0874,9.4586,135.5],[-66.0801,9.4397,124.8013],[-66.0758,9.4203,142.6868],[-66.0756,9.4043,121.8357],[-66.0778,9.3896,127.2589],[-66.082,9.3785,131.8923],[-66.0955,9.3521,155.5175],[-66.1049,9.3286,153.834],[-66.1091,9.3063,149.7422],[-66.1088,9.2957,145.7429],[-66.1049,9.2866,142.9342],[-66.0878,9.2597,141.6942],[-66.0903,9.237,140.3049],[-66.0955,9.2237,141.7055],[-66.1046,9.2103,138.3439],[-66.1482,9.1719,137.8926],[-66.1654,9.1455,138.1649],[-66.1993,9.0872,132.579],[-66.2134,9.0587,123.7446],[-66.2404,8.9698,121.5696],[-66.2626,8.925,114.22],[-66.2904,8.8739,109.6696],[-66.2959,8.8546,115.252],[-66.2963,8.8363,105.6585],[-66.289,8.8025,107.7404],[-66.2827,8.7586,90.5948],[-66.278,8.7394,89.1482],[-66.26,8.6826,96.2368],[-66.258,8.6658,87.172],[-66.2597,8.6219,84.8855],[-66.2548,8.5951,84.5022],[-66.2499,8.5741,91.4963],[-66.2259,8.5076,90.1232],[-66.221,8.4863,112.7991],[-66.2156,8.4512,82.916],[-66.2128,8.4197,83.9591],[-66.2138,8.3353,96.9302],[-66.2162,8.3157,74.3847],[-66.2293,8.2885,68.6476],[-66.2328,8.2714,63.1962],[-66.2253,8.2383,60.3577],[-66.2172,8.1604,55.6248],[-66.1946,8.04,51.1935],[-66.1855,7.9638,43.8481],[-66.1661,7.8892,44.1725],[-66.1635,7.8682,44.7721],[-66.1636,7.8501,41.1245],[-66.1603,7.837,39.3368],[-66.1491,7.8149,36.5145],[-66.1479,7.7999,34.3323],[-66.1504,7.79,33.9568],[-66.1609,7.7683,33.2025],[-66.1631,7.7596,33.4377],[-66.1609,7.7063,33.9344],[-66.1584,7.6912,29.8682],[-66.1473,7.6639,32.1891],[-66.1386,7.6478,28.3776],[-66.1207,7.6239,34.2378],[-66.1123,7.5735,32.8676],[-66.1038,7.5732,36.7331],[-66.0911,7.5756,30.5769],[-66.0443,7.5885,32.3039],[-66.0226,7.5903,38.0999],[-66.0047,7.5896,41.4928],[-65.9673,7.5812,32.0414],[-65.9474,7.5794,34.6649],[-65.926,7.5804,38.5434],[-65.9068,7.5848,43.8715],[-65.8599,7.6117,48.7169],[-65.8118,7.6297,39.7881],[-65.7863,7.6545,36.4331],[-65.7726,7.6745,33.6735],[-65.7695,7.6821,32.3618],[-65.752,7.7061,30.8323],[-65.7307,7.7275,32.3135],[-65.7031,7.7621,38.0315],[-65.6918,7.7706,49.3803],[-65.6775,7.7751,48.1005],[-65.6684,7.7848,50.6023],[-65.6573,7.7931,54.8318],[-65.651,7.7961,86.5035],[-65.6395,7.7973,91.3534]]]]}
,"properties": {"GID_2": "VEN.13.4_1","GID_0": "VEN","country": "Venezuela","GID_1": "VEN.13_1","province": "Guárico","NL_NAME_1": "NA","county": "Infante","VARNAME_2": "NA","NL_NAME_2": "NA","TYPE_2": "Municipio","ENGTYPE_2": "Municipality","CC_2": "NA","HASC_2": "NA","name": "Infante.county","area_km2": 10812.64,"hist_schema_id": "Elevation0-9000","hist_area_km2": {"25": 1354.536,"50": 1264.354,"75": 1203.194,"100": 1549.075,"125": 1911.203,"150": 1980.741,"175": 993.282,"200": 344.504,"225": 123.518,"250": 50.395,"275": 19.516,"300": 11.551,"325": 4.088,"350": 1.866,"375": 0.817}}}