{"type": "Feature","bbox": [-66.5977,10.3416,-66.3505,10.5686],"geometry": {"type": "MultiPolygon","coordinates": [[[[-66.3505,10.5348,877.1588],[-66.3813,10.5352,973.6453],[-66.4102,10.5422,1069.5044],[-66.4677,10.5457,1053.624],[-66.5288,10.5633,1424.2964],[-66.5512,10.5663,1023.838],[-66.5964,10.5686,837.0955],[-66.5977,10.5401,1768.7932],[-66.5959,10.5312,1412.839],[-66.59,10.5195,990.9236],[-66.571,10.501,415.4579],[-66.5663,10.4943,405.0392],[-66.5631,10.4808,345.9448],[-66.5653,10.4592,360.2202],[-66.5761,10.4418,628.6121],[-66.5808,10.4259,590.4124],[-66.5672,10.4194,576.2448],[-66.56,10.4114,723.584],[-66.5422,10.4031,462.5108],[-66.5342,10.3965,368.451],[-66.5288,10.3882,499.8694],[-66.525,10.3773,399.8134],[-66.5192,10.3531,584.0399],[-66.4963,10.3421,353.1396],[-66.4871,10.3416,488.335],[-66.4617,10.3986,428.4828],[-66.4465,10.3872,294.4055],[-66.4394,10.385,343.0794],[-66.4267,10.3849,353.6346],[-66.4181,10.3883,549.5394],[-66.4118,10.3982,450.607],[-66.4079,10.4087,572.0441],[-66.4036,10.455,536.1962],[-66.398,10.4604,457.7047],[-66.3687,10.469,279.9261],[-66.3668,10.473,406.1734],[-66.3675,10.4907,663.2972],[-66.3636,10.5089,930.463],[-66.3548,10.5133,988.2246],[-66.3511,10.523,991.2504],[-66.3505,10.5348,877.1588]]]]}
,"properties": {"GID_2": "VEN.16.21_1","GID_0": "VEN","country": "Venezuela","GID_1": "VEN.16_1","province": "Miranda","NL_NAME_1": "NA","county": "Zamora","VARNAME_2": "NA","NL_NAME_2": "NA","TYPE_2": "Municipio","ENGTYPE_2": "Municipality","CC_2": "NA","HASC_2": "NA","name": "Zamora.county","area_km2": 399.5711,"hist_schema_id": "Elevation0-9000","hist_area_km2": {"200": 0.2294,"225": 1.7101,"250": 3.441,"275": 5.4012,"300": 15.5346,"325": 18.0156,"350": 16.0144,"375": 15.1386,"400": 14.4503,"425": 14.909,"450": 14.8463,"475": 13.7202,"500": 12.2605,"525": 12.1562,"550": 10.9676,"575": 11.0506,"600": 10.7378,"625": 10.3832,"650": 9.1529,"675": 9.6115,"700": 8.1519,"725": 7.2762,"750": 6.8175,"775": 7.0884,"800": 6.2544,"825": 6.0875,"850": 6.2542,"875": 4.9825,"900": 5.0241,"925": 5.024,"950": 4.5446,"975": 5.566,"1000": 5.1282,"1025": 4.5653,"1050": 4.211,"1075": 4.607,"1100": 4.9197,"1125": 4.2317,"1150": 4.2317,"1175": 4.2317,"1200": 3.4603,"1225": 3.5437,"1250": 3.5854,"1275": 3.3978,"1300": 3.356,"1325": 3.5228,"1350": 3.7104,"1375": 3.7312,"1400": 3.9605,"1425": 3.5645,"1450": 3.5436,"1475": 3.7312,"1500": 3.2518,"1525": 3.0641,"1550": 2.5639,"1575": 2.2512,"1600": 2.5847,"1625": 1.9802,"1650": 2.1678,"1675": 1.6467,"1700": 1.605,"1725": 1.3966,"1750": 1.0214,"1775": 1.0631,"1800": 0.938,"1825": 0.5836,"1850": 0.3335,"1875": 0.271,"1900": 0.1876,"1925": 0.1459,"1950": 0.1459,"1975": 0.1042,"2000": 0.1042,"2025": 0.1042,"2050": 0.0208}}}