{"type":"Feature","properties":{"GID_2":"VEN.5.4_1","GID_0":"VEN","country":"Venezuela","GID_1":"VEN.5_1","province":"Barinas","NL_NAME_1":"NA","county":"Arismendi","VARNAME_2":"NA","NL_NAME_2":"NA","TYPE_2":"Municipio","ENGTYPE_2":"Municipality","CC_2":"NA","HASC_2":"NA","name":"Arismendi.county"},
"geometry":{"type": "MultiPolygon","coordinates": [[[[-67.846,7.7614,48.5098],[-67.825,7.7702,47.9133],[-67.7716,7.8044,48.6755],[-67.731,7.8114,47.583],[-67.7169,7.8168,47.5415],[-67.7042,7.8185,47.8588],[-67.664,7.815,45.5998],[-67.6364,7.8068,45.8034],[-67.6309,7.8102,45.1473],[-67.6224,7.8276,45.6503],[-67.6151,7.8347,49.1544],[-67.6098,7.8309,45.125],[-67.6094,7.8248,45.4513],[-67.6066,7.8176,44.7478],[-67.6028,7.8131,45.43],[-67.5948,7.8115,43.9941],[-67.5692,7.8116,45.3519],[-67.5385,7.8255,42.2749],[-67.5376,7.8367,46.9207],[-67.5359,7.839,43.798],[-67.5301,7.8403,45.0802],[-67.5185,7.8395,44.7723],[-67.5185,7.8483,44.9072],[-67.5305,7.8479,46.3737],[-67.541,7.8507,45.9529],[-67.5434,7.8539,42.3212],[-67.544,7.8529,42.3596],[-67.5478,7.8558,40.7541],[-67.5501,7.8591,46.4555],[-67.5511,7.8655,45.0469],[-67.5501,7.8767,44.2491],[-67.5524,7.8922,44.3113],[-67.5588,7.9063,44.9673],[-67.5849,7.9296,50.9481],[-67.5908,7.9416,46.0303],[-67.5937,7.9561,49.3639],[-67.6079,7.9896,45.2562],[-67.6064,7.9982,45.1509],[-67.6031,8.0013,44.7217],[-67.5946,8.0042,44.9335],[-67.5905,8.0106,44.5408],[-67.5916,8.0155,45.2148],[-67.6194,8.0628,45.8073],[-67.6248,8.0795,45.5852],[-67.6266,8.0978,48.9926],[-67.6315,8.1047,46.3217],[-67.6388,8.1098,45.8041],[-67.6506,8.1144,47.7819],[-67.6605,8.1225,45.8103],[-67.6782,8.1509,49.0528],[-67.6951,8.1655,47.4306],[-67.7411,8.1971,51.3893],[-67.7671,8.2074,48.4554],[-67.7888,8.223,47.1158],[-67.7921,8.2322,48.6214],[-67.7902,8.2524,48.9197],[-67.7985,8.264,49.9776],[-67.8115,8.2681,49.0842],[-67.8316,8.2681,52.7453],[-67.8382,8.276,49.5286],[-67.8352,8.2936,49.9172],[-67.8367,8.3043,50.285],[-67.8401,8.3101,49.9968],[-67.8622,8.3292,53.3481],[-67.8751,8.3448,54.8905],[-67.8808,8.37,50.82],[-67.8925,8.3776,52.1506],[-67.9236,8.3757,54.6728],[-67.9707,8.3939,53.0724],[-67.9924,8.4085,52.1089],[-68.0123,8.4275,52.0793],[-68.0342,8.4628,55.6538],[-68.0489,8.4738,52.7582],[-68.0661,8.4812,53.383],[-68.101,8.5087,53.6638],[-68.1396,8.5271,54.8245],[-68.1596,8.5317,54.7073],[-68.1703,8.532,60.5793],[-68.1839,8.5293,65.2428],[-68.1948,8.5324,57.5349],[-68.2052,8.5415,61.595],[-68.2171,8.5484,64.0505],[-68.2313,8.5541,58.5985],[-68.2609,8.5591,57.7353],[-68.2921,8.5602,61.5672],[-68.3351,8.5573,62.2285],[-68.3827,8.5448,67.1949],[-68.4862,8.468,65.6295],[-68.5127,8.4405,63.0505],[-68.5714,8.3716,62.2365],[-68.6565,8.2839,63.1778],[-68.6865,8.2706,65.5493],[-68.7296,8.2596,64.7072],[-68.7429,8.2491,72.2544],[-68.767,8.1978,69.8816],[-68.7993,8.144,65.4249],[-68.8062,8.1238,66.4249],[-68.7985,8.084,70.3138],[-68.7991,8.0714,67.0748],[-68.7865,8.0664,73.2579],[-68.7768,8.0674,68.3662],[-68.7528,8.0773,74.0012],[-68.7371,8.0876,64.7906],[-68.7254,8.0984,68.7057],[-68.7112,8.1077,68.8487],[-68.6987,8.1127,69.4762],[-68.6392,7.9491,64.9911],[-68.6317,7.9559,64.3137],[-68.6211,7.9574,63.0176],[-68.5948,7.95,63.7665],[-68.5844,7.9554,61.015],[-68.5454,7.9542,61.932],[-68.516,7.9352,60.0],[-68.4801,7.9376,61.7266],[-68.4569,7.9594,65.5718],[-68.444,7.964,60.234],[-68.4345,7.9645,64.6813],[-68.4341,7.9664,60.3591],[-68.4154,7.9647,66.7635],[-68.4164,7.9631,67.1684],[-68.4046,7.96,58.711],[-68.3702,7.9387,58.8254],[-68.3574,7.9326,62.7706],[-68.334,7.9289,57.0962],[-68.3183,7.9341,57.5238],[-68.2989,7.9438,59.297],[-68.2789,7.9486,56.0055],[-68.2601,7.9474,65.8246],[-68.2347,7.9414,55.8262],[-68.1864,7.9237,56.8018],[-68.1676,7.9124,55.9299],[-68.1498,7.912,54.7247],[-68.128,7.9076,53.931399999999996],[-68.067,7.8729,53.0993],[-68.0183,7.8398,55.3702],[-67.959,7.7911,54.5623],[-67.9075,7.7724,50.8083],[-67.8763,7.7718,49.1211],[-67.8464,7.7831,49.622],[-67.846,7.7614,48.5098]]]]}}