{"type": "Feature","bbox": [-70.0288,9.4221,-69.8256,9.5869],"geometry": {"type": "MultiPolygon","coordinates": [[[[-70.0193,9.4758,2005.4871],[-70.0288,9.4666,1663.5576],[-70.0193,9.4609,1680.9535],[-70.0088,9.4577,1575.8848],[-69.971,9.4556,759.3457],[-69.9623,9.4515,754.4925],[-69.9523,9.4415,764.5681],[-69.9376,9.4221,835.9425],[-69.9329,9.4276,845.4285],[-69.9202,9.4513,782.5192],[-69.9153,9.4568,784.5419],[-69.9078,9.4628,827.3609],[-69.8847,9.4744,1010.6764],[-69.8932,9.4763,893.4768],[-69.8952,9.4802,817.7233],[-69.8939,9.4876,855.0616],[-69.876,9.5105,1177.9229],[-69.8582,9.5259,1228.8027],[-69.8423,9.5447,1350.8286],[-69.8261,9.5678,1691.0116],[-69.8256,9.5755,1588.1222],[-69.8297,9.5818,1550.3091],[-69.837,9.5835,1557.537],[-69.851,9.5836,1471.0217],[-69.8904,9.5736,1337.5759],[-69.9081,9.5729,1482.568],[-69.9198,9.5752,1932.9084],[-69.935,9.5851,2032.3552],[-69.948,9.5869,1931.2856],[-69.9566,9.5836,1892.1985],[-69.9659,9.577,1491.5531],[-69.9757,9.5598,1366.948],[-69.9887,9.5244,1958.3579],[-69.9992,9.5033,1955.9901],[-70.0193,9.4758,2005.4871]]]]}
,"properties": {"GID_2": "VEN.19.6_1","GID_0": "VEN","country": "Venezuela","GID_1": "VEN.19_1","province": "Portuguesa","NL_NAME_1": "NA","county": "MonseñorJoséVicentedeUnda","VARNAME_2": "NA","NL_NAME_2": "NA","TYPE_2": "Municipio","ENGTYPE_2": "Municipality","CC_2": "NA","HASC_2": "NA","name": "Monseñor_José_Vicentede_Unda.county","area_km2": 203.96,"hist_schema_id": "Elevation0-9000","hist_area_km2": {"625": 0.0209,"650": 0.5647,"675": 0.7111,"700": 1.1085,"725": 1.2758,"750": 1.7568,"775": 2.2587,"800": 2.2587,"825": 1.9868,"850": 2.0495,"875": 2.1332,"900": 2.5723,"925": 2.6769,"950": 2.5096,"975": 2.6978,"1000": 3.4297,"1025": 3.0741,"1050": 3.0951,"1075": 2.865,"1100": 3.095,"1125": 2.9486,"1150": 3.6595,"1175": 3.7641,"1200": 3.8686,"1225": 4.1403,"1250": 5.4158,"1275": 6.0012,"1300": 5.7502,"1325": 5.4993,"1350": 5.1229,"1375": 5.1439,"1400": 5.0183,"1425": 5.332,"1450": 4.6629,"1475": 5.1437,"1500": 4.8092,"1525": 4.8092,"1550": 4.9137,"1575": 4.4118,"1600": 4.7255,"1625": 5.3318,"1650": 6.21,"1675": 5.4782,"1700": 4.4954,"1725": 4.2237,"1750": 3.8264,"1775": 3.68,"1800": 2.9483,"1825": 2.5092,"1850": 2.7183,"1875": 2.2792,"1900": 2.7182,"1925": 2.4255,"1950": 2.0909,"1975": 2.1746,"2000": 1.9445,"2025": 1.84,"2050": 1.6727,"2075": 1.6518,"2100": 1.3591,"2125": 1.4218,"2150": 0.9618,"2175": 0.669,"2200": 0.3554,"2225": 0.2718,"2250": 0.2927,"2275": 0.23,"2300": 0.1463,"2325": 0.2091,"2350": 0.1463,"2375": 0.1254,"2400": 0.0836,"2425": 0.0836,"2450": 0.0627,"2475": 0.0418}}}