{"type":"Feature","properties":{"GID_2":"VEN.16.11_1","GID_0":"VEN","country":"Venezuela","GID_1":"VEN.16_1","province":"Miranda","NL_NAME_1":"NA","county":"Independencia","VARNAME_2":"NA","NL_NAME_2":"NA","TYPE_2":"Municipio","ENGTYPE_2":"Municipality","CC_2":"NA","HASC_2":"NA","name":"Independencia.county"},
"geometry":{"type": "MultiPolygon","coordinates": [[[[-66.5167,10.2558,407.5309],[-66.5199,10.2484,280.1266],[-66.5265,10.2407,217.0331],[-66.5352,10.2348,210.6008],[-66.5444,10.2341,365.8985],[-66.5546,10.2355,367.7328],[-66.5608,10.24,295.5843],[-66.5616,10.2541,293.0981],[-66.5631,10.2565,329.08],[-66.5783,10.2597,433.6467],[-66.6025,10.2602,220.2398],[-66.6114,10.2666,244.817],[-66.6212,10.2852,188.1344],[-66.6263,10.2884,230.5825],[-66.6353,10.2888,218.3932],[-66.6551,10.2854,179.0069],[-66.677,10.2888,160.8654],[-66.6904,10.2883,181.734],[-66.7081,10.2836,188.6026],[-66.7238,10.2748,213.1775],[-66.7315,10.2749,226.0072],[-66.7571,10.2801,251.6068],[-66.7624,10.2797,287.6681],[-66.7503,10.2654,237.9769],[-66.7372,10.2541,225.1449],[-66.7304,10.2519,237.7008],[-66.7125,10.2518,180.3899],[-66.7021,10.2501,171.5571],[-66.6919,10.2441,151.2944],[-66.6824,10.2271,141.8861],[-66.6787,10.2242,144.7829],[-66.6653,10.2293,124.2677],[-66.6617,10.2292,131.5129],[-66.6551,10.2259,165.6538],[-66.6495,10.2152,215.4753],[-66.6469,10.196,191.91309999999999],[-66.6482,10.1767,286.4347],[-66.6464,10.1703,343.7471],[-66.6367,10.1526,601.2658],[-66.6352,10.1441,634.709],[-66.6376,10.1066,491.1537],[-66.6337,10.1046,490.6204],[-66.6175,10.1116,528.2881],[-66.6049,10.1146,455.073],[-66.5968,10.1142,592.7834],[-66.5903,10.1117,524.1456],[-66.5731,10.0947,653.6691],[-66.5463,10.0857,733.701],[-66.5386,10.0847,544.4698],[-66.5364,10.1026,848.831],[-66.5333,10.1132,789.8054],[-66.5135,10.1388,580.0468],[-66.5088,10.1706,667.1899],[-66.5046,10.1818,574.7661],[-66.5045,10.1904,507.4894],[-66.5077,10.1984,295.1582],[-66.5089,10.2113,274.7543],[-66.5046,10.2317,121.1069],[-66.5045,10.2434,298.6035],[-66.5071,10.2531,530.7609],[-66.5122,10.2557,458.6437],[-66.5167,10.2558,407.5309]]]]}}