{"type": "Feature","bbox": [-67.8572,1.8974,-65.9406,3.2489],"geometry": {"type": "MultiPolygon","coordinates": [[[[-67.4718,3.2122,86.5959],[-67.6393,3.0623,107.6969],[-67.7017,3.0054,107.6362],[-67.7057,2.9993,117.1192],[-67.7089,2.9989,107.5441],[-67.855,2.8672,101.9312],[-67.8572,2.8267,105.4678],[-67.857,2.7903,93.3224],[-67.8434,2.7949,108.6901],[-67.8338,2.8045,88.5],[-67.8315,2.8162,92.7537],[-67.8262,2.8256,88.0],[-67.8182,2.8328,106.7646],[-67.8108,2.8348,114.1669],[-67.8003,2.8342,107.5803],[-67.7837,2.8303,102.5078],[-67.7423,2.8407,97.6852],[-67.7385,2.84,95.8455],[-67.7347,2.8343,94.6345],[-67.7344,2.8305,88.1884],[-67.737799999999993,2.8265,100.1249],[-67.7381,2.8208,97.6117],[-67.7358,2.8177,88.8521],[-67.7197,2.8119,87.0],[-67.6576,2.7963,86.5],[-67.6465,2.801,90.6241],[-67.6424,2.8071,86.5],[-67.6316,2.8131,88.6923],[-67.6216,2.8135,97.1587],[-67.6135,2.812,87.8747],[-67.6101,2.8052,87.2723],[-67.5659,2.7691,102.5684],[-67.5682,2.7473,99.6879],[-67.5627,2.7371,85.3461],[-67.5476,2.7227,99.1897],[-67.5468,2.7122,108.4871],[-67.5538,2.6691,95.7445],[-67.5515,2.6584,83.0],[-67.545,2.6493,100.4586],[-67.5405,2.6486,97.051],[-67.5289,2.6605,99.4726],[-67.5084,2.6679,84.8673],[-67.4951,2.661,93.1007],[-67.4739,2.6571,102.1478],[-67.47,2.6539,116.2654],[-67.4627,2.6347,97.6436],[-67.4579,2.6161,106.4384],[-67.4524,2.6122,107.2109],[-67.4372,2.6121,111.7351],[-67.42,2.5933,102.4954],[-67.4162,2.5872,92.1924],[-67.4115,2.5844,99.445],[-67.4024,2.574,94.1085],[-67.3899,2.5681,83.0],[-67.3851,2.5639,92.4946],[-67.3827,2.5585,105.9202],[-67.3815,2.5443,95.6501],[-67.379,2.5379,110.5515],[-67.3689,2.5325,103.4144],[-67.3559,2.5226,109.3931],[-67.3447,2.52,95.2177],[-67.3373,2.5127,83.0],[-67.3334,2.5051,89.5195],[-67.3322,2.4888,83.0],[-67.3303,2.4853,84.9428],[-67.3236,2.476,106.0362],[-67.3124,2.4681,83.0],[-67.3085,2.4581,91.5507],[-67.2985,2.4472,93.172],[-67.2949,2.4349,83.75],[-67.2914,2.4299,102.3579],[-67.2857,2.4281,104.9764],[-67.2802,2.4227,81.9979],[-67.2729,2.4188,86.4727],[-67.266,2.4198,93.2319],[-67.2578,2.4188,97.9019],[-67.2386,2.3995,92.9829],[-67.2212,2.3896,89.8821],[-67.2015,2.3577,98.0565],[-67.1852,2.3389,86.7845],[-67.186,2.3319,95.3755],[-67.1967,2.3128,104.6024],[-67.2119,2.3008,93.4401],[-67.216,2.294,87.5875],[-67.2164,2.2858,84.2031],[-67.2131,2.2776,80.5],[-67.2128,2.2718,97.3938],[-67.216,2.2593,84.9356],[-67.221,2.2492,80.0],[-67.2217,2.2415,89.9836],[-67.2076,2.217,94.2],[-67.1973,2.1864,94.9963],[-67.193,2.1666,90.8009],[-67.174,2.1438,92.3876],[-67.1667,2.1304,88.358],[-67.1568,2.1166,103.0457],[-67.1518,2.1146,93.787],[-67.1467,2.1149,103.0711],[-67.1271,2.1257,94.444],[-67.1199,2.1246,89.0513],[-67.114,2.1186,98.4853],[-67.1086,2.1046,84.4862],[-67.108,2.0855,91.6777],[-67.1012,2.0609,99.8595],[-67.0991,2.0446,90.521],[-67.1109,2.0162,89.3702],[-67.1179,2.0072,79.0],[-67.1181,1.9986,79.0],[-67.1251,1.9734,104.9435],[-67.1057,1.9741,90.4548],[-67.1018,1.9804,88.4025],[-67.0588,1.9951,101.7371],[-67.0495,1.9965,111.0712],[-67.0319,1.9935,93.9077],[-66.9583,1.9615,113.8511],[-66.9282,1.956,112.2958],[-66.904,1.9547,102.9946],[-66.8824,1.9561,93.8925],[-66.7749,1.9668,106.6384],[-66.7491,1.966,104.3191],[-66.6978,1.9603,102.4329],[-66.6832,1.9582,99.5238],[-66.656,1.9444,98.9503],[-66.6348,1.9308,99.7267],[-66.572,1.9053,91.0218],[-66.5545,1.8993,85.7283],[-66.5423,1.8974,101.6822],[-66.5346,1.8975,101.7976],[-66.5257,1.9005,106.5076],[-66.5062,1.916,103.0033],[-66.4965,1.9278,105.4339],[-66.4755,1.9766,110.4977],[-66.4561,2.0104,111.3124],[-66.4421,2.0219,104.9935],[-66.3822,2.04,97.6505],[-66.3677,2.047,102.6398],[-66.3586,2.0531,105.3335],[-66.3507,2.0629,109.4153],[-66.3447,2.0771,107.7535],[-66.3417,2.0877,99.6319],[-66.3403,2.1037,105.4038],[-66.3424,2.1236,103.0039],[-66.3513,2.144,89.9883],[-66.3551,2.1487,105.7938],[-66.3624,2.1561,104.3516],[-66.373,2.1633,101.8748],[-66.3893,2.1703,103.5773],[-66.4182,2.1797,101.6586],[-66.4341,2.189,85.8264],[-66.4566,2.2085,97.5008],[-66.4847,2.2384,99.5413],[-66.4913,2.2472,98.5574],[-66.4944,2.2545,94.007],[-66.4925,2.2648,93.2661],[-66.477,2.2766,109.4457],[-66.4321,2.2929,110.2331],[-66.407,2.3049,118.4315],[-66.3934,2.3189,103.9423],[-66.3885,2.3337,96.8536],[-66.3786,2.3415,114.8811],[-66.301,2.3547,146.8305],[-66.284,2.3678,138.9063],[-66.2785,2.3765,121.0182],[-66.2766,2.3972,129.7325],[-66.277,2.4044,121.4118],[-66.2837,2.4318,98.5536],[-66.304,2.4542,105.0589],[-66.3336,2.4771,99.844],[-66.336,2.4841,89.8024],[-66.3295,2.4965,97.537],[-66.2246,2.5353,116.8494],[-66.1737,2.5509,114.7887],[-66.149,2.5533,115.2653],[-66.0944,2.5487,110.9469],[-66.0804,2.5493,117.0634],[-66.0457,2.5577,118.6693],[-66.0249,2.5683,122.9157],[-65.9971,2.5687,123.5036],[-65.9614,2.564,144.2126],[-65.9464,2.5662,152.0957],[-65.9406,2.5703,143.7387],[-66.073,2.9878,146.046],[-66.1169,2.9967,195.2532],[-66.1418,2.9975,300.4228],[-66.1759,2.991,123.5594],[-66.2023,2.9885,125.8989],[-66.2375,2.9919,118.6317],[-66.266,3.0003,115.5071],[-66.2841,3.0081,120.942],[-66.314,3.0263,103.5],[-66.3335,3.0461,119.9712],[-66.3648,3.082,103.9121],[-66.3977,3.1037,107.279],[-66.4048,3.1077,106.2798],[-66.4243,3.1134,111.5858],[-66.4503,3.1165,107.4741],[-66.4658,3.1154,111.4901],[-66.5151,3.1054,116.4451],[-66.5445,3.1047,127.4772],[-66.5787,3.1063,113.6809],[-66.6404,3.1124,116.5048],[-66.7335,3.1136,119.8209],[-66.7861,3.1171,118.3156],[-66.8321,3.1151,113.6095],[-66.858,3.117,115.5746],[-66.8876,3.1227,97.1496],[-66.9104,3.1305,105.5569],[-66.929,3.1411,113.2144],[-66.9351,3.1427,95.2717],[-66.9506,3.1432,116.0608],[-66.9603,3.1407,116.5134],[-66.9855,3.139,94.1259],[-67.0046,3.1281,89.746],[-67.0225,3.1206,97.1663],[-67.0362,3.1188,94.2313],[-67.0517,3.1219,96.2201],[-67.1198,3.1468,109.7152],[-67.1331,3.1506,113.3373],[-67.1411,3.1512,110.6533],[-67.1622,3.1479,107.7757],[-67.1871,3.1342,89.4735],[-67.2028,3.118,88.0663],[-67.2248,3.0819,121.2407],[-67.2366,3.0746,102.3081],[-67.2579,3.0697,115.4052],[-67.2764,3.0691,120.5282],[-67.3011,3.0753,113.9387],[-67.3251,3.0867,107.3345],[-67.3414,3.1024,117.6816],[-67.3514,3.1153,102.3593],[-67.3794,3.1726,93.1107],[-67.4046,3.2489,99.3808],[-67.43,3.2472,98.2106],[-67.4718,3.2122,86.5959]]]]}
,"properties": {"GID_2": "VEN.1.6_1","GID_0": "VEN","country": "Venezuela","GID_1": "VEN.1_1","province": "Amazonas","NL_NAME_1": "NA","county": "Maroa","VARNAME_2": "NA","NL_NAME_2": "NA","TYPE_2": "Municipio","ENGTYPE_2": "Municipality","CC_2": "NA","HASC_2": "NA","name": "Maroa.county","area_km2": 17188.58,"hist_schema_id": "Elevation0-9000","hist_area_km2": {"75": 363.25,"100": 9262.02,"125": 7210.88,"150": 273.63,"175": 42.59,"200": 15.01,"225": 7.62,"250": 4.74,"275": 3.47,"300": 2.33,"325": 1.61,"350": 0.61,"375": 0.49,"400": 0.3}}}