{"type": "Feature","bbox": [-66.826,10.406,-66.6816,10.5605],"geometry": {"type": "MultiPolygon","coordinates": [[[[-66.8,10.4614,877.3793],[-66.779,10.463,926.8135],[-66.7674,10.4619,1036.0145],[-66.7534,10.4429,1102.012],[-66.723,10.4168,726.3425],[-66.7035,10.4112,990.1947],[-66.6964,10.4078,732.2325],[-66.696,10.406,691.7602],[-66.6816,10.4125,867.7614],[-66.6878,10.4375,865.3073],[-66.7025,10.4572,1050.9786],[-66.7024,10.466,859.1074],[-66.6991,10.4798,591.1733],[-66.6993,10.4918,832.91],[-66.7104,10.5094,1252.3751],[-66.7073,10.5254,1517.9041],[-66.6997,10.5408,2209.6519],[-66.6984,10.5546,1664.5415],[-66.7163,10.5547,1512.4918],[-66.7761,10.5605,1690.2012],[-66.8144,10.5579,1694.8011],[-66.826,10.5549,1912.7181],[-66.8229,10.4875,853.151],[-66.8007,10.4878,897.5748],[-66.7966,10.4854,881.6202],[-66.7924,10.4801,926.5502],[-66.7907,10.4711,1075.5594],[-66.7919,10.467,1025.177],[-66.8,10.4614,877.3793]]]]}
,"properties": {"GID_2": "VEN.16.19_1","GID_0": "VEN","country": "Venezuela","GID_1": "VEN.16_1","province": "Miranda","NL_NAME_1": "NA","county": "Sucre","VARNAME_2": "NA","NL_NAME_2": "NA","TYPE_2": "Municipio","ENGTYPE_2": "Municipality","CC_2": "NA","HASC_2": "NA","name": "Sucre.county","area_km2": 165.09,"hist_schema_id": "Elevation0-9000","hist_area_km2": {"500": 0.0208,"525": 0.2502,"550": 0.271,"575": 0.4795,"600": 0.4795,"625": 0.7088,"650": 1.105,"675": 1.3968,"700": 1.793,"725": 2.3351,"750": 2.3351,"775": 3.3567,"800": 3.1691,"825": 3.732,"850": 4.3575,"875": 6.2755,"900": 6.5883,"925": 6.359,"950": 6.3382,"975": 6.4217,"1000": 5.7127,"1025": 6.088,"1050": 5.5251,"1075": 5.5251,"1100": 4.0865,"1125": 3.0231,"1150": 2.3142,"1175": 2.0014,"1200": 1.3759,"1225": 1.5635,"1250": 1.3759,"1275": 1.3967,"1300": 1.2299,"1325": 1.3967,"1350": 1.2507,"1375": 1.1048,"1400": 1.3133,"1425": 1.1882,"1450": 1.4175,"1475": 1.355,"1500": 1.4383,"1525": 1.5426,"1550": 1.3758,"1575": 1.7301,"1600": 1.6884,"1625": 1.5008,"1650": 1.6676,"1675": 1.7718,"1700": 1.9594,"1725": 2.0428,"1750": 1.5842,"1775": 1.8552,"1800": 1.7301,"1825": 1.7093,"1850": 1.9386,"1875": 1.7926,"1900": 1.8969,"1925": 1.6884,"1950": 1.7509,"1975": 1.5842,"2000": 2.0011,"2025": 1.876,"2050": 1.8343,"2075": 1.5008,"2100": 1.48,"2125": 1.3966,"2150": 1.209,"2175": 1.3966,"2200": 1.3132,"2225": 1.2924,"2250": 0.938,"2275": 1.0005,"2300": 0.5628,"2325": 0.5628,"2350": 0.7087,"2375": 0.5628,"2400": 0.2293,"2425": 0.4377,"2450": 0.4794,"2475": 0.4377,"2500": 0.271,"2525": 0.2501,"2550": 0.271,"2575": 0.1876,"2600": 0.1876,"2625": 0.0834,"2650": 0.1251,"2675": 0.0834,"2700": 0.0834,"2725": 0.0625}}}