{"type": "Feature","bbox": [-71.8711,8.3018,-71.7956,8.4221],"geometry": {"type": "MultiPolygon","coordinates": [[[[-71.8257,8.3104,2356.2546],[-71.8227,8.3227,1871.3168],[-71.8201,8.3573,1268.1361],[-71.805,8.3836,1377.8157],[-71.8003,8.397,891.4062],[-71.7956,8.4211,529.7657],[-71.8304,8.4221,616.551],[-71.8475,8.4164,598.4995],[-71.8531,8.4173,469.0798],[-71.8579,8.4116,458.295],[-71.8711,8.3764,1092.9998],[-71.8624,8.3624,1692.2251],[-71.8603,8.3548,1420.8497],[-71.8602,8.3256,1578.5271],[-71.8544,8.3125,1972.1494],[-71.8423,8.3059,2392.1616],[-71.8282,8.3018,2316.5056],[-71.8257,8.3104,2356.2546]]]]}
,"properties": {"GID_2": "VEN.21.26_1","GID_0": "VEN","country": "Venezuela","GID_1": "VEN.21_1","province": "Táchira","NL_NAME_1": "NA","county": "SimónRodriguez","VARNAME_2": "NA","NL_NAME_2": "NA","TYPE_2": "Municipio","ENGTYPE_2": "Municipality","CC_2": "NA","HASC_2": "NA","name": "Simón_Rodriguez.county","area_km2": 67.54372,"hist_schema_id": "Elevation0-9000","hist_area_km2": {"400": 0.04195,"425": 0.10487,"450": 0.18877,"475": 0.31461,"500": 0.60825,"525": 0.69214,"550": 0.77604,"575": 0.90189,"600": 1.06969,"625": 1.15358,"650": 1.32138,"675": 1.69892,"700": 1.69893,"725": 1.40529,"750": 1.55213,"775": 1.63603,"800": 1.65701,"825": 1.78286,"850": 1.36337,"875": 1.4263,"900": 1.23753,"925": 1.11169,"950": 1.06976,"975": 1.15368,"1000": 1.17466,"1025": 1.30051,"1050": 1.46835,"1075": 1.63615,"1100": 1.30054,"1125": 1.55226,"1150": 1.78301,"1175": 1.48934,"1200": 1.51031,"1225": 1.53128,"1250": 1.63619,"1275": 1.67815,"1300": 1.25861,"1325": 1.21666,"1350": 1.00689,"1375": 1.13277,"1400": 1.23763,"1425": 1.02788,"1450": 1.13276,"1475": 0.83908,"1500": 0.98594,"1525": 0.7552,"1550": 0.71323,"1575": 0.60835,"1600": 0.65031,"1625": 0.65032,"1650": 0.6713,"1675": 0.35663,"1700": 0.60837,"1725": 0.39859,"1750": 0.44055,"1775": 0.44055,"1800": 0.48251,"1825": 0.33566,"1850": 0.33566,"1875": 0.31468,"1900": 0.23077,"1925": 0.41958,"1950": 0.33566,"1975": 0.25175,"2000": 0.27273,"2025": 0.29371,"2050": 0.31469,"2075": 0.29371,"2100": 0.31469,"2125": 0.18881,"2150": 0.06294,"2175": 0.12588,"2200": 0.29371,"2225": 0.08392,"2250": 0.14685,"2275": 0.16783,"2300": 0.20979,"2325": 0.2098,"2350": 0.25176,"2375": 0.29371,"2400": 0.39861,"2425": 0.25176,"2450": 0.16784,"2475": 0.14686,"2500": 0.1049,"2525": 0.08392}}}