{"type":"Feature","properties":{"GID_2":"VEN.17.7_1","GID_0":"VEN","country":"Venezuela","GID_1":"VEN.17_1","province":"Monagas","NL_NAME_1":"NA","county":"Libertador","VARNAME_2":"NA","NL_NAME_2":"NA","TYPE_2":"Municipio","ENGTYPE_2":"Municipality","CC_2":"NA","HASC_2":"NA","name":"Libertador.county"},
"geometry":{"type": "MultiPolygon","coordinates": [[[[-62.6852,8.3917,18.6707],[-62.616,8.6959,41.0327],[-62.6098,8.7167,46.1472],[-62.5958,8.7788,49.9484],[-62.5936,8.7953,40.6816],[-62.5972,8.8172,37.9078],[-62.5977,8.8319,40.7733],[-62.5952,8.8481,44.8329],[-62.5903,8.8535,43.2616],[-62.5647,8.8618,39.9745],[-62.5503,8.8702,36.1529],[-62.5453,8.8777,34.7274],[-62.5359,8.8998,30.0916],[-62.5292,8.9068,28.0707],[-62.5073,8.9219,20.2357],[-62.4762,8.9274,21.534],[-62.4535,8.9415,13.7607],[-62.4458,8.9411,11.5676],[-62.4235,8.9353,11.5085],[-62.4118,8.9353,14.9364],[-62.3785,8.9398,11.8233],[-62.3721,8.9447,11.9471],[-62.3683,8.9636,11.7886],[-62.3616,8.9666,11.3553],[-62.3473,8.9657,9.7793],[-62.338,8.969,17.2521],[-62.3193,8.9909,5.9689],[-62.3167,8.9981,4.8814],[-62.3169,9.0133,1.6759],[-62.303,9.0201,5.7416],[-62.297,9.026,2.0303],[-62.2935,9.0931,1.0851],[-62.2754,9.1001,1.0826],[-62.2762,9.1067,1.0498],[-62.2784,9.1099,1.04],[-62.2818,9.1125,1.0013],[-62.2885,9.1135,1.0899],[-62.295,9.1105,1.0191],[-62.3006,9.105,1.1021],[-62.3082,9.1023,1.0859],[-62.3226,9.1035,1.3068],[-62.3326,9.1138,4.7566],[-62.3434,9.1342,0.8899],[-62.3449,9.1905,1.4522],[-62.3395,9.1988,1.1363],[-62.3263,9.2071,1.1169],[-62.3232,9.2161,1.8152],[-62.3287,9.2253,1.6038],[-62.3402,9.2332,1.1211],[-62.3442,9.2402,1.0959],[-62.3479,9.2537,1.4817],[-62.3474,9.2761,0.9206],[-62.3503,9.2819,1.2461],[-62.3545,9.2843,1.7827],[-62.3635,9.2937,0.9245],[-62.365,9.2983,0.8567],[-62.3631,9.3061,0.9052],[-62.355,9.318,0.8914],[-62.3541,9.3247,1.2307],[-62.3556,9.3285,11.2123],[-62.3684,9.3431,1.1219],[-62.3728,9.3555,0.8926],[-62.3794,9.3565,2.3856],[-62.3932,9.3533,1.0455],[-62.3966,9.3564,0.9445],[-62.3996,9.3635,0.9955],[-62.4039,9.369,2.97],[-62.4156,9.3795,12.5727],[-62.4192,9.3867,2.0244],[-62.4236,9.356,1.1887],[-62.4266,9.3597,1.5973],[-62.4347,9.3495,1.3238],[-62.4573,9.3183,1.4028],[-62.4649,9.3029,1.2963],[-62.4674,9.2933,1.215],[-62.4654,9.2839,1.3403],[-62.4573,9.2703,3.2642],[-62.4579,9.2631,1.9593],[-62.4627,9.2583,3.643],[-62.4921,9.2479,2.8827],[-62.5085,9.2357,14.9931],[-62.5135,9.2253,11.0483],[-62.521,9.2003,5.3785],[-62.531,9.1889,2.707],[-62.5412,9.1859,2.7451],[-62.5486,9.1795,3.3392],[-62.5488,9.1715,3.1591],[-62.5455,9.1529,4.1157],[-62.5464,9.1421,6.4292],[-62.5525,9.1247,11.7275],[-62.5589,9.1189,13.078],[-62.5716,9.1147,19.3441],[-62.5922,9.1169,11.2439],[-62.612,9.1145,12.1401],[-62.6194,9.1163,8.7125],[-62.6276,9.1209,11.7196],[-62.654,9.1441,20.6659],[-62.6747,9.1753,5.2316],[-62.683,9.1769,6.3099],[-62.7016,9.1753,13.4986],[-62.7165,9.1785,13.1287],[-62.7298,9.1859,10.148],[-62.7476,9.1909,16.5029],[-62.7624,9.1873,20.8003],[-62.7743,9.1773,18.6889],[-62.7889,9.1595,21.2461],[-62.7958,9.1555,15.7075],[-62.7988,9.1491,13.3456],[-62.7997,9.1371,20.7954],[-62.7949,9.1121,23.5592],[-62.7955,9.1015,18.4952],[-62.7985,9.0923,19.9292],[-62.8074,9.0757,24.7417],[-62.8103,9.0637,47.7599],[-62.8091,9.0519,47.6737],[-62.8046,9.0395,43.9619],[-62.7917,9.0153,32.4384],[-62.788,8.9991,27.9967],[-62.7889,8.9835,24.4293],[-62.7973,8.9503,37.7359],[-62.7998,8.9311,26.1655],[-62.8057,8.9173,35.6715],[-62.8137,8.9057,35.044],[-62.8233,8.8729,80.4457],[-62.8284,8.8459,67.9346],[-62.8343,8.8347,81.0861],[-62.8415,8.8271,84.105],[-62.8557,8.8179,84.9984],[-62.8724,8.8039,89.5198],[-62.8917,8.7805,83.4694],[-62.9012,8.7715,88.3367],[-62.9285,8.7587,83.8242],[-62.9417,8.7507,71.0437],[-62.9482,8.7175,75.5965],[-62.954,8.7069,76.9507],[-62.9624,8.6988,82.8244],[-62.9768,8.6929,79.3675],[-63.0077,8.6949,87.8611],[-63.0256,8.6911,86.052],[-63.0325,8.6855,94.4036],[-63.0486,8.6645,84.726],[-63.0567,8.6587,95.0657],[-63.065,8.6499,97.2136],[-63.0652,8.6415,95.2798],[-63.0582,8.6247,96.8034],[-63.049,8.5869,96.3898],[-63.04,8.5623,97.1406],[-63.0318,8.5435,94.0439],[-63.0223,8.5269,92.5594],[-63.0052,8.5097,89.4673],[-62.9764,8.4947,83.3597],[-62.9468,8.4843,84.5218],[-62.8586,8.4601,65.5217],[-62.8294,8.4503,49.9404],[-62.7894,8.4333,10.1808],[-62.7406,8.4225,11.8995],[-62.7069,8.4123,12.3203],[-62.699,8.4089,8.449],[-62.6911,8.4021,9.158],[-62.6852,8.3917,18.6707]]]]}}