{"type": "Feature","bbox": [-63.1821,10.5868,-61.8576,10.766],"geometry": {"type": "MultiPolygon","coordinates": [[[[-61.9157,10.7061,560.4659],[-61.8989,10.7234,387.8924],[-61.8896,10.7301,89.4852],[-61.8929,10.7307,0.0],[-61.8946,10.7288,3.4641],[-61.8957,10.731,0.0],[-61.9026,10.731,0.0],[-61.9049,10.7288,8.4256],[-61.906,10.7304,8.4256],[-61.9096,10.7296,8.7403],[-61.9101,10.7315,0.0],[-61.9135,10.7318,0.0],[-61.9146,10.734,0.0],[-61.9174,10.7326,0.0],[-61.9162,10.7263,178.7402],[-61.9182,10.7226,99.5421],[-61.9232,10.721,4.9946],[-61.9257,10.714,0.0],[-61.9337,10.7149,26.7528],[-61.9349,10.7168,0.0],[-61.9399,10.7146,30.6149],[-61.9429,10.7174,29.4673],[-61.9443,10.7221,0.0],[-61.9496,10.7212,16.8918],[-61.9515,10.7235,2.4941],[-61.9585,10.7243,31.6202],[-61.9618,10.7229,0.0],[-61.9599,10.7193,0.0],[-61.9604,10.716,0.0],[-61.9668,10.7154,5.4969],[-61.9674,10.7132,63.181399999999996],[-61.9729,10.7146,9.9964],[-61.9779,10.7113,12.2554],[-61.9801,10.7138,0.0],[-61.9799,10.719,0.0],[-61.9882,10.7187,187.9354],[-61.991,10.7238,0.0],[-61.9985,10.7251,57.6805],[-61.9993,10.7279,7.1335],[-62.004,10.7265,0.0],[-62.0004,10.7232,10.4134],[-62.0021,10.7182,0.0],[-62.0001,10.7174,20.7972],[-62.0001,10.7132,16.1054],[-62.0043,10.7126,0.0],[-62.006,10.7082,23.0911],[-62.0088,10.7082,11.194],[-62.0121,10.7115,23.1271],[-62.014,10.7115,7.5462],[-62.0171,10.7101,76.0892],[-62.0171,10.7074,153.1229],[-62.0199,10.7054,63.0124],[-62.0246,10.7093,0.0],[-62.0315,10.7085,8.8346],[-62.0318,10.7115,57.7213],[-62.0262,10.7171,0.0],[-62.0371,10.716,27.7002],[-62.0385,10.7174,0.0],[-62.0401,10.7157,23.6946],[-62.0449,10.7165,58.1235],[-62.0451,10.7179,0.0],[-62.0493,10.7176,8.3445],[-62.0515,10.7171,0.0],[-62.0515,10.7149,64.7036],[-62.054,10.7124,3.6689],[-62.0512,10.7107,9.0685],[-62.051,10.704,0.0],[-62.0571,10.7013,32.086],[-62.0601,10.7035,7.1371],[-62.064,10.7038,0.0],[-62.0707,10.7004,30.236],[-62.0818,10.706,0.0],[-62.0846,10.706,0.0],[-62.0854,10.7046,64.3846],[-62.0871,10.7054,64.3846],[-62.0918,10.7035,0.0],[-62.094,10.7001,25.4643],[-62.0962,10.6996,3.7267],[-62.1004,10.7057,30.7164],[-62.1004,10.709,0.0],[-62.1046,10.7093,0.0],[-62.1057,10.7079,25.6205],[-62.1074,10.7085,0.0],[-62.1079,10.7054,0.0],[-62.111,10.7035,0.0],[-62.1118,10.7007,0.0],[-62.1232,10.7026,0.0],[-62.1304,10.701,21.1816],[-62.139,10.7029,-0.0325],[-62.139,10.7051,0.1056],[-62.1426,10.7082,0.0],[-62.1396,10.6985,25.7078],[-62.1512,10.6943,0.0],[-62.1521,10.689,6.8864],[-62.1546,10.6879,3.4374],[-62.1554,10.6849,29.5212],[-62.159,10.6838,11.5717],[-62.171,10.6835,44.5155],[-62.1715,10.6851,0.0],[-62.1799,10.6846,34.5687],[-62.1857,10.686,0.0],[-62.1874,10.6885,0.0],[-62.1871,10.6915,0.0],[-62.1893,10.6918,30.9246],[-62.1921,10.6974,0.0],[-62.196,10.6993,0.0],[-62.1985,10.6988,13.7632],[-62.1996,10.7004,13.7632],[-62.2054,10.6985,0.0],[-62.206,10.696,40.7287],[-62.2135,10.6954,114.4546],[-62.2249,10.699,0.0],[-62.2351,10.6982,26.2507],[-62.2429,10.7007,0.0],[-62.2532,10.6938,0.0],[-62.2571,10.6968,0.0],[-62.2576,10.701,0.0],[-62.2607,10.6996,39.3978],[-62.2643,10.7007,0.0],[-62.2671,10.7001,0.0],[-62.2721,10.6946,70.4586],[-62.2746,10.6957,0.0],[-62.2785,10.6912,30.155],[-62.2815,10.6912,0.0],[-62.2829,10.6893,113.2734],[-62.2901,10.6935,8.0685],[-62.2904,10.699,0.0],[-62.2951,10.7032,0.0],[-62.3007,10.696,13.1625],[-62.3079,10.6988,35.844],[-62.309,10.7021,6.9178],[-62.3068,10.7032,0.0],[-62.3074,10.7049,0.0],[-62.3096,10.7038,143.256],[-62.3107,10.7071,0.0],[-62.321,10.7038,0.0],[-62.3246,10.7079,0.0],[-62.3371,10.7113,0.0],[-62.3424,10.7104,49.2921],[-62.344,10.7129,0.0],[-62.3501,10.7118,15.0706],[-62.3524,10.7093,42.9358],[-62.3637,10.7149,0.0],[-62.371,10.7138,0.0],[-62.3732,10.711,15.9389],[-62.3751,10.711,0.0],[-62.3807,10.7163,0.0],[-62.3851,10.7171,0.0],[-62.3876,10.7154,112.9457],[-62.3954,10.7168,40.0372],[-62.4021,10.7151,18.2378],[-62.404,10.7171,0.0],[-62.4096,10.7165,77.4412],[-62.4235,10.7196,0.0],[-62.429,10.7168,70.8467],[-62.4321,10.7193,0.0],[-62.436,10.7196,60.7396],[-62.4415,10.7243,0.0],[-62.4446,10.7212,5.1549],[-62.4496,10.7229,0.0],[-62.4588,10.721,0.0],[-62.4654,10.724,0.0],[-62.4665,10.7263,2.6145],[-62.4718,10.7243,13.6023],[-62.4754,10.726,0.0],[-62.4757,10.7243,71.7819],[-62.4776,10.7251,0.0],[-62.4774,10.7232,1.2467],[-62.4796,10.7226,1.3466],[-62.4849,10.7279,0.0],[-62.4882,10.7265,28.6103],[-62.489,10.7279,0.0],[-62.4924,10.7276,0.0],[-62.4926,10.7254,42.462],[-62.4949,10.7254,60.2776],[-62.496,10.7271,0.0],[-62.4996,10.726,0.0],[-62.5015,10.7285,2.8073],[-62.5032,10.7276,6.1277],[-62.5065,10.7299,20.8535],[-62.5112,10.7301,0.0],[-62.5129,10.7279,68.4992],[-62.5165,10.7299,7.4306],[-62.5176,10.7285,18.2244],[-62.5246,10.7346,0.0],[-62.5274,10.7332,39.8576],[-62.5307,10.7346,0.0],[-62.5332,10.7321,7.5546],[-62.5385,10.7351,12.8392],[-62.5421,10.7329,25.0222],[-62.5451,10.7343,0.0],[-62.5457,10.7329,40.9534],[-62.5507,10.7329,2.9682],[-62.5543,10.7374,0.0],[-62.5568,10.736,42.0226],[-62.559,10.7376,0.0],[-62.5604,10.7354,77.7422],[-62.564,10.7354,8.5467],[-62.5665,10.7387,0.0],[-62.5704,10.7371,0.0],[-62.5735,10.7387,0.0],[-62.5754,10.736,1.2789],[-62.5796,10.7376,2.1138],[-62.5838,10.7349,15.5445],[-62.591,10.7382,0.0],[-62.5926,10.7415,0.0],[-62.5982,10.7415,0.0],[-62.6004,10.7396,25.3742],[-62.6046,10.7393,4.1669],[-62.6104,10.7421,0.0],[-62.6321,10.7435,25.557],[-62.634,10.7462,0.0],[-62.6396,10.7421,0.0],[-62.6451,10.7424,10.8919],[-62.6476,10.7443,0.0],[-62.6501,10.7424,0.0],[-62.6543,10.7437,8.5013],[-62.6574,10.7426,8.7256],[-62.6585,10.7443,0.0],[-62.661,10.7443,0.0],[-62.6646,10.7415,13.6182],[-62.6685,10.7432,0.0],[-62.6701,10.7413,33.9877],[-62.674,10.7424,9.2324],[-62.6785,10.7465,0.0],[-62.6904,10.7457,0.0],[-62.6946,10.7476,2.5796],[-62.7049,10.7574,6.9676],[-62.7051,10.7588,74.7356],[-62.7029,10.759,2.6002],[-62.7024,10.761,0.0],[-62.7082,10.7621,1.8099],[-62.7076,10.7646,1.0925],[-62.7104,10.766,0.0],[-62.716,10.7649,0.0],[-62.7204,10.7613,43.0258],[-62.7246,10.7615,0.0],[-62.7274,10.7585,11.9244],[-62.7307,10.7593,0.0],[-62.7326,10.7563,10.6907],[-62.7346,10.7568,4.1049],[-62.7365,10.7521,4.136],[-62.7412,10.7526,0.0],[-62.7418,10.7493,0.9491],[-62.746,10.7501,0.0],[-62.749,10.7476,0.0],[-62.7482,10.7457,0.0],[-62.7501,10.7426,0.0],[-62.7574,10.7376,16.1379],[-62.7632,10.7357,0.0],[-62.7671,10.7363,0.0],[-62.771,10.7338,0.0],[-62.7846,10.734,0.0],[-62.7882,10.7313,41.0968],[-62.7912,10.7321,0.0],[-62.7926,10.7293,75.5838],[-62.8012,10.7276,12.8172],[-62.8051,10.729,0.0],[-62.8049,10.726,29.1356],[-62.8076,10.7215,15.0472],[-62.8135,10.7215,0.0],[-62.8143,10.7193,8.4254],[-62.8249,10.7204,24.8794],[-62.8262,10.7185,26.6758],[-62.8285,10.7185,0.0],[-62.8276,10.716,17.6312],[-62.8315,10.7157,0.0],[-62.8318,10.714,2.9411],[-62.8343,10.7143,0.0],[-62.8365,10.7118,6.2868],[-62.8432,10.7121,0.0],[-62.8476,10.7143,0.0],[-62.8468,10.7115,0.0],[-62.8488,10.709,0.0],[-62.856,10.7085,5.106],[-62.859,10.7101,0.0],[-62.8704,10.7035,28.1207],[-62.8715,10.7001,0.0],[-62.8743,10.6985,3.1905],[-62.8857,10.6993,42.2205],[-62.8893,10.7024,0.0],[-62.8937,10.7018,68.5202],[-62.8974,10.6988,1.9064],[-62.8971,10.6963,68.1877],[-62.9021,10.6943,0.0],[-62.9032,10.6921,0.0],[-62.9115,10.694,0.0],[-62.9126,10.6957,0.0],[-62.9188,10.6962,49.2129],[-62.9201,10.6979,0.0],[-62.9238,10.6965,36.6198],[-62.9299,10.699,0.0],[-62.9368,10.699,0.0],[-62.9407,10.6968,31.0247],[-62.9482,10.7004,9.8681],[-62.9568,10.7004,47.4664],[-62.9582,10.7018,23.5279],[-62.9643,10.6996,0.0],[-62.9712,10.7026,0.0],[-62.9804,10.711,0.0],[-62.984,10.7101,28.6682],[-62.9854,10.7113,0.0],[-62.9874,10.7099,12.3084],[-62.9949,10.7146,28.8255],[-62.9946,10.7188,0.0],[-63.0007,10.7196,77.2035],[-63.0013,10.7243,0.0],[-63.0135,10.7174,0.0],[-63.0115,10.714,0.0],[-63.0149,10.7113,10.9087],[-63.0296,10.7099,37.3889],[-63.0318,10.7076,11.4391],[-63.036,10.709,0.0],[-63.0371,10.7115,0.0],[-63.0426,10.7113,11.2436],[-63.0526,10.7179,9.714],[-63.0568,10.7149,18.4302],[-63.0607,10.7143,0.0],[-63.0693,10.7157,0.0],[-63.0707,10.7113,49.9731],[-63.0757,10.7107,0.0],[-63.0757,10.7096,0.0],[-63.0732,10.7099,5.2963],[-63.074,10.7082,12.3985],[-63.0846,10.7093,0.6565],[-63.0874,10.7115,5.788],[-63.0871,10.7129,0.0],[-63.0974,10.7088,28.1193],[-63.1074,10.7085,28.0503],[-63.1157,10.7049,18.6598],[-63.1149,10.7015,2.6641],[-63.1193,10.7004,37.3537],[-63.131,10.704,0.0],[-63.1335,10.7026,25.001],[-63.1362,10.7035,23.0822],[-63.1415,10.7085,0.0],[-63.1443,10.7085,0.0],[-63.1446,10.7068,24.8283],[-63.1479,10.7076,0.5444],[-63.154,10.7129,0.8535],[-63.1582,10.7204,1.3031],[-63.1565,10.7238,28.2238],[-63.1501,10.7232,0.0],[-63.151,10.726,0.0],[-63.1549,10.7279,0.0],[-63.159,10.7263,11.0187],[-63.166,10.7276,0.0],[-63.1682,10.7271,0.0],[-63.1679,10.7235,0.0],[-63.1649,10.7237,0.0],[-63.164,10.7254,0.0],[-63.1629,10.7224,5.2281],[-63.1607,10.7224,23.6675],[-63.1593,10.7204,1.3031],[-63.1618,10.7143,0.0],[-63.1654,10.7149,0.0],[-63.1654,10.7126,41.8227],[-63.1701,10.709,0.0],[-63.1821,10.7071,0.0],[-63.1647,10.7007,68.1202],[-63.1458,10.6865,134.8954],[-63.1386,10.6422,239.2633],[-63.1403,10.6248,731.1479],[-63.1434,10.621,577.1742],[-63.1205,10.6287,488.0351],[-63.1115,10.6279,447.9733],[-63.0981,10.6218,433.4594],[-63.0917,10.6163,498.3214],[-63.086,10.6061,311.0423],[-63.081,10.6021,291.7734],[-63.0666,10.5987,252.8261],[-63.036,10.6004,470.8176],[-63.003,10.612,245.3023],[-62.9814,10.6132,122.2404],[-62.9612,10.6065,57.0849],[-62.9374,10.6043,42.181],[-62.9304,10.6014,66.0394],[-62.9127,10.5868,27.9566],[-62.9087,10.6167,69.4956],[-62.8979,10.6684,254.8355],[-62.8924,10.6798,339.7244],[-62.8798,10.6783,393.0617],[-62.8318,10.6787,427.7781],[-62.8232,10.6796,545.3901],[-62.808,10.6841,447.4043],[-62.7966,10.6907,328.6108],[-62.7895,10.6902,326.6396],[-62.7855,10.6889,339.4497],[-62.7792,10.6834,695.6435],[-62.7696,10.6641,557.9633],[-62.7634,10.6676,599.6012],[-62.7583,10.6677,721.0775],[-62.7382,10.6756,715.1705],[-62.7095,10.6924,305.8679],[-62.7032,10.6941,258.1708],[-62.6776,10.6882,340.6592],[-62.6515,10.6776,688.4722],[-62.6412,10.6767,532.9938],[-62.6232,10.6844,738.5186],[-62.6031,10.6958,907.5963],[-62.5942,10.7056,688.7132],[-62.5851,10.709,499.1109],[-62.5701,10.7073,719.7453],[-62.5233,10.6886,601.8386],[-62.4957,10.6952,653.7885],[-62.4762,10.6895,900.731],[-62.4602,10.6888,874.7659],[-62.4152,10.6941,818.536],[-62.3537,10.6945,595.2258],[-62.3398,10.6931,473.3314],[-62.3285,10.6879,416.9256],[-62.3169,10.6799,645.297],[-62.3061,10.6759,536.1356],[-62.2792,10.6741,179.6433],[-62.211,10.6801,478.2902],[-62.1913,10.6833,357.8758],[-62.1784,10.6833,122.6838],[-62.1518,10.6756,39.8829],[-62.1179,10.6762,158.2959],[-62.1056,10.6724,720.0963],[-62.0966,10.6734,712.2263],[-62.0818,10.6785,568.7267],[-62.0385,10.6967,539.9371],[-62.0173,10.6988,402.5245],[-61.9752,10.696,797.1551],[-61.93,10.701599999999999,708.6366],[-61.9157,10.7061,560.4659]]],
[[[-61.8892,10.7304,89.4852],[-61.8896,10.7304,89.4852],[-61.8896,10.7301,89.4852],[-61.8894,10.7303,89.4852],[-61.8892,10.7304,89.4852]]],
[[[-61.8646,10.7447,47.0996],[-61.861,10.7471,16.3597],[-61.861,10.7488,0.0],[-61.8671,10.746,0.0],[-61.8671,10.7435,3.491],[-61.8646,10.7447,47.0996]]],
[[[-61.8576,10.7512,9.0342],[-61.8604,10.7507,11.5448],[-61.861,10.749,0.0],[-61.8582,10.7485,0.0],[-61.8576,10.7512,9.0342]]]]}
,"properties": {"GID_2": "VEN.20.3_1","GID_0": "VEN","country": "Venezuela","GID_1": "VEN.20_1","province": "Sucre","NL_NAME_1": "NA","county": "Arismendi","VARNAME_2": "NA","NL_NAME_2": "NA","TYPE_2": "Municipio","ENGTYPE_2": "Municipality","CC_2": "NA","HASC_2": "NA","name": "Arismendi.county","area_km2": 677.6213,"hist_schema_id": "Elevation0-9000","hist_area_km2": {"0": 18.3327,"25": 25.6465,"50": 36.2105,"75": 45.6709,"100": 51.4215,"125": 49.6295,"150": 43.1288,"175": 38.7321,"200": 33.044,"225": 26.4182,"250": 22.8762,"275": 19.6261,"300": 18.1051,"325": 16.5634,"350": 16.2509,"375": 15.3341,"400": 14.1674,"425": 12.709,"450": 14.2505,"475": 12.8756,"500": 11.7921,"525": 12.6879,"550": 11.7503,"575": 10.4378,"600": 10.3335,"625": 9.4793,"650": 8.4376,"675": 8.1251,"700": 7.4376,"725": 7.8959,"750": 6.396,"775": 6.1668,"800": 6.6043,"825": 5.2501,"850": 4.5834,"875": 5.0834,"900": 3.7084,"925": 3.2084,"950": 2.125,"975": 1.5,"1000": 0.9375,"1025": 0.9583,"1050": 0.5625,"1075": 0.3958,"1100": 0.25,"1125": 0.1667,"1150": 0.1875,"1175": 0.125,"1200": 0.0417}}}