{"type":"Feature","properties":{"GID_2":"VEN.20.15_1","GID_0":"VEN","country":"Venezuela","GID_1":"VEN.20_1","province":"Sucre","NL_NAME_1":"NA","county":"Valdez","VARNAME_2":"NA","NL_NAME_2":"NA","TYPE_2":"Municipio","ENGTYPE_2":"Municipality","CC_2":"NA","HASC_2":"NA","name":"Valdez.county"},
"geometry":{"type": "MultiPolygon","coordinates": [[[[-61.8894,10.7303,89.4852],[-61.8989,10.7234,387.8924],[-61.9157,10.7061,560.4659],[-61.93,10.701599999999999,708.6366],[-61.9752,10.696,797.1551],[-62.0173,10.6988,402.5245],[-62.0385,10.6967,539.9371],[-62.0818,10.6785,568.7267],[-62.0966,10.6734,712.2263],[-62.1056,10.6724,720.0963],[-62.1179,10.6762,158.2959],[-62.1518,10.6756,39.8829],[-62.1784,10.6833,122.6838],[-62.1913,10.6833,357.8758],[-62.211,10.6801,478.2902],[-62.2792,10.6741,179.6433],[-62.298,10.6753,485.6123],[-62.3061,10.6759,536.1356],[-62.3169,10.6799,645.297],[-62.3285,10.6879,416.9256],[-62.3398,10.6931,473.3314],[-62.3537,10.6945,595.2258],[-62.4321,10.693,792.0328],[-62.436,10.6752,705.6457],[-62.4375,10.6482,201.5562],[-62.4342,10.6307,59.8294],[-62.4311,10.6259,49.7471],[-62.4098,10.6058,38.2752],[-62.3902,10.5809,39.878],[-62.3834,10.566,14.36],[-62.3817,10.5504,0.0],[-62.3754,10.5451,0.0],[-62.3651,10.5418,0.0],[-62.3599,10.5324,0.0],[-62.3507,10.5343,0.4042],[-62.3457,10.5321,1.334],[-62.3413,10.5349,0.0],[-62.3374,10.5351,0.0],[-62.3329,10.5399,0.8099],[-62.3221,10.5388,7.1948],[-62.3193,10.5438,2.0304],[-62.3143,10.5471,2.4612],[-62.311,10.5557,6.6602],[-62.3063,10.5621,7.7514],[-62.2982,10.5638,0.0],[-62.2985,10.5665,0.0],[-62.2968,10.5685,0.0],[-62.2912,10.5668,0.0],[-62.2912,10.5688,0.0],[-62.2949,10.569,0.0],[-62.2949,10.5751,0.0],[-62.2899,10.5701,0.0],[-62.2882,10.5662,0.0],[-62.2887,10.5704,0.0],[-62.2926,10.5749,0.0],[-62.286,10.591,4.3177],[-62.2829,10.596,12.4193],[-62.2774,10.5968,0.0],[-62.2757,10.5996,1.4004],[-62.2729,10.599,0.0],[-62.2704,10.6088,17.9325],[-62.266,10.6129,0.0],[-62.2649,10.6171,5.9025],[-62.2621,10.6193,0.0],[-62.2562,10.6296,2.6377],[-62.2537,10.6301,0.0],[-62.2501,10.6349,8.9106],[-62.2462,10.6335,0.0],[-62.2399,10.6349,7.9012],[-62.2376,10.6332,0.0],[-62.2279,10.6346,7.6125],[-62.2215,10.6315,0.0],[-62.2126,10.634,0.0],[-62.2099,10.6362,4.237],[-62.2057,10.6346,0.4135],[-62.2026,10.6354,0.0],[-62.2018,10.6329,0.0],[-62.1993,10.634,13.4621],[-62.1868,10.6332,0.0],[-62.1804,10.634,8.2852],[-62.1774,10.6371,32.198],[-62.1643,10.6357,12.4187],[-62.161,10.6382,0.0],[-62.1568,10.6385,0.0],[-62.1557,10.6426,26.719],[-62.154,10.6429,0.7951],[-62.1526,10.6368,2.9343],[-62.1468,10.634,22.7817],[-62.1426,10.6338,0.0],[-62.1399,10.6357,6.2253],[-62.1385,10.6329,0.0],[-62.1357,10.634,34.5668],[-62.1338,10.6329,0.0],[-62.1326,10.639,9.5389],[-62.1301,10.6399,0.0],[-62.1285,10.639,0.0],[-62.1274,10.6343,4.9253],[-62.1224,10.6335,0.0],[-62.1204,10.6313,0.0],[-62.1193,10.6343,24.8707],[-62.1171,10.6346,1.5436],[-62.1137,10.6293,0.0],[-62.1085,10.6343,5.8516],[-62.104,10.631,8.5209],[-62.101,10.6313,5.6709],[-62.0999,10.6329,49.8841],[-62.0949,10.6315,0.0],[-62.094,10.6335,6.5515],[-62.0913,10.6338,4.8128],[-62.0899,10.631,0.0],[-62.0868,10.6299,0.0],[-62.0735,10.631,8.4024],[-62.0779,10.6376,0.0],[-62.0746,10.6415,0.0],[-62.0662,10.6404,0.0],[-62.0646,10.6329,18.4685],[-62.0632,10.6321,18.4685],[-62.0596,10.6354,0.0],[-62.0549,10.6349,0.0],[-62.0563,10.6376,0.0],[-62.0551,10.6401,0.0],[-62.0521,10.6393,0.0],[-62.0518,10.641,3.8224],[-62.0488,10.641,4.5711],[-62.0468,10.639,0.0],[-62.0468,10.6326,0.0],[-62.0343,10.6313,0.0],[-62.0265,10.6343,0.0],[-62.0262,10.6374,0.0],[-62.0282,10.6396,1.4555],[-62.0246,10.644,8.5485],[-62.019,10.6454,0.0],[-62.0151,10.6446,4.2968],[-62.0135,10.6379,0.0],[-62.0107,10.6382,0.0],[-62.0082,10.641,6.9368],[-61.9968,10.641,8.9154],[-61.9954,10.644,46.8163],[-61.9912,10.6454,0.0],[-61.991,10.6504,1.0271],[-61.9879,10.6518,0.0],[-61.9832,10.6515,4.2003],[-61.981,10.6443,5.6563],[-61.9771,10.6421,26.5539],[-61.9696,10.6426,6.5042],[-61.9679,10.6446,2.3145],[-61.961,10.6421,28.1624],[-61.9579,10.6426,2.377],[-61.9549,10.6435,0.0],[-61.9501,10.6501,0.0],[-61.9451,10.6488,2.7693],[-61.9424,10.6538,0.0],[-61.9432,10.6568,0.0],[-61.9399,10.6604,0.0],[-61.9354,10.6607,5.287],[-61.934,10.664,31.3784],[-61.931,10.6637,0.0],[-61.9299,10.6576,0.0],[-61.9249,10.6563,2.7354],[-61.9188,10.6571,12.7148],[-61.9179,10.659,50.1535],[-61.9093,10.6621,16.8946],[-61.9093,10.664,53.8609],[-61.9015,10.6649,0.0],[-61.9018,10.6668,0.0],[-61.9046,10.6668,51.3765],[-61.9068,10.6699,39.8988],[-61.9093,10.6704,100.5027],[-61.9082,10.6743,0.0],[-61.9099,10.6765,6.804],[-61.9085,10.6782,22.9893],[-61.9054,10.6776,0.0],[-61.9062,10.6832,85.4079],[-61.9029,10.6854,0.0],[-61.9004,10.6926,30.0469],[-61.8974,10.6957,20.6166],[-61.8954,10.6951,10.827],[-61.8954,10.6935,16.6036],[-61.8999,10.6826,0.0],[-61.8999,10.6771,0.0],[-61.8932,10.6726,-0.2486],[-61.8907,10.676,26.8087],[-61.8879,10.676,0.0],[-61.8885,10.6826,10.4323],[-61.8876,10.6838,51.0622],[-61.8838,10.6832,0.0],[-61.8824,10.6868,26.112],[-61.8843,10.6938,64.2881],[-61.8771,10.7004,0.0],[-61.8771,10.7026,0.0],[-61.8799,10.704,12.7428],[-61.8771,10.7096,0.0],[-61.8787,10.7129,0.0],[-61.8776,10.7174,3.5992],[-61.8787,10.7188,11.1686],[-61.8768,10.7212,0.0],[-61.8787,10.7229,17.1224],[-61.8768,10.7232,0.0],[-61.8751,10.7265,0.0],[-61.8685,10.7226,0.0],[-61.8626,10.731,12.1674],[-61.8571,10.7279,2.0976],[-61.8574,10.7321,34.2011],[-61.854,10.7313,0.0],[-61.8474,10.7343,18.898],[-61.851,10.7379,9.9736],[-61.864,10.7421,28.8584],[-61.8637,10.7451,47.0996],[-61.8749,10.7382,3.2744],[-61.874,10.7346,0.0],[-61.8765,10.7296,21.6746],[-61.8821,10.7315,5.9969],[-61.8894,10.7303,89.4852]]],
[[[-61.8568,10.6426,27.6977],[-61.8704,10.6393,12.9639],[-61.8737,10.6379,0.0],[-61.8737,10.6365,0.0],[-61.8676,10.6357,17.6604],[-61.8643,10.6379,16.1447],[-61.8582,10.6387,0.0],[-61.8554,10.6401,3.8225],[-61.8568,10.6426,27.6977]]]]}}