{"type": "Feature","bbox": [-64.0265,10.8938,-63.8844,11.0574],"geometry": {"type": "MultiPolygon","coordinates": [[[[-63.9415,10.9013,0.2585],[-63.9493,10.8999,0.5187],[-63.951,10.8979,0.0],[-63.9476,10.8976,1.343],[-63.9454,10.8938,0.0],[-63.9407,10.894,0.0],[-63.9412,10.8971,1.182],[-63.9374,10.8982,0.0],[-63.9415,10.9013,0.2585]]],
[[[-63.8855,11.0212,332.0214],[-63.8844,11.0257,157.1183],[-63.8975,11.0296,428.0131],[-63.9032,11.0368,246.288],[-63.9107,11.0409,57.4938],[-63.9147,11.0419,155.9442],[-63.9194,11.0394,268.8794],[-63.9248,11.039,272.947],[-63.9357,11.0432,163.788],[-63.9376,11.0356,307.3033],[-63.9398,11.0336,251.0454],[-63.9464,11.0328,156.5066],[-63.9576,11.0245,60.0479],[-63.993,11.0531,61.95],[-63.9933,11.0518,48.3062],[-64.0149,11.0574,1.3059],[-64.0137,11.0543,0.0],[-64.0157,11.0504,0.0],[-64.0137,11.0313,0.0],[-64.0179,11.0279,0.0],[-64.0229,11.0196,0.0],[-64.0237,11.0107,0.0],[-64.0215,11.0099,4.8034],[-64.021,11.0015,1.1801],[-64.0265,10.9951,2.545],[-63.9776,10.8968,0.0],[-63.9746,10.8968,0.0],[-63.9718,10.8993,1.5413],[-63.9632,10.8965,0.0],[-63.9579,10.8971,8.0165],[-63.9524,10.9001,2.2027],[-63.9443,10.9018,0.6738],[-63.9443,10.9032,2.0645],[-63.9507,10.9054,2.8768],[-63.9432,10.9099,0.7423],[-63.9437,10.9121,0.2971],[-63.9471,10.9132,0.9468],[-63.9474,10.9182,0.0],[-63.9487,10.9196,0.2494],[-63.9554,10.919,0.4969],[-63.9574,10.9207,0.0],[-63.9526,10.9238,0.6261],[-63.9538,10.929,8.4937],[-63.9512,10.9307,2.3324],[-63.9415,10.9268,0.0],[-63.9382,10.9274,2.0421],[-63.9361,10.9425,3.4919],[-63.9331,10.9515,10.4568],[-63.9176,10.9887,405.4377],[-63.9105,10.9935,600.8416],[-63.8922,10.9971,267.5529],[-63.8855,11.0212,332.0214]]]]}
,"properties": {"GID_2": "VEN.18.3_1","GID_0": "VEN","country": "Venezuela","GID_1": "VEN.18_1","province": "NuevaEsparta","NL_NAME_1": "NA","county": "Díaz","VARNAME_2": "NA","NL_NAME_2": "NA","TYPE_2": "Municipio","ENGTYPE_2": "Municipality","CC_2": "NA","HASC_2": "NA","name": "Díaz.county","area_km2": 151.7734,"hist_schema_id": "Elevation0-9000","hist_area_km2": {"0": 29.7261,"25": 38.8819,"50": 16.2961,"75": 9.4695,"100": 5.4736,"125": 4.7451,"150": 4.0792,"175": 3.9335,"200": 3.6629,"225": 3.2467,"250": 3.434,"275": 2.8512,"300": 2.6639,"325": 2.5807,"350": 2.1229,"375": 1.8315,"400": 1.6442,"425": 1.2903,"450": 1.3112,"475": 1.2071,"500": 0.9574,"525": 1.3528,"550": 0.7284,"575": 0.9366,"600": 0.8949,"625": 0.8533,"650": 0.8533,"675": 0.8117,"700": 0.9366,"725": 0.4995,"750": 0.5411,"775": 0.4787,"800": 0.4371,"825": 0.5203,"850": 0.3538,"875": 0.1249,"900": 0.0416}}}