{"type": "Feature","bbox": [-70.2032,8.7495,-69.5819,9.2612],"geometry": {"type": "MultiPolygon","coordinates": [[[[-69.7291,8.7534,123.2468],[-69.7037,8.7495,120.9472],[-69.6854,8.75,116.7672],[-69.6187,8.7702,112.5137],[-69.5847,8.7624,120.5637],[-69.5819,8.7814,111.5067],[-69.5876,8.7892,113.0947],[-69.6045,8.7988,114.0381],[-69.6211,8.8044,120.5847],[-69.6415,8.8074,122.9163],[-69.6472,8.8116,120.5059],[-69.648,8.8165,119.3592],[-69.6381,8.8272,118.5563],[-69.6365,8.8313,118.8974],[-69.6424,8.8539,120.6618],[-69.6426,8.8617,119.5539],[-69.639,8.87,129.8937],[-69.6398,8.8791,120.0632],[-69.643,8.8879,120.002],[-69.6489,8.8936,120.3852],[-69.6634,8.9009,121.2065],[-69.6667,8.9043,122.8406],[-69.6687,8.9111,127.2682],[-69.6771,8.9171,126.4175],[-69.6947,8.9227,127.4019],[-69.7018,8.9293,128.9156],[-69.7035,8.9387,134.6022],[-69.7023,8.9522,135.4727],[-69.7088,8.9636,132.7763],[-69.7155,8.9691,136.3733],[-69.7264,8.9704,136.7258],[-69.7402,8.9565,138.6473],[-69.7987,8.9332,143.2096],[-69.8336,8.9152,146.9343],[-69.8475,8.9151,154.6875],[-69.854,8.9201,163.2992],[-69.8594,8.941,219.3184],[-69.8646,8.9541,206.3071],[-69.8706,8.9585,214.8398],[-69.8761,8.9587,235.3198],[-69.8759,8.9668,218.1436],[-69.8816,8.9832,189.2293],[-70.0069,9.2612,1015.8658],[-70.0163,9.2597,951.3504],[-70.0242,9.2557,830.9186],[-70.0261,9.2382,622.0713],[-70.0364,9.2346,1145.0063],[-70.0473,9.2342,1284.7344],[-70.0559,9.2371,1212.9207],[-70.0695,9.2502,721.2011],[-70.0772,9.2545,869.2302],[-70.0934,9.2601,1042.4514],[-70.1021,9.2609,1236.7242],[-70.1154,9.226,741.64],[-70.1183,9.164,1102.3212],[-70.1291,9.1481,1327.5104],[-70.1863,9.1137,1070.9946],[-70.1978,9.1031,827.7374],[-70.2032,9.0858,575.1633],[-70.2031,9.072,666.4359],[-70.1976,9.0468,496.5334],[-70.194,9.0411,479.9091],[-70.1834,9.0304,378.2421],[-70.1695,9.0203,756.7757],[-70.1324,9.006,646.3441],[-70.1128,8.9939,346.793],[-70.0989,8.9807,321.8802],[-70.0907,8.9686,324.246],[-70.0739,8.9307,303.5093],[-70.0666,8.9182,303.543],[-70.0453,8.9009,262.5],[-69.9542,8.8438,164.567],[-69.9036,8.807,146.9527],[-69.8871,8.7968,143.5031],[-69.796,8.7737,126.3445],[-69.7762,8.7654,123.8091],[-69.7526,8.7582,123.9903],[-69.7291,8.7534,123.2468]]]]}
,"properties": {"GID_2": "VEN.19.10_1","GID_0": "VEN","country": "Venezuela","GID_1": "VEN.19_1","province": "Portuguesa","NL_NAME_1": "NA","county": "SanGenarodeBoconoito","VARNAME_2": "NA","NL_NAME_2": "NA","TYPE_2": "Municipio","ENGTYPE_2": "Municipality","CC_2": "NA","HASC_2": "NA","name": "San_Genarode_Boconoito.county","area_km2": 1499.446,"hist_schema_id": "Elevation0-9000","hist_area_km2": {"100": 5.574,"125": 349.015,"150": 160.26,"175": 52.914,"200": 41.158,"225": 51.023,"250": 37.283,"275": 179.094,"300": 51.641,"325": 32.835,"350": 20.647,"375": 17.338,"400": 17.463,"425": 17.86,"450": 17.127,"475": 16.268,"500": 17.398,"525": 16.707,"550": 19.804,"575": 19.93,"600": 20.746,"625": 21.96,"650": 21.08,"675": 21.54,"700": 20.138,"725": 20.577,"750": 19.97,"775": 18.609,"800": 18.002,"825": 16.537,"850": 14.632,"875": 14.046,"900": 12.79,"925": 11.785,"950": 10.362,"975": 8.876,"1000": 8.938,"1025": 7.117,"1050": 6.992,"1075": 6.175,"1100": 6.343,"1125": 5.903,"1150": 4.94,"1175": 5.192,"1200": 4.417,"1225": 3.936,"1250": 3.747,"1275": 4.124,"1300": 3.936,"1325": 3.475,"1350": 2.784,"1375": 2.219,"1400": 1.821,"1425": 1.633,"1450": 1.34,"1475": 0.775,"1500": 0.251,"1525": 0.188,"1550": 0.126,"1575": 0.021,"1600": 0.042,"1625": 0.021}}}