{"type":"Feature","properties":{"GID_2":"VEN.18.5_1","GID_0":"VEN","country":"Venezuela","GID_1":"VEN.18_1","province":"NuevaEsparta","NL_NAME_1":"NA","county":"Gómez","VARNAME_2":"NA","NL_NAME_2":"NA","TYPE_2":"Municipio","ENGTYPE_2":"Municipality","CC_2":"NA","HASC_2":"NA","name":"Gómez.county"},
"geometry":{"type": "MultiPolygon","coordinates": [[[[-63.9054,11.1504,23.9509],[-63.9074,11.1471,0.0],[-63.9074,11.1429,1.813],[-63.9132,11.1399,7.4887],[-63.9132,11.136,2.11],[-63.9188,11.1346,0.0],[-63.921,11.1318,0.0],[-63.9204,11.1296,2.7019],[-63.9229,11.1299,0.0],[-63.9235,11.1262,0.0],[-63.9293,11.1246,2.815],[-63.9324,11.1274,0.0],[-63.9335,11.1265,0.0],[-63.9338,11.1185,1.1958],[-63.936,11.1174,0.0],[-63.9421,11.1182,0.0],[-63.9499,11.1121,0.0],[-63.9562,11.1129,0.0],[-63.9309,11.0579,28.8335],[-63.9357,11.0432,163.788],[-63.9248,11.039,272.947],[-63.9194,11.0394,268.8794],[-63.9147,11.0419,155.9442],[-63.9107,11.0409,57.4938],[-63.9032,11.0368,246.288],[-63.8975,11.0296,428.0131],[-63.8844,11.0257,157.1183],[-63.8785,11.0392,132.9069],[-63.8703,11.0467,44.4257],[-63.8744,11.0777,132.4408],[-63.8764,11.0837,268.1687],[-63.876,11.0913,114.522],[-63.8779,11.0936,59.984],[-63.8902,11.097,151.6718],[-63.8967,11.1033,225.4386],[-63.8792,11.1129,186.344],[-63.875,11.119,88.8211],[-63.8826,11.1329,112.9313],[-63.894,11.139,403.5715],[-63.9054,11.1504,23.9509]]]]}}