{"type":"Feature","properties":{"GID_2":"VEN.12.9_1","GID_0":"VEN","country":"Venezuela","GID_1":"VEN.12_1","province":"Falcón","NL_NAME_1":"NA","county":"Falcón","VARNAME_2":"NA","NL_NAME_2":"NA","TYPE_2":"Municipio","ENGTYPE_2":"Municipality","CC_2":"NA","HASC_2":"NA","name":"Falcón.county"},
"geometry":{"type": "MultiPolygon","coordinates": [[[[-69.7596,11.6224,0.0],[-69.761,11.624,0.0],[-69.7624,11.6215,0.8493],[-69.7554,11.6118,0.0],[-69.7538,11.606,0.0],[-69.7515,11.6057,0.0992],[-69.751,11.6074,0.0],[-69.7596,11.6224,0.0]]],
[[[-69.7679,11.6413,0.0],[-69.7696,11.6418,0.2018],[-69.7699,11.6393,0.4752],[-69.7649,11.6329,0.3812],[-69.7646,11.6346,0.0],[-69.7679,11.6413,0.0]]],
[[[-69.7776,11.6635,0.5686],[-69.7796,11.664,0.3668],[-69.7768,11.6571,1.5828],[-69.7735,11.6546,0.0],[-69.7721,11.6563,0.0],[-69.776,11.6615,0.4142],[-69.7776,11.6615,0.3432],[-69.7776,11.6635,0.5686]]],
[[[-69.7812,11.6735,0.9835],[-69.7835,11.674,0.0],[-69.7824,11.669,0.0],[-69.781,11.6696,0.0],[-69.7812,11.6735,0.9835]]],
[[[-69.7874,11.7051,0.0],[-69.7918,11.7046,0.0],[-69.7921,11.7038,0.0],[-69.7904,11.7032,0.0],[-69.7874,11.7051,0.0]]],
[[[-69.7968,11.6896,0.0],[-69.7993,11.6904,0.0],[-69.8043,11.6851,0.0],[-69.7993,11.6818,0.0],[-69.7979,11.679,0.0],[-69.7988,11.6749,0.0],[-69.7965,11.6738,0.0],[-69.7937,11.6757,0.0],[-69.791,11.674,0.0],[-69.7871,11.6751,0.0],[-69.7879,11.6782,0.0],[-69.7846,11.679,0.0],[-69.7826,11.6813,0.0],[-69.7832,11.6826,0.0],[-69.7899,11.6851,0.0],[-69.7926,11.6804,0.0],[-69.7946,11.6804,0.0],[-69.7965,11.6835,0.0],[-69.7993,11.6835,0.0],[-69.8015,11.686,0.0],[-69.8012,11.6871,0.1295],[-69.7946,11.6862,0.0],[-69.7937,11.6888,0.0],[-69.7968,11.6896,0.0]]],
[[[-69.7871,11.7174,0.0],[-69.789,11.7179,0.0],[-69.7907,11.7151,0.7597],[-69.7949,11.714,0.0],[-69.7962,11.7118,0.0],[-69.7876,11.7151,0.0],[-69.7871,11.7174,0.0]]],
[[[-69.7968,11.7363,0.0],[-69.799,11.7368,2.7404],[-69.7993,11.7354,4.1998],[-69.7937,11.7307,3.3282],[-69.7929,11.7282,0.0],[-69.7918,11.731,3.7065],[-69.7962,11.7338,0.6517],[-69.7968,11.7363,0.0]]],
[[[-69.7915,11.7357,0.8389],[-69.7932,11.7363,0.8389],[-69.794,11.736,0.0],[-69.7929,11.7346,0.6656],[-69.7915,11.7357,0.8389]]],
[[[-69.796,11.7565,2.2478],[-69.7976,11.7549,2.1952],[-69.7951,11.7537,0.0],[-69.7946,11.7565,0.0],[-69.796,11.7565,2.2478]]],
[[[-69.8096,11.6992,0.1516],[-69.8115,11.6879,0.0332],[-69.8026,11.6943,0.0],[-69.8026,11.6954,0.0],[-69.806,11.6954,0.0],[-69.8051,11.6974,0.2198],[-69.7985,11.6979,5.9806],[-69.7985,11.6951,0.0],[-69.794,11.6929,0.163],[-69.7907,11.6871,3.4644],[-69.7871,11.6865,0.0],[-69.7868,11.6896,0.0],[-69.7901,11.691,0.0],[-69.7949,11.6976,0.207],[-69.794,11.7029,0.0],[-69.8024,11.7049,2.2114],[-69.7985,11.706,0.3314],[-69.8026,11.7088,2.706],[-69.8007,11.7176,3.2935],[-69.8018,11.7246,2.1628],[-69.8037,11.7254,2.1628],[-69.8057,11.7304,0.0],[-69.8051,11.7349,0.0],[-69.8071,11.7432,0.0],[-69.8037,11.7501,0.0],[-69.8049,11.7535,0.0],[-69.8015,11.7565,1.5133],[-69.7988,11.7563,0.0],[-69.7996,11.7596,0.0],[-69.7976,11.764,0.0],[-69.799,11.7693,0.0],[-69.8049,11.7751,4.1654],[-69.8068,11.781,0.0],[-69.8057,11.7868,0.0],[-69.8085,11.7949,3.3117],[-69.8046,11.8043,0.2623],[-69.8082,11.8163,0.2729],[-69.8132,11.8221,0.0],[-69.8171,11.8235,0.9897],[-69.8193,11.8301,0.6525],[-69.8238,11.8296,0.4689],[-69.8268,11.8332,4.2296],[-69.8304,11.8465,0.3766],[-69.8301,11.8507,0.2158],[-69.8282,11.8524,0.0616],[-69.8224,11.8507,0.6583],[-69.821,11.8529,0.4965],[-69.8174,11.849,0.4903],[-69.8068,11.816,2.2918],[-69.8035,11.8015,0.1812],[-69.7974,11.7882,1.0277],[-69.7979,11.7857,0.0],[-69.7951,11.7799,5.1838],[-69.7935,11.7682,1.7997],[-69.7901,11.7612,2.6969],[-69.791,11.7565,2.0666],[-69.7885,11.7557,4.9277],[-69.7899,11.7526,0.7051],[-69.7868,11.7524,5.4977],[-69.7871,11.7499,1.715],[-69.7851,11.7479,3.9519],[-69.7862,11.7415,0.6984],[-69.784,11.7346,0.0],[-69.7854,11.7321,0.0],[-69.7829,11.7318,0.8377],[-69.7807,11.7274,3.2202],[-69.7765,11.7076,2.6358],[-69.7832,11.7074,0.0],[-69.7985,11.7113,0.0],[-69.799,11.7107,0.0],[-69.7979,11.7099,0.9173],[-69.7999,11.709,0.0],[-69.7974,11.709,2.9241],[-69.7985,11.7074,0.3313],[-69.7965,11.7082,0.1296],[-69.7937,11.706,0.0],[-69.7899,11.7079,0.1254],[-69.784,11.706,0.3535],[-69.776,11.7065,1.4231],[-69.7721,11.6904,0.7356],[-69.7701,11.6882,1.3005],[-69.771,11.6865,0.0],[-69.769,11.6865,1.1119],[-69.7682,11.6801,1.2862],[-69.7651,11.6757,1.5626],[-69.7651,11.6732,0.0],[-69.7632,11.6726,2.8702],[-69.764,11.6699,2.0915],[-69.7526,11.6471,2.3794],[-69.7515,11.6413,0.4097],[-69.7429,11.6263,1.4955],[-69.7387,11.6143,0.0],[-69.7301,11.5996,0.5669],[-69.7254,11.5849,0.6363],[-69.7213,11.579,1.2849],[-69.7196,11.5732,0.0],[-69.7157,11.5699,0.3011],[-69.7026,11.5468,0.9112],[-69.6993,11.5443,0.7115],[-69.6946,11.536,2.636],[-69.6949,11.5329,0.0],[-69.6915,11.5299,0.2018],[-69.6815,11.5341,0.0],[-69.6871,11.5407,1.6453],[-69.6988,11.5604,0.3439],[-69.7243,11.6068,1.4554],[-69.7421,11.6524,1.3714],[-69.7515,11.6682,2.1467],[-69.754,11.679,0.0],[-69.7607,11.6915,1.8995],[-69.7596,11.6932,1.4196],[-69.7618,11.6963,1.505],[-69.7615,11.7001,0.2915],[-69.7696,11.7213,1.6031],[-69.7699,11.7254,0.2578],[-69.7732,11.7307,3.8355],[-69.7732,11.7346,2.3408],[-69.7882,11.7718,2.2154],[-69.7999,11.8151,2.406],[-69.8079,11.8604,0.0],[-69.8118,11.8763,0.4507],[-69.8135,11.8776,0.9405],[-69.8129,11.8835,0.6917],[-69.8146,11.8871,0.825],[-69.8157,11.909,0.6757],[-69.8135,11.9293,0.7834],[-69.8115,11.9357,1.1423],[-69.8012,11.9424,0.1295],[-69.8026,11.9438,0.0],[-69.8074,11.9429,0.9919],[-69.8104,11.9454,1.9743],[-69.819,11.9646,1.0942],[-69.8204,11.9715,1.0356],[-69.8193,11.9746,0.0],[-69.8199,11.9913,0.0],[-69.8235,11.9932,0.244],[-69.8215,11.9988,0.0],[-69.8235,12.0046,0.0],[-69.8301,12.006,0.0],[-69.8313,12.0101,0.0],[-69.8335,12.0115,0.0],[-69.8326,12.0201,0.6795],[-69.8357,12.0226,0.2941],[-69.839,12.0337,0.4091],[-69.8454,12.0368,0.2423],[-69.8463,12.0415,0.1745],[-69.8515,12.0457,0.6674],[-69.851,12.0551,0.0],[-69.8549,12.059,0.0],[-69.8549,12.0635,0.0],[-69.8635,12.0774,0.1047],[-69.8665,12.0788,0.0],[-69.8668,12.0835,0.0],[-69.8737,12.0857,0.0],[-69.8768,12.0993,0.0],[-69.881,12.1013,0.0],[-69.8849,12.1124,0.0],[-69.884,12.1185,0.0],[-69.8851,12.1212,0.0],[-69.8907,12.1254,1.8217],[-69.8929,12.1338,0.0],[-69.8957,12.1354,1.1738],[-69.8946,12.1363,1.4322],[-69.8976,12.1401,1.2601],[-69.9004,12.1432,0.6139],[-69.9049,12.1446,0.8408],[-69.9043,12.1476,0.0],[-69.9062,12.1501,0.8328],[-69.9143,12.1546,1.7012],[-69.9168,12.1593,0.0],[-69.9326,12.1721,0.0],[-69.9349,12.1724,0.0],[-69.9354,12.1696,0.8869],[-69.9376,12.1699,1.995],[-69.9393,12.1721,0.0],[-69.9421,12.1721,1.5259],[-69.9437,12.1754,0.0],[-69.9485,12.1757,0.0],[-69.9615,12.1751,0.5627],[-69.9646,12.1715,4.0125],[-69.9693,12.1721,2.173],[-69.9854,12.1804,4.0457],[-69.9996,12.1965,0.0],[-70.0004,12.1946,2.4721],[-70.0054,12.1938,1.7132],[-70.0232,12.1957,0.4571],[-70.0276,12.191,1.1705],[-70.0371,12.1876,0.0],[-70.0385,12.184,1.4054],[-70.044,12.1849,2.0677],[-70.0554,12.1782,0.0],[-70.061,12.1729,1.249],[-70.069,12.1726,0.9457],[-70.0676,12.1685,1.0875],[-70.069,12.1668,2.9772],[-70.0829,12.1601,0.5774],[-70.0924,12.1524,0.0],[-70.099,12.1499,0.0957],[-70.1024,12.1438,0.0],[-70.1149,12.1379,0.0],[-70.1201,12.1329,0.3054],[-70.1204,12.1263,3.3689],[-70.1218,12.1249,2.6442],[-70.1363,12.1146,3.1742],[-70.1449,12.1121,0.0],[-70.1462,12.1074,0.9703],[-70.1785,12.1015,1.8956],[-70.2024,12.1015,7.4571],[-70.2071,12.099,1.7729],[-70.2093,12.0996,0.0],[-70.2115,12.096,0.0],[-70.2143,12.0949,0.0],[-70.2154,12.0926,0.0],[-70.2138,12.0907,0.0],[-70.2185,12.0824,0.3606],[-70.2107,12.0782,0.737],[-70.2085,12.0715,0.8475],[-70.2143,12.0554,0.345],[-70.216,12.0463,0.7626],[-70.2337,12.0251,0.7211],[-70.2401,12.014,0.0],[-70.2449,12.0001,0.9379],[-70.2579,11.9812,0.4585],[-70.259,11.969,0.0],[-70.2565,11.964,0.0],[-70.264,11.9513,1.0144],[-70.2254,11.931,12.6162],[-70.1932,11.9028,20.3393],[-70.1854,11.8986,22.7133],[-70.1661,11.88,26.7248],[-70.1476,11.8289,29.4535],[-70.1274,11.7834,23.0995],[-70.1166,11.7472,20.4963],[-70.0822,11.7577,23.9107],[-70.0407,11.7806,54.8529],[-70.0229,11.7985,69.5209],[-70.0112,11.8048,62.0665],[-69.9713,11.8151,124.8392],[-69.9565,11.8215,391.7239],[-69.9368,11.8411,130.6161],[-69.9205,11.8632,86.1623],[-69.9118,11.8715,71.9127],[-69.8669,11.9043,17.1322],[-69.8612,11.8628,24.3178],[-69.8531,11.8263,53.1168],[-69.8622,11.8326,62.8349],[-69.8605,11.7946,76.7931],[-69.8563,11.7816,100.4715],[-69.8406,11.7595,33.2032],[-69.8231,11.7308,13.2996],[-69.8169,11.702,1.3211],[-69.8098,11.702,1.2302],[-69.8096,11.6992,0.1516]]]]}}