{"type": "Feature","bbox": [-69.0327,10.3193,-68.6616,10.7058],"geometry": {"type": "MultiPolygon","coordinates": [[[[-68.9904,10.3209,850.0934],[-68.9832,10.3193,903.2963],[-68.9674,10.3196,1230.1028],[-68.9555,10.3227,1441.9441],[-68.9309,10.3407,859.9388],[-68.923,10.3436,570.7155],[-68.9178,10.3508,664.7655],[-68.9101,10.3573,994.7729],[-68.891,10.3572,1194.0234],[-68.8685,10.3597,1412.6904],[-68.8579,10.3614,1401.3973],[-68.8469,10.366,1406.7405],[-68.8194,10.3899,1410.9626],[-68.8085,10.3954,1531.9568],[-68.7873,10.3997,1621.8912],[-68.7742,10.4052,1720.698],[-68.7498,10.4336,1466.0986],[-68.7392,10.4418,1001.2165],[-68.6813,10.4817,743.4991],[-68.6646,10.4879,371.2228],[-68.6652,10.5237,290.0739],[-68.6616,10.5379,113.6646],[-68.673,10.5507,76.3447],[-68.698,10.5849,86.1719],[-68.7015,10.5942,66.4819],[-68.7015,10.6198,59.7001],[-68.6987,10.6533,110.1641],[-68.7136,10.6547,120.5433],[-68.7436,10.6455,108.1139],[-68.772,10.6419,136.7939],[-68.8176,10.632,132.9141],[-68.839,10.6597,143.6474],[-68.8674,10.7058,110.2782],[-68.8672,10.6998,108.6051],[-68.8703,10.6902,113.018],[-68.8831,10.6794,126.7983],[-68.9009,10.6694,116.0189],[-68.9179,10.6564,121.0843],[-68.9271,10.6405,181.3748],[-68.9352,10.62,195.9164],[-68.9429,10.6059,286.3326],[-68.9569,10.594,318.4845],[-68.9721,10.5874,411.5321],[-68.9846,10.5784,395.6483],[-68.9982,10.5534,809.4437],[-69.0078,10.5408,835.6483],[-69.016,10.5361,821.4046],[-69.0262,10.5235,618.5549],[-69.0287,10.513,458.6487],[-69.0327,10.4906,695.0764],[-69.0326,10.4772,803.7675],[-69.0299,10.4686,804.2368],[-69.0231,10.4622,717.5656],[-68.9972,10.471,486.5245],[-68.9832,10.47,543.4814],[-68.981,10.4564,346.42],[-68.983,10.443,273.8029],[-68.9897,10.4206,320.1618],[-68.991,10.4089,482.601],[-68.9886,10.3842,684.9244],[-68.984,10.3716,936.4675],[-68.9757,10.3573,1174.6956],[-68.9737,10.3475,1247.9407],[-68.9784,10.3332,744.7056],[-68.9904,10.3209,850.0934]]]]}
,"properties": {"GID_2": "VEN.24.2_1","GID_0": "VEN","country": "Venezuela","GID_1": "VEN.24_1","province": "Yaracuy","NL_NAME_1": "NA","county": "Bolívar","VARNAME_2": "NA","NL_NAME_2": "NA","TYPE_2": "Municipio","ENGTYPE_2": "Municipality","CC_2": "NA","HASC_2": "NA","name": "Bolívar.county","area_km2": 989.1606,"hist_schema_id": "Elevation0-9000","hist_area_km2": {"50": 3.1051,"75": 83.1541,"100": 106.1467,"125": 83.1204,"150": 56.1506,"175": 46.9603,"200": 43.7116,"225": 36.2087,"250": 26.9962,"275": 19.8458,"300": 18.0738,"325": 16.7397,"350": 16.9275,"375": 17.3027,"400": 16.5523,"425": 16.49,"450": 17.6365,"475": 17.4908,"500": 16.6779,"525": 14.9478,"550": 14.5731,"575": 12.6345,"600": 13.385,"625": 11.7173,"650": 12.6555,"675": 13.281,"700": 14.0316,"725": 13.9693,"750": 12.7811,"775": 11.8015,"800": 11.2385,"825": 10.4882,"850": 9.2998,"875": 7.8405,"900": 8.216,"925": 9.0086,"950": 7.8199,"975": 7.8617,"1000": 7.3613,"1025": 7.3822,"1050": 6.2145,"1075": 6.7358,"1100": 6.8609,"1125": 6.0684,"1150": 5.4429,"1175": 4.9632,"1200": 6.006,"1225": 4.6713,"1250": 4.6713,"1275": 4.9008,"1300": 4.3377,"1325": 4.1291,"1350": 3.8581,"1375": 4.1083,"1400": 3.0655,"1425": 2.8153,"1450": 2.148,"1475": 1.7518,"1500": 1.3138,"1525": 1.2721,"1550": 1.0009,"1575": 1.1469,"1600": 1.0635,"1625": 0.9384,"1650": 0.8967,"1675": 0.709,"1700": 0.709,"1725": 1.0635,"1750": 1.0426,"1775": 0.7716,"1800": 0.7507,"1825": 0.6047,"1850": 0.6882,"1875": 0.5213,"1900": 0.1668,"1925": 0.1043,"1950": 0.0626}}}