{"type": "Feature","bbox": [-63.4069,10.3671,-63.203,10.6522],"geometry": {"type": "MultiPolygon","coordinates": [[[[-63.2101,10.389,40.5095],[-63.2049,10.3955,83.4963],[-63.203,10.4062,187.9012],[-63.2048,10.4125,298.7461],[-63.2099,10.4186,272.1675],[-63.2187,10.4257,537.6985],[-63.2332,10.4338,541.9995],[-63.2735,10.4493,342.2737],[-63.2769,10.4598,486.4736],[-63.264,10.4987,468.9969],[-63.2527,10.5217,451.5964],[-63.2463,10.5447,600.5131],[-63.2414,10.6223,231.2414],[-63.2433,10.6376,72.2922],[-63.2929,10.633,83.86],[-63.3037,10.6367,145.1693],[-63.3089,10.6446,127.1763],[-63.3185,10.6522,76.9962],[-63.3656,10.6495,81.8345],[-63.387,10.6405,191.9626],[-63.4054,10.638,172.1483],[-63.4069,10.6142,201.2926],[-63.406,10.6021,184.7422],[-63.365,10.5473,613.4379],[-63.361,10.5392,643.335],[-63.3611,10.5373,585.2853],[-63.3694,10.5324,417.0451],[-63.373,10.5269,248.8983],[-63.3723,10.5122,105.8158],[-63.3521,10.4629,353.8314],[-63.348,10.4562,330.7805],[-63.3426,10.4495,377.5364],[-63.3319,10.4427,374.553],[-63.3096,10.4343,254.0672],[-63.2756,10.4166,194.1278],[-63.2508,10.4062,208.9791],[-63.2358,10.3972,123.0118],[-63.2269,10.3902,8.4011],[-63.2231,10.3846,4.0125],[-63.2214,10.3779,4.0852],[-63.2229,10.3671,3.3281],[-63.2174,10.3803,3.3204],[-63.2101,10.389,40.5095]]]]}
,"properties": {"GID_2": "VEN.20.2_1","GID_0": "VEN","country": "Venezuela","GID_1": "VEN.20_1","province": "Sucre","NL_NAME_1": "NA","county": "AndrésMata","VARNAME_2": "NA","NL_NAME_2": "NA","TYPE_2": "Municipio","ENGTYPE_2": "Municipality","CC_2": "NA","HASC_2": "NA","name": "Andrés_Mata.county","area_km2": 338.1582,"hist_schema_id": "Elevation0-9000","hist_area_km2": {"0": 1.2513,"25": 1.1467,"50": 5.4808,"75": 5.5017,"100": 9.9412,"125": 14.2555,"150": 17.0071,"175": 19.0085,"200": 19.6343,"225": 19.8226,"250": 19.302,"275": 17.3012,"300": 17.6774,"325": 16.677,"350": 15.0928,"375": 15.8642,"400": 15.3011,"425": 16.3223,"450": 15.5927,"475": 13.8205,"500": 11.3814,"525": 9.4635,"550": 7.9832,"575": 6.7534,"600": 5.336,"625": 3.8561,"650": 3.1683,"675": 2.7097,"700": 2.3553,"725": 2.0844,"750": 1.8134,"775": 1.605,"800": 1.7092,"825": 0.7504,"850": 0.667,"875": 0.3335,"900": 0.1668,"925": 0.0208}}}