{"type":"Feature","properties":{"GID_1":"VEN.2_1","GID_0":"VEN","country":"Venezuela","province":"Anzoátegui","VARNAME_1":"NA","NL_NAME_1":"NA","TYPE_1":"Estado","ENGTYPE_1":"State","CC_1":"NA","HASC_1":"NA","ISO_1":"NA","name":"Anzoátegui.province"},
"geometry":{"type": "MultiPolygon","coordinates": [[[[-64.2516,8.0433,21.6463],[-64.2479,8.0439,21.0666],[-64.2231,7.9927,26.3787],[-64.2135,8.001,17.735],[-64.2094,8.0071,19.1782],[-64.2019,8.0305,15.0],[-64.1961,8.0238,16.0907],[-64.1814,8.013,15.0],[-64.1601,7.986,16.1874],[-64.1305,7.9656,15.0],[-64.1107,7.9431,17.9285],[-64.1025,7.9375,24.6351],[-64.0875,7.9304,90.0147],[-64.0697,7.9244,62.9667],[-64.0501,7.9148,35.2863],[-64.0425,7.9138,23.4465],[-64.0204,7.9154,58.4374],[-63.9866,7.9057,40.7987],[-63.9699,7.904,64.1716],[-63.9345,7.9168,24.8237],[-63.9016,7.9228,77.6889],[-63.8844,7.9332,39.4056],[-63.8517,7.9617,68.8098],[-63.8293,7.9993,123.0508],[-63.8083,8.0203,96.3302],[-63.8022,8.0283,66.4411],[-63.7954,8.0439,50.381],[-63.7899,8.0659,63.6534],[-63.7845,8.0741,49.8456],[-63.7795,8.0789,57.7253],[-63.7722,8.0823,62.4475],[-63.7559,8.0837,67.3768],[-63.7383,8.0894,62.2587],[-63.7068,8.1066,19.8555],[-63.6763,8.1104,13.0],[-63.6636,8.1092,16.8226],[-63.6459,8.1133,18.3629],[-63.626,8.1123,35.0587],[-63.6023,8.109,83.119],[-63.5849,8.1123,57.6741],[-63.5753,8.1121,53.0568],[-63.5364,8.1074,63.4029],[-63.5245,8.1102,67.3065],[-63.5037,8.1192,36.7948],[-63.4856,8.1233,24.8834],[-63.4702,8.1238,28.7707],[-63.4524,8.1182,23.2856],[-63.4443,8.1175,40.1279],[-63.4021,8.1238,54.2814],[-63.3924,8.1271,45.307],[-63.3843,8.1321,54.6198],[-63.3705,8.1459,85.3762],[-63.3601,8.1592,32.375],[-63.3514,8.1647,42.9915],[-63.3411,8.1668,75.9342],[-63.3193,8.1607,97.8925],[-63.3079,8.1603,102.2276],[-63.2865,8.1643,96.4674],[-63.2654,8.1717,90.7463],[-63.2468,8.1866,122.2614],[-63.2226,8.2129,112.22],[-63.2071,8.224,91.7631],[-63.1944,8.2404,90.271],[-63.1861,8.2461,69.9876],[-63.1618,8.2511,96.4522],[-63.1412,8.2608,96.7487],[-63.1239,8.2629,90.9012],[-63.0939,8.2611,91.3758],[-63.0624,8.265,85.2421],[-63.0566,8.2645,94.1984],[-63.0264,8.2547,87.5972],[-63.0087,8.2535,74.2704],[-62.9854,8.2545,58.2028],[-62.9675,8.2588,22.9499],[-62.9675,8.2897,9.4244],[-62.9407,8.28,3.0],[-62.9205,8.2801,3.0],[-62.9055,8.2761,3.5552],[-62.8959,8.2698,3.0],[-62.868899999999996,8.244,95.5438],[-62.848,8.2291,118.1917],[-62.8346,8.225,113.8061],[-62.8253,8.2255,114.5433],[-62.8088,8.2329,117.5408],[-62.7909,8.2473,125.9007],[-62.7488,8.3093,85.2707],[-62.7294,8.3254,36.4784],[-62.7172,8.3286,9.2439],[-62.6926,8.3243,7.5563],[-62.6494,8.3228,75.4402],[-62.6574,8.3345,88.241],[-62.666,8.3416,100.005],[-62.674,8.3528,41.9912],[-62.6789,8.3683,3.0],[-62.681399999999996,8.3837,3.0],[-62.6911,8.4021,9.158],[-62.699,8.4089,8.449],[-62.7406,8.4225,11.8995],[-62.7894,8.4333,10.1808],[-62.8294,8.4503,49.9404],[-62.8586,8.4601,65.5217],[-62.9225,8.4773,83.735],[-62.9693,8.4919,88.586],[-62.9874,8.4997,83.9466],[-63.0052,8.5097,89.4673],[-63.0223,8.5269,92.5594],[-63.0318,8.5435,94.0439],[-63.0468,8.5798,94.1464],[-63.0582,8.6247,96.8034],[-63.0652,8.6415,95.2798],[-63.065,8.6499,97.2136],[-63.0567,8.6587,95.0657],[-63.0486,8.6645,84.726],[-63.0325,8.6855,94.4036],[-63.0256,8.6911,86.052],[-63.0077,8.6949,87.8611],[-62.9768,8.6929,79.3675],[-62.9624,8.6988,82.8244],[-62.954,8.7069,76.9507],[-62.9482,8.7175,75.5965],[-62.946,8.7287,75.6304],[-63.2924,8.7411,143.7041],[-63.2947,8.7521,129.9526],[-63.4011,8.9985,98.2949],[-63.4229,9.0181,97.302],[-63.4456,9.0271,117.2707],[-63.4696,9.0419,112.1675],[-63.4979,9.0709,132.0259],[-63.517,9.0817,131.233],[-63.5348,9.0959,141.4211],[-63.5592,9.1037,129.7732],[-63.5682,9.1149,138.7083],[-63.5782,9.1215,150.38],[-63.5873,9.1231,141.8894],[-63.5949,9.1267,146.0631],[-63.6,9.1315,132.8262],[-63.6027,9.1379,140.5759],[-63.6028,9.1551,146.4865],[-63.6045,9.1621,154.8938],[-63.6139,9.1723,150.9282],[-63.6257,9.1746,168.726],[-63.6376,9.1745,152.6054],[-63.6516,9.1777,166.6609],[-63.6774,9.1897,188.031],[-63.6964,9.2009,200.5513],[-63.7214,9.2075,172.1488],[-63.7422,9.2093,182.001],[-63.7811,9.2113,203.7474],[-63.8056,9.2093,198.9011],[-63.889,9.1909,224.2715],[-63.9027,9.1903,228.6264],[-63.9145,9.1919,222.2036],[-63.9231,9.1975,213.3125],[-63.9284,9.2053,207.9398],[-63.9317,9.2253,191.7175],[-63.94,9.2411,185.029],[-63.9757,9.2759,215.4769],[-63.9844,9.2943,221.2014],[-63.9861,9.3029,235.8056],[-63.9856,9.3184,259.2428],[-63.9773,9.3721,305.6315],[-63.9768,9.3989,321.6406],[-63.9754,9.4057,310.3891],[-63.9686,9.4191,293.863],[-63.9589,9.4305,316.7624],[-63.8789,9.5047,279.1963],[-63.8339,9.5435,208.6684],[-63.9487,9.6897,274.4122],[-63.9518,9.6986,283.0396],[-63.9543,9.7132,223.4506],[-63.9544,9.7517,292.7459],[-63.949,9.7765,332.2557],[-63.946,9.8064,561.7692],[-63.942,9.817,454.2789],[-63.9293,9.8306,363.5679],[-63.9266,9.8374,459.904],[-63.9266,9.8463,619.0372],[-63.932,9.8548,450.3605],[-63.9554,9.877,378.5181],[-63.9721,9.8836,543.8703],[-63.975,9.8863,584.1519],[-63.9783,9.897,769.4951],[-63.9814,9.8999,764.8143],[-63.9856,9.9008,690.9449],[-64.0103,9.8961,642.931],[-64.0226,9.8974,509.2885],[-64.029,9.8995,554.9983],[-64.0343,9.9038,566.9294],[-64.0437,9.9153,700.3162],[-64.0545,9.9354,622.1328],[-64.0564,9.9426,565.5073],[-64.0587,9.9728,733.5135],[-64.0565,9.9901,684.6345],[-64.0497,10.0025,1076.1023],[-64.0437,10.0064,994.975],[-64.0301,10.0108,1072.396],[-63.9934,10.0135,1291.3539],[-63.9839,10.017,1640.6658],[-63.963,10.0354,1582.3335],[-63.9434,10.0724,1910.7931],[-63.9846,10.0639,1701.9701],[-64.0413,10.0583,1345.6787],[-64.0805,10.0383,1415.5452],[-64.1256,10.0272,2033.734],[-64.1581,10.0158,1546.4738],[-64.179,10.0066,1312.6414],[-64.1908,10.0035,943.959],[-64.2322,10.0049,815.1227],[-64.2459,10.009,809.0496],[-64.2625,10.0209,638.2101],[-64.2929,10.0326,1000.389],[-64.3173,10.034,756.8201],[-64.3425,10.0305,338.824],[-64.3536,10.0307,390.3447],[-64.3613,10.0332,339.4475],[-64.3733,10.0436,672.7979],[-64.3815,10.0627,653.2289],[-64.4026,10.1224,748.3185],[-64.4187,10.1583,534.7812],[-64.4452,10.2028,1006.9059],[-64.4801,10.244,0.4345],[-64.4832,10.2424,0.0],[-64.4924,10.2415,3.9875],[-64.5129,10.2507,0.0],[-64.5212,10.2504,89.4836],[-64.5285,10.2529,0.0],[-64.5315,10.2493,3.3991],[-64.5276,10.2446,3.8094],[-64.5365,10.2429,0.0],[-64.539,10.2407,0.0],[-64.5387,10.2379,0.0],[-64.5421,10.2374,0.0],[-64.5432,10.2407,0.0],[-64.5468,10.2438,36.6476],[-64.5471,10.2476,21.0312],[-64.5446,10.2501,3.0845],[-64.5468,10.2529,0.0],[-64.5488,10.2504,33.5879],[-64.556,10.2499,8.3815],[-64.5576,10.2435,3.5845],[-64.561,10.2438,0.0],[-64.5612,10.241,0.0],[-64.569,10.2418,1.2635],[-64.571,10.2385,5.5731],[-64.574,10.2407,0.0],[-64.5743,10.2387,20.522],[-64.5779,10.2379,2.2062],[-64.5813,10.2399,26.979],[-64.5779,10.2424,0.0],[-64.5821,10.2426,9.8164],[-64.5832,10.2449,3.4863],[-64.5826,10.2463,4.8044],[-64.579,10.2468,0.0],[-64.5768,10.2551,0.0],[-64.5793,10.2565,24.7952],[-64.5899,10.254,0.0],[-64.5918,10.2504,0.0],[-64.5893,10.2496,15.604],[-64.5904,10.2468,0.0],[-64.5888,10.2465,2.5302],[-64.5885,10.2435,3.6883],[-64.5896,10.2432,2.1132],[-64.5924,10.2468,0.0],[-64.6012,10.2468,1.9231],[-64.5957,10.2549,0.4796],[-64.5974,10.2571,0.0],[-64.6012,10.2576,0.0],[-64.6057,10.2565,19.4895],[-64.606,10.254,0.0],[-64.6076,10.2535,19.8611],[-64.6207,10.2554,7.7081],[-64.6254,10.2535,0.0],[-64.6276,10.2499,0.0],[-64.6251,10.2518,10.4318],[-64.6237,10.2488,1.3669],[-64.6193,10.2479,0.0],[-64.6179,10.2507,4.4453],[-64.6118,10.2524,20.5679],[-64.6085,10.2504,0.0],[-64.6079,10.2482,63.9385],[-64.6096,10.2468,12.6931],[-64.6157,10.2476,0.0],[-64.6165,10.2457,0.0],[-64.6129,10.2449,2.6316],[-64.6154,10.2418,71.9315],[-64.6207,10.2415,7.3215],[-64.6212,10.2446,0.0],[-64.6274,10.2438,0.0],[-64.6288,10.2421,0.0],[-64.6304,10.2432,0.0],[-64.6324,10.2415,1.2958],[-64.6363,10.2418,0.0],[-64.6376,10.239,0.0],[-64.6329,10.2351,6.6026],[-64.6332,10.2296,4.8158],[-64.634,10.2279,7.6475],[-64.6365,10.2285,0.0],[-64.6363,10.2251,3.5904],[-64.639,10.2218,2.4876],[-64.6429,10.2207,0.3809],[-64.6443,10.2154,1.3579],[-64.6474,10.2149,0.464],[-64.6488,10.2168,0.0],[-64.6515,10.2146,0.0],[-64.6521,10.2115,0.7383],[-64.6596,10.2079,1.9442],[-64.6643,10.209,0.0],[-64.666,10.2063,0.5776],[-64.6738,10.2032,6.0057],[-64.6935,10.2024,0.0],[-64.7024,10.2043,0.4545],[-64.6968,10.199,0.0],[-64.6968,10.1893,0.0],[-64.701,10.1801,0.0],[-64.7001,10.1765,0.4887],[-64.711,10.1701,0.0],[-64.711,10.1651,0.0],[-64.7076,10.1576,0.1244],[-64.7151,10.1424,0.0],[-64.7138,10.1368,1.4579],[-64.7174,10.1338,0.0],[-64.7176,10.1282,0.4026],[-64.7237,10.1232,0.0],[-64.7237,10.1215,0.9611],[-64.7296,10.1193,0.0],[-64.7424,10.1093,1.2283],[-64.7474,10.1082,1.0248],[-64.7474,10.1068,1.8875],[-64.7501,10.1062,0.0],[-64.7521,10.1037,1.4302],[-64.7665,10.0974,0.5553],[-64.8179,10.0857,1.0238],[-64.8443,10.0835,2.8079],[-64.8568,10.084,2.8713],[-64.856,10.1024,0.0],[-64.8571,10.1004,0.0],[-64.8576,10.084,3.4739],[-64.8693,10.0843,1.7963],[-64.8807,10.086,2.1124],[-64.8771,10.1043,0.0],[-64.8793,10.0999,0.0],[-64.8815,10.086,2.1124],[-64.8946,10.0882,0.8095],[-64.8913,10.1065,0.0],[-64.8929,10.1032,0.0],[-64.8957,10.0876,0.8095],[-64.9157,10.0924,0.0],[-64.9226,10.0915,0.4316],[-64.9418,10.0979,0.5091],[-64.9529,10.0974,0.0],[-64.9771,10.0846,0.8915],[-65.0001,10.0754,12.8986],[-65.0237,10.0715,3.2004],[-65.0424,10.0663,4.1781],[-65.0471,10.0665,0.8453],[-65.0465,10.0621,2.2022],[-65.049,10.059,0.5503],[-65.0565,10.0588,1.3032],[-65.0626,10.0529,3.9027],[-65.0715,10.0526,0.0],[-65.0735,10.051,6.9512],[-65.0757,10.0518,1.2551],[-65.0765,10.0504,12.7326],[-65.081,10.0499,11.6407],[-65.0874,10.0512,1.7356],[-65.0896,10.0479,1.2775],[-65.0971,10.0468,10.291],[-65.1079,10.051,0.0],[-65.1115,10.0493,0.0],[-65.1143,10.0457,0.0],[-65.1224,10.0474,0.0],[-65.1226,10.046,1.5672],[-65.1357,10.0435,2.547],[-65.1468,10.0393,3.6601],[-65.1499,10.0393,3.341],[-65.1604,10.0446,3.0128],[-65.169,10.0454,3.8514],[-65.1724,10.0446,1.522],[-65.1729,10.0418,10.3785],[-65.1751,10.0424,1.704],[-65.1826,10.0393,4.063],[-65.184,10.0415,-1.5],[-65.1851,10.0388,6.445],[-65.1885,10.0388,2.8328],[-65.1876,10.0429,3.2915],[-65.201,10.0396,14.5985],[-65.2026,10.0429,3.0],[-65.2079,10.0429,2.179],[-65.2082,10.0454,1.5],[-65.204,10.0482,4.2237],[-65.1982,10.0463,2.7615],[-65.2007,10.0493,3.0726],[-65.1965,10.0507,3.1252],[-65.1935,10.0507,3.7882],[-65.1932,10.0479,2.5314],[-65.1896,10.0465,1.625],[-65.191,10.0521,2.2599],[-65.1871,10.0543,0.7122],[-65.1857,10.054,1.3124],[-65.1837,10.0479,1.7707],[-65.1829,10.0563,1.3967],[-65.1862,10.0568,1.3554],[-65.1818,10.0615,1.716],[-65.1815,10.0638,1.0323],[-65.1832,10.071,0.8484],[-65.1857,10.0732,0.5514],[-65.1843,10.0746,0.2717],[-65.1796,10.0735,0.1337],[-65.1749,10.0599,0.1541],[-65.1729,10.0607,2.8488],[-65.1699,10.0571,0.119],[-65.1607,10.0585,0.0],[-65.1582,10.0524,0.0],[-65.156,10.0568,0.0],[-65.1568,10.0596,0.2114],[-65.1615,10.0629,0.3439],[-65.1607,10.0649,3.3789],[-65.166,10.0651,5.6807],[-65.1626,10.0676,4.703],[-65.1637,10.0693,-0.5],[-65.1685,10.0665,1.1309],[-65.1732,10.0682,3.3713],[-65.1729,10.0713,0.5075],[-65.1754,10.0721,0.3474],[-65.1757,10.0743,0.4955],[-65.1732,10.0749,0.0346],[-65.1729,10.0768,1.2834],[-65.1679,10.0751,-0.5],[-65.1674,10.0771,1.0522],[-65.164,10.0732,1.6433],[-65.164,10.0701,-0.5],[-65.1601,10.0707,5.1041],[-65.1596,10.064,3.3789],[-65.1579,10.0668,3.9894],[-65.156,10.0668,2.8759],[-65.1571,10.0618,0.2641],[-65.1551,10.0571,0.0],[-65.1471,10.0626,0.157],[-65.1438,10.0593,0.0],[-65.1415,10.0596,0.8721],[-65.1415,10.061,0.2375],[-65.1532,10.0685,4.1715],[-65.1615,10.076,0.0],[-65.1657,10.0785,1.0522],[-65.1679,10.0779,2.675],[-65.1682,10.0821,7.1151],[-65.1665,10.0835,2.8534],[-65.1043,10.0651,0.0],[-65.0829,10.0613,0.0],[-65.0587,10.0599,1.4107],[-65.0868,10.0638,0.0],[-65.119,10.071,0.0],[-65.1601,10.0832,1.8171],[-65.1774,10.0918,0.0],[-65.189,10.0932,1.1408],[-65.2035,10.0985,0.6675],[-65.2099,10.0988,0.4857],[-65.2085,10.1001,0.2696],[-65.2374,10.1062,0.0],[-65.2487,10.1062,0.0],[-65.3024,10.1157,0.0],[-65.3321,10.1185,2.2126],[-65.3885,10.1299,4.8864],[-65.401,10.1127,46.5239],[-65.414,10.0998,79.6941],[-65.4274,10.0895,125.8548],[-65.4693,10.0638,258.5032],[-65.5071,10.0324,262.8872],[-65.516,10.0276,263.745],[-65.565,10.0083,175.8232],[-65.5819,10.0007,267.8821],[-65.5995,9.99,279.1573],[-65.6206,9.9821,487.9627],[-65.6637,9.9722,547.2267],[-65.7266,9.9679,506.5558],[-65.7219,9.948,629.7633],[-65.7223,9.9358,498.1625],[-65.7207,9.9272,515.0343],[-65.7021,9.8943,447.0968],[-65.6983,9.8752,482.2885],[-65.6815,9.8334,259.8521],[-65.6811,9.8203,235.2148],[-65.6856,9.7992,216.3026],[-65.6978,9.7605,171.1023],[-65.7019,9.7423,172.172],[-65.7014,9.7229,163.9073],[-65.6974,9.711,180.2953],[-65.6924,9.7029,159.0932],[-65.6663,9.6674,170.2172],[-65.6088,9.6234,166.52],[-65.5764,9.604,161.496],[-65.5422,9.5762,116.8748],[-65.5232,9.5683,111.2779],[-65.5143,9.5709,104.2173],[-65.5046,9.5764,116.4402],[-65.4721,9.6137,123.3321],[-65.4562,9.6254,125.2035],[-65.4314,9.639,107.3917],[-65.4175,9.6421,107.6465],[-65.41,9.6402,114.7943],[-65.3827,9.6117,84.3122],[-65.368,9.5987,83.3333],[-65.3523,9.5877,74.1937],[-65.326,9.5601,61.6241],[-65.318,9.554,54.7225],[-65.2951,9.542,45.3355],[-65.2478,9.5262,41.8127],[-65.208,9.5065,21.9375],[-65.1995,9.4995,28.5533],[-65.1911,9.4885,32.5548],[-65.1858,9.4747,45.8896],[-65.18,9.4496,45.5598],[-65.181,9.4392,32.4657],[-65.1857,9.4337,31.5114],[-65.2193,9.4071,33.3558],[-65.2464,9.3935,30.1095],[-65.2573,9.3818,29.3189],[-65.2625,9.3705,33.6455],[-65.2626,9.3601,49.3599],[-65.2496,9.3304,52.1613],[-65.2391,9.3128,49.0117],[-65.2289,9.274,48.2097],[-65.2036,9.2053,67.241],[-65.1987,9.1887,55.379],[-65.184,9.1017,83.7096],[-65.1762,9.0814,90.7464],[-65.1653,9.074,78.8484],[-65.1361,9.0655,74.2761],[-65.0909,9.0679,98.7209],[-65.0815,9.0646,89.3295],[-65.0545,9.0462,97.4839],[-65.044,9.0431,97.0868],[-65.0199,9.0256,109.572],[-64.9794,9.0055,109.7281],[-64.9756,8.9978,117.897],[-64.9689,8.9749,133.6763],[-64.9634,8.9649,137.2547],[-64.9527,8.9537,141.4372],[-64.9194,8.9316,138.0976],[-64.8819,8.8817,165.213],[-64.8444,8.8571,204.033],[-64.8051,8.8273,213.0377],[-64.791,8.8139,229.5025],[-64.7673,8.779,215.9932],[-64.7607,8.7558,232.6843],[-64.7636,8.7346,253.2676],[-64.7701,8.7189,214.371],[-64.7861,8.6895,212.5543],[-64.8064,8.6574,186.8047],[-64.8307,8.6249,207.7328],[-64.8412,8.6134,195.2411],[-64.8502,8.6088,195.5478],[-64.8653,8.6088,204.036],[-64.8905,8.6115,204.1315],[-64.9477,8.6214,208.4121],[-64.9726,8.6235,156.267],[-64.9836,8.6262,147.688],[-65.0041,8.6341,138.9145],[-65.0144,8.6398,145.699],[-65.0408,8.6605,136.9369],[-65.0584,8.6701,137.1113],[-65.0651,8.6719,129.0933],[-65.0727,8.6723,125.1844],[-65.0844,8.6695,133.9539],[-65.1074,8.6612,158.1514],[-65.1219,8.65,121.6744],[-65.1378,8.6311,111.4427],[-65.1448,8.6178,105.025],[-65.1484,8.6023,104.211],[-65.1505,8.5658,93.2501],[-65.1495,8.5495,92.5383],[-65.1365,8.5228,97.9089],[-65.1315,8.5067,103.9656],[-65.1295,8.4924,101.3071],[-65.1287,8.4825,117.1653],[-65.1307,8.472,112.1516],[-65.1357,8.4583,96.4122],[-65.1477,8.4368,84.4918],[-65.1614,8.4209,86.272],[-65.1686,8.4028,84.4303],[-65.1827,8.3501,83.7257],[-65.2029,8.3036,91.6133],[-65.2135,8.2833,92.7579],[-65.2366,8.2515,88.0816],[-65.2475,8.2401,89.4941],[-65.2628,8.2149,99.3277],[-65.2811,8.1979,114.8905],[-65.2908,8.1833,100.2887],[-65.2946,8.1724,105.0591],[-65.3017,8.1606,106.2587],[-65.3126,8.149,114.5778],[-65.3411,8.127,94.4709],[-65.3486,8.1185,93.2147],[-65.3683,8.0824,79.6198],[-65.3691,8.0569,62.5735],[-65.4028,8.0341,65.4154],[-65.4099,8.0241,58.563],[-65.4221,7.9986,59.2015],[-65.4287,7.99,67.5476],[-65.474,7.9435,53.5895],[-65.4803,7.9313,35.284],[-65.4825,7.9236,32.8855],[-65.486,7.9031,39.5939],[-65.4868,7.8856,24.0],[-65.4824,7.8636,23.5],[-65.4761,7.8487,23.5],[-65.4691,7.8458,23.5],[-65.4281,7.8454,23.0],[-65.4018,7.8409,23.0],[-65.3774,7.8322,27.623],[-65.3577,7.82,24.5095],[-65.3318,7.796,29.3233],[-65.3298,7.7451,43.9646],[-65.3221,7.7424,44.359],[-65.2945,7.7424,41.9164],[-65.247,7.7495,32.252],[-65.2288,7.7507,34.9426],[-65.2114,7.7481,34.558],[-65.1936,7.7387,33.4042],[-65.1661,7.7305,34.9109],[-65.1262,7.7309,34.9917],[-65.105,7.7345,32.1695],[-65.0968,7.7343,31.1569],[-65.0888,7.7319,28.7708],[-65.0825,7.7274,29.5231],[-65.0654,7.7102,23.1616],[-65.048,7.7026,26.6523],[-65.0206,7.6989,26.1512],[-65.0031,7.6856,23.4074],[-64.9872,7.6772,23.2955],[-64.9715,7.6628,25.4679],[-64.9511,7.6389,22.6827],[-64.9264,7.6162,21.2234],[-64.9034,7.6019,16.5],[-64.8871,7.5827,21.3543],[-64.8796,7.5796,23.0981],[-64.8595,7.5803,24.1977],[-64.8411,7.5767,31.1826],[-64.8356,7.5697,53.5195],[-64.8135,7.5761,64.8336],[-64.78,7.5982,101.4969],[-64.7481,7.6061,58.9662],[-64.7285,7.6079,61.3753],[-64.7204,7.6113,67.5847],[-64.702,7.626,61.0219],[-64.6803,7.6367,80.474],[-64.6593,7.6446,80.5384],[-64.6509,7.6526,53.1125],[-64.641,7.6683,27.7406],[-64.6319,7.6748,40.9445],[-64.6127,7.6819,57.1023],[-64.5858,7.6999,30.0553],[-64.5686,7.7038,32.0799],[-64.5347,7.7044,62.5705],[-64.5123,7.6969,68.0018],[-64.4902,7.6972,69.7321],[-64.4673,7.7051,69.682],[-64.4516,7.715,83.7116],[-64.4472,7.7208,93.3762],[-64.4444,7.7343,124.7191],[-64.4435,7.7438,106.6294],[-64.4466,7.7495,110.0946],[-64.4571,7.7581,97.9553],[-64.4655,7.7618,112.8523],[-64.476,7.7643,90.4425],[-64.4971,7.7663,30.649],[-64.5009,7.768,30.131],[-64.534,7.7898,24.1649],[-64.5398,7.7996,32.1068],[-64.5434,7.8126,52.0242],[-64.5432,7.844,34.9549],[-64.5471,7.8662,15.5],[-64.5459,7.8769,15.0],[-64.5416,7.8861,23.4798],[-64.5115,7.9193,15.0],[-64.4768,7.9408,21.0165],[-64.4696,7.9475,15.9852],[-64.4524,7.9551,19.971],[-64.4273,7.9574,13.7613],[-64.4131,7.9613,25.0946],[-64.4006,7.9606,45.1466],[-64.3882,7.9547,150.8909],[-64.3679,7.9363,77.5273],[-64.3582,7.9298,80.0794],[-64.3469,7.9257,65.2876],[-64.3389,7.9276,70.7233],[-64.3298,7.9365,80.3491],[-64.3255,7.9447,61.629],[-64.3237,7.9499,48.2241],[-64.3249,7.962,43.7404],[-64.3224,7.9716,50.136],[-64.3169,7.9862,42.1798],[-64.309,7.9994,19.0637],[-64.2811,8.0343,21.0164],[-64.275,8.0383,19.4316],[-64.2516,8.0433,21.6463]]],
[[[-64.706,10.204,0.7146],[-64.7024,10.2046,0.4545],[-64.7063,10.2071,1.5985],[-64.7043,10.2146,0.0],[-64.7049,10.2196,14.4089],[-64.7065,10.2204,14.4089],[-64.7057,10.2246,4.9064],[-64.7071,10.2249,3.096],[-64.7107,10.2193,42.3208],[-64.7107,10.2118,113.8811],[-64.7129,10.2118,70.6149],[-64.7138,10.209,0.0],[-64.711,10.2076,13.014099999999999],[-64.711,10.2051,0.0],[-64.706,10.204,0.7146]]],
[[[-64.7593,10.2521,2.6117],[-64.7613,10.2529,10.1131],[-64.7621,10.2515,6.9551],[-64.7593,10.2501,0.0],[-64.7593,10.2521,2.6117]]],
[[[-64.8262,10.1396,9.4761],[-64.8282,10.1401,0.0],[-64.8293,10.1388,0.0],[-64.8274,10.1374,4.3088],[-64.8262,10.1396,9.4761]]],
[[[-64.9313,10.154,0.0],[-64.9388,10.1549,0.0544],[-64.9426,10.1532,0.3992],[-64.9432,10.1515,0.1169],[-64.9399,10.1488,0.085],[-64.934,10.1496,0.0923],[-64.9285,10.1424,0.0658],[-64.9238,10.1446,0.1755],[-64.9204,10.1421,0.2144],[-64.9121,10.1438,0.0],[-64.9135,10.146,0.0],[-64.9229,10.1501,-0.1975],[-64.9268,10.1543,0.0],[-64.9313,10.154,0.0]]],
[[[-64.9507,10.1668,0.086],[-64.9704,10.1671,0.0],[-64.9768,10.1638,0.0],[-64.9732,10.1646,0.5972],[-64.9671,10.1576,0.0],[-64.964,10.1604,0.0],[-64.9582,10.1593,0.3138],[-64.9418,10.1618,0.0],[-64.9426,10.1643,0.1432],[-64.9507,10.1668,0.086]]],
[[[-64.6304,10.2463,0.0],[-64.6329,10.2471,0.0],[-64.6346,10.2451,0.1929],[-64.6332,10.2446,0.1929],[-64.6304,10.2463,0.0]]],
[[[-64.5679,10.2499,0.0],[-64.5665,10.2507,0.0],[-64.5704,10.2504,3.48],[-64.5693,10.2487,0.0],[-64.5679,10.2499,0.0]]],
[[[-64.6143,10.276,3.31],[-64.6315,10.2743,0.0],[-64.6346,10.2707,62.154],[-64.6399,10.2696,0.0],[-64.6343,10.266,14.4149],[-64.6343,10.2643,20.2949],[-64.636,10.2635,2.8143],[-64.6371,10.2596,6.7732],[-64.6424,10.2596,5.8757],[-64.6429,10.2565,28.8524],[-64.6365,10.2557,8.1898],[-64.6346,10.2568,0.0],[-64.6315,10.2668,0.2985],[-64.6282,10.2646,0.0],[-64.6274,10.2674,25.8411],[-64.6251,10.2665,0.0],[-64.6243,10.2688,31.2715],[-64.6179,10.269,9.5976],[-64.6154,10.2715,0.0],[-64.6143,10.276,3.31]]],
[[[-64.5979,10.2935,58.9468],[-64.5999,10.2954,16.6839],[-64.6043,10.2935,19.4284],[-64.6071,10.294,0.0],[-64.6082,10.2915,0.0],[-64.6062,10.2893,1.1789],[-64.6043,10.2907,8.0976],[-64.601,10.2879,0.0],[-64.5871,10.2901,0.0],[-64.586,10.2918,8.2867],[-64.5946,10.2921,10.7007],[-64.5979,10.2935,58.9468]]],
[[[-64.5849,10.2907,5.2782],[-64.5832,10.2907,1.1173],[-64.5832,10.2935,3.7257],[-64.5851,10.2935,5.1488],[-64.5849,10.2907,5.2782]]],
[[[-64.5443,10.2729,9.1707],[-64.5488,10.2732,0.0],[-64.5521,10.271,13.3086],[-64.5521,10.269,31.7416],[-64.549,10.2662,9.1574],[-64.5507,10.2654,0.0],[-64.5507,10.2635,43.8634],[-64.5537,10.2635,28.9826],[-64.5543,10.2621,28.9826],[-64.5515,10.2568,0.0],[-64.5404,10.2551,0.0],[-64.5399,10.2571,0.0],[-64.5429,10.2615,6.7344],[-64.539,10.2646,2.3644],[-64.539,10.2676,0.0],[-64.5435,10.2674,9.632],[-64.5443,10.2729,9.1707]]],
[[[-64.5476,10.294,2.6987],[-64.551,10.2943,1.7352],[-64.5524,10.2926,3.4269],[-64.5485,10.2929,3.9466],[-64.5476,10.294,2.6987]]],
[[[-64.634,10.3054,0.0],[-64.6371,10.3057,0.0],[-64.6387,10.3029,40.6708],[-64.6462,10.3021,0.0],[-64.6471,10.3004,110.2485],[-64.6515,10.304,0.0],[-64.6626,10.3032,37.632],[-64.6657,10.3043,0.0],[-64.669,10.3004,7.7643],[-64.6657,10.2968,0.0],[-64.6646,10.2924,2.7307],[-64.6749,10.2885,4.3079],[-64.6718,10.2865,0.0],[-64.6679,10.2879,5.6162],[-64.6643,10.2854,0.0],[-64.6626,10.2882,1.8474],[-64.6607,10.2868,0.0],[-64.6599,10.2885,14.1063],[-64.6604,10.2907,1.6758],[-64.6632,10.2924,2.2238],[-64.6571,10.2929,16.1325],[-64.6535,10.2918,0.0],[-64.654,10.2901,48.5877],[-64.6565,10.2896,11.0522],[-64.6554,10.2857,0.0],[-64.6524,10.2851,0.0],[-64.6513,10.2885,45.0405],[-64.6476,10.286,13.912],[-64.644,10.2896,7.066],[-64.6435,10.2879,0.0],[-64.644,10.2863,0.0],[-64.6415,10.2863,0.0],[-64.6376,10.2899,0.0],[-64.6379,10.2876,4.6855],[-64.636,10.2874,8.9058],[-64.6357,10.2849,0.0],[-64.6265,10.2854,39.4824],[-64.6276,10.2829,48.9282],[-64.6296,10.2826,7.2397],[-64.629,10.2793,3.0728],[-64.624,10.2804,0.0],[-64.6229,10.2826,6.0947],[-64.6199,10.2835,11.8352],[-64.6199,10.2813,0.0],[-64.6174,10.2818,0.0],[-64.6151,10.2793,5.2235],[-64.6118,10.2793,0.0],[-64.6099,10.2857,0.0],[-64.6171,10.2868,75.5953],[-64.6179,10.2885,10.4352],[-64.6215,10.2893,0.0],[-64.6288,10.2893,7.9872],[-64.6288,10.2915,9.7314],[-64.6229,10.2968,0.0],[-64.6257,10.2963,36.3466],[-64.6332,10.2993,11.1777],[-64.634,10.3054,0.0]]],
[[[-64.5757,10.2932,10.1375],[-64.5771,10.2943,0.0],[-64.5768,10.2921,10.1375],[-64.574,10.2912,0.0],[-64.574,10.2929,7.0626],[-64.5757,10.2932,10.1375]]],
[[[-64.5612,10.309,4.765],[-64.5638,10.3096,16.8127],[-64.5654,10.3054,0.0],[-64.5621,10.3057,0.0],[-64.5612,10.309,4.765]]],
[[[-64.7421,10.2713,22.0791],[-64.7421,10.2726,0.0],[-64.7446,10.2732,5.1989],[-64.7485,10.2668,0.0],[-64.741,10.2668,0.0],[-64.7396,10.2696,0.0],[-64.7421,10.2713,22.0791]]],
[[[-64.7568,10.2929,7.4719],[-64.7596,10.2943,4.0069],[-64.7607,10.2904,0.0],[-64.7554,10.2887,0.0],[-64.7549,10.2904,1.039],[-64.7568,10.2929,7.4719]]],
[[[-64.7337,10.3146,5.2114],[-64.7399,10.3151,0.0],[-64.7426,10.3104,15.4138],[-64.7479,10.306,37.4559],[-64.7482,10.3021,0.0],[-64.7507,10.2982,74.0023],[-64.754,10.2987,33.9311],[-64.7543,10.2968,29.9265],[-64.7568,10.2957,0.0],[-64.7532,10.2935,19.2375],[-64.7538,10.2904,0.0],[-64.7415,10.2813,1.8839],[-64.7404,10.2765,0.0],[-64.7337,10.2804,2.4375],[-64.7315,10.2885,7.4001],[-64.7324,10.2901,7.3491],[-64.7282,10.2971,0.0],[-64.7251,10.3099,0.0],[-64.729,10.3138,0.0],[-64.7337,10.3146,5.2114]]],
[[[-64.6776,10.304,0.0],[-64.6813,10.304,0.7847],[-64.6832,10.301,5.1737],[-64.6821,10.2976,0.0],[-64.6801,10.2968,0.0],[-64.6804,10.2915,0.0],[-64.6785,10.2974,31.1249],[-64.674,10.3001,5.9879],[-64.6754,10.3035,0.0],[-64.6776,10.304,0.0]]],
[[[-64.6837,10.3038,0.0],[-64.6837,10.306,0.0],[-64.6849,10.306,0.0],[-64.6854,10.3026,2.527],[-64.6837,10.3038,0.0]]],
[[[-64.7504,10.3074,5.7031],[-64.7532,10.3082,6.258],[-64.7549,10.3071,2.8588],[-64.751,10.3063,7.5593],[-64.7504,10.3074,5.7031]]],
[[[-64.7585,10.309,8.8155],[-64.7593,10.3104,8.8155],[-64.7601,10.3104,8.8155],[-64.7593,10.3076,6.1373],[-64.7585,10.309,8.8155]]]]}}