{"type": "Feature","id": "40","bbox": [-65.70405,7.65982,-62.68583,10.2617],"geometry": {"type": "Polygon","coordinates": [[[-64.53607,10.25231,0.0],[-64.53608,10.25231,0.0],[-64.54003,10.25056,0.0],[-64.54638,10.24384,36.6476],[-64.55224,10.24234,43.7305],[-64.5594,10.25434,0.0],[-64.56505,10.25137,0.0],[-64.57433,10.24974,0.0],[-64.5799,10.24811,31.9481],[-64.57673,10.25202,0.0],[-64.5751,10.25483,0.0],[-64.57242,10.2617,0.0],[-64.58829,10.26032,0.0],[-64.61677,10.25047,4.4453],[-64.63142,10.24811,0.0],[-64.65709,10.21524,0.0],[-64.66861,10.2071,0.0],[-64.65762,10.19668,0.9494],[-64.66763,10.18732,1.2383],[-64.68517,10.18602,2.7991],[-64.6966,10.19969,0.0],[-64.68757,10.20136,5.2015],[-64.68346,10.20368,0.0],[-64.6761,10.21332,0.0],[-64.6881,10.21206,0.0],[-64.69933,10.21381,0.0],[-64.70914,10.21894,42.3208],[-64.71703,10.22761,0.0],[-64.72183,10.21402,0.0],[-64.7167,10.18797,0.0],[-64.71703,10.17235,0.0],[-64.72863,10.13605,0.0],[-64.73705,10.12104,0.0],[-64.74812,10.10688,0.4897],[-64.7766,10.0904,0.157],[-64.8142,10.08511,3.3442],[-64.88834,10.08983,0.0],[-64.94359,10.0998,0.0],[-64.96349,10.09732,0.0],[-64.98095,10.08926,0.0],[-65.01684,10.06708,35.0668],[-65.04711,10.06078,0.8981],[-65.06395,10.05219,2.774],[-65.07335,10.0489,28.5265],[-65.08397,10.04751,15.1199],[-65.128,10.05134,0.0],[-65.14892,10.05842,0.0],[-65.16698,10.0694,-0.3687],[-65.17569,10.08364,2.5216],[-65.15575,10.0799,3.3277],[-65.08019,10.05565,0.0],[-65.08019,10.06257,0.0],[-65.09146,10.06688,0.0],[-65.12857,10.07616,0.0],[-65.16955,10.09732,0.0],[-65.31013,10.12287,0.0],[-65.42575,10.14342,0.0],[-65.42665,10.1401,0.7471],[-65.43856,10.09533,280.8651],[-65.44895,10.07964,211.1812],[-65.45375,10.07685,131.7682],[-65.45871,10.07507,211.8255],[-65.46378,10.07259,188.8638],[-65.46956,10.06887,233.1475],[-65.47455,10.06445,245.4183],[-65.48744,10.05561,102.9874],[-65.51122,10.0483,250.2059],[-65.52137,10.04148,244.062],[-65.54703,10.0158,151.691],[-65.55524,10.00998,175.5178],[-65.56219,10.00626,168.8607],[-65.57612,10.00332,210.6087],[-65.60366,9.99479,263.3585],[-65.61312,9.99042,365.7349],[-65.62185,9.98446,461.0548],[-65.6333,9.97221,605.4679],[-65.63829,9.97074,633.5316],[-65.64227,9.97229,588.6355],[-65.64622,9.97577,562.147],[-65.6509,9.97903,590.1606],[-65.65893,9.98058,524.8114],[-65.66454,9.97942,530.0368],[-65.66945,9.97709,542.8289],[-65.6966,9.95342,384.5],[-65.70405,9.87374,431.5765],[-65.70262,9.84627,333.4355],[-65.69898,9.83558,311.8194],[-65.69679,9.83092,281.6619],[-65.67555,9.79971,198.75],[-65.66495,9.77398,147.7178],[-65.67035,9.74271,167.4411],[-65.67586,9.72974,166.1428],[-65.69844,9.70228,175.7676],[-65.70146,9.69546,157.1806],[-65.70195,9.68902,160.6741],[-65.70038,9.68582,148.9986],[-65.6941,9.68062,151.9524],[-65.48884,9.56921,109.0165],[-65.44264,9.64006,111.6794],[-65.43786,9.64548,120.0387],[-65.4306,9.65052,114.9233],[-65.38696,9.57192,76.4664],[-65.38086,9.56417,72.315],[-65.37745,9.56076,68.0553],[-65.36957,9.55479,68.9218],[-65.35107,9.54508,61.0813],[-65.33174,9.53733,51.0089],[-65.28229,9.52384,41.9577],[-65.24599,9.5173,51.8668],[-65.22904,9.51211,27.3512],[-65.21821,9.50684,25.6122],[-65.21131,9.50017,26.9272],[-65.20855,9.49529,26.5898],[-65.20676,9.491,24.4613],[-65.20519,9.48588,29.693],[-65.20441,9.48038,29.6593],[-65.20483,9.46852,29.2869],[-65.20444,9.46263,24.9128],[-65.20343,9.45694,27.9929],[-65.20304,9.4509,25.8731],[-65.20338,9.44485,29.1609],[-65.20483,9.43927,33.5577],[-65.20674,9.43431,33.0947],[-65.21162,9.42545,33.4868],[-65.21857,9.41816,30.6637],[-65.2688,9.39356,31.8043],[-65.27733,9.38519,36.7546],[-65.28459,9.37656,33.8499],[-65.28508,9.36447,32.7691],[-65.28394,9.35276,34.4196],[-65.2826,9.34809,35.2018],[-65.28113,9.34444,39.7375],[-65.2797,9.34173,45.7537],[-65.26865,9.32692,49.9352],[-65.26627,9.32243,47.7966],[-65.26472,9.31713,42.7365],[-65.26371,9.28982,41.8688],[-65.26141,9.28215,46.7318],[-65.25829,9.27719,49.6703],[-65.2542,9.27354,48.0538],[-65.24906,9.27137,49.9375],[-65.24289,9.26796,47.7761],[-65.2363,9.26321,54.4757],[-65.22973,9.25143,46.6908],[-65.22069,9.24016,54.9768],[-65.20539,9.2276,57.9039],[-65.19206,9.21334,68.0185],[-65.17366,9.18727,68.5339],[-65.16938,9.18239,72.127],[-65.16488,9.17864,69.0541],[-65.16018,9.17631,59.3824],[-65.15514,9.17438,61.8401],[-65.14917,9.17345,61.2675],[-65.08519,9.17585,67.3704],[-65.07879,9.17531,66.0416],[-65.07315,9.17383,63.8867],[-65.06825,9.17166,75.7094],[-65.06406,9.16895,71.6478],[-65.05641,9.16275,73.8627],[-65.02936,9.13451,73.2207],[-65.02091,9.1289,73.5538],[-64.99285,9.12084,79.9834],[-64.98595,9.11727,86.2437],[-64.9776,9.11154,86.3475],[-64.96373,9.09898,93.2871],[-64.95761,9.0912,88.9225],[-64.95373,9.08454,96.9917],[-64.94934,9.0718,103.0685],[-64.94515,9.06281,102.3279],[-64.94308,9.05575,101.8751],[-64.94197,9.04893,106.78],[-64.94205,9.01984,116.5471],[-64.94019,9.00904,111.0254],[-64.93735,9.00377,114.006],[-64.93482,9.00082,118.4437],[-64.93303,8.99997,124.3686],[-64.8988,8.99036,121.3985],[-64.8941,8.98808,123.6313],[-64.88575,8.98242,126.4425],[-64.86795,8.96622,136.5979],[-64.84769,8.94395,155.2058],[-64.83617,8.93356,154.1758],[-64.82586,8.9261,154.4706],[-64.81519,8.9199,170.3161],[-64.8096,8.91493,169.9955],[-64.80457,8.90796,169.9082],[-64.78994,8.87809,164.1377],[-64.81733,8.86225,219.4729],[-64.8335,8.84618,196.4018],[-64.84627,8.82959,199.1557],[-64.85079,8.81998,207.8243],[-64.85216,8.81298,228.0977],[-64.84456,8.79282,244.6352],[-64.8441,8.78443,236.7641],[-64.84596,8.77311,224.9089],[-64.85322,8.75177,211.4057],[-64.85834,8.74394,191.5027],[-64.86407,8.74099,196.675],[-64.87575,8.74293,191.868],[-64.892,8.74797,176.7911],[-64.9043,8.74975,169.6239],[-64.91079,8.74998,163.3666],[-64.92355,8.74874,155.2279],[-64.93828,8.74394,159.6775],[-65.00884,8.73882,142.1793],[-65.03236,8.74146,131.2385],[-65.0407,8.74347,130.3476],[-65.04683,8.74564,128.1907],[-65.06018,8.75223,127.3485],[-65.07222,8.75642,120.8639],[-65.07995,8.75688,123.3481],[-65.08631,8.75587,123.0419],[-65.09098,8.75339,126.9344],[-65.10638,8.74797,118.1964],[-65.13147,8.74215,123.4256],[-65.13783,8.73913,120.6824],[-65.14191,8.73554,121.5706],[-65.1455,8.73112,112.0609],[-65.14938,8.72469,112.0338],[-65.15703,8.70753,120.9452],[-65.1609,8.70125,122.2187],[-65.16354,8.69575,115.9705],[-65.16558,8.69009,112.9187],[-65.16824,8.66448,102.6333],[-65.17054,8.65278,103.0149],[-65.17077,8.64663,99.8007],[-65.17015,8.64074,101.6034],[-65.16847,8.6357,98.4084],[-65.16359,8.62702,99.9239],[-65.16056,8.62314,100.2409],[-65.15289,8.61025,98.8588],[-65.15119,8.60506,95.1215],[-65.15057,8.59917,95.7998],[-65.15095,8.581,92.7099],[-65.14964,8.56937,91.5264],[-65.1501,8.55664,91.7208],[-65.16261,8.49977,98.0297],[-65.17444,8.47571,82.792],[-65.17764,8.46478,83.3278],[-65.18387,8.42856,80.0448],[-65.20663,8.36936,71.3783],[-65.21165,8.36151,67.58],[-65.21627,8.35585,70.5932],[-65.26043,8.31768,67.5981],[-65.26772,8.3089,68.5066],[-65.29293,8.26136,63.3685],[-65.30247,8.24862,64.623],[-65.36593,8.18493,60.592],[-65.37156,8.17625,56.1123],[-65.37781,8.16389,53.4136],[-65.38161,8.1456,54.86],[-65.3951,8.11299,47.6228],[-65.44329,8.05713,40.9272],[-65.45073,8.04992,39.1145],[-65.46571,8.03853,48.8276],[-65.48047,8.02393,39.821],[-65.48907,8.00773,35.6929],[-65.49434,7.99166,35.9212],[-65.49607,7.97964,35.4182],[-65.49636,7.96659,34.8583],[-65.49483,7.9545,31.075],[-65.49248,7.94362,46.5672],[-65.49047,7.93882,42.7991],[-65.48786,7.93463,31.6066],[-65.4845,7.93099,33.6489],[-65.48031,7.92835,31.1496],[-65.47517,7.92642,37.7565],[-65.46905,7.92564,36.5519],[-65.46264,7.92556,34.8419],[-65.43771,7.92758,25.5],[-65.41153,7.92665,30.8953],[-65.39972,7.92417,27.4943],[-65.38921,7.9206,26.8099],[-65.38494,7.91786,26.3841],[-65.37737,7.91158,27.1355],[-65.37091,7.90469,34.2148],[-65.36693,7.89848,28.6766],[-65.35911,7.87869,24.7262],[-65.35665,7.86942,26.0202],[-65.3064,7.87575,22.0],[-65.27808,7.87427,28.0506],[-65.25077,7.86756,28.3762],[-65.19237,7.8459,30.4194],[-65.133,7.84107,23.6554],[-65.1037,7.83438,30.9644],[-65.04778,7.80622,30.0807],[-64.99608,7.77069,25.7837],[-64.93528,7.71558,22.1323],[-64.90849,7.70374,22.4],[-64.88621,7.67713,16.5],[-64.87306,7.66607,16.5],[-64.85733,7.65982,16.5],[-64.83847,7.6602,16.5],[-64.8202,7.66656,16.5],[-64.76064,7.70304,61.4942],[-64.704,7.72643,16.0],[-64.65176,7.76467,16.0],[-64.63706,7.77175,33.14],[-64.62034,7.77438,28.3389],[-64.56895,7.76521,15.5],[-64.55096,7.76529,15.5],[-64.52316,7.77369,21.5081],[-64.49546,7.79079,15.5],[-64.47815,7.81469,15.5],[-64.48156,7.8435,15.5],[-64.50143,7.86384,15.5],[-64.52606,7.8789,15.5],[-64.54616,7.89665,21.8127],[-64.55251,7.92525,21.3598],[-64.54254,7.97137,15.0],[-64.53711,7.98393,15.0],[-64.52363,7.99628,20.1134],[-64.50624,7.99918,15.0],[-64.45007,7.99062,19.1255],[-64.43374,7.99173,15.6154],[-64.3524,8.00897,20.8254],[-64.33896,8.01706,36.0068],[-64.33098,8.02832,15.0],[-64.3209,8.05403,15.0],[-64.31294,8.06545,15.0],[-64.29995,8.07465,18.2614],[-64.28325,8.08142,18.2427],[-64.26571,8.08429,15.5074],[-64.25013,8.08173,15.0],[-64.23163,8.07145,15.0],[-64.16688,8.01031,15.0],[-64.15551,8.00204,15.0],[-64.14381,7.9967,15.0],[-64.13859,7.97442,15.0],[-64.12556,7.96587,15.0],[-64.107919999999993,7.96727,15.0],[-64.08887,7.97489,15.0],[-64.0659,7.98127,19.8062],[-64.04515,7.97866,19.1278],[-64.00247,7.96773,19.8807],[-63.98113,7.96745,18.0714],[-63.97079,7.96946,16.3581],[-63.961,7.97362,16.2181],[-63.95322,7.97987,14.0],[-63.94072,7.99491,21.8131],[-63.93312,8.00142,21.501],[-63.92147,8.00659,23.5589],[-63.89659,8.01277,14.0],[-63.88537,8.01819,14.0],[-63.87682,8.02747,14.0],[-63.87199,8.03861,14.0],[-63.86842,8.05052,13.625],[-63.8399,8.11041,16.7004],[-63.82868,8.12348,13.0],[-63.81199,8.13098,13.0],[-63.79571,8.12868,13.0],[-63.77887,8.1232,13.0],[-63.76073,8.12118,13.0],[-63.74471,8.12506,17.8713],[-63.72936,8.13224,14.1175],[-63.70047,8.15012,13.0],[-63.68293,8.15821,13.0],[-63.66768,8.15976,15.2005],[-63.6521,8.15671,17.3274],[-63.63363,8.15105,13.0],[-63.61322,8.14788,13.0],[-63.54787,8.15172,9.0],[-63.4916,8.14563,9.0],[-63.47356,8.1502,8.5],[-63.45907,8.15963,8.5],[-63.44723,8.17154,8.5],[-63.42827,8.19885,15.9736],[-63.41576,8.21304,22.7053],[-63.40003,8.22193,16.9962],[-63.3824,8.22472,7.5],[-63.33081,8.21389,17.0535],[-63.31047,8.22554,17.4156],[-63.27156,8.27097,6.0],[-63.24957,8.28554,6.0],[-63.22549,8.2975,5.5],[-63.17464,8.31345,5.0],[-63.12588,8.32001,4.5],[-63.07583,8.3205,14.2769],[-62.9769,8.30952,13.2254],[-62.96171,8.28443,11.1292],[-62.93636,8.27027,8.496],[-62.90693,8.26689,12.033],[-62.8791,8.27412,3.0],[-62.84554,8.29394,3.0],[-62.83585,8.30252,3.0],[-62.82812,8.31257,9.0601],[-62.8158,8.33466,8.6094],[-62.80807,8.34468,3.0],[-62.78464,8.36582,3.0],[-62.77061,8.37525,12.0549],[-62.75771,8.37982,8.5468],[-62.74487,8.37939,4.9791],[-62.72105,8.37525,3.0],[-62.70777,8.37641,3.0],[-62.69661,8.37998,3.0],[-62.68583,8.38572,3.0],[-62.6941,8.40024,7.0],[-62.7034,8.40845,6.0],[-62.74128,8.42646,10.4586],[-62.74694,8.43235,11.4074],[-62.75004,8.43855,12.2884],[-62.74994,8.44476,15.0896],[-62.74885,8.45065,19.258],[-62.74461,8.46036,32.4403],[-62.74175,8.46463,35.6422],[-62.74066,8.46889,42.153],[-62.74275,8.47338,45.6607],[-62.98832,8.5526,87.2962],[-63.00341,8.56074,91.3939],[-63.02093,8.57488,97.0718],[-63.04072,8.59591,94.1864],[-63.04876,8.6149,93.4875],[-63.05317,8.63345,93.3125],[-63.05697,8.70389,79.1823],[-63.0554,8.70911,68.8561],[-63.0325,8.74037,58.17],[-63.03005,8.74487,54.6652],[-63.02868,8.75053,58.6563],[-63.02672,8.75564,73.6324],[-63.02426,8.76006,81.6642],[-63.02039,8.76308,83.0648],[-63.01566,8.76505,80.8174],[-63.01062,8.76613,73.6528],[-63.00506,8.76551,79.7389],[-62.98465,8.75804,83.9317],[-62.97899,8.7568,84.1267],[-62.97326,8.75634,77.3306],[-62.96793,8.75727,67.3667],[-62.96326,8.75936,69.2011],[-62.95912,8.7621,68.6306],[-62.95548,8.76536,67.5868],[-62.9492,8.77257,64.9146],[-62.9444,8.78171,74.7252],[-62.94928,8.79391,78.7261],[-62.97576,8.79484,97.3303],[-63.26949,8.77497,106.1794],[-63.28939,8.77551,96.2753],[-63.30094,8.77791,100.7244],[-63.30388,8.78179,100.1873],[-63.30851,8.78621,101.5662],[-63.31471,8.79047,108.6712],[-63.32659,8.79569,139.5951],[-63.33282,8.79933,143.8336],[-63.33698,8.80305,148.1366],[-63.33845,8.80538,148.416],[-63.34016,8.80902,144.4363],[-63.37135,8.91865,121.2722],[-63.40416,8.99005,91.236],[-63.41806,9.00826,100.3688],[-63.42302,9.01043,95.4636],[-63.43393,9.01371,104.3125],[-63.43878,9.01594,109.5733],[-63.44752,9.02116,106.9205],[-63.47364,9.03247,105.002],[-63.48847,9.04301,110.8852],[-63.49643,9.05133,112.2647],[-63.50457,9.06296,113.0122],[-63.50974,9.06831,115.3764],[-63.55573,9.10107,133.6464],[-63.5748,9.11006,141.2082],[-63.58836,9.1141,132.1371],[-63.59759,9.11797,137.4818],[-63.60208,9.12231,131.7109],[-63.61187,9.14319,134.0053],[-63.62149,9.1566,142.0342],[-63.62769,9.16314,138.5976],[-63.63363,9.16748,145.826],[-63.63864,9.16957,154.101],[-63.64422,9.17112,163.5005],[-63.65035,9.17213,160.4024],[-63.65686,9.17252,166.1815],[-63.66505,9.17422,157.7584],[-63.68029,9.18161,160.513],[-63.76013,9.23179,188.0268],[-63.77189,9.23628,180.8451],[-63.77752,9.23551,176.4057],[-63.78274,9.23419,189.0893],[-63.79582,9.22652,178.1463],[-63.80062,9.2245,179.5666],[-63.80695,9.2238,181.3298],[-63.81457,9.22458,195.2367],[-63.82612,9.22877,186.3401],[-63.83349,9.23047,187.3315],[-63.83966,9.23008,189.8672],[-63.844,9.22799,191.8754],[-63.84827,9.22543,200.6943],[-63.85214,9.22249,195.8013],[-63.8848,9.20564,205.4435],[-63.88979,9.20386,207.7076],[-63.89547,9.20277,211.5539],[-63.90258,9.20293,216.6859],[-63.9063,9.20548,227.1349],[-63.90832,9.20921,221.1215],[-63.91524,9.25127,180.6269],[-63.92036,9.26515,183.7732],[-63.95997,9.30225,216.4896],[-63.96878,9.31403,249.6856],[-63.97322,9.32388,266.8545],[-63.96733,9.37447,315.6065],[-63.96909,9.41103,277.969],[-63.96663,9.41669,292.3347],[-63.85674,9.53298,219.5621],[-63.85369,9.53756,234.3509],[-63.85106,9.54089,245.0107],[-63.84664,9.55061,248.8819],[-63.94299,9.70204,281.447],[-63.95224,9.72215,228.5648],[-63.95134,9.72912,251.7043],[-63.95229,9.74036,286.6293],[-63.95557,9.74767,307.3644],[-63.96167,9.75597,268.7374],[-63.96446,9.76217,291.1242],[-63.96557,9.76829,264.7897],[-63.96464,9.77405,273.1607],[-63.96283,9.77909,323.8354],[-63.96053,9.78367,313.6501],[-63.94891,9.79966,449.0701],[-63.94674,9.80571,561.7692],[-63.9455,9.81315,553.9774],[-63.94658,9.83418,645.3221],[-63.94557,9.84085,618.5237],[-63.94268,9.8448,506.849],[-63.93803,9.84705,654.085],[-63.93245,9.84821,576.2392],[-63.92702,9.85061,494.0943],[-63.92291,9.8548,526.8633],[-63.92121,9.86397,480.9497],[-63.92255,9.86979,351.6905],[-63.92524,9.87467,315.6183],[-63.9448,9.89648,435.7439],[-63.94886,9.89942,555.3326],[-63.95844,9.904,566.2515],[-63.97668,9.90841,688.4763],[-63.98319,9.91092,659.8411],[-63.99007,9.91619,669.8035],[-63.99077,9.92092,629.6122],[-63.98924,9.9258,684.0334],[-63.98676,9.93131,820.9321],[-63.98839,9.93526,815.4686],[-63.99234,9.93735,886.7834],[-63.9973,9.93844,760.9478],[-64.00555,9.93893,771.7011],[-64.02699,9.93441,834.808],[-64.03417,9.93565,696.0709],[-64.04247,9.9397,596.6001],[-64.05453,9.95218,575.2712],[-64.05924,9.96071,661.889],[-64.06167,9.96864,659.7518],[-64.06105,10.04543,984.4427],[-64.05893,10.05016,1022.5436],[-64.05575,10.05381,1214.6366],[-64.05172,10.0567,1260.4199],[-64.04725,10.05918,1141.0918],[-64.04231,10.06104,1206.8945],[-64.03689,10.06228,1177.7089],[-64.01252,10.06461,1485.1946],[-64.00601,10.06422,1516.619],[-63.9942,10.0622,1554.2405],[-63.98821,10.0622,1607.42],[-63.98312,10.0636,1724.9003],[-63.95632,10.07747,2177.0793],[-63.94883,10.08261,1952.7645],[-63.96728,10.10745,2092.9507],[-63.97916,10.11512,1854.571],[-64.02598,10.1276,1897.0306],[-64.03735,10.12915,1932.7307],[-64.04531,10.1283,1761.6113],[-64.04906,10.12527,1756.17],[-64.05962,10.11512,1658.6481],[-64.09577,10.09649,1896.8682],[-64.10634,10.09339,1877.0807],[-64.15383,10.07928,2188.4077],[-64.21468,10.07282,1439.3528],[-64.24695,10.07096,1090.5488],[-64.25982,10.07515,934.196],[-64.26747,10.08135,781.8478],[-64.29638,10.09874,1071.0784],[-64.30571,10.10137,1127.5869],[-64.31343,10.10207,1038.0029],[-64.33341,10.09626,1041.7511],[-64.34731,10.09463,780.0916],[-64.357,10.09773,786.9435],[-64.38544,10.11163,750.162],[-64.39387,10.11737,821.272],[-64.3996,10.12248,860.6218],[-64.40229,10.12729,872.6907],[-64.40673,10.13186,868.4579],[-64.41379,10.137,1021.6828],[-64.42493,10.13956,863.0976],[-64.43141,10.14266,670.564],[-64.43583,10.14623,645.119],[-64.43792,10.15096,738.5538],[-64.43901,10.15654,723.1093],[-64.43901,10.16274,536.2233],[-64.43836,10.16889,352.3232],[-64.43846,10.1761,195.3661],[-64.43976,10.18331,457.838],[-64.44575,10.19323,711.4597],[-64.45578,10.19953,650.5848],[-64.49694,10.21465,666.0844],[-64.51474,10.22351,650.961],[-64.52257,10.23599,218.3323],[-64.53469,10.25012,0.0],[-64.53607,10.25231,0.0]]]}
,"properties": {"ISO3166-1-Alpha-3": "VEN","country": "Venezuela","fill": "#F0F","name": "Anzoátegui","area_km2": 46746.01,"hist_schema_id": "Elevation0-9000","hist_area_km2": {"0": 931.99,"25": 3035.41,"50": 3456.61,"75": 5150.16,"100": 5645.82,"125": 4957.11,"150": 5087.05,"175": 4526.12,"200": 3273.14,"225": 2474.32,"250": 2002.83,"275": 1525.05,"300": 1259.57,"325": 788.18,"350": 476.64,"375": 352.65,"400": 262.97,"425": 189.12,"450": 112.61,"475": 89.77,"500": 71.92,"525": 61.04,"550": 60.12,"575": 59.72,"600": 55.02,"625": 52.37,"650": 50.51,"675": 46.61,"700": 43.79,"725": 38.11,"750": 34.01,"775": 31.28,"800": 29.98,"825": 28.15,"850": 25.14,"875": 24.66,"900": 21.97,"925": 21.59,"950": 17.39,"975": 16.79,"1000": 15.99,"1025": 13.4,"1050": 13.36,"1075": 12.44,"1100": 12.94,"1125": 11.78,"1150": 11.53,"1175": 10.4,"1200": 10.42,"1225": 9.42,"1250": 8.85,"1275": 8.89,"1300": 8.75,"1325": 8.18,"1350": 7.43,"1375": 7.2,"1400": 6.76,"1425": 6.3,"1450": 5.55,"1475": 6.05,"1500": 6.64,"1525": 6.53,"1550": 6.95,"1575": 6.24,"1600": 6.49,"1625": 6.3,"1650": 6.3,"1675": 6.37,"1700": 6.18,"1725": 6.03,"1750": 5.95,"1775": 5.85,"1800": 5.82,"1825": 5.05,"1850": 6.01,"1875": 5.64,"1900": 5.64,"1925": 4.97,"1950": 5.74,"1975": 4.78,"2000": 4.8,"2025": 4.28,"2050": 4.22,"2075": 3.57,"2100": 3.61,"2125": 3.19,"2150": 2.48,"2175": 2.88,"2200": 2.32,"2225": 2.25,"2250": 2.19,"2275": 1.42,"2300": 1.32,"2325": 1.32,"2350": 0.88,"2375": 0.77,"2400": 0.86}}}