{"type":"Feature","properties":{"GID_2":"VEN.25.8_1","GID_0":"VEN","country":"Venezuela","GID_1":"VEN.25_1","province":"Zulia","NL_NAME_1":"NA","county":"JesúsEnriqueLossada","VARNAME_2":"NA","NL_NAME_2":"NA","TYPE_2":"Municipio","ENGTYPE_2":"Municipality","CC_2":"NA","HASC_2":"NA","name":"Jesús_Enrique_Lossada.county"},
"geometry":{"type": "MultiPolygon","coordinates": [[[[-72.8834,10.3836,2578.3875],[-72.8617,10.3833,2872.2119],[-72.8491,10.379,2851.1111],[-72.8203,10.365,2869.6357],[-72.8115,10.3651,2512.4551],[-72.8062,10.3703,2182.5454],[-72.8039,10.3793,1905.3171],[-72.8035,10.4164,1370.9642],[-72.7968,10.4324,1180.9636],[-72.7845,10.4507,1140.4187],[-72.7807,10.452,986.457],[-72.7779,10.4498,1067.3127],[-72.7703,10.4307,1662.2788],[-72.7653,10.4319,1771.2908],[-72.7484,10.4593,1434.6934],[-72.7356,10.4988,794.3579],[-72.7194,10.5302,715.5251],[-72.7119,10.5435,714.4152],[-72.6832,10.5781,870.1538],[-72.6703,10.5875,668.0546],[-72.6315,10.6058,1507.6216],[-72.5516,10.636,907.9871],[-72.5357,10.6388,876.1039],[-72.5246,10.6392,704.5081],[-72.4904,10.6343,479.792],[-72.465,10.6402,897.8768],[-72.4487,10.64,769.0243],[-72.4089,10.6318,515.535],[-72.3944,10.6237,167.4888],[-72.3813,10.6127,143.2904],[-72.3718,10.5999,102.4114],[-72.3588,10.5756,99.7537],[-72.3424,10.5614,92.7251],[-72.3316,10.5421,83.9941],[-72.3088,10.5199,75.7802],[-72.3017,10.5076,71.9326],[-72.0822,10.5216,109.8694],[-71.9419,10.5229,99.6045],[-71.7583,10.5302,68.9854],[-71.7581,10.7995,65.0926],[-71.8551,10.7975,69.8969],[-72.1595,10.7859,55.9739],[-72.6804,10.7789,1527.8516],[-72.6821,10.7661,1389.5632],[-72.6795,10.764,1403.5505],[-72.6814,10.7616,1372.4709],[-72.6903,10.7568,1514.801],[-72.7056,10.7591,1757.0536],[-72.7122,10.7511,1802.97],[-72.7114,10.7494,1767.1577],[-72.7135,10.7412,1544.7012],[-72.7172,10.7394,1553.8998],[-72.7147,10.7345,1489.437],[-72.7195,10.72,1537.5109],[-72.7173,10.7091,1791.0474],[-72.7142,10.705,1712.5227],[-72.7273,10.6967,1667.7532],[-72.7298,10.6934,1785.939],[-72.733,10.6835,1843.7119],[-72.7331,10.6777,1726.4573],[-72.739,10.6677,1784.1978],[-72.7382,10.6539,2033.8098],[-72.7485,10.6481,1961.9596],[-72.7482,10.6375,1924.9801],[-72.7603,10.6257,1938.387],[-72.7805,10.6132,1925.649],[-72.7885,10.5966,2135.0808],[-72.7915,10.5864,2379.6204],[-72.8039,10.5783,2022.3242],[-72.8139,10.5741,2158.6477],[-72.8215,10.5677,2309.6284],[-72.8286,10.557,2191.1704],[-72.8264,10.5496,2190.8567],[-72.828,10.5472,2187.4004],[-72.8326,10.5443,2155.5371],[-72.8367,10.539,2184.4661],[-72.8429,10.5378,2240.1228],[-72.8396,10.5345,2176.8638],[-72.8387,10.5276,2265.5356],[-72.8345,10.5184,2372.8191],[-72.8363,10.5168,2538.8459],[-72.8366,10.5115,2449.3098],[-72.8437,10.5049,2316.188],[-72.842,10.497,2589.9343],[-72.8467,10.4922,2557.6436],[-72.8443,10.4869,2472.0515],[-72.8534,10.4806,2426.7812],[-72.8548,10.4735,2609.0815],[-72.8601,10.4736,2541.9509],[-72.8617,10.4634,2605.1985],[-72.8886,10.4518,3246.3132],[-72.8952,10.4506,3320.4312],[-72.897,10.4483,3322.8823],[-72.8961,10.4401,3215.8796],[-72.8989,10.4342,3249.4771],[-72.9018,10.4331,3239.408],[-72.8969,10.4309,3246.6108],[-72.8962,10.4289,3286.8047],[-72.8962,10.4177,2867.3274],[-72.8942,10.4114,2808.177],[-72.899,10.4077,2824.79],[-72.8993,10.4039,2926.748],[-72.8964,10.3984,2996.4346],[-72.8869,10.3936,2984.1167],[-72.8834,10.3836,2578.3875]]]]}}