{"type": "Feature","bbox": [-70.1269,9.3837,-70.0193,9.5705],"geometry": {"type": "MultiPolygon","coordinates": [[[[-70.1079,9.5705,3053.5754],[-70.1174,9.5638,3205.1572],[-70.0806,9.5178,2526.4426],[-70.0806,9.5079,2354.0359],[-70.0813,9.4979,2485.2593],[-70.0913,9.4901,2507.9375],[-70.0991,9.4808,2301.5173],[-70.1077,9.478,2215.001],[-70.1269,9.4559,2229.6011],[-70.1269,9.4466,2415.3264],[-70.1205,9.4402,2072.3086],[-70.107,9.4374,1857.8943],[-70.1027,9.4317,1915.3586],[-70.1027,9.4153,1979.3724],[-70.1091,9.3968,1770.5815],[-70.1091,9.3837,1842.7034],[-70.1086,9.3885,1873.1528],[-70.0954,9.4028,1903.929],[-70.0666,9.4257,1452.8936],[-70.0518,9.4396,1305.7278],[-70.0193,9.4758,2005.4871],[-70.0311,9.4851,2149.9277],[-70.044,9.4981,2074.0186],[-70.0663,9.526,2046.3289],[-70.0954,9.5543,2652.9014],[-70.1079,9.5705,3053.5754]]]]}
,"properties": {"GID_2": "VEN.22.8_1","GID_0": "VEN","country": "Venezuela","GID_1": "VEN.22_1","province": "Trujillo","NL_NAME_1": "NA","county": "JuanVicenteCamposElías","VARNAME_2": "NA","NL_NAME_2": "NA","TYPE_2": "Municipio","ENGTYPE_2": "Municipality","CC_2": "NA","HASC_2": "NA","name": "Juan_Vicente_Campos_Elías.county","area_km2": 87.54255,"hist_schema_id": "Elevation0-9000","hist_area_km2": {"1175": 0.06274,"1200": 0.06274,"1225": 0.10457,"1250": 0.12549,"1275": 0.10457,"1300": 0.25097,"1325": 0.41829,"1350": 0.25097,"1375": 0.4392,"1400": 0.50195,"1425": 0.83658,"1450": 0.64835,"1475": 0.54377,"1500": 0.62743,"1525": 0.87841,"1550": 0.79475,"1575": 0.50195,"1600": 0.85749,"1625": 0.81565,"1650": 0.85748,"1675": 0.77384,"1700": 0.77382,"1725": 1.21305,"1750": 1.17121,"1775": 1.31764,"1800": 1.38037,"1825": 1.63133,"1850": 1.71501,"1875": 2.21694,"1900": 2.44697,"1925": 3.1371,"1950": 2.88615,"1975": 3.4299,"2000": 3.24165,"2025": 3.76448,"2050": 3.22069,"2075": 3.97361,"2100": 3.72263,"2125": 3.59714,"2150": 3.3252,"2175": 3.55519,"2200": 3.11599,"2225": 2.57224,"2250": 1.73575,"2275": 2.13308,"2300": 1.44295,"2325": 1.17109,"2350": 1.23381,"2375": 0.94105,"2400": 0.94104,"2425": 0.66918,"2450": 0.39732,"2475": 0.52279,"2500": 0.31366,"2525": 0.27183,"2550": 0.29274,"2575": 0.10455,"2600": 0.29273,"2625": 0.23,"2650": 0.41818,"2675": 0.25091,"2700": 0.35545,"2725": 0.41818,"2750": 0.39727,"2775": 0.33454,"2800": 0.29273,"2825": 0.2509,"2850": 0.23,"2875": 0.41818,"2900": 0.31363,"2925": 0.29272,"2950": 0.33454,"2975": 0.31363,"3000": 0.18818,"3025": 0.22999,"3050": 0.14636,"3075": 0.14636,"3100": 0.31362,"3125": 0.2718,"3150": 0.06272,"3175": 0.18817,"3200": 0.25089,"3225": 0.16726,"3250": 0.08363,"3275": 0.08363,"3300": 0.02091,"3325": 0.10454,"3350": 0.06272,"3375": 0.04182}}}