{"type":"Feature","properties":{"GID_2":"VEN.7.13_1","GID_0":"VEN","country":"Venezuela","GID_1":"VEN.7_1","province":"Carabobo","NL_NAME_1":"NA","county":"SanDiego","VARNAME_2":"NA","NL_NAME_2":"NA","TYPE_2":"Municipio","ENGTYPE_2":"Municipality","CC_2":"NA","HASC_2":"NA","name":"San_Diego.county"},
"geometry":{"type": "MultiPolygon","coordinates": [[[[-67.91,10.3729,977.5127],[-67.9119,10.3724,1001.4836],[-67.9241,10.3567,1543.7863],[-67.9324,10.3521,1563.007],[-67.9443,10.3496,1769.1774],[-67.9484,10.3263,1142.3394],[-67.9537,10.3078,586.9236],[-67.9517,10.287,489.8434],[-67.9531,10.2556,467.2758],[-67.9509,10.2255,455.593],[-67.9611,10.2177,454.2353],[-67.9624,10.2106,456.2262],[-67.9608,10.1985,449.3345],[-67.957,10.1923,443.9018],[-67.936,10.1939,442.0737],[-67.9177,10.1986,435.9293],[-67.873,10.2188,436.1167],[-67.8692,10.2248,437.0477],[-67.8784,10.2321,445.6978],[-67.8883,10.2364,445.9231],[-67.8892,10.2402,446.7245],[-67.9017,10.2556,453.9953],[-67.9053,10.2651,456.1964],[-67.902,10.2858,466.1015],[-67.8838,10.3362,576.8556],[-67.8865,10.3496,823.2468],[-67.8898,10.355,862.294],[-67.91,10.3729,977.5127]]]]}}