{"type":"Feature","properties":{"GID_2":"VEN.4.12_1","GID_0":"VEN","country":"Venezuela","GID_1":"VEN.4_1","province":"Aragua","NL_NAME_1":"NA","county":"SanSebastián","VARNAME_2":"NA","NL_NAME_2":"NA","TYPE_2":"Municipio","ENGTYPE_2":"Municipality","CC_2":"NA","HASC_2":"NA","name":"San_Sebastián.county"},
"geometry":{"type": "MultiPolygon","coordinates": [[[[-67.0695,9.9119,400.9387],[-67.0758,9.9212,389.7903],[-67.0779,9.9346,551.684],[-67.0759,9.9462,613.2781],[-67.0662,9.9709,682.7119],[-67.0636,9.9863,557.0263],[-67.0594,9.9945,796.0092],[-67.0455,10.0109,1059.7684],[-67.038,10.0247,676.3436],[-67.0334,10.0391,1159.4971],[-67.0275,10.0653,1145.5656],[-67.0273,10.0788,616.168],[-67.0324,10.101,517.7438],[-67.0508,10.1019,608.0711],[-67.0626,10.1074,604.9961],[-67.0666,10.1119,566.0692],[-67.0876,10.1086,811.5437],[-67.1057,10.108,942.0297],[-67.1245,10.0959,938.7339],[-67.1485,10.0921,724.5646],[-67.1745,10.0915,809.5115],[-67.1926,10.0932,781.0718],[-67.2389,10.0991,553.962],[-67.2444,10.1024,533.387],[-67.2561,10.1043,551.5464],[-67.2784,10.1018,700.2495],[-67.2674,10.0944,731.0759],[-67.2605,10.0843,983.0342],[-67.2609,10.081,892.478],[-67.2736,10.0725,673.8363],[-67.2751,10.0696,788.3883],[-67.2749,10.0643,814.7214],[-67.2624,10.0567,573.1793],[-67.2481,10.0524,763.1293],[-67.2369,10.0345,854.2816],[-67.225,10.0228,447.0282],[-67.2246,10.0106,433.5873],[-67.2289,10.0044,564.5092],[-67.2344,9.9902,622.2767],[-67.2449,9.9766,669.7262],[-67.2447,9.9716,831.5934],[-67.2289,9.9512,576.0276],[-67.2233,9.9408,518.9133],[-67.1924,9.9393,356.4253],[-67.1771,9.9323,370.2852],[-67.1664,9.9233,347.6997],[-67.1386,9.879,413.277],[-67.113,9.8591,317.9106],[-67.1087,9.8531,326.7153],[-67.0895,9.8577,391.8232],[-67.0811,9.8684,446.2548],[-67.0766,9.8781,487.6875],[-67.0721,9.8986,387.4886],[-67.0716,9.9114,436.252],[-67.0695,9.9119,400.9387]]]]}}