{"type": "Feature","bbox": [-71.4024,8.6895,-70.9915,9.0468],"geometry": {"type": "MultiPolygon","coordinates": [[[[-71.1967,8.6895,3732.1162],[-71.1761,8.6927,3723.0122],[-71.1603,8.6902,3501.5789],[-71.1502,8.6906,3399.8767],[-71.1378,8.6948,3056.5476],[-71.0926,8.7177,2709.0337],[-71.06,8.7515,3076.5842],[-71.0473,8.7601,3372.3528],[-71.0244,8.7712,3899.4058],[-70.9918,8.7783,4350.5435],[-70.9915,8.8255,4436.9429],[-70.9955,8.8364,4299.7754],[-71.0019,8.8437,4346.2402],[-71.0082,8.8475,4139.3291],[-71.0152,8.8548,3743.4607],[-71.0183,8.8615,3434.8335],[-71.0178,8.8667,3478.2397],[-71.0205,8.8673,3278.3396],[-71.065,8.8727,2650.5198],[-71.0911,8.869,2338.4565],[-71.1111,8.8585,2477.7759],[-71.1437,8.8566,1830.4358],[-71.147,8.859,1666.1177],[-71.1498,8.8656,1510.0764],[-71.1529,8.8848,2420.5974],[-71.1638,8.9133,2178.8008],[-71.1716,8.9245,1859.6332],[-71.1929,8.9443,1082.2571],[-71.1962,8.9506,881.9943],[-71.1988,8.9769,662.5591],[-71.1941,8.993,515.521],[-71.1954,9.0049,215.8632],[-71.1994,9.0167,175.8657],[-71.2247,9.0453,25.7832],[-71.2275,9.0468,24.5033],[-71.2334,9.0466,25.872],[-71.2788,9.0212,35.0961],[-71.3459,8.9941,28.603],[-71.3672,8.9788,27.8966],[-71.3889,8.9595,24.7928],[-71.3933,8.9525,25.0546],[-71.4024,8.9286,24.8398],[-71.3952,8.928,26.6927],[-71.392,8.9223,29.6654],[-71.3856,8.8989,38.6003],[-71.3798,8.8883,51.0103],[-71.3701,8.876,82.0188],[-71.3666,8.868,120.4851],[-71.3689,8.8035,1137.4546],[-71.3643,8.7941,1348.3401],[-71.3579,8.7863,1884.4056],[-71.3402,8.7757,2515.5745],[-71.2878,8.7566,3359.3015],[-71.2575,8.7424,3710.5181],[-71.2082,8.7015,3903.0056],[-71.1967,8.6895,3732.1162]]]]}
,"properties": {"GID_2": "VEN.15.7_1","GID_0": "VEN","country": "Venezuela","GID_1": "VEN.15_1","province": "Mérida","NL_NAME_1": "NA","county": "CaraccioloParraOlmedo","VARNAME_2": "NA","NL_NAME_2": "NA","TYPE_2": "Municipio","ENGTYPE_2": "Municipality","CC_2": "NA","HASC_2": "NA","name": "Caracciolo_Parra_Olmedo.county","area_km2": 957.735,"hist_schema_id": "Elevation0-9000","hist_area_km2": {"25": 45.9691,"50": 69.7619,"75": 23.918,"100": 13.8233,"125": 9.802,"150": 8.0008,"175": 7.0165,"200": 6.3672,"225": 6.5976,"250": 6.9746,"275": 6.9746,"300": 6.2416,"325": 6.5766,"350": 6.7652,"375": 7.4983,"400": 7.1213,"425": 6.0113,"450": 5.76,"475": 4.5871,"500": 4.2102,"525": 4.1054,"550": 3.959,"575": 4.2522,"600": 3.8961,"625": 4.0427,"650": 3.184,"675": 3.2887,"700": 3.3725,"725": 3.3725,"750": 3.163,"775": 3.582,"800": 3.2468,"825": 3.1631,"850": 3.4145,"875": 3.3935,"900": 3.3517,"925": 3.0794,"950": 3.2679,"975": 2.9327,"1000": 3.3936,"1025": 3.5822,"1050": 3.8545,"1075": 3.645,"1100": 3.7079,"1125": 3.5193,"1150": 3.4565,"1175": 3.2889,"1200": 3.6241,"1225": 3.5403,"1250": 4.1898,"1275": 3.9803,"1300": 4.085,"1325": 4.2526,"1350": 3.7708,"1375": 4.6297,"1400": 4.3783,"1425": 4.0641,"1450": 4.8183,"1475": 3.8337,"1500": 4.1479,"1525": 4.4622,"1550": 4.3365,"1575": 4.2946,"1600": 4.6089,"1625": 4.3784,"1650": 4.2737,"1675": 4.3994,"1700": 4.5042,"1725": 3.8757,"1750": 4.6508,"1775": 4.3995,"1800": 4.3157,"1825": 4.5252,"1850": 4.3157,"1875": 4.2529,"1900": 4.1272,"1925": 4.4205,"1950": 4.63,"1975": 4.2739,"2000": 4.2949,"2025": 4.3787,"2050": 4.0225,"2075": 4.3788,"2100": 4.8187,"2125": 4.4207,"2150": 4.0646,"2175": 4.0855,"2200": 4.1484,"2225": 4.4627,"2250": 3.8551,"2275": 3.6037,"2300": 4.1484,"2325": 3.7085,"2350": 3.8342,"2375": 3.8552,"2400": 2.9752,"2425": 3.8552,"2450": 3.2476,"2475": 4.0438,"2500": 3.3733,"2525": 3.52,"2550": 3.8971,"2575": 2.9333,"2600": 3.7714,"2625": 3.2476,"2650": 3.8552,"2675": 4.0019,"2700": 3.4781,"2725": 4.0229,"2750": 3.7924,"2775": 3.4782,"2800": 3.981,"2825": 4.0858,"2850": 3.8763,"2875": 4.3582,"2900": 3.7506,"2925": 3.6248,"2950": 3.8972,"2975": 3.6039,"3000": 4.4421,"3025": 3.9601,"3050": 4.0649,"3075": 3.8554,"3100": 3.8763,"3125": 3.4154,"3150": 3.9392,"3175": 4.1069,"3200": 3.9811,"3225": 3.6669,"3250": 4.3793,"3275": 3.9393,"3300": 4.5679,"3325": 4.3793,"3350": 3.9812,"3375": 4.2326,"3400": 4.526,"3425": 4.4421,"3450": 4.9031,"3475": 4.7146,"3500": 3.8555,"3525": 4.5679,"3550": 5.029,"3575": 4.9661,"3600": 4.8613,"3625": 4.6519,"3650": 4.7356,"3675": 4.8824,"3700": 5.3015,"3725": 5.029,"3750": 5.05,"3775": 5.5739,"3800": 5.8253,"3825": 5.1968,"3850": 6.035,"3875": 6.3703,"3900": 5.8883,"3925": 7.46,"3950": 7.3343,"3975": 7.5648,"4000": 7.5438,"4025": 7.4599,"4050": 8.6753,"4075": 8.1933,"4100": 8.8218,"4125": 7.1455,"4150": 8.5494,"4175": 7.7112,"4200": 6.7472,"4225": 6.3072,"4250": 5.9508,"4275": 5.5107,"4300": 4.7564,"4325": 4.442,"4350": 4.1276,"4375": 3.4152,"4400": 3.5409,"4425": 2.64,"4450": 2.2837,"4475": 1.5923,"4500": 1.299,"4525": 0.88,"4550": 0.5447,"4575": 0.1886,"4600": 0.1257,"4625": 0.0838,"4650": 0.0419}}}