{"type":"Feature","properties":{"GID_2":"VEN.24.14_1","GID_0":"VEN","country":"Venezuela","GID_1":"VEN.24_1","province":"Yaracuy","NL_NAME_1":"NA","county":"Veroes","VARNAME_2":"NA","NL_NAME_2":"NA","TYPE_2":"Municipio","ENGTYPE_2":"Municipality","CC_2":"NA","HASC_2":"NA","name":"Veroes.county"},
"geometry":{"type": "MultiPolygon","coordinates": [[[[-68.3439,10.4019,341.5045],[-68.3405,10.4385,260.7791],[-68.3345,10.452,87.5243],[-68.329,10.4794,23.0137],[-68.3326,10.545,4.9883],[-68.3159,10.5759,6.4601],[-68.3076,10.5789,4.6912],[-68.2669,10.5816,11.0425],[-68.2536,10.584,6.0107],[-68.2399,10.5827,0.0],[-68.2657,10.6221,0.0],[-68.4262,10.626,16.4111],[-68.468,10.6295,24.7465],[-68.4895,10.6321,26.5025],[-68.5272,10.6394,42.041],[-68.5466,10.6446,51.1832],[-68.5689,10.6539,75.0553],[-68.562,10.6415,55.0405],[-68.562,10.6206,36.4535],[-68.5705,10.5817,54.731],[-68.5335,10.5266,201.7164],[-68.5762,10.4649,36.4128],[-68.5648,10.4592,37.6799],[-68.5629,10.4156,53.399],[-68.561,10.352,257.3589],[-68.5667,10.3225,383.08],[-68.5686,10.2865,724.542],[-68.5704,10.281,695.6301],[-68.5652,10.279,575.1691],[-68.549,10.2655,379.1384],[-68.5392,10.262,337.9961],[-68.4974,10.265,804.1691],[-68.4705,10.2622,572.5743],[-68.445,10.2658,399.9851],[-68.4423,10.2746,453.84],[-68.4528,10.3131,442.6987],[-68.4544,10.3301,383.5068],[-68.4513,10.3472,544.5568],[-68.4359,10.3717,616.2053],[-68.4174,10.3829,612.8409],[-68.3443,10.3979,261.4071],[-68.3439,10.4019,341.5045]]]]}}