{"type": "Feature","bbox": [-72.4762,7.6447,-72.3484,7.8595],"geometry": {"type": "MultiPolygon","coordinates": [[[[-72.4762,7.6471,929.9922],[-72.4643,7.6504,1337.3301],[-72.4561,7.6497,1596.4548],[-72.4379,7.6447,1702.8784],[-72.4337,7.667,1379.6073],[-72.4315,7.6692,1154.1809],[-72.4144,7.6749,1135.0933],[-72.4055,7.6802,1128.6587],[-72.4122,7.685,1087.3649],[-72.4159,7.6897,1016.5184],[-72.4188,7.7034,959.4551],[-72.4153,7.7135,1022.1515],[-72.3937,7.7464,1313.5784],[-72.3849,7.7553,1282.5978],[-72.3725,7.7629,1370.9668],[-72.3652,7.7635,1190.1986],[-72.3484,7.7608,1221.2817],[-72.3493,7.7686,1219.3577],[-72.3556,7.784,1300.324],[-72.3911,7.8253,916.8729],[-72.4067,7.8531,1180.9551],[-72.4331,7.8563,444.2683],[-72.445,7.8595,355.1064],[-72.4451,7.8548,362.1822],[-72.4468,7.8525,362.2693],[-72.4461,7.8497,366.9146],[-72.4476,7.8484,368.8037],[-72.4469,7.8456,371.2718],[-72.4494,7.8394,381.1554],[-72.4479,7.8365,389.4926],[-72.4499,7.8322,390.1718],[-72.4475,7.8283,402.2964],[-72.45,7.8271,397.5014],[-72.4492,7.823,404.8289],[-72.4522,7.8189,415.4856],[-72.451,7.8165,415.0357],[-72.4537,7.8148,418.7538],[-72.4563,7.8074,434.2285],[-72.4587,7.8066,439.1416],[-72.4613,7.8008,447.158],[-72.4639,7.8007,448.2553],[-72.4672,7.7943,463.5137],[-72.4671,7.7888,473.5895],[-72.4691,7.7853,482.981],[-72.4671,7.7785,498.2474],[-72.4695,7.7716,511.1735],[-72.469,7.7682,524.7924],[-72.4707,7.7661,520.1112],[-72.47,7.7635,552.3131],[-72.4733,7.7581,538.2485],[-72.4729,7.749,557.1833],[-72.4712,7.747,588.1558],[-72.4725,7.7439,581.8191],[-72.471,7.7411,607.5875],[-72.4704,7.729,682.9662],[-72.4719,7.7186,634.4104],[-72.4704,7.7166,675.7934],[-72.4699,7.7043,674.2369],[-72.4738,7.698,724.9258],[-72.4728,7.69,758.8427],[-72.4747,7.6818,843.3325],[-72.473,7.6721,802.2966],[-72.4712,7.6704,882.4949],[-72.4734,7.6674,818.5689],[-72.4729,7.6608,878.5054],[-72.4747,7.6564,973.8775],[-72.4722,7.6517,1062.4048],[-72.4734,7.6486,1017.1028],[-72.4762,7.6471,929.9922]]]]}
,"properties": {"GID_2": "VEN.21.4_1","GID_0": "VEN","country": "Venezuela","GID_1": "VEN.21_1","province": "Táchira","NL_NAME_1": "NA","county": "Bolívar","VARNAME_2": "NA","NL_NAME_2": "NA","TYPE_2": "Municipio","ENGTYPE_2": "Municipality","CC_2": "NA","HASC_2": "NA","name": "Bolívar.county","area_km2": 177.1194,"hist_schema_id": "Elevation0-9000","hist_area_km2": {"350": 0.147,"375": 1.6803,"400": 3.0036,"425": 3.7389,"450": 3.739,"475": 3.9281,"500": 3.529,"525": 4.1802,"550": 4.8315,"575": 3.7182,"600": 3.067,"625": 3.4871,"650": 4.0544,"675": 4.1384,"700": 4.2855,"725": 4.5586,"750": 5.0629,"775": 4.7898,"800": 5.6932,"825": 5.5462,"850": 5.0841,"875": 4.874,"900": 5.1892,"925": 5.2102,"950": 5.6724,"975": 5.3783,"1000": 4.5378,"1025": 5.1472,"1050": 5.3572,"1075": 4.769,"1100": 4.8951,"1125": 4.874,"1150": 4.8741,"1175": 3.9287,"1200": 3.8447,"1225": 4.2438,"1250": 3.0043,"1275": 2.6471,"1300": 3.0043,"1325": 2.8993,"1350": 1.8068,"1375": 1.2186,"1400": 0.7353,"1425": 0.6304,"1450": 0.7354,"1475": 0.5673,"1500": 0.6094,"1525": 0.4623,"1550": 0.2942,"1575": 0.5253,"1600": 0.3152,"1625": 0.3362,"1650": 0.2942,"1675": 0.2942,"1700": 0.2732,"1725": 0.2942,"1750": 0.2101,"1775": 0.1891,"1800": 0.2522,"1825": 0.0841,"1850": 0.1261,"1875": 0.0841,"1900": 0.0841,"1925": 0.063,"1950": 0.021}}}