{"type":"Feature","properties":{"GID_1":"VEN.4_1","GID_0":"VEN","country":"Venezuela","province":"Aragua","VARNAME_1":"NA","NL_NAME_1":"NA","TYPE_1":"Estado","ENGTYPE_1":"State","CC_1":"NA","HASC_1":"NA","ISO_1":"VE-D","name":"Aragua.province"},
"geometry":{"type": "MultiPolygon","coordinates": [[[[-66.6524,9.9913,693.1686],[-66.6629,9.9882,827.2014],[-66.6761,9.9874,694.6506],[-66.6851,9.9899,745.6223],[-66.694,10.0029,625.8822],[-66.703,10.0114,638.4606],[-66.7168,10.0162,920.2092],[-66.7537,10.0353,873.9058],[-66.7651,10.0396,1012.1938],[-66.7866,10.0434,596.8281],[-66.8125,10.0429,629.2463],[-66.8548,10.0372,643.7948],[-66.877,10.0321,1173.4578],[-66.8963,10.0336,808.2933],[-66.9118,10.043,691.1406],[-66.9427,10.079,711.647],[-66.9573,10.0893,661.9186],[-66.9714,10.0948,554.7395],[-67.0508,10.1019,608.0711],[-67.0626,10.1074,604.9961],[-67.0698,10.1175,539.5762],[-67.0821,10.1539,917.5704],[-67.0942,10.1808,799.9743],[-67.0832,10.2241,893.9546],[-67.073,10.2509,663.3738],[-67.0732,10.2635,584.3152],[-67.0797,10.2765,882.6273],[-67.0901,10.2858,819.4588],[-67.1269,10.3125,1407.106],[-67.1337,10.3273,1501.8357],[-67.1392,10.3625,1845.3589],[-67.1444,10.3784,1795.9364],[-67.157,10.4006,2038.4036],[-67.1756,10.4225,1871.2772],[-67.204,10.4388,1724.7705],[-67.2181,10.4425,1685.3621],[-67.2407,10.443,1538.0811],[-67.2637,10.4358,1509.6777],[-67.2767,10.4258,1945.616],[-67.2862,10.4146,1975.0883],[-67.2933,10.4022,1917.4675],[-67.3022,10.4015,2164.2073],[-67.314,10.4063,2165.2124],[-67.3186,10.4149,1841.4752],[-67.3222,10.4582,649.3363],[-67.3272,10.4709,766.7346],[-67.3357,10.4815,777.9857],[-67.3457,10.4905,602.7614],[-67.3539,10.5023,681.065],[-67.3646,10.5385,23.0818],[-67.3718,10.5376,0.0],[-67.3776,10.534,1.9851],[-67.3907,10.534,0.0],[-67.3926,10.5324,20.2648],[-67.3971,10.5335,0.0],[-67.3988,10.5301,26.2803],[-67.4004,10.5304,13.3006],[-67.3996,10.5346,0.0],[-67.4071,10.534,3.5577],[-67.4146,10.536,0.0],[-67.4324,10.5332,45.2847],[-67.4385,10.5354,9.1927],[-67.4388,10.5326,30.3841],[-67.4426,10.534,0.0],[-67.4443,10.531,13.3353],[-67.4501,10.5326,0.0],[-67.4587,10.5312,20.3842],[-67.4635,10.5357,0.0],[-67.4701,10.5374,0.0],[-67.4737,10.5324,42.29],[-67.4751,10.5351,17.128],[-67.4768,10.5351,0.0],[-67.486,10.5321,0.0],[-67.4871,10.5299,56.2802],[-67.489,10.531,4.882],[-67.4982,10.5304,43.7881],[-67.501,10.5276,61.1269],[-67.5099,10.5274,0.0],[-67.514,10.5221,0.0],[-67.5193,10.524,0.0],[-67.5254,10.5229,76.6172],[-67.5338,10.5254,76.5308],[-67.5346,10.5274,0.0],[-67.5374,10.5271,0.0],[-67.5437,10.524,14.9471],[-67.5432,10.521,3.582],[-67.5451,10.5196,2.6931],[-67.5554,10.5226,0.0],[-67.5579,10.5215,6.0585],[-67.5612,10.5162,4.2995],[-67.5671,10.5162,60.8379],[-67.5715,10.5182,0.0],[-67.5735,10.5135,21.1814],[-67.581,10.5087,116.195],[-67.5865,10.5088,0.0],[-67.589,10.5071,2.9564],[-67.594,10.5082,4.8323],[-67.5963,10.5068,4.6439],[-67.5982,10.5079,8.4446],[-67.5985,10.5118,45.4924],[-67.604,10.5124,0.0],[-67.6099,10.5093,0.0],[-67.6118,10.5065,16.8581],[-67.616,10.5057,17.7738],[-67.6176,10.5024,0.0],[-67.6351,10.5026,0.0],[-67.6379,10.501,0.0],[-67.646,10.5026,0.0],[-67.6574,10.5001,27.8885],[-67.6624,10.4968,10.7023],[-67.6696,10.4999,0.0],[-67.6846,10.4996,4.7068],[-67.6851,10.4971,10.1819],[-67.6893,10.4968,3.483],[-67.6946,10.4999,0.0],[-67.6954,10.5021,0.0],[-67.711,10.504,0.0],[-67.7115,10.5018,26.6353],[-67.7165,10.4985,69.0503],[-67.7299,10.4982,29.9883],[-67.7351,10.501,0.0],[-67.7354,10.4999,0.0],[-67.7326,10.499,0.0],[-67.7335,10.496,26.4846],[-67.7365,10.4929,1.7168],[-67.7407,10.4929,2.7841],[-67.7446,10.4951,2.004],[-67.7435,10.4996,0.0],[-67.7518,10.4996,11.4712],[-67.7549,10.4968,48.6399],[-67.7632,10.4954,0.0],[-67.7624,10.4935,21.386],[-67.7637,10.4896,3.1644],[-67.7679,10.4879,1.714],[-67.7771,10.4893,1.5602],[-67.7796,10.4913,0.0],[-67.7871,10.4907,0.0],[-67.7871,10.4879,11.3327],[-67.7885,10.4874,0.0],[-67.7946,10.4899,0.0],[-67.8021,10.4893,0.0],[-67.8046,10.4862,0.0],[-67.8032,10.4835,5.8848],[-67.8057,10.4818,7.8154],[-67.8074,10.4776,0.7367],[-67.804,10.4712,0.0],[-67.8076,10.4707,0.0],[-67.8104,10.4671,0.0],[-67.8132,10.4685,2.5081],[-67.8138,10.4751,0.0],[-67.8126,10.4754,0.0],[-67.8121,10.4726,0.0],[-67.8104,10.4729,0.917],[-67.809,10.4796,0.727],[-67.8115,10.4796,0.6403],[-67.8118,10.4818,0.6334],[-67.8165,10.4829,0.2381],[-67.8163,10.4854,0.0],[-67.8199,10.4835,28.7698],[-67.821,10.4857,3.8882],[-67.8235,10.486,7.5288],[-67.8229,10.4832,7.8357],[-67.8246,10.481,2.135],[-67.8307,10.4801,53.7008],[-67.8308,10.4094,668.1802],[-67.8276,10.3931,1163.9872],[-67.8172,10.3799,810.2262],[-67.7878,10.362,967.128],[-67.7725,10.3559,1232.3115],[-67.7536,10.3598,1026.0625],[-67.7341,10.3718,480.7046],[-67.7134,10.378,458.9189],[-67.6934,10.3683,809.0125],[-67.6549,10.3616,1735.3265],[-67.6131,10.3312,948.2361],[-67.6108,10.322,1049.6985],[-67.6113,10.3039,778.236],[-67.6079,10.2793,450.3378],[-67.6176,10.2681,447.8776],[-67.6301,10.2571,441.0092],[-67.6231,10.2524,438.8339],[-67.611,10.2386,433.4811],[-67.5843,10.2286,435.3331],[-67.5746,10.2199,428.7712],[-67.56,10.2129,431.4035],[-67.5559,10.2096,434.2778],[-67.5533,10.2039,433.8277],[-67.5551,10.198,431.6025],[-67.5654,10.1871,425.5288],[-67.5619,10.1546,429.0876],[-67.5633,10.1412,426.0863],[-67.567,10.1293,424.221],[-67.5715,10.1282,423.4],[-67.5769,10.1306,423.9307],[-67.5825,10.1369,421.7374],[-67.586,10.1375,421.7844],[-67.5904,10.1235,422.0415],[-67.5949,10.1224,422.1814],[-67.6005,10.1254,414.458],[-67.6031,10.1362,414.1686],[-67.6016,10.1561,415.1448],[-67.6039,10.1615,411.5],[-67.6066,10.1615,411.5],[-67.6274,10.151,411.5],[-67.637,10.1492,411.5],[-67.6365,10.1167,411.5],[-67.6394,10.1036,435.8236],[-67.6498,10.0839,631.9659],[-67.653,10.0713,644.302],[-67.6525,10.0635,645.7012],[-67.6449,10.0548,694.4219],[-67.6102,10.0394,659.2654],[-67.5449,10.0351,597.9806],[-67.5324,10.0326,553.4731],[-67.5233,10.0251,613.7812],[-67.5117,10.0056,957.6722],[-67.5078,9.9879,897.5096],[-67.5083,9.983,849.2241],[-67.5008,9.981,675.0067],[-67.4821,9.9812,893.4609],[-67.4627,9.9859,615.9298],[-67.4275,9.9983,530.2505],[-67.4081,10.0014,828.5809],[-67.3881,9.9971,588.1608],[-67.3453,9.9721,533.639],[-67.3277,9.9666,476.3549],[-67.3054,9.9634,585.83],[-67.2898,9.9633,568.6486],[-67.2786,9.9591,587.8765],[-67.2653,9.95,472.231],[-67.2475,9.9409,531.0364],[-67.2073,9.9409,467.8102],[-67.1924,9.9393,356.4253],[-67.1771,9.9323,370.2852],[-67.1664,9.9233,347.6997],[-67.1386,9.879,413.277],[-67.113,9.8591,317.9106],[-67.0969,9.8366,350.9648],[-67.0842,9.8288,500.8365],[-67.0582,9.8247,415.0443],[-67.0472,9.818,298.0],[-67.0265,9.7972,302.2847],[-67.0122,9.7873,316.5928],[-66.9839,9.7805,309.5222],[-66.9789,9.7747,335.2206],[-66.9688,9.7457,445.0763],[-66.9631,9.7397,561.7746],[-66.9464,9.7301,457.8254],[-66.9108,9.7172,234.1728],[-66.8914,9.7066,221.7409],[-66.871,9.6907,217.2348],[-66.8682,9.6816,218.5439],[-66.867,9.6399,215.6578],[-66.8695,9.6243,215.732],[-66.8757,9.6069,198.9448],[-66.8898,9.5918,194.8963],[-66.9076,9.5802,187.4619],[-66.93,9.5723,190.7],[-66.9644,9.5635,177.3424],[-66.982,9.5482,186.132],[-67.0095,9.4985,182.6733],[-67.0112,9.4894,177.6075],[-67.0096,9.4769,194.8592],[-67.0022,9.4663,162.7043],[-66.9912,9.4594,158.5696],[-66.9734,9.4557,159.4316],[-66.956,9.449,171.7652],[-66.9378,9.437,173.577],[-66.8372,9.319,156.1047],[-66.7965,9.2824,158.417],[-66.7553,9.2481,146.9991],[-66.7393,9.2385,152.6315],[-66.7292,9.2354,144.1936],[-66.7124,9.2377,145.1885],[-66.7078,9.241,146.3104],[-66.6899,9.2608,148.2068],[-66.661,9.2979,155.9763],[-66.6175,9.3471,157.2721],[-66.6071,9.3685,160.0069],[-66.6004,9.3871,166.5327],[-66.5952,9.4284,178.5789],[-66.5882,9.4448,172.9716],[-66.5777,9.4864,181.8375],[-66.5961,9.5196,206.2585],[-66.5996,9.5384,209.1378],[-66.5965,9.5599,219.0171],[-66.5885,9.5881,224.9477],[-66.5863,9.6558,262.2427],[-66.6201,9.7014,270.6615],[-66.6322,9.7145,261.3258],[-66.6388,9.7286,280.2231],[-66.6386,9.7392,337.1805],[-66.6334,9.7486,281.8913],[-66.6389,9.7483,287.6964],[-66.6358,9.7591,306.2744],[-66.6318,9.7682,354.1516],[-66.6193,9.786,390.2662],[-66.6131,9.802,414.4815],[-66.6099,9.8206,419.9927],[-66.6104,9.8506,436.0738],[-66.6068,9.8822,701.9843],[-66.609,9.8956,668.3062],[-66.6155,9.9056,571.8021],[-66.6208,9.9176,594.1447],[-66.6228,9.9271,618.094],[-66.6177,9.956,824.9573],[-66.6183,9.9627,859.5634],[-66.6291,9.9847,715.6202],[-66.6356,9.9905,574.3062],[-66.6524,9.9913,693.1686]]]]}}