{"type": "Feature","id": "41","bbox": [-67.87588,9.39162,-66.54306,10.54308],"geometry": {"type": "Polygon","coordinates": [[[-67.402,10.51057,433.7211],[-67.40234,10.51065,433.7211],[-67.40273,10.51112,381.741],[-67.40319,10.51197,381.741],[-67.40389,10.51391,225.1133],[-67.40513,10.5153,166.4146],[-67.40343,10.5198,79.9132],[-67.39219,10.53897,0.0],[-67.39173,10.54308,0.0],[-67.39175,10.54308,0.0],[-67.47818,10.53408,0.0],[-67.56017,10.52827,0.0],[-67.64501,10.50601,0.0],[-67.77758,10.496,0.0],[-67.81778,10.48762,0.0],[-67.84838,10.47407,0.0],[-67.8507,10.46947,0.0],[-67.85782,10.4593,4.0606],[-67.86539,10.45222,25.2845],[-67.86889,10.45698,181.717],[-67.86921,10.46125,213.5027],[-67.86921,10.46128,213.5027],[-67.87301,10.4496,213.1956],[-67.875,10.43608,353.7924],[-67.87588,10.39652,1143.3763],[-67.87422,10.37944,1108.1865],[-67.85994,10.35725,1159.4067],[-67.81875,10.32242,853.3306],[-67.81407,10.32056,850.7665],[-67.80896,10.32017,945.9519],[-67.80361,10.3211,1063.8486],[-67.79872,10.32296,1367.3932],[-67.79438,10.3256,1602.6243],[-67.7826,10.33446,1111.7681],[-67.77395,10.33965,1318.4137],[-67.76917,10.34175,1249.4994],[-67.76366,10.34314,1381.0913],[-67.75764,10.34361,1449.5464],[-67.75147,10.3433,1380.8865],[-67.74573,10.34198,1540.0533],[-67.72144,10.3311,1198.5453],[-67.71558,10.33009,1226.3535],[-67.70943,10.32947,1317.0271],[-67.69212,10.33157,894.756],[-67.68648,10.3311,856.6755],[-67.68119,10.32971,611.201],[-67.67638,10.32746,646.6237],[-67.67196,10.32436,697.5055],[-67.66793,10.32033,648.2211],[-67.65628,10.30614,710.2797],[-67.65411,10.29984,589.9359],[-67.65349,10.29116,571.1237],[-67.65687,10.27454,508.3661],[-67.65969,10.26563,456.7259],[-67.66284,10.25896,438.392],[-67.66902,10.24935,411.5],[-67.67005,10.24444,411.5],[-67.66995,10.23467,411.5],[-67.6545,10.11039,550.8679],[-67.6545,10.10393,452.8546],[-67.65568,10.09688,578.2651],[-67.66023,10.08843,740.1287],[-67.66411,10.08323,812.7335],[-67.66827,10.07902,907.8514],[-67.68421,10.06747,950.1076],[-67.68736,10.06329,779.7605],[-67.68855,10.05716,833.2602],[-67.68816,10.04179,687.8374],[-67.68886,10.03528,695.3125],[-67.69002,10.02954,742.5767],[-67.69018,10.02435,788.036],[-67.68731,10.02138,872.4592],[-67.68111,10.02091,730.0347],[-67.66217,10.03288,724.8273],[-67.58778,10.00208,730.0581],[-67.58331,10.00107,892.6481],[-67.57838,10.00045,774.952],[-67.57378,10.00068,702.0958],[-67.56584,10.00184,772.9197],[-67.55324,9.99399,1014.7527],[-67.53412,9.95149,708.1727],[-67.46161,9.97694,610.2701],[-67.44283,9.98585,515.5762],[-67.43608,9.98639,588.1804],[-67.43298,9.98585,705.4047],[-67.42813,9.9874,542.6648],[-67.36108,9.93665,435.3281],[-67.34061,9.92642,400.9218],[-67.31253,9.93128,402.3654],[-67.28558,9.93138,406.0615],[-67.28103,9.92898,455.9567],[-67.27721,9.92448,446.4904],[-67.27408,9.91885,377.4247],[-67.26873,9.91219,365.4534],[-67.26385,9.91113,357.3465],[-67.25935,9.91201,353.8697],[-67.25504,9.91412,352.5681],[-67.23891,9.91805,412.7636],[-67.2254,9.92374,441.5844],[-67.21184,9.92433,374.5104],[-67.18135,9.91983,430.5466],[-67.17295,9.9119,403.1966],[-67.1676,9.90524,419.921],[-67.14587,9.85759,459.2834],[-67.14161,9.85061,405.6689],[-67.13471,9.84154,375.7803],[-67.11458,9.82361,420.1583],[-67.1091,9.81772,417.2137],[-67.10634,9.81408,515.0468],[-67.10161,9.79951,406.416],[-67.07283,9.7877,378.8715],[-67.05756,9.78607,435.6166],[-67.05112,9.78467,371.5144],[-67.0452,9.78134,358.2252],[-67.04001,9.7732,367.0572],[-67.03707,9.76705,319.7917],[-67.03249,9.76155,333.5538],[-67.02637,9.75744,349.1671],[-67.0141,9.75395,311.7213],[-67.00634,9.75287,336.7778],[-66.9965,9.7524,468.5846],[-66.99128,9.75163,503.5487],[-66.98622,9.75,413.1284],[-66.97376,9.73726,472.4911],[-66.94854,9.69173,385.7118],[-66.93146,9.68825,286.4801],[-66.92622,9.68589,252.957],[-66.90911,9.67497,214.5258],[-66.90392,9.67318,235.7191],[-66.89775,9.67248,235.6133],[-66.8855,9.67342,214.2869],[-66.87343,9.67551,223.7665],[-66.86609,9.67559,220.6072],[-66.85873,9.67225,202.9127],[-66.85757,9.66848,197.9376],[-66.8564,9.66026,196.8053],[-66.85785,9.63962,191.3073],[-66.85511,9.61037,196.2214],[-66.85586,9.60456,184.8723],[-66.85723,9.59905,184.1523],[-66.87638,9.56177,179.312],[-66.88713,9.54601,179.0717],[-66.8947,9.53903,176.4201],[-66.89899,9.53655,186.6172],[-66.90392,9.53461,177.0377],[-66.93345,9.53012,170.4977],[-66.95433,9.52363,181.5291],[-66.98051,9.50932,165.6007],[-66.98389,9.50562,162.6291],[-66.98624,9.50089,162.6244],[-66.99242,9.48299,159.6947],[-66.99805,9.4717,162.8757],[-67.00169,9.45973,156.9978],[-66.99733,9.45229,156.6606],[-66.99058,9.45198,156.3433],[-66.96146,9.45725,169.7021],[-66.88165,9.45989,187.9226],[-66.85945,9.45694,183.0303],[-66.84982,9.45384,181.57],[-66.83033,9.4433,203.2195],[-66.80974,9.43446,212.7961],[-66.80018,9.43188,213.2925],[-66.76186,9.42723,197.976],[-66.74241,9.4225,203.0472],[-66.72393,9.41506,188.1749],[-66.69391,9.39806,174.2956],[-66.68582,9.3948,174.4944],[-66.6797,9.39348,183.048],[-66.62319,9.39162,175.7478],[-66.60272,9.39348,170.2254],[-66.59381,9.3955,166.8201],[-66.58528,9.39868,166.2838],[-66.58056,9.40193,167.2621],[-66.57549,9.40948,173.3806],[-66.55844,9.4609,189.0631],[-66.55658,9.47092,186.2434],[-66.55759,9.48007,181.8062],[-66.5634,9.4911,180.651],[-66.57115,9.50063,184.198],[-66.57322,9.50498,185.5254],[-66.57575,9.51311,187.8199],[-66.5742,9.52771,189.3526],[-66.57154,9.53957,194.1549],[-66.56774,9.55107,195.3485],[-66.55069,9.59032,219.3809],[-66.54407,9.6112,222.976],[-66.54306,9.62275,216.4337],[-66.54555,9.63401,234.6434],[-66.55428,9.65021,238.2591],[-66.56262,9.65982,232.8851],[-66.57123,9.66783,230.8069],[-66.59691,9.6838,249.3744],[-66.60453,9.69011,248.1807],[-66.6113,9.69685,266.7291],[-66.61704,9.70755,271.0016],[-66.62107,9.72098,298.6031],[-66.6236,9.74245,281.3824],[-66.62275,9.75481,296.5362],[-66.61776,9.76418,320.1332],[-66.60944,9.76876,369.136],[-66.5996,9.77274,321.2253],[-66.59167,9.77878,360.7825],[-66.58655,9.78746,452.9159],[-66.58376,9.79878,460.791],[-66.5835,9.81183,419.892],[-66.58477,9.82532,428.0305],[-66.61275,9.96645,933.5356],[-66.66593,9.97322,805.5093],[-66.68574,9.98205,865.4739],[-66.69579,9.98856,799.5959],[-66.7029,9.99073,941.9347],[-66.70949,9.99112,1081.7329],[-66.71812,9.99027,1080.4143],[-66.74817,9.99112,987.0838],[-66.75626,9.9943,932.4584],[-66.76101,9.99758,1165.5492],[-66.76292,10.00068,1027.6947],[-66.7731,10.00921,891.8441],[-66.79142,10.01277,864.9756],[-66.8215,10.01541,673.3438],[-66.83522,10.01231,901.091],[-66.86501,10.00053,1220.5393],[-66.87852,9.99983,1335.4683],[-66.88139,10.00099,1352.6831],[-66.88498,10.00301,1357.1997],[-66.88953,10.00611,1374.3326],[-66.90958,10.01107,1368.7682],[-66.92371,10.00998,1410.615],[-66.92989,10.01308,1468.2126],[-66.9341,10.01867,1303.7827],[-66.93756,10.0258,858.3584],[-66.94777,10.03481,656.9304],[-66.9565,10.04729,720.0432],[-66.95826,10.05143,809.3784],[-66.96412,10.0598,1056.1062],[-66.97865,10.07158,1100.2242],[-66.9843,10.07375,950.0739],[-66.99345,10.07577,1155.995],[-66.99872,10.07561,1047.7751],[-67.00293,10.07492,857.675],[-67.00727,10.07336,749.0645],[-67.01143,10.07104,730.8335],[-67.01926,10.06507,1060.7424],[-67.02823,10.05949,983.9648],[-67.04161,10.05313,1118.5054],[-67.08828,10.08285,921.4341],[-67.11073,10.10106,970.1119],[-67.1191,10.11148,979.6513],[-67.13264,10.14522,923.7426],[-67.13417,10.15452,1159.9907],[-67.13411,10.16212,1202.4431],[-67.13264,10.16765,1140.0718],[-67.1282,10.17742,896.3236],[-67.11962,10.19013,767.1328],[-67.11753,10.19511,955.2913],[-67.1076,10.25222,655.881],[-67.10794,10.26028,638.2538],[-67.10874,10.26485,624.9202],[-67.1145,10.2709,872.6169],[-67.12781,10.28046,915.3108],[-67.13623,10.28472,894.0828],[-67.16729,10.29627,748.2429],[-67.173,10.29953,898.6208],[-67.17887,10.30418,1153.8767],[-67.18646,10.31304,1360.4866],[-67.18912,10.32017,1110.6013],[-67.1899,10.32699,844.139],[-67.18897,10.33296,972.4347],[-67.1875,10.33849,1134.5703],[-67.18548,10.34353,1406.7242],[-67.17765,10.35058,1324.46],[-67.17432,10.35485,1394.0422],[-67.17626,10.35779,1495.6697],[-67.18346,10.36472,1847.4589],[-67.19057,10.36952,1970.4862],[-67.22015,10.41668,2294.2288],[-67.23421,10.42647,2060.8618],[-67.23866,10.43058,2044.2177],[-67.24095,10.43089,2018.7339],[-67.24418,10.43081,2061.1201],[-67.25734,10.42872,1929.0016],[-67.26274,10.42872,1905.9865],[-67.26602,10.42818,1920.8286],[-67.26692,10.4281,1911.3771],[-67.27018,10.42825,1925.7134],[-67.2723,10.42802,1951.4613],[-67.27323,10.42771,1907.0699],[-67.2756,10.42647,1945.616],[-67.27638,10.42624,1945.616],[-67.27798,10.42647,1903.0393],[-67.28511,10.42825,1950.9272],[-67.28754,10.42841,2029.6603],[-67.28945,10.4281,2060.6343],[-67.2962,10.42352,2145.0513],[-67.29958,10.42197,2047.134],[-67.30139,10.42073,2047.134],[-67.30387,10.41869,2229.8289],[-67.30604,10.4174,2216.6118],[-67.30738,10.41683,2294.7534],[-67.31705,10.41373,2101.2146],[-67.32273,10.41272,1942.2468],[-67.32405,10.41234,1942.2468],[-67.32645,10.41133,1980.8904],[-67.32751,10.41071,1980.8904],[-67.32824,10.40993,2118.4517],[-67.32886,10.40885,2057.262],[-67.33038,10.40513,2248.4346],[-67.331,10.40412,2295.0674],[-67.33178,10.40319,2277.1233],[-67.33271,10.40234,2352.6851],[-67.33371,10.40164,2323.5435],[-67.33961,10.3959,2165.9004],[-67.34185,10.39986,1981.5726],[-67.35679,10.44655,987.6511],[-67.35834,10.44851,992.0869],[-67.37015,10.45851,781.9251],[-67.37477,10.47029,662.7837],[-67.38722,10.4928,317.6851],[-67.38893,10.4976,331.5988],[-67.38996,10.49923,386.5159],[-67.39082,10.50019,365.7037],[-67.39141,10.50034,365.7037],[-67.39203,10.50055,469.6675],[-67.39252,10.50101,429.352],[-67.39299,10.50174,429.352],[-67.39394,10.50375,469.2588],[-67.39547,10.50592,510.8057],[-67.39593,10.50639,510.8057],[-67.39663,10.50678,388.0429],[-67.39818,10.50794,433.8882],[-67.39888,10.50871,388.0524],[-67.40066,10.51026,418.1181],[-67.40118,10.5105,433.7211],[-67.40159,10.51057,433.7211],[-67.402,10.51057,433.7211]]]}
,"properties": {"ISO3166-1-Alpha-3": "VEN","country": "Venezuela","fill": "#F0F","name": "Aragua","area_km2": 6824.704,"hist_schema_id": "Elevation0-9000","hist_area_km2": {"0": 50.305,"25": 25.457,"50": 17.201,"75": 16.054,"100": 15.345,"125": 16.805,"150": 26.823,"175": 179.366,"200": 372.568,"225": 414.618,"250": 381.426,"275": 199.298,"300": 196.776,"325": 140.795,"350": 133.724,"375": 140.758,"400": 232.515,"425": 276.667,"450": 309.456,"475": 183.715,"500": 160.73,"525": 179.759,"550": 173.89,"575": 168.979,"600": 161.755,"625": 152.524,"650": 149.37,"675": 139.995,"700": 133.709,"725": 127.904,"750": 122.599,"775": 116.023,"800": 108.925,"825": 100.051,"850": 96.274,"875": 90.01,"900": 84.914,"925": 78.048,"950": 71.744,"975": 65.648,"1000": 62.058,"1025": 57.049,"1050": 54.501,"1075": 48.2,"1100": 45.006,"1125": 42.125,"1150": 37.637,"1175": 37.136,"1200": 33.63,"1225": 33.171,"1250": 32.085,"1275": 31.542,"1300": 30.77,"1325": 29.685,"1350": 28.873,"1375": 28.789,"1400": 24.595,"1425": 22.82,"1450": 21.234,"1475": 20.545,"1500": 19.043,"1525": 17.374,"1550": 17.312,"1575": 15.288,"1600": 15.351,"1625": 13.577,"1650": 12.868,"1675": 12.43,"1700": 11.22,"1725": 11.429,"1750": 10.699,"1775": 10.553,"1800": 9.072,"1825": 9.573,"1850": 9.26,"1875": 8.405,"1900": 7.299,"1925": 7.654,"1950": 6.861,"1975": 6.402,"2000": 6.277,"2025": 5.672,"2050": 5.589,"2075": 5.86,"2100": 4.922,"2125": 5.505,"2150": 4.504,"2175": 4.713,"2200": 3.608,"2225": 2.648,"2250": 2.461,"2275": 2.336,"2300": 1.814,"2325": 1.272,"2350": 0.98,"2375": 0.667,"2400": 0.209}}}