{"type": "Feature","bbox": [-65.8655,7.7917,-65.4223,9.1308],"geometry": {"type": "MultiPolygon","coordinates": [[[[-65.5684,7.7917,48.2853],[-65.5659,7.841,34.1184],[-65.5629,7.8584,31.2979],[-65.556,7.8697,27.6678],[-65.5359,7.8905,25.1379],[-65.5225,7.9112,29.3791],[-65.5189,7.9217,32.2415],[-65.5172,7.9339,31.2158],[-65.5175,7.9808,34.084],[-65.5003,8.039,67.8557],[-65.4773,8.0904,87.2661],[-65.4698,8.1274,76.3045],[-65.4605,8.1598,80.7306],[-65.4616,8.1888,70.4961],[-65.4663,8.2187,72.6911],[-65.4698,8.2302,75.6946],[-65.4786,8.2476,78.5109],[-65.5113,8.2794,90.9317],[-65.5357,8.3086,85.7763],[-65.5531,8.3243,97.3338],[-65.575,8.3486,116.361],[-65.5938,8.3841,103.5752],[-65.613,8.4387,112.361],[-65.615,8.4486,109.9454],[-65.6124,8.4568,114.0723],[-65.5846,8.4777,127.944],[-65.581,8.4862,131.8657],[-65.5839,8.5137,141.1299],[-65.5848,8.5488,143.662],[-65.5886,8.5734,135.678],[-65.5901,8.5956,143.2429],[-65.5888,8.6274,146.7062],[-65.5787,8.7088,150.3989],[-65.5742,8.7302,167.5418],[-65.5642,8.7551,183.8204],[-65.56,8.7652,177.3482],[-65.5549,8.7727,153.347],[-65.5287,8.7861,146.365],[-65.521,8.7938,141.3548],[-65.5099,8.8113,121.6485],[-65.4851,8.8738,107.9163],[-65.4372,8.9125,97.5044],[-65.43,8.9173,93.9532],[-65.4237,8.9186,96.6496],[-65.4223,8.9176,100.8168],[-65.4255,8.9456,91.1477],[-65.4304,8.9615,84.7345],[-65.4445,8.9989,92.9962],[-65.4538,9.0177,102.5489],[-65.4703,9.0431,112.16],[-65.4916,9.0697,95.9042],[-65.5079,9.0867,101.5405],[-65.5301,9.116,96.2876],[-65.5375,9.1235,85.162],[-65.5482,9.1308,74.5],[-65.5518,9.1252,78.4433],[-65.565,9.1135,92.642],[-65.5909,9.0933,94.3479],[-65.6142,9.0715,97.2948],[-65.6258,9.0633,90.9511],[-65.6377,9.0584,91.3892],[-65.6615,9.0573,113.6467],[-65.6829,9.0408,100.733],[-65.7033,9.031,92.0828],[-65.7156,9.0328,85.432],[-65.7219,9.0368,86.1571],[-65.7391,9.0365,91.1411],[-65.7634,9.0287,90.7839],[-65.7928,9.0149,106.8877],[-65.8112,8.9987,104.5095],[-65.8392,8.9692,125.653],[-65.8655,8.9479,139.3625],[-65.8606,8.9303,147.626],[-65.8469,8.9037,132.0121],[-65.8299,8.8812,169.7971],[-65.806,8.8543,197.2729],[-65.7965,8.8443,195.8507],[-65.7885,8.8398,158.5431],[-65.7718,8.8234,136.107],[-65.761,8.8025,155.89],[-65.759,8.7951,145.659],[-65.7598,8.7792,173.8752],[-65.7501,8.7706,178.4674],[-65.737,8.7659,172.2123],[-65.7125,8.7656,155.3513],[-65.6991,8.7615,179.4242],[-65.6811,8.7494,197.6276],[-65.6728,8.7407,189.7835],[-65.6644,8.7252,173.1819],[-65.6559,8.7065,166.5394],[-65.6476,8.6815,194.4918],[-65.6402,8.6455,273.5262],[-65.6347,8.5964,223.7236],[-65.6254,8.5479,180.8222],[-65.6247,8.5342,163.3084],[-65.6318,8.512,138.6525],[-65.6418,8.4897,120.8866],[-65.6751,8.4421,102.3545],[-65.6808,8.4318,116.2031],[-65.6811,8.4235,113.99],[-65.6778,8.4155,111.3319],[-65.6601,8.3938,110.4232],[-65.6551,8.3838,107.133],[-65.6393,8.3355,85.4529],[-65.6169,8.2992,79.6364],[-65.588,8.2674,95.7069],[-65.5766,8.2507,118.8846],[-65.5677,8.2301,92.507],[-65.5635,8.2155,90.2649],[-65.565,8.1995,84.6507],[-65.5771,8.155,64.5003],[-65.5891,8.1311,60.6345],[-65.6198,8.0948,62.6535],[-65.6359,8.064,66.0982],[-65.6411,8.0484,75.6859],[-65.6442,8.0279,70.6762],[-65.6447,7.9992,50.4559],[-65.6555,7.926,31.0582],[-65.6545,7.9146,25.5],[-65.6469,7.884,25.5],[-65.6474,7.8491,53.0884],[-65.6395,7.7973,91.3534],[-65.6153,7.7925,95.1561],[-65.5826,7.7939,55.305],[-65.5684,7.7917,48.2853]]]]}
,"properties": {"GID_2": "VEN.13.3_1","GID_0": "VEN","country": "Venezuela","GID_1": "VEN.13_1","province": "Guárico","NL_NAME_1": "NA","county": "ElSocorro","VARNAME_2": "NA","NL_NAME_2": "NA","TYPE_2": "Municipio","ENGTYPE_2": "Municipality","CC_2": "NA","HASC_2": "NA","name": "El_Socorro.county","area_km2": 2314.829,"hist_schema_id": "Elevation0-9000","hist_area_km2": {"25": 168.737,"50": 175.301,"75": 303.775,"100": 602.376,"125": 613.557,"150": 273.935,"175": 141.099,"200": 30.661,"225": 3.983,"250": 1.174,"275": 0.21,"300": 0.021}}}