{"type": "Feature","bbox": [-73.3521,8.5457,-72.38,9.5329],"geometry": {"type": "MultiPolygon","coordinates": [[[[-73.2701,9.3239,1951.8615],[-73.273,9.3193,2061.9951],[-73.2779,9.324,1986.0205],[-73.2826,9.323,2089.6035],[-73.2885,9.3139,2124.6843],[-73.2897,9.3022,2171.4629],[-73.2921,9.2977,2515.1704],[-73.2913,9.2929,2434.2175],[-73.2955,9.2868,2353.821],[-73.2971,9.2763,2141.8164],[-73.3156,9.2474,1784.348],[-73.3223,9.2328,1925.1156],[-73.3264,9.2297,2028.1224],[-73.3283,9.2231,1892.166],[-73.3387,9.2167,1974.041],[-73.3521,9.2178,2068.9456],[-73.347,9.2116,1622.0663],[-73.3464,9.2068,1497.2876],[-73.3497,9.2002,1398.9581],[-73.3512,9.1898,1361.8154],[-73.3479,9.1854,1271.5081],[-73.3484,9.1774,1196.4017],[-73.347,9.1737,1159.6853],[-73.3428,9.1721,1132.3508],[-73.3413,9.1741,1144.2271],[-73.3381,9.1743,1163.0581],[-73.33,9.1701,968.053],[-73.3211,9.1712,923.2457],[-73.3166,9.1683,850.7463],[-73.3142,9.1704,796.9889],[-73.3029,9.1721,827.6019],[-73.2951,9.1687,670.1441],[-73.2903,9.1684,668.0316],[-73.2812,9.1621,575.0486],[-73.2793,9.1634,556.2476],[-73.2773,9.1621,556.2476],[-73.2753,9.1659,604.3071],[-73.274,9.1645,534.8853],[-73.2666,9.165,555.1241],[-73.2626,9.1619,507.2551],[-73.2568,9.1634,499.2784],[-73.2552,9.1611,493.6385],[-73.2525,9.1641,546.0306],[-73.2525,9.1603,479.139],[-73.2504,9.1588,479.5132],[-73.2433,9.1673,476.5078],[-73.2416,9.1657,487.134],[-73.2393,9.1662,489.0119],[-73.2395,9.168,490.1502],[-73.2346,9.1741,496.9396],[-73.2286,9.1766,494.4754],[-73.2247,9.1759,451.4686],[-73.2226,9.1797,436.0167],[-73.2199,9.1795,418.8812],[-73.219,9.1811,439.3405],[-73.2146,9.1808,412.1047],[-73.2136,9.1844,471.9559],[-73.2096,9.181,454.6217],[-73.2091,9.1786,437.536],[-73.2065,9.1795,427.5191],[-73.2067,9.182,413.0063],[-73.2041,9.1805,437.8506],[-73.2044,9.1781,401.5345],[-73.2025,9.1809,476.6248],[-73.2011,9.1792,435.4744],[-73.1957,9.1783,426.8966],[-73.1931,9.1752,389.5808],[-73.1884,9.1769,374.8255],[-73.1848,9.1761,377.4279],[-73.1809,9.1779,418.8834],[-73.1769,9.1776,366.3249],[-73.1721,9.1807,363.6642],[-73.1719,9.1837,357.7698],[-73.1688,9.1852,360.2739],[-73.1681,9.1875,386.8441],[-73.1664,9.1871,386.8441],[-73.1624,9.1931,388.2444],[-73.1575,9.1923,362.7239],[-73.1585,9.1953,355.9303],[-73.1499,9.2011,331.7046],[-73.1526,9.2053,325.7352],[-73.1529,9.2111,407.9179],[-73.1482,9.2101,334.2773],[-73.1472,9.2127,379.3757],[-73.1445,9.212,345.4314],[-73.1441,9.2142,403.3002],[-73.1415,9.2136,330.3864],[-73.1399,9.2165,350.9933],[-73.1373,9.2156,330.6483],[-73.1358,9.2185,348.4062],[-73.1324,9.22,309.2525],[-73.1332,9.2237,312.2761],[-73.1296,9.2259,319.4228],[-73.1314,9.2272,333.4296],[-73.1311,9.2292,311.974],[-73.1228,9.2278,305.5063],[-73.117,9.2322,377.4927],[-73.1137,9.2295,289.9787],[-73.1086,9.2289,295.1548],[-73.105,9.2318,290.3748],[-73.0992,9.2272,264.5059],[-73.0897,9.2262,265.1491],[-73.088,9.2276,283.174],[-73.0883,9.231,331.1129],[-73.0859,9.2366,241.4077],[-73.0819,9.2411,246.9498],[-73.0787,9.2397,198.982],[-73.0733,9.2433,216.6048],[-73.0735,9.2452,228.1287],[-73.0771,9.2471,170.0043],[-73.0775,9.2514,147.772],[-73.0762,9.2576,136.7007],[-73.0717,9.2647,168.6739],[-73.0698,9.2649,138.1026],[-73.0641,9.26,116.486],[-73.063,9.2637,129.1485],[-73.0573,9.2637,121.8451],[-73.0535,9.2614,114.4232],[-73.0527,9.259,114.7832],[-73.0462,9.2634,115.3205],[-73.0435,9.2625,113.8802],[-73.0442,9.2699,129.7535],[-73.0413,9.2704,115.4736],[-73.0394,9.2728,103.6104],[-73.0357,9.2834,99.1843],[-73.0321,9.2846,94.6856],[-73.0313,9.2867,98.1266],[-73.0289,9.2817,84.4842],[-73.0265,9.2809,92.4268],[-73.0252,9.2866,88.785],[-73.0098,9.2921,80.2792],[-73.0033,9.2872,75.4397],[-73.0036,9.2826,77.1935],[-73.0059,9.2787,74.2318],[-73.0053,9.2757,79.269],[-72.9964,9.2746,85.8532],[-72.9939,9.2723,70.2935],[-72.9942,9.2658,70.6876],[-72.9971,9.2597,76.9258],[-72.9925,9.2554,70.6821],[-72.9863,9.2554,70.3277],[-72.9853,9.2541,70.3277],[-72.9857,9.2505,67.3544],[-72.9889,9.2455,63.0],[-72.9875,9.2306,62.0],[-72.9892,9.2287,66.4423],[-72.9954,9.2272,63.6999],[-72.9961,9.2223,63.9476],[-72.9933,9.2208,65.0703],[-72.9852,9.2236,62.5779],[-72.9787,9.2164,66.1985],[-72.9704,9.2137,68.5645],[-72.9689,9.2076,56.0],[-72.964,9.2001,75.3406],[-72.9619,9.1858,62.53],[-72.9557,9.181,73.5624],[-72.9581,9.1762,54.4937],[-72.9626,9.173,58.1434],[-72.9648,9.1569,54.5476],[-72.9725,9.1551,49.7794],[-72.9864,9.146,54.9771],[-72.9868,9.1437,51.4164],[-72.9719,9.1365,96.6963],[-72.9693,9.1293,45.0138],[-72.9649,9.1258,44.524],[-72.96,9.1143,66.7742],[-72.9528,9.1076,56.3455],[-72.9472,9.1063,69.5051],[-72.9467,9.1027,44.8729],[-72.9509,9.0976,39.5],[-72.9473,9.0926,95.728],[-72.9376,9.0908,116.1246],[-72.9358,9.0857,57.3899],[-72.932,9.0835,55.235],[-72.9209,9.0889,64.2944],[-72.9195,9.0944,70.1276],[-72.9148,9.094,60.0],[-72.9067,9.0982,64.907],[-72.8976,9.0982,55.3427],[-72.8955,9.0993,47.079],[-72.8939,9.1042,52.4484],[-72.8866,9.1042,64.115],[-72.8834,9.1121,77.2515],[-72.8866,9.1149,70.2419],[-72.8843,9.1183,42.6663],[-72.8829,9.1306,39.9788],[-72.8803,9.1338,89.1293],[-72.8677,9.13,49.0628],[-72.8452,9.1314,45.0841],[-72.8332,9.1224,32.3305],[-72.8217,9.1229,32.5468],[-72.8207,9.1262,32.4566],[-72.8243,9.1357,32.2585],[-72.8238,9.1406,47.4492],[-72.8221,9.142,42.8174],[-72.8194,9.1413,56.2277],[-72.816,9.1367,32.3611],[-72.8117,9.1362,41.8967],[-72.8094,9.1337,37.8133],[-72.8068,9.1276,38.4706],[-72.8077,9.1248,30.9321],[-72.8114,9.1228,32.1501],[-72.8107,9.1203,33.1583],[-72.8043,9.1231,31.3234],[-72.7953,9.1222,32.9301],[-72.7971,9.1188,30.1349],[-72.7956,9.1164,32.7107],[-72.7983,9.1085,29.2709],[-72.7952,9.1041,31.88],[-72.7898,9.1072,27.1394],[-72.788,9.1136,26.35],[-72.7847,9.1161,28.7405],[-72.777,9.1159,36.9681],[-72.7754,9.1146,34.1081],[-72.7757,9.1075,25.0],[-72.7744,9.1046,32.0013],[-72.7683,9.1071,35.4533],[-72.7659,9.1063,25.0],[-72.7623,9.0931,33.5518],[-72.7723,9.0905,42.1249],[-72.7725,9.0872,31.6667],[-72.7686,9.085,33.8525],[-72.764,9.0869,32.3637],[-72.7606,9.0818,26.0],[-72.7286,8.9344,35.6469],[-72.7044,8.8349,39.6987],[-72.7012,8.8137,35.6335],[-72.6836,8.7614,73.0324],[-72.6794,8.7532,63.5547],[-72.6745,8.704,68.4259],[-72.6561,8.6231,41.6194],[-72.659,8.6248,41.4971],[-72.6583,8.6216,38.7725],[-72.657,8.6223,41.6194],[-72.6555,8.6205,37.3502],[-72.6538,8.6137,38.4636],[-72.6498,8.613,37.8912],[-72.6425,8.6083,39.6041],[-72.6387,8.6081,38.7639],[-72.6346,8.6005,37.7227],[-72.6332,8.6013,37.7227],[-72.6341,8.6039,38.3108],[-72.6328,8.6067,40.5275],[-72.6287,8.6063,40.0071],[-72.6257,8.6012,39.7355],[-72.6319,8.5997,40.5376],[-72.6319,8.5976,41.9768],[-72.6171,8.5951,40.747],[-72.613,8.5907,39.5885],[-72.6118,8.5862,43.4782],[-72.5745,8.5457,78.9763],[-72.5704,8.5515,63.6358],[-72.5688,8.5495,79.127],[-72.5281,8.6309,274.6741],[-72.4863,8.7676,95.7495],[-72.4673,8.8853,40.323],[-72.4559,8.9423,17.4819],[-72.418,8.9423,37.5534],[-72.418,8.9689,19.1496],[-72.3952,8.9726,12.7398],[-72.3838,8.9954,10.9065],[-72.38,9.0334,9.3196],[-72.3876,9.0486,11.8143],[-72.3952,9.0714,10.6002],[-72.3952,9.098,10.9274],[-72.3838,9.1131,8.6637],[-72.3914,9.1321,11.4514],[-72.4332,9.1587,11.2086],[-72.4218,9.3068,9.4451],[-72.4043,9.438,17.1673],[-72.4167,9.4387,8.5002],[-72.4565,9.4483,9.1338],[-72.47,9.4464,9.8595],[-72.4932,9.4379,15.5641],[-72.5033,9.4317,13.3579],[-72.5254,9.3983,16.6587],[-72.5406,9.383,31.7921],[-72.5538,9.3762,14.9761],[-72.5752,9.37,14.4191],[-72.5934,9.3682,15.142],[-72.612799999999993,9.3692,18.6962],[-72.6258,9.3703,27.3911],[-72.6574,9.3782,25.892],[-72.6845,9.3789,24.5433],[-72.6969,9.3756,22.9259],[-72.7177,9.3663,31.2978],[-72.7712,9.3522,57.3419],[-72.7885,9.3496,67.6807],[-72.7993,9.3448,39.1464],[-72.8176,9.3331,32.4294],[-72.8254,9.3301,40.8576],[-72.8333,9.3294,69.7817],[-72.8471,9.3222,57.6663],[-72.8564,9.3134,66.2471],[-72.8631,9.3041,95.4412],[-72.869,9.2817,75.9985],[-72.8741,9.273,95.7923],[-72.8803,9.2668,84.5631],[-72.9007,9.2557,68.4084],[-72.9179,9.255,81.9631],[-72.931,9.2586,92.0744],[-72.9462,9.267,149.7308],[-72.9584,9.2787,244.3968],[-72.9625,9.2893,254.4292],[-72.9618,9.2969,230.7677],[-72.9587,9.3034,104.0018],[-72.9445,9.3165,378.7735],[-72.9367,9.328,439.8214],[-72.9347,9.3366,608.5557],[-72.945,9.3581,198.8704],[-72.957,9.3765,380.7978],[-72.9603,9.3877,626.4972],[-72.9597,9.4041,685.3303],[-72.9506,9.4279,807.2601],[-72.9568,9.4617,724.9288],[-72.9602,9.4667,640.1807],[-72.9652,9.4705,260.986],[-72.9748,9.4725,169.8226],[-73.0053,9.4642,461.6802],[-73.0159,9.463,320.7098],[-73.0351,9.4544,1097.4905],[-73.0553,9.4485,1190.5591],[-73.0659,9.4502,1011.0159],[-73.077,9.4546,1022.6123],[-73.0843,9.4597,1190.6897],[-73.105,9.4826,1326.5931],[-73.1213,9.504,1649.4905],[-73.1367,9.5142,1277.1617],[-73.1511,9.5329,1711.1448],[-73.1582,9.5194,2086.4863],[-73.165,9.5146,2400.4739],[-73.1677,9.5091,2418.103],[-73.1768,9.5007,2539.7766],[-73.1764,9.4963,2525.3816],[-73.1722,9.4867,2633.2793],[-73.1744,9.4791,2579.4204],[-73.19,9.4755,2723.8159],[-73.197,9.4765,2811.8076],[-73.2014,9.4714,2666.1975],[-73.2005,9.4616,2647.26],[-73.1939,9.4588,2565.4246],[-73.1914,9.4528,2539.7258],[-73.1867,9.448,2589.2764],[-73.2005,9.4368,2626.1863],[-73.2078,9.4238,2462.6558],[-73.2133,9.4225,2561.9094],[-73.2212,9.4244,2812.2632],[-73.2232,9.4172,2764.3228],[-73.24,9.4045,2575.4766],[-73.2412,9.3924,2603.8506],[-73.247,9.381,2687.6875],[-73.2604,9.3721,2389.6675],[-73.2626,9.3596,2353.6536],[-73.2597,9.345,2384.3816],[-73.2648,9.3281,2043.0704],[-73.2701,9.3239,1951.8615]]]]}
,"properties": {"GID_2": "VEN.25.9_1","GID_0": "VEN","country": "Venezuela","GID_1": "VEN.25_1","province": "Zulia","NL_NAME_1": "NA","county": "JesúsMaríaSemprún","VARNAME_2": "NA","NL_NAME_2": "NA","TYPE_2": "Municipio","ENGTYPE_2": "Municipality","CC_2": "NA","HASC_2": "NA","name": "Jesús_María_Semprún.county","area_km2": 4241.541,"hist_schema_id": "Elevation0-9000","hist_area_km2": {"0": 432.164,"25": 1372.688,"50": 805.357,"75": 314.913,"100": 101.279,"125": 73.375,"150": 51.463,"175": 45.389,"200": 37.791,"225": 35.427,"250": 33.46,"275": 31.368,"300": 32.435,"325": 33.922,"350": 30.28,"375": 24.273,"400": 20.757,"425": 20.066,"450": 19.793,"475": 20.463,"500": 18.308,"525": 19.124,"550": 18.538,"575": 19.375,"600": 18.266,"625": 17.639,"650": 17.388,"675": 16.718,"700": 16.634,"725": 17.618,"750": 15.212,"775": 15.274,"800": 15.483,"825": 14.667,"850": 13.705,"875": 12.387,"900": 12.805,"925": 12.282,"950": 12.01,"975": 11.236,"1000": 10.964,"1025": 9.834,"1050": 9.708,"1075": 9.415,"1100": 10.001,"1125": 9.603,"1150": 9.227,"1175": 9.792,"1200": 8.934,"1225": 9.478,"1250": 9.499,"1275": 8.829,"1300": 9.562,"1325": 9.018,"1350": 8.348,"1375": 8.662,"1400": 8.201,"1425": 7.741,"1450": 8.327,"1475": 7.406,"1500": 7.239,"1525": 6.904,"1550": 6.569,"1575": 6.883,"1600": 6.423,"1625": 6.715,"1650": 6.13,"1675": 6.59,"1700": 6.297,"1725": 5.941,"1750": 6.611,"1775": 5.774,"1800": 5.837,"1825": 5.648,"1850": 5.795,"1875": 5.544,"1900": 5.293,"1925": 5.021,"1950": 5.272,"1975": 5.292,"2000": 4.686,"2025": 4.937,"2050": 4.184,"2075": 4.079,"2100": 4.267,"2125": 3.117,"2150": 3.2,"2175": 2.573,"2200": 2.907,"2225": 2.74,"2250": 2.426,"2275": 2.635,"2300": 2.698,"2325": 2.698,"2350": 3.137,"2375": 3.054,"2400": 3.87,"2425": 3.388,"2450": 3.137,"2475": 2.886,"2500": 3.221,"2525": 2.719,"2550": 2.468,"2575": 2.761,"2600": 2.656,"2625": 1.924,"2650": 1.004,"2675": 0.795,"2700": 0.46,"2725": 0.356,"2750": 0.251,"2775": 0.272,"2800": 0.209,"2825": 0.105,"2850": 0.063}}}