{"type": "Feature","bbox": [-66.235,10.2468,-66.0103,10.4031],"geometry": {"type": "MultiPolygon","coordinates": [[[[-66.1015,10.2468,28.1556],[-66.0885,10.253,31.8293],[-66.0656,10.2586,12.5325],[-66.0527,10.2701,10.9631],[-66.041,10.2728,16.9115],[-66.0368,10.2798,14.9856],[-66.0362,10.2877,17.0443],[-66.0386,10.2966,19.0957],[-66.045,10.3059,8.058],[-66.0627,10.3155,9.7292],[-66.0646,10.3182,6.3434],[-66.0649,10.3289,11.4228],[-66.0634,10.3362,22.5421],[-66.0553,10.3479,7.2761],[-66.0493,10.3513,4.8551],[-66.0322,10.3511,4.6588],[-66.0247,10.3536,8.4508],[-66.0103,10.3809,9.3086],[-66.0194,10.3825,7.5803],[-66.0264,10.3856,2.5467],[-66.0439,10.3996,4.2851],[-66.0539,10.4031,7.9931],[-66.0666,10.4018,6.7632],[-66.0791,10.396,8.1566],[-66.0881,10.3945,13.3282],[-66.0968,10.3956,18.4976],[-66.1086,10.4017,17.2511],[-66.1121,10.3982,20.4061],[-66.1184,10.3955,21.9431],[-66.1372,10.3923,20.3063],[-66.1796,10.3904,38.6912],[-66.2305,10.3916,67.1255],[-66.232,10.3668,49.1399],[-66.235,10.3583,64.3827],[-66.2335,10.349,71.8264],[-66.2275,10.341,46.3562],[-66.1709,10.2968,31.9922],[-66.1242,10.2646,16.0224],[-66.1015,10.2468,28.1556]]]]}
,"properties": {"GID_2": "VEN.16.5_1","GID_0": "VEN","country": "Venezuela","GID_1": "VEN.16_1","province": "Miranda","NL_NAME_1": "NA","county": "Buroz","VARNAME_2": "NA","NL_NAME_2": "NA","TYPE_2": "Municipio","ENGTYPE_2": "Municipality","CC_2": "NA","HASC_2": "NA","name": "Buroz.county","area_km2": 258.2438,"hist_schema_id": "Elevation0-9000","hist_area_km2": {"0": 51.6617,"25": 118.809,"50": 65.9538,"75": 14.664,"100": 5.7159,"125": 1.3977,"150": 0.0417}}}