{"type": "Feature","bbox": [-65.7266,9.7894,-65.5721,9.9835],"geometry": {"type": "MultiPolygon","coordinates": [[[[-65.6162,9.9835,492.7004],[-65.6637,9.9722,547.2267],[-65.7266,9.9679,506.5558],[-65.7219,9.948,629.7633],[-65.7223,9.9358,498.1625],[-65.7207,9.9272,515.0343],[-65.7021,9.8943,447.0968],[-65.6983,9.8752,482.2885],[-65.6815,9.8334,259.8521],[-65.6811,9.8203,235.2148],[-65.6885,9.7894,198.2425],[-65.6487,9.7898,154.9194],[-65.644,9.8196,192.185],[-65.6345,9.8561,232.5569],[-65.6146,9.8912,271.2618],[-65.5951,9.913,394.1246],[-65.5761,9.9287,255.414],[-65.5721,9.9351,367.0399],[-65.5776,9.9397,413.8086],[-65.6071,9.9454,634.2908],[-65.6114,9.9511,843.7069],[-65.6138,9.9595,742.991],[-65.6162,9.9835,492.7004]]]]}
,"properties": {"GID_2": "VEN.2.6_1","GID_0": "VEN","country": "Venezuela","GID_1": "VEN.2_1","province": "Anzoátegui","NL_NAME_1": "NA","county": "Carvajal","VARNAME_2": "NA","NL_NAME_2": "NA","TYPE_2": "Municipio","ENGTYPE_2": "Municipality","CC_2": "NA","HASC_2": "NA","name": "Carvajal.county","area_km2": 184.029,"hist_schema_id": "Elevation0-9000","hist_area_km2": {"150": 0.7104,"175": 5.265,"200": 9.2551,"225": 9.4631,"250": 11.2589,"275": 14.4961,"300": 12.3442,"325": 11.2996,"350": 10.8609,"375": 10.0671,"400": 8.7303,"425": 8.6883,"450": 8.0826,"475": 7.3307,"500": 7.2471,"525": 5.9938,"550": 5.576,"575": 5.012,"600": 4.4063,"625": 4.1139,"650": 3.6545,"675": 2.4851,"700": 2.1092,"725": 1.608,"750": 1.6706,"775": 1.5453,"800": 1.7124,"825": 1.4201,"850": 1.1068,"875": 1.1695,"900": 1.1068,"925": 1.1903,"950": 1.0442,"975": 0.7518,"1000": 0.6891,"1025": 0.3759,"1050": 0.1253,"1075": 0.0418,"1100": 0.0209}}}