{"type": "Feature","bbox": [-63.6396,9.4742,-63.41,9.6573],"geometry": {"type": "MultiPolygon","coordinates": [[[[-63.5427,9.5056,148.3979],[-63.5268,9.5093,137.6688],[-63.5135,9.5064,135.1308],[-63.504,9.4941,137.6038],[-63.4935,9.4913,133.2142],[-63.4765,9.4903,133.2583],[-63.4584,9.4818,128.5942],[-63.4394,9.4761,121.3635],[-63.4262,9.4742,119.6092],[-63.4119,9.4751,110.4407],[-63.41,9.4808,116.2262],[-63.4119,9.534,113.8058],[-63.4148,9.5425,110.4472],[-63.4176,9.5843,128.7111],[-63.4176,9.6223,162.5737],[-63.428,9.6251,171.212],[-63.4252,9.6412,111.9556],[-63.4252,9.6517,99.0798],[-63.447,9.6526,107.2092],[-63.4537,9.6393,162.3988],[-63.4746,9.6393,133.6957],[-63.5284,9.6438,135.6771],[-63.5383,9.6409,138.2732],[-63.5785,9.6477,156.8672],[-63.604,9.6472,166.3205],[-63.6272,9.6573,174.1534],[-63.6345,9.6562,172.9289],[-63.6358,9.6081,174.7626],[-63.6338,9.5459,180.1791],[-63.6355,9.5177,174.4023],[-63.6396,9.5001,159.3593],[-63.6056,9.4922,165.3071],[-63.598,9.4922,162.8905],[-63.5875,9.497,151.8823],[-63.5628,9.4922,155.8152],[-63.5524,9.497,152.3612],[-63.5486,9.5027,151.5823],[-63.5427,9.5056,148.3979]]]]}
,"properties": {"GID_2": "VEN.17.11_1","GID_0": "VEN","country": "Venezuela","GID_1": "VEN.17_1","province": "Monagas","NL_NAME_1": "NA","county": "SantaBarbara","VARNAME_2": "NA","NL_NAME_2": "NA","TYPE_2": "Municipio","ENGTYPE_2": "Municipality","CC_2": "NA","HASC_2": "NA","name": "Santa_Barbara.county","area_km2": 409.2183,"hist_schema_id": "Elevation0-9000","hist_area_km2": {"100": 5.1848,"125": 120.9981,"150": 120.1343,"175": 122.8663,"200": 40.0348}}}