{"type": "Feature","bbox": [-67.963,9.8409,-67.5006,10.1576],"geometry": {"type": "MultiPolygon","coordinates": [[[[-67.637,10.1492,411.5],[-67.6572,10.1527,411.5],[-67.6706,10.1576,411.5],[-67.6817,10.1568,411.5],[-67.6874,10.1541,411.5],[-67.6888,10.1413,411.5],[-67.6822,10.1233,449.161],[-67.6823,10.1152,563.433],[-67.688,10.1102,521.0107],[-67.6955,10.1102,453.9014],[-67.7015,10.1136,474.9455],[-67.7088,10.1226,411.5],[-67.7124,10.1244,421.2746],[-67.7291,10.1242,411.5],[-67.7495,10.1276,411.5],[-67.7657,10.1251,411.5],[-67.7988,10.1148,423.9114],[-67.8084,10.114,412.0593],[-67.8171,10.1152,411.5],[-67.8242,10.1201,411.5],[-67.8309,10.1298,411.5],[-67.8748,10.1045,411.5],[-67.8868,10.1007,421.5568],[-67.9068,10.1077,431.7853],[-67.9158,10.1086,421.8954],[-67.95,10.1006,424.4966],[-67.9549,10.0946,422.9807],[-67.9599,10.0462,442.9939],[-67.963,10.0375,447.8275],[-67.9624,10.0198,504.3947],[-67.9602,10.013,608.5588],[-67.9534,10.0066,756.1245],[-67.9193,10.003,680.1235],[-67.8884,9.9901,684.3875],[-67.8786,9.9838,849.1096],[-67.867,9.9789,832.6755],[-67.8568,9.977,901.7596],[-67.8334,9.9765,785.6646],[-67.8335,9.9721,718.2153],[-67.8277,9.9648,657.0597],[-67.7976,9.9432,1035.9858],[-67.7922,9.9365,824.0996],[-67.7885,9.9268,809.1672],[-67.7834,9.9281,709.6861],[-67.7697,9.9235,694.0685],[-67.7317,9.8905,1167.8999],[-67.717,9.8729,903.3744],[-67.6996,9.8454,612.317],[-67.6901,9.8409,509.3829],[-67.6727,9.8418,522.752],[-67.6524,9.8545,604.4462],[-67.6426,9.8647,784.2838],[-67.6257,9.8768,656.356],[-67.579,9.8806,929.9122],[-67.5716,9.8890999999999991,1037.9717],[-67.5645,9.9032,1357.8962],[-67.5562,9.914,1085.4033],[-67.5439,9.9206,883.231],[-67.535,9.9193,795.1643],[-67.5242,9.9076,1073.7729],[-67.5168,9.9031,1266.197],[-67.5037,9.9045,979.1535],[-67.5006,9.9081,894.1558],[-67.5009,9.9244,945.5087],[-67.5075,9.9406,944.2784],[-67.5105,9.9553,594.724],[-67.5078,9.9879,897.5096],[-67.5117,10.0056,957.6722],[-67.5233,10.0251,613.7812],[-67.5324,10.0326,553.4731],[-67.5449,10.0351,597.9806],[-67.6102,10.0394,659.2654],[-67.6449,10.0548,694.4219],[-67.6525,10.0635,645.7012],[-67.653,10.0713,644.302],[-67.6498,10.0839,631.9659],[-67.6394,10.1036,435.8236],[-67.6365,10.1167,411.5],[-67.637,10.1492,411.5]]]]}
,"properties": {"GID_2": "VEN.7.2_1","GID_0": "VEN","country": "Venezuela","GID_1": "VEN.7_1","province": "Carabobo","NL_NAME_1": "NA","county": "CarlosArevalo","VARNAME_2": "NA","NL_NAME_2": "NA","TYPE_2": "Municipio","ENGTYPE_2": "Municipality","CC_2": "NA","HASC_2": "NA","name": "Carlos_Arevalo.county","area_km2": 953.4741,"hist_schema_id": "Elevation0-9000","hist_area_km2": {"375": 0.0627,"400": 45.0219,"425": 69.8876,"450": 34.195,"475": 19.4372,"500": 19.1669,"525": 25.0968,"550": 41.4041,"575": 48.316,"600": 49.9036,"625": 47.6907,"650": 47.6702,"675": 54.624,"700": 57.088,"725": 51.9098,"750": 45.061,"775": 39.3191,"800": 36.8759,"825": 31.6141,"850": 26.6236,"875": 23.3035,"900": 22.364,"925": 21.0279,"950": 17.5409,"975": 15.2025,"1000": 13.0516,"1025": 9.9402,"1050": 7.7267,"1075": 6.1606,"1100": 5.3252,"1125": 4.469,"1150": 3.1952,"1175": 2.7984,"1200": 2.2763,"1225": 2.2137,"1250": 1.3366,"1275": 1.3366,"1300": 0.9816,"1325": 0.6683,"1350": 0.6056,"1375": 0.3759,"1400": 0.3132,"1425": 0.1671,"1450": 0.0835,"1475": 0.0418}}}