{"type": "Feature","bbox": [-71.7583,10.5302,-71.6054,10.6129],"geometry": {"type": "MultiPolygon","coordinates": [[[[-71.7583,10.5302,68.9854],[-71.6253,10.5321,2.3015],[-71.6254,10.534,3.5196],[-71.6235,10.5332,0.0],[-71.6232,10.5363,3.1],[-71.6193,10.5349,0.0],[-71.619,10.5365,0.0],[-71.6215,10.5387,1.1289],[-71.621,10.5429,2.7455],[-71.6185,10.5451,0.0],[-71.6179,10.5524,1.8216],[-71.6157,10.554,2.098],[-71.6174,10.5579,1.3699],[-71.6101,10.5718,0.0],[-71.6118,10.5785,0.0],[-71.6101,10.5824,0.0],[-71.6129,10.5854,0.9635],[-71.6124,10.5907,0.0],[-71.6151,10.5957,1.2905],[-71.6124,10.5962,0.0],[-71.6099,10.6024,0.0],[-71.6082,10.6026,0.0],[-71.6093,10.6068,0.9291],[-71.6076,10.6082,0.4852],[-71.6054,10.6076,0.0],[-71.6057,10.6129,0.0],[-71.7582,10.6087,74.5532],[-71.7583,10.5302,68.9854]]]]}
,"properties": {"GID_2": "VEN.25.17_1","GID_0": "VEN","country": "Venezuela","GID_1": "VEN.25_1","province": "Zulia","NL_NAME_1": "NA","county": "SanFrancisco","VARNAME_2": "NA","NL_NAME_2": "NA","TYPE_2": "Municipio","ENGTYPE_2": "Municipality","CC_2": "NA","HASC_2": "NA","name": "San_Francisco.county","area_km2": 139.6436,"hist_schema_id": "Elevation0-9000","hist_area_km2": {"0": 7.4615,"25": 28.5756,"50": 49.4801,"75": 50.8125,"100": 3.3138}}}