{"type":"Feature","properties":{"GID_2":"VEN.19.13_1","GID_0":"VEN","country":"Venezuela","GID_1":"VEN.19_1","province":"Portuguesa","NL_NAME_1":"NA","county":"Sucre","VARNAME_2":"NA","NL_NAME_2":"NA","TYPE_2":"Municipio","ENGTYPE_2":"Municipality","CC_2":"NA","HASC_2":"NA","name":"Sucre.county"},
"geometry":{"type": "MultiPolygon","coordinates": [[[[-69.9376,9.4221,835.9425],[-69.9523,9.4415,764.5681],[-69.9623,9.4515,754.4925],[-69.971,9.4556,759.3457],[-70.0088,9.4577,1575.8848],[-70.0193,9.4609,1680.9535],[-70.0288,9.4666,1663.5576],[-70.0518,9.4396,1305.7278],[-70.0666,9.4257,1452.8936],[-70.0954,9.4028,1903.929],[-70.1086,9.3885,1873.1528],[-70.1129,9.3455,1221.011],[-70.1003,9.3293,1821.7531],[-70.0911,9.3229,1748.062],[-70.0817,9.3132,1517.1758],[-70.0798,9.3033,1381.6837],[-70.0843,9.2924,1307.5721],[-70.1021,9.2609,1236.7242],[-70.0934,9.2601,1042.4514],[-70.0772,9.2545,869.2302],[-70.0695,9.2502,721.2011],[-70.0559,9.2371,1212.9207],[-70.0473,9.2342,1284.7344],[-70.0364,9.2346,1145.0063],[-70.0261,9.2382,622.0713],[-70.0242,9.2557,830.9186],[-70.0163,9.2597,951.3504],[-70.0048,9.2615,1039.1915],[-69.9876,9.2608,1048.4333],[-69.9711,9.2565,774.2079],[-69.9612,9.2527,508.427],[-69.9442,9.243,566.8623],[-69.9357,9.2419,462.6747],[-69.9116,9.2495,424.5374],[-69.904,9.2547,587.1212],[-69.8759,9.2901,544.8353],[-69.8752,9.3077,587.9089],[-69.8921,9.3347,1403.714],[-69.8977,9.3542,1318.5957],[-69.9114,9.3784,1224.7725],[-69.916,9.3993,1565.1692],[-69.9213,9.4065,1391.8354],[-69.9376,9.4221,835.9425]]]]}}