{"type": "Feature","bbox": [-72.2842,7.7963,-72.1778,7.8749],"geometry": {"type": "MultiPolygon","coordinates": [[[[-72.2011,7.8749,1548.032],[-72.2065,7.8699,1565.569],[-72.223,7.8627,1576.4109],[-72.2641,7.85,1174.7239],[-72.2815,7.8426,1349.5562],[-72.2842,7.7967,1228.9294],[-72.2701,7.7983,980.3377],[-72.2479,7.7963,917.9956],[-72.2357,7.799,784.6505],[-72.1875,7.8307,1078.1984],[-72.1778,7.8345,1169.1094],[-72.1957,7.8686,1348.1564],[-72.2011,7.8749,1548.032]]]]}
,"properties": {"GID_2": "VEN.21.10_1","GID_0": "VEN","country": "Venezuela","GID_1": "VEN.21_1","province": "Táchira","NL_NAME_1": "NA","county": "Guasimos","VARNAME_2": "NA","NL_NAME_2": "NA","TYPE_2": "Municipio","ENGTYPE_2": "Municipality","CC_2": "NA","HASC_2": "NA","name": "Guasimos.county","area_km2": 61.90008,"hist_schema_id": "Elevation0-9000","hist_area_km2": {"775": 0.21006,"800": 0.65118,"825": 1.07128,"850": 1.59641,"875": 2.58366,"900": 2.7937,"925": 3.17178,"950": 3.02472,"975": 3.3608,"1000": 3.48679,"1025": 3.6128,"1050": 4.45296,"1075": 3.88582,"1100": 3.80179,"1125": 2.98262,"1150": 2.87757,"1175": 2.4995,"1200": 1.72233,"1225": 1.84834,"1250": 1.44926,"1275": 0.92416,"1300": 0.77713,"1325": 0.81913,"1350": 0.75613,"1375": 0.71412,"1400": 0.81913,"1425": 0.58809,"1450": 0.44107,"1475": 0.54608,"1500": 0.79812,"1525": 0.54608,"1550": 0.6511,"1575": 0.6511,"1600": 0.52508,"1625": 0.44107,"1650": 0.48307,"1675": 0.08401,"1700": 0.14702,"1725": 0.10502}}}