{"type": "Feature","bbox": [-67.4909,3.6076,-60.1462,8.3971],"geometry": {"type": "MultiPolygon","coordinates": [[[[-62.1912,4.107,511.1046],[-62.154,4.0901,616.4061],[-62.1419,4.0894,604.0874],[-62.1346,4.0913,606.3992],[-62.1226,4.0995,614.8203],[-62.105,4.1177,714.3877],[-62.0758,4.1347,702.9365],[-62.0671,4.1515,713.0748],[-62.0607,4.1567,788.0907],[-62.0244,4.1599,664.0946],[-62.0201,4.1622,662.8285],[-62.004,4.164,677.6208],[-61.9893,4.1628,616.4952],[-61.9859,4.158,601.8198],[-61.985,4.1543,598.1179],[-61.9876,4.1283,641.6654],[-61.9832,4.1207,647.4279],[-61.9656,4.1149,598.6627],[-61.9443,4.1156,695.0172],[-61.9344,4.1181,817.4283],[-61.928,4.122,799.173],[-61.9199,4.1408,752.3942],[-61.9031,4.165,683.1281],[-61.8949,4.1707,627.1344],[-61.8788,4.1725,651.5642],[-61.8352,4.1941,692.8607],[-61.7717,4.2342,737.086],[-61.7661,4.24,757.5201],[-61.7567,4.2554,685.2092],[-61.7517,4.2581,712.7827],[-61.7475,4.2593,747.5744],[-61.7232,4.2553,666.6165],[-61.6703,4.2594,699.8409],[-61.6508,4.2565,799.0519],[-61.6233,4.2489,786.4617],[-61.6008,4.2486,748.1608],[-61.5905,4.2504,684.0795],[-61.5655,4.266,675.7961],[-61.5441,4.2759,718.4822],[-61.5285,4.2793,828.0384],[-61.5233,4.2823,973.7158],[-61.5205,4.2903,1104.5591],[-61.5235,4.3039,847.0313],[-61.5442,4.3599,513.4744],[-61.5426,4.3733,519.6125],[-61.5379,4.3838,527.3427],[-61.5118,4.4066,1049.386],[-61.4821,4.4364,1043.3015],[-61.475,4.4382,1087.2883],[-61.4553,4.4375,1142.7744],[-61.431399999999996,4.4335,1077.6672],[-61.3909,4.4302,1078.288],[-61.37,4.4329,1024.4587],[-61.3528,4.4414,1016.1028],[-61.3293,4.4637,943.2292],[-61.321,4.4809,965.3422],[-61.3217,4.4848,948.7439],[-61.3276,4.4943,976.0745],[-61.3457,4.5026,969.9203],[-61.3535,4.5084,966.555],[-61.3563,4.5153,956.6431],[-61.3539,4.5222,1059.2046],[-61.3447,4.5318,1183.5065],[-61.3303,4.5376,1067.9382],[-61.3099,4.5428,1097.0502],[-61.2558,4.5314,1051.6108],[-61.2225,4.5271,965.299],[-61.1973,4.5169,962.2302],[-61.1497,4.4844,918.9707],[-61.1442,4.4836,922.7357],[-61.1245,4.4917,938.488],[-61.1173,4.4969,875.6844],[-61.0824,4.5136,929.7937],[-61.0682,4.5189,925.8243],[-61.0464,4.5218,962.4615],[-61.0166,4.519,1014.354],[-61.012,4.5169,985.3287],[-60.9971,4.5152,970.0993],[-60.9913,4.5161,1016.7773999999999],[-60.9778,4.5239,818.5299],[-60.9633,4.5372,1132.6532],[-60.9569,4.5462,1248.3466],[-60.9449,4.5751,1077.5291],[-60.938,4.583,1132.7142],[-60.932,4.5942,994.4303],[-60.929,4.6073,913.6564],[-60.9324,4.6235,891.6285],[-60.9408,4.6451,1120.0159],[-60.9405,4.6479,1203.6879],[-60.9378,4.6552,1268.4391],[-60.9205,4.6704,1217.4854],[-60.9141,4.68,1180.0439],[-60.9099,4.6963,1135.6577],[-60.9061,4.7029,1115.7684],[-60.8973,4.7103,1062.9214],[-60.8895,4.7121,1057.464],[-60.8684,4.7056,981.942],[-60.8448,4.708,1021.1849],[-60.8345,4.7126,980.9116],[-60.8121,4.7326,1135.4872],[-60.8048,4.7371,1119.5551],[-60.763,4.7485,807.2145],[-60.7423,4.7581,1095.4788],[-60.7315,4.7654,944.7466],[-60.7241,4.7772,1139.4236],[-60.7162,4.7963,1108.8152],[-60.687,4.819,1275.1804],[-60.6778,4.828,1285.7213],[-60.652,4.8613,1235.3673],[-60.6444,4.8806,1200.3843],[-60.6363,4.8916,1149.6703],[-60.6188,4.907,1165.0071],[-60.5939,4.9331,1169.0591],[-60.5895,4.9428,1174.9296],[-60.5872,4.9552,1174.7717],[-60.5879,4.9658,1178.239],[-60.6027,4.999,1422.7933],[-60.6314,5.0476,1444.8879],[-60.6414,5.0682,1364.4849],[-60.6432,5.0806,1394.6884],[-60.6427,5.0985,1294.8385],[-60.6573,5.1262,1346.1161],[-60.6653,5.1536,1256.5341],[-60.6742,5.17,1288.4739],[-60.6897,5.1827,1303.725],[-60.7016,5.1899,1460.9214],[-60.7099,5.1931,1570.778],[-60.7231,5.1941,2011.4517],[-60.7305,5.1971,2182.4839],[-60.7318,5.1961,2221.3276],[-60.7363,5.1975,2292.0195],[-60.7732,5.2542,832.7746],[-60.8284,5.3189,826.2011],[-60.995,5.5033,695.9791],[-61.1328,5.663,955.1257],[-61.2452,5.7833,1345.3348],[-61.3671,5.9224,1441.5732],[-61.3867,5.9463,1343.6311],[-61.3869,5.9498,1272.9536],[-61.3781,5.97,1051.5039],[-61.3621,5.9756,892.045],[-61.3507,5.9755,790.1787],[-61.347,5.978,807.7827],[-61.3456,5.9862,725.8422],[-61.3439,5.9884,713.9143],[-61.3397,5.9892,685.5483],[-61.3247,5.999,709.0992],[-61.3293,6.0058,665.65],[-61.3274,6.0147,514.3389],[-61.3209,6.0218,463.9994],[-61.3194,6.0265,442.0345],[-61.3125,6.0285,431.432],[-61.3087,6.0426,401.3035],[-61.3061,6.0432,387.0774],[-61.304,6.0467,401.1273],[-61.3058,6.0488,372.6435],[-61.3048,6.0526,311.7962],[-61.2958,6.0536,346.1124],[-61.2943,6.0551,349.5775],[-61.2966,6.0578,342.0605],[-61.2964,6.0606,338.7126],[-61.2917,6.0634,359.7791],[-61.2901,6.0678,349.4009],[-61.2837,6.07,358.45119999999997],[-61.2869,6.0734,337.1601],[-61.2853,6.0727,314.9846],[-61.2802,6.0771,326.4181],[-61.2776,6.0775,352.5217],[-61.2789,6.0798,325.6671],[-61.2721,6.0833,370.8428],[-61.2709,6.0883,354.207],[-61.272,6.094,337.8695],[-61.2684,6.0923,348.037],[-61.2664,6.0942,336.2977],[-61.2666,6.1033,307.4596],[-61.2654,6.1057,309.059],[-61.2625,6.1063,311.5037],[-61.262,6.1096,309.8876],[-61.2577,6.1093,307.4479],[-61.2578,6.1109,306.126],[-61.2546,6.1102,306.2606],[-61.2514,6.1124,307.1418],[-61.2451,6.1075,329.6835],[-61.244,6.1082,329.6835],[-61.2432,6.1062,331.8511],[-61.2375,6.1063,334.6913],[-61.2369,6.1096,328.4827],[-61.2358,6.1084,331.1311],[-61.2355,6.1108,323.7353],[-61.2308,6.1163,357.8265],[-61.2308,6.1206,317.1682],[-61.2291,6.1229,311.0726],[-61.2263,6.1234,322.4933],[-61.2273,6.125,305.5035],[-61.2255,6.1239,309.5574],[-61.2257,6.1226,322.4933],[-61.2226,6.1217,303.2776],[-61.2213,6.1238,346.9574],[-61.2177,6.1232,352.519],[-61.2154,6.1165,314.184],[-61.2095,6.11,325.2365],[-61.2096,6.1138,321.5348],[-61.2037,6.1115,314.4751],[-61.2011,6.1151,321.1853],[-61.2031,6.117,307.5768],[-61.1976,6.1261,368.3526],[-61.1986,6.1322,310.6091],[-61.1954,6.1301,365.3535],[-61.1925,6.1319,311.9247],[-61.1909,6.1308,313.1836],[-61.1846,6.132,329.1077],[-61.1881,6.1392,306.4182],[-61.186,6.14,303.676],[-61.1861,6.1417,307.7213],[-61.182,6.1429,317.6207],[-61.1795,6.1478,380.7314],[-61.181,6.1493,331.0791],[-61.1803,6.1529,326.6698],[-61.1786,6.1542,381.7068],[-61.1793,6.1588,325.4291],[-61.182,6.1595,294.8905],[-61.1815,6.1617,307.3935],[-61.1833,6.161,306.0214],[-61.1857,6.1657,306.6925],[-61.1844,6.1697,299.7369],[-61.1856,6.1705,298.8387],[-61.1834,6.1734,300.8214],[-61.1835,6.1782,303.2361],[-61.1801,6.1782,305.4431],[-61.1763,6.1867,294.7438],[-61.1721,6.1866,281.0536],[-61.1687,6.181,337.4998],[-61.1663,6.1849,282.9269],[-61.1639,6.1839,282.5269],[-61.1626,6.185,302.0272],[-61.1593,6.1819,300.2094],[-61.1545,6.183,296.7261],[-61.1501,6.1811,288.2569],[-61.1412,6.1805,301.5903],[-61.1346,6.1772,278.4738],[-61.13,6.1813,293.774],[-61.1318,6.1853,302.668],[-61.1306,6.1899,302.2952],[-61.1243,6.1894,309.1158],[-61.1214,6.1954,289.7336],[-61.1216,6.1964,293.6938],[-61.1265,6.1961,275.7563],[-61.1295,6.2016,279.1614],[-61.1243,6.2083,302.0003],[-61.1271,6.2092,286.4446],[-61.1275,6.2062,273.3904],[-61.1313,6.2056,272.4796],[-61.1318,6.2101,294.7273],[-61.137,6.2116,271.7245],[-61.1402,6.2168,301.2708],[-61.139,6.2215,258.9822],[-61.1361,6.2229,297.9772],[-61.1354,6.2291,264.5051],[-61.131,6.2322,309.1817],[-61.1339,6.2401,295.642],[-61.1311,6.2534,291.7838],[-61.1324,6.2549,260.7698],[-61.1308,6.2584,291.3797],[-61.1275,6.2582,274.1738],[-61.1251,6.2615,279.1622],[-61.1248,6.2658,306.9285],[-61.1199,6.2662,287.2941],[-61.1124,6.2743,315.9176],[-61.1196,6.2787,294.0976],[-61.121,6.2758,253.7977],[-61.122,6.2769,253.7977],[-61.1284,6.2748,280.7018],[-61.1356,6.2747,254.524],[-61.1366,6.2791,269.7294],[-61.1383,6.2777,257.0766],[-61.1408,6.2796,257.4157],[-61.1414,6.2872,222.9567],[-61.1391,6.2908,350.4095],[-61.1413,6.2904,310.3961],[-61.1465,6.2953,212.5342],[-61.1549,6.2917,226.7276],[-61.1597,6.2975,180.0372],[-61.1599,6.3018,232.5002],[-61.1635,6.302,163.5584],[-61.1631,6.3073,245.3787],[-61.1658,6.3115,173.006],[-61.1656,6.3144,169.6677],[-61.1638,6.3153,208.5333],[-61.1666,6.3202,227.5489],[-61.1737,6.33,138.5058],[-61.1828,6.3334,119.5495],[-61.1818,6.3361,130.6252],[-61.1745,6.3365,122.0424],[-61.1773,6.3428,121.0283],[-61.1765,6.3443,125.5109],[-61.1741,6.3437,121.1452],[-61.1709,6.3387,124.8736],[-61.1704,6.3412,140.2474],[-61.1726,6.3454,131.6805],[-61.1677,6.3507,131.762],[-61.1676,6.3555,150.9969],[-61.1631,6.3577,137.8822],[-61.1628,6.3637,131.0006],[-61.1575,6.3699,145.445],[-61.1646,6.3771,128.8714],[-61.167,6.3828,147.6912],[-61.164,6.3852,145.636],[-61.1616,6.381,133.8976],[-61.1597,6.3805,130.5545],[-61.1591,6.3824,129.3471],[-61.161,6.3863,123.6665],[-61.1565,6.3888,119.8211],[-61.1594,6.3913,115.455],[-61.1644,6.3887,128.5396],[-61.1668,6.3921,126.6252],[-61.1669,6.3953,116.4437],[-61.165,6.3982,130.0193],[-61.1586,6.3953,118.4072],[-61.1593,6.3922,122.8251],[-61.1567,6.3936,125.4084],[-61.1577,6.3967,121.9172],[-61.1556,6.402,123.5416],[-61.1573,6.4107,126.1684],[-61.1538,6.4144,121.5132],[-61.1574,6.4181,142.6999],[-61.1533,6.4192,139.8625],[-61.1489,6.4149,113.2293],[-61.1452,6.421,136.9069],[-61.1484,6.4229,130.6692],[-61.1491,6.4268,119.6358],[-61.1424,6.4326,139.5186],[-61.1506,6.4331,128.0903],[-61.1547,6.4408,122.9965],[-61.1526,6.4448,129.7171],[-61.1534,6.4499,122.9448],[-61.148,6.4488,141.9684],[-61.1472,6.4512,142.5917],[-61.1482,6.4525,137.66],[-61.1532,6.4518,128.4092],[-61.1563,6.4556,132.7675],[-61.1565,6.457,132.7675],[-61.151,6.4613,128.6656],[-61.1521,6.4679,142.4321],[-61.1558,6.4672,132.74],[-61.1584,6.461,121.7645],[-61.1643,6.4605,119.8565],[-61.1689,6.4652,129.0739],[-61.1758,6.4683,135.8153],[-61.1774,6.4742,140.5718],[-61.182,6.4754,124.93],[-61.1809,6.4796,133.4423],[-61.1749,6.4841,155.5155],[-61.1815,6.4843,112.413],[-61.1851,6.4861,115.2536],[-61.1818,6.4931,146.1084],[-61.1736,6.4962,131.7853],[-61.1681,6.5049,138.3483],[-61.1683,6.5077,141.2251],[-61.1729,6.5102,134.7661],[-61.1692,6.5212,143.7375],[-61.1792,6.5253,136.9767],[-61.177,6.5314,173.9473],[-61.1787,6.5333,177.0914],[-61.1868,6.5286,134.9122],[-61.1942,6.53,136.0133],[-61.1921,6.5362,142.5424],[-61.1931,6.5401,142.5194],[-61.2009,6.5391,134.2927],[-61.204,6.536,124.3788],[-61.2018,6.5244,144.0379],[-61.2085,6.5331,137.4583],[-61.2111,6.5331,139.936],[-61.2119,6.529,115.5592],[-61.2188,6.5293,126.2395],[-61.217,6.5413,136.8991],[-61.2055,6.5403,145.7146],[-61.2057,6.5441,152.0958],[-61.2094,6.5446,138.0914],[-61.2057,6.5508,202.172],[-61.2113,6.5566,143.9924],[-61.22,6.5563,138.0921],[-61.2161,6.562,149.1449],[-61.2157,6.5691,142.5493],[-61.2178,6.5713,137.7968],[-61.2229,6.5711,133.3876],[-61.228,6.5731,136.1709],[-61.2248,6.5784,148.0315],[-61.2208,6.5748,137.1547],[-61.2162,6.5775,143.1083],[-61.2189,6.5865,135.5811],[-61.2176,6.5906,135.5326],[-61.219,6.5941,137.023],[-61.2122,6.5954,136.1371],[-61.2083,6.5924,117.8419],[-61.2083,6.5904,160.631],[-61.2025,6.5961,147.785],[-61.2033,6.6001,128.6956],[-61.1973,6.6102,133.394],[-61.1989,6.6131,126.4033],[-61.1957,6.6153,179.1498],[-61.196,6.6275,133.2765],[-61.1913,6.6295,136.2828],[-61.1873,6.6281,127.861],[-61.1838,6.6323,125.3516],[-61.177,6.633,133.8728],[-61.1763,6.6359,135.5556],[-61.1788,6.6375,121.9788],[-61.1773,6.6426,130.5491],[-61.184,6.6485,127.099],[-61.1849,6.6553,116.0993],[-61.179,6.6591,147.3227],[-61.1797,6.6655,141.892],[-61.1775,6.6734,119.2186],[-61.1728,6.6789,131.6266],[-61.1691,6.677,115.4676],[-61.1667,6.6776,107.5625],[-61.1629,6.6832,135.8122],[-61.1569,6.6811,127.2895],[-61.1543,6.686,129.7878],[-61.1593,6.6912,118.4222],[-61.1596,6.6936,119.9788],[-61.1553,6.6916,129.5657],[-61.146,6.6907,114.8408],[-61.1426,6.6956,130.4617],[-61.1461,6.6989,140.4561],[-61.1456,6.7075,123.482],[-61.1432,6.7129,115.7164],[-61.1389,6.7174,119.3441],[-61.1321,6.7238,114.6579],[-61.1293,6.7246,116.9327],[-61.1049,6.7165,98.0593],[-61.0992,6.7182,103.6857],[-61.0889,6.7052,99.2568],[-61.0841,6.704,94.9575],[-61.0789,6.706,117.223],[-61.0759,6.7121,118.8709],[-61.0737,6.7261,117.5543],[-61.0702,6.73,126.9961],[-61.0546,6.7209,93.0],[-61.0472,6.7189,93.0],[-61.0415,6.7197,116.1215],[-61.035,6.7164,106.2051],[-61.0164,6.7181,124.615],[-61.0112,6.7209,124.7768],[-61.0058,6.7273,122.3961],[-61.0005,6.7299,93.0],[-60.9952,6.7291,114.768],[-60.9868,6.72,94.9065],[-60.9795,6.7172,121.8401],[-60.9631,6.7167,105.7537],[-60.9337,6.7215,269.2752],[-60.9289,6.7272,324.2106],[-60.9272,6.738,118.8872],[-60.9246,6.743,102.827],[-60.9197,6.7482,121.7309],[-60.8966,6.7559,119.8129],[-60.8915,6.761,131.8597],[-60.8931,6.7669,127.6739],[-60.8983,6.7705,125.0534],[-60.9164,6.7965,124.5259],[-60.914,6.8107,119.9025],[-60.9088,6.8178,117.0789],[-60.9018,6.822,124.6458],[-60.8921,6.8195,120.4108],[-60.8849,6.8211,124.4778],[-60.8725,6.816,123.094],[-60.8634,6.8055,115.214],[-60.8482,6.7963,120.9487],[-60.8471,6.7946,117.9453],[-60.8494,6.7839,115.2663],[-60.8476,6.7832,114.314],[-60.8424,6.7826,114.0131],[-60.8321,6.7869,95.4035],[-60.8193,6.7973,122.5439],[-60.8116,6.7973,117.3461],[-60.7888,6.7831,117.9505],[-60.7737,6.7769,109.0689],[-60.7662,6.7706,90.0],[-60.75,6.7621,90.0],[-60.7355,6.7584,90.0],[-60.7206,6.7479,120.4717],[-60.7111,6.7491,123.6685],[-60.6938,6.7565,124.7003],[-60.6816,6.767,119.5607],[-60.678,6.777,126.3141],[-60.6764,6.7894,122.9555],[-60.6729,6.7972,122.1331],[-60.6662,6.8054,128.0098],[-60.6518,6.818,117.699],[-60.6437,6.8215,122.5494],[-60.6239,6.8359,100.0301],[-60.6092,6.8441,99.2192],[-60.5809,6.8467,92.0049],[-60.5717,6.8504,91.2231],[-60.5537,6.853,92.3389],[-60.5458,6.8566,106.5175],[-60.5386,6.8673,88.0],[-60.5338,6.8786,88.0],[-60.5273,6.8802,88.0],[-60.5087,6.8796,88.0],[-60.4997,6.8822,88.0],[-60.4895,6.8909,88.0],[-60.4729,6.9128,100.6987],[-60.4685,6.9138,99.4083],[-60.4649,6.9169,94.1476],[-60.4594,6.9228,145.3794],[-60.4569,6.9282,88.1322],[-60.446,6.932,96.2346],[-60.4435,6.9369,88.7786],[-60.4371,6.939,113.9925],[-60.4315,6.9383,85.0],[-60.4271,6.941,100.8237],[-60.4207,6.9408,85.0],[-60.4176,6.9433,95.7204],[-60.3979,6.9476,95.3054],[-60.3945,6.9455,112.6021],[-60.3846,6.9334,84.5],[-60.3743,6.9337,118.7585],[-60.374,6.9441,117.6511],[-60.3704,6.9506,117.7535],[-60.3709,6.9611,126.5447],[-60.3673,6.9639,124.598],[-60.3668,6.9672,122.9155],[-60.3638,6.9709,122.4915],[-60.3634,6.9755,123.5369],[-60.3656,6.9826,123.5453],[-60.3628,6.9875,129.9026],[-60.3653,6.9903,124.2598],[-60.3655,6.9944,122.3195],[-60.3631,6.9955,123.698],[-60.3627,6.9977,129.4131],[-60.3637,7.0023,132.8599],[-60.3598,7.0067,126.4714],[-60.3502,7.0127,127.6024],[-60.3508,7.0147,124.6027],[-60.3538,7.016,124.5327],[-60.3523,7.0182,126.8102],[-60.3471,7.0197,127.4754],[-60.3444,7.0265,131.3352],[-60.3455,7.0315,127.3245],[-60.3433,7.0329,127.4581],[-60.3428,7.0356,123.4995],[-60.3475,7.051,129.7479],[-60.347,7.0577,126.6279],[-60.3507,7.059,131.3451],[-60.3501,7.0669,129.1599],[-60.3423,7.0834,133.8612],[-60.3449,7.0898,131.3948],[-60.3535,7.0915,139.7312],[-60.3596,7.0972,138.6781],[-60.3542,7.1384,215.1534],[-60.3583,7.1577,165.3947],[-60.3652,7.1712,225.5115],[-60.3827,7.1833,201.7339],[-60.4087,7.1814,166.2602],[-60.4193,7.1833,177.8952],[-60.4228,7.1856,175.2032],[-60.4286,7.2017,155.5139],[-60.4337,7.2043,150.2517],[-60.4424,7.2042,159.1534],[-60.461,7.198,145.5693],[-60.4766,7.1992,143.4931],[-60.4862,7.194,146.3262],[-60.4992,7.1913,176.925],[-60.5166,7.1793,153.0914],[-60.5219,7.1726,158.1812],[-60.5345,7.1405,156.7021],[-60.5379,7.139,175.8652],[-60.548,7.1407,232.1684],[-60.5516,7.1493,203.5053],[-60.5582,7.1584,290.492],[-60.5688,7.1647,199.9285],[-60.5713,7.1679,208.1478],[-60.5733,7.1719,265.287],[-60.574,7.183,180.9233],[-60.5762,7.1874,178.2411],[-60.5819,7.1914,176.6754],[-60.5928,7.1922,222.0662],[-60.5965,7.1946,235.4201],[-60.6047,7.2085,304.9019],[-60.6111,7.2109,335.632],[-60.6155,7.2206,243.0308],[-60.618,7.2232,248.2788],[-60.6238,7.2244,332.5415],[-60.6286,7.2292,378.51],[-60.6317,7.2414,290.5104],[-60.637,7.2524,316.5302],[-60.6327,7.27,300.4901],[-60.6302,7.2754,290.5002],[-60.6268,7.278,261.2412],[-60.6164,7.2804,402.1058],[-60.6143,7.2822,370.2684],[-60.6128,7.2864,348.2294],[-60.614,7.302,295.6582],[-60.6125,7.3046,315.1879],[-60.5944,7.3159,283.5609],[-60.5886,7.3234,306.933],[-60.594,7.3498,228.1382],[-60.598,7.3577,206.8507],[-60.6039,7.363,239.6907],[-60.6053,7.3663,262.3505],[-60.6062,7.3781,283.2069],[-60.6087,7.3848,191.8394],[-60.6119,7.3896,228.4552],[-60.6205,7.3936,187.088],[-60.6227,7.3963,227.9939],[-60.6237,7.4018,332.8405],[-60.6219,7.4048,253.7813],[-60.6239,7.4091,256.0559],[-60.6305,7.4125,248.0485],[-60.6421,7.422,356.5607],[-60.6414,7.4299,388.3813],[-60.6361,7.4366,347.4356],[-60.6393,7.4474,409.8958],[-60.6379,7.4683,163.9744],[-60.6424,7.4795,149.4606],[-60.6438,7.493,134.3343],[-60.6421,7.4978,126.0736],[-60.6394,7.497,121.7273],[-60.638,7.5,117.4481],[-60.6406,7.5016,131.2635],[-60.6394,7.5065,131.793],[-60.6331,7.5106,153.7834],[-60.6265,7.5227,142.4606],[-60.629,7.5293,130.4662],[-60.6274,7.5335,128.0827],[-60.6307,7.5371,131.8459],[-60.626,7.5446,144.3122],[-60.6299,7.5528,166.4949],[-60.63,7.5634,204.6378],[-60.6281,7.5671,178.9344],[-60.6376,7.5814,217.1355],[-60.6391,7.5876,216.7043],[-60.6381,7.6014,183.0065],[-60.636,7.6046,157.3106],[-60.6248,7.6099,157.9233],[-60.6243,7.6143,140.2254],[-60.62,7.6208,139.4084],[-60.6251,7.6269,165.22],[-60.6246,7.6345,167.3451],[-60.6173,7.6457,133.9503],[-60.6133,7.6469,141.2225],[-60.602,7.6456,130.3253],[-60.5933,7.637,131.1658],[-60.5885,7.6375,136.9435],[-60.5906,7.6457,132.7385],[-60.589,7.6687,113.7824],[-60.5921,7.6749,122.952],[-60.5918,7.6778,113.1829],[-60.5891,7.681,113.0209],[-60.5828,7.6825,125.6516],[-60.5784,7.6989,114.2883],[-60.5687,7.7063,126.8961],[-60.5715,7.7181,121.6726],[-60.5775,7.7303,116.1363],[-60.5756,7.7441,113.4818],[-60.5663,7.7469,130.929],[-60.566,7.7517,125.3599],[-60.5629,7.7565,119.5991],[-60.5654,7.7615,119.6415],[-60.5647,7.7662,112.9132],[-60.5492,7.7807,120.4238],[-60.5475,7.7856,125.6701],[-60.5324,7.7975,127.8998],[-60.5317,7.8011,111.3869],[-60.5337,7.807,108.6894],[-60.5277,7.8174,124.2481],[-60.5304,7.8214,142.9588],[-60.5285,7.825,117.9014],[-60.5195,7.8261,122.7296],[-60.5154,7.8325,112.277],[-60.5072,7.8344,105.2594],[-60.5026,7.8411,104.7429],[-60.4949,7.836,105.5477],[-60.4852,7.8332,137.6448],[-60.4721,7.842,115.1233],[-60.4655,7.8421,124.0609],[-60.4566,7.8387,119.1433],[-60.4492,7.8401,155.5238],[-60.4451,7.8444,113.1813],[-60.4367,7.8396,154.8373],[-60.4328,7.8323,168.4478],[-60.4224,7.8329,124.2152],[-60.4193,7.8286,124.1505],[-60.4156,7.8301,132.7558],[-60.4032,7.8269,122.7003],[-60.3952,7.8318,186.3886],[-60.3877,7.8324,135.1444],[-60.3809,7.8353,149.742],[-60.3774,7.8423,142.8099],[-60.3725,7.8434,167.5933],[-60.3675,7.8407,131.5749],[-60.3688,7.8368,120.0342],[-60.3671,7.8318,116.7252],[-60.3624,7.831,116.34],[-60.3603,7.8285,115.9494],[-60.3577,7.8289,101.8487],[-60.3555,7.8316,111.92],[-60.3468,7.8348,103.0342],[-60.3464,7.8369,96.7006],[-60.342,7.8407,109.5693],[-60.3323,7.8453,90.5664],[-60.329,7.8539,92.7113],[-60.3198,7.8582,92.8175],[-60.3104,7.874,87.6549],[-60.2996,7.8756,83.427],[-60.2923,7.88,75.3705],[-60.2921,7.8827,82.6765],[-60.2872,7.8828,73.2838],[-60.285,7.887,78.2747],[-60.2821,7.8858,66.3056],[-60.2769,7.8886,78.1399],[-60.2727,7.8965,80.2691],[-60.2686,7.9001,76.6825],[-60.2624,7.9016,70.0758],[-60.2618,7.9068,73.5571],[-60.2586,7.9061,66.0548],[-60.2518,7.9189,77.2915],[-60.248,7.9176,67.7075],[-60.2467,7.9152,57.033],[-60.2447,7.916,54.1252],[-60.2429,7.919,69.7731],[-60.24,7.934,68.088],[-60.238,7.936,71.4776],[-60.2315,7.9367,65.3791],[-60.2272,7.9392,63.9318],[-60.2275,7.9413,60.0879],[-60.2322,7.9436,60.1426],[-60.233,7.9465,53.636],[-60.2169,7.9605,63.1982],[-60.2134,7.962,47.0198],[-60.2041,7.9609,79.0986],[-60.1976,7.9626,51.3124],[-60.1916,7.9688,53.9576],[-60.1871,7.9653,30.4326],[-60.1703,7.976,52.2687],[-60.1633,7.9765,44.3905],[-60.1605,7.9828,34.259],[-60.1462,7.989,31.9634],[-60.1614,7.9901,47.1173],[-60.1891,7.988,55.6624],[-60.2122,7.9806,65.4155],[-60.2343,7.9664,58.1215],[-60.25,7.9591,76.7631],[-60.3157,7.9477,112.8142],[-60.3501,7.9483,114.2716],[-60.3647,7.9465,117.6692],[-60.4373,7.9149,81.8277],[-60.4692,7.9184,82.9274],[-60.5063,7.9187,101.7017],[-60.5356,7.924,142.0904],[-60.5789,7.8891,87.9488],[-60.6092,7.8543,155.9993],[-60.6275,7.8402,104.2085],[-60.6528,7.8256,104.8462],[-60.6654,7.811,109.197],[-60.6834,7.7838,110.9038],[-60.6906,7.7706,97.7998],[-60.703,7.7357,152.0642],[-60.7166,7.719,245.551],[-60.7355,7.703,155.6829],[-60.7454,7.6914,146.0175],[-60.7578,7.6718,144.4342],[-60.7654,7.6665,131.4572],[-60.7827,7.6626,145.1815],[-60.7889,7.6638,145.9335],[-60.7942,7.6674,146.6457],[-60.7966,7.6721,143.8899],[-60.8297,7.6539,142.0641],[-60.8431,7.6515,148.9659],[-60.8496,7.6528,146.5873],[-60.8816,7.6686,158.1418],[-60.9049,7.6858,169.2599],[-60.9324,7.713,149.325],[-60.9562,7.7275,136.1977],[-60.9707,7.7405,146.3158],[-61.0497,7.7928,136.5702],[-61.0628,7.798,132.6792],[-61.0784,7.8007,152.5815],[-61.1133,7.7987,154.1273],[-61.138,7.7953,187.1513],[-61.1561,7.7911,165.3041],[-61.2157,7.7647,198.8801],[-61.2413,7.7516,214.7224],[-61.2623,7.7376,197.8],[-61.2829,7.7161,175.0081],[-61.3093,7.6759,179.8392],[-61.3157,7.6613,183.2304],[-61.3192,7.6361,189.9112],[-61.3242,7.6213,203.0367],[-61.3321,7.6119,236.1461],[-61.3418,7.6083,214.3088],[-61.3424,7.615,214.1821],[-61.3621,7.6224,211.8614],[-61.3684,7.6264,206.7892],[-61.3856,7.6378,218.8606],[-61.4038,7.6539,265.6413],[-61.4386,7.6891,547.5344],[-61.4637,7.7221,597.3175],[-61.4912,7.7476,591.9382],[-61.4969,7.758,417.5512],[-61.5034,7.7755,390.6921],[-61.5189,7.8561,351.4626],[-61.5291,7.8802,291.911],[-61.5395,7.8988,308.7672],[-61.5757,7.9527,236.9982],[-61.6008,7.981,300.6616],[-61.6268,8.0231,300.3874],[-61.6339,8.0402,273.3129],[-61.6465,8.0799,292.0574],[-61.648,8.0946,286.4811],[-61.6445,8.1066,290.7061],[-61.6363,8.1162,323.7835],[-61.6235,8.127,310.942],[-61.5889,8.1494,320.6106],[-61.5834,8.1571,276.7084],[-61.5765,8.1722,292.1605],[-61.5722,8.1888,290.2637],[-61.5714,8.2088,311.7868],[-61.5731,8.2187,310.5853],[-61.5824,8.2386,374.1795],[-61.5935,8.2483,361.2094],[-61.6021,8.2524,335.2164],[-61.6122,8.2546,349.8849],[-61.6307,8.2563,321.3921],[-61.6598,8.2551,396.6448],[-61.667,8.2538,355.4058],[-61.6835,8.247,255.2655],[-62.1584,8.1818,645.7933],[-62.4763,8.363,200.898],[-62.5285,8.3903,225.4352],[-62.5355,8.391,114.1612],[-62.5481,8.3971,96.6576],[-62.5617,8.388,110.7722],[-62.581,8.3574,26.2977],[-62.6207,8.3258,35.7295],[-62.6339,8.3222,54.1259],[-62.6446,8.3222,79.6255],[-62.6688,8.3245,27.7321],[-62.6926,8.3243,7.5563],[-62.7172,8.3286,9.2439],[-62.7241,8.3275,23.1519],[-62.7317,8.324,48.3004],[-62.7488,8.3093,85.2707],[-62.7909,8.2473,125.9007],[-62.8088,8.2329,117.5408],[-62.8253,8.2255,114.5433],[-62.8346,8.225,113.8061],[-62.848,8.2291,118.1917],[-62.868899999999996,8.244,95.5438],[-62.8959,8.2698,3.0],[-62.9055,8.2761,3.5552],[-62.9205,8.2801,3.0],[-62.9407,8.28,3.0],[-62.9675,8.2897,9.4244],[-62.9675,8.2588,22.9499],[-62.9854,8.2545,58.2028],[-63.0087,8.2535,74.2704],[-63.0264,8.2547,87.5972],[-63.0566,8.2645,94.1984],[-63.0624,8.265,85.2421],[-63.0939,8.2611,91.3758],[-63.1239,8.2629,90.9012],[-63.1412,8.2608,96.7487],[-63.1618,8.2511,96.4522],[-63.1861,8.2461,69.9876],[-63.1944,8.2404,90.271],[-63.2071,8.224,91.7631],[-63.2226,8.2129,112.22],[-63.2468,8.1866,122.2614],[-63.2654,8.1717,90.7463],[-63.2865,8.1643,96.4674],[-63.3079,8.1603,102.2276],[-63.3193,8.1607,97.8925],[-63.3411,8.1668,75.9342],[-63.3514,8.1647,42.9915],[-63.3601,8.1592,32.375],[-63.3705,8.1459,85.3762],[-63.3843,8.1321,54.6198],[-63.3924,8.1271,45.307],[-63.4021,8.1238,54.2814],[-63.4443,8.1175,40.1279],[-63.4524,8.1182,23.2856],[-63.4702,8.1238,28.7707],[-63.4856,8.1233,24.8834],[-63.5037,8.1192,36.7948],[-63.5245,8.1102,67.3065],[-63.5364,8.1074,63.4029],[-63.5753,8.1121,53.0568],[-63.5849,8.1123,57.6741],[-63.6023,8.109,83.119],[-63.626,8.1123,35.0587],[-63.6459,8.1133,18.3629],[-63.6636,8.1092,16.8226],[-63.6763,8.1104,13.0],[-63.7068,8.1066,19.8555],[-63.7383,8.0894,62.2587],[-63.7559,8.0837,67.3768],[-63.7722,8.0823,62.4475],[-63.7795,8.0789,57.7253],[-63.7845,8.0741,49.8456],[-63.7899,8.0659,63.6534],[-63.7954,8.0439,50.381],[-63.8022,8.0283,66.4411],[-63.8083,8.0203,96.3302],[-63.8293,7.9993,123.0508],[-63.8517,7.9617,68.8098],[-63.8844,7.9332,39.4056],[-63.9016,7.9228,77.6889],[-63.9345,7.9168,24.8237],[-63.9699,7.904,64.1716],[-63.9866,7.9057,40.7987],[-64.0204,7.9154,58.4374],[-64.0425,7.9138,23.4465],[-64.0501,7.9148,35.2863],[-64.0697,7.9244,62.9667],[-64.0875,7.9304,90.0147],[-64.1107,7.9431,17.9285],[-64.1305,7.9656,15.0],[-64.1601,7.986,16.1874],[-64.1814,8.013,15.0],[-64.1961,8.0238,16.0907],[-64.2019,8.0305,15.0],[-64.2094,8.0071,19.1782],[-64.2135,8.001,17.735],[-64.2231,7.9927,26.3787],[-64.2479,8.0439,21.0666],[-64.275,8.0383,19.4316],[-64.2811,8.0343,21.0164],[-64.2908,8.0233,20.4257],[-64.3145,7.9909,26.277],[-64.3247,7.9638,42.5539],[-64.3237,7.9499,48.2241],[-64.3255,7.9447,61.629],[-64.3298,7.9365,80.3491],[-64.3389,7.9276,70.7233],[-64.3469,7.9257,65.2876],[-64.3582,7.9298,80.0794],[-64.3679,7.9363,77.5273],[-64.3882,7.9547,150.8909],[-64.4006,7.9606,45.1466],[-64.4131,7.9613,25.0946],[-64.4273,7.9574,13.7613],[-64.4524,7.9551,19.971],[-64.4696,7.9475,15.9852],[-64.4768,7.9408,21.0165],[-64.5115,7.9193,15.0],[-64.5424,7.8846,19.4469],[-64.5459,7.8769,15.0],[-64.5471,7.8662,15.5],[-64.5432,7.844,34.9549],[-64.5434,7.8126,52.0242],[-64.5398,7.7996,32.1068],[-64.534,7.7898,24.1649],[-64.5009,7.768,30.131],[-64.4971,7.7663,30.649],[-64.476,7.7643,90.4425],[-64.4655,7.7618,112.8523],[-64.4571,7.7581,97.9553],[-64.4466,7.7495,110.0946],[-64.4435,7.7438,106.6294],[-64.4444,7.7343,124.7191],[-64.4472,7.7208,93.3762],[-64.4516,7.715,83.7116],[-64.4673,7.7051,69.682],[-64.4902,7.6972,69.7321],[-64.5123,7.6969,68.0018],[-64.5347,7.7044,62.5705],[-64.5686,7.7038,32.0799],[-64.5858,7.6999,30.0553],[-64.6127,7.6819,57.1023],[-64.6319,7.6748,40.9445],[-64.641,7.6683,27.7406],[-64.6509,7.6526,53.1125],[-64.6593,7.6446,80.5384],[-64.6803,7.6367,80.474],[-64.702,7.626,61.0219],[-64.7204,7.6113,67.5847],[-64.7285,7.6079,61.3753],[-64.7481,7.6061,58.9662],[-64.78,7.5982,101.4969],[-64.8135,7.5761,64.8336],[-64.8356,7.5697,53.5195],[-64.8411,7.5767,31.1826],[-64.8595,7.5803,24.1977],[-64.8796,7.5796,23.0981],[-64.8871,7.5827,21.3543],[-64.9034,7.6019,16.5],[-64.9264,7.6162,21.2234],[-64.9511,7.6389,22.6827],[-64.9715,7.6628,25.4679],[-64.9872,7.6772,23.2955],[-65.0031,7.6856,23.4074],[-65.0206,7.6989,26.1512],[-65.0553,7.7048,22.9332],[-65.0654,7.7102,23.1616],[-65.0825,7.7274,29.5231],[-65.0888,7.7319,28.7708],[-65.0968,7.7343,31.1569],[-65.105,7.7345,32.1695],[-65.1262,7.7309,34.9917],[-65.1661,7.7305,34.9109],[-65.1936,7.7387,33.4042],[-65.2114,7.7481,34.558],[-65.2288,7.7507,34.9426],[-65.247,7.7495,32.252],[-65.2945,7.7424,41.9164],[-65.3221,7.7424,44.359],[-65.3597,7.7559,47.7512],[-65.3838,7.7575,30.1288],[-65.3983,7.7605,43.7244],[-65.4212,7.7693,46.2919],[-65.4672,7.7735,47.0],[-65.4919,7.783,52.3993],[-65.5004,7.7845,49.4803],[-65.552,7.7879,63.8111],[-65.5826,7.7939,55.305],[-65.6073,7.7921,65.9536],[-65.6234,7.7932,82.1562],[-65.6344,7.7969,67.492],[-65.6434,7.7976,115.1881],[-65.651,7.7961,86.5035],[-65.6684,7.7848,50.6023],[-65.6775,7.7751,48.1005],[-65.6918,7.7706,49.3803],[-65.7031,7.7621,38.0315],[-65.7307,7.7275,32.3135],[-65.752,7.7061,30.8323],[-65.7695,7.6821,32.3618],[-65.7726,7.6745,33.6735],[-65.7863,7.6545,36.4331],[-65.8118,7.6297,39.7881],[-65.8599,7.6117,48.7169],[-65.9068,7.5848,43.8715],[-65.926,7.5804,38.5434],[-65.9474,7.5794,34.6649],[-65.9673,7.5812,32.0414],[-66.0047,7.5896,41.4928],[-66.0226,7.5903,38.0999],[-66.0443,7.5885,32.3039],[-66.1038,7.5732,36.7331],[-66.1143,7.5735,36.4529],[-66.1351,7.581,55.2051],[-66.1583,7.5804,37.0971],[-66.1721,7.5741,39.9494],[-66.2009,7.5481,39.5665],[-66.2166,7.5407,31.3243],[-66.2409,7.5418,33.1024],[-66.2591,7.548,32.184],[-66.2942,7.5545,32.2981],[-66.3153,7.5543,32.4926],[-66.3251,7.5506,37.0668],[-66.341,7.5358,34.9328],[-66.3789,7.5126,43.1127],[-66.3893,7.5033,62.1071],[-66.4018,7.4884,104.8206],[-66.4258,7.4544,214.4412],[-66.4586,7.4219,146.2014],[-66.475,7.3899,37.246],[-66.5329,7.3259,41.1931],[-66.5479,7.3033,39.116],[-66.585,7.2554,41.6008],[-66.602,7.2425,35.0743],[-66.6138,7.2374,38.0155],[-66.6354,7.232,34.2965],[-66.6503,7.2264,35.3366],[-66.6811,7.2113,36.4863],[-66.763,7.1766,56.7609],[-66.8183,7.1639,41.2145],[-66.8674,7.1436,36.5515],[-66.8788,7.1373,38.356],[-66.8866,7.1306,37.6876],[-66.9144,7.1011,44.8558],[-66.9258,7.0928,144.6814],[-66.9396,7.0896,37.8542],[-66.9878,7.0872,36.6687],[-67.0066,7.0836,39.5511],[-67.0378,7.0815,43.2195],[-67.0519,7.0758,40.4412],[-67.0689,7.0585,32.5],[-67.0779,7.0443,38.8273],[-67.0828,7.0272,33.0],[-67.0859,6.9917,39.6326],[-67.084,6.9645,38.2128],[-67.0795,6.9445,38.3279],[-67.0668,6.9162,41.7066],[-67.0573,6.903,41.347],[-67.0347,6.8824,36.0],[-67.0273,6.8709,36.0],[-67.0256,6.8578,36.5],[-67.0331,6.8209,37.0],[-67.0421,6.7551,37.5],[-67.0463,6.7381,37.5],[-67.0628,6.6932,37.5],[-67.0871,6.6498,37.5],[-67.0995,6.5991,56.8504],[-67.1078,6.5821,62.6099],[-67.1163,6.5587,56.2453],[-67.1239,6.5225,54.7296],[-67.126,6.4861,57.9371],[-67.1252,6.4514,50.4949],[-67.1273,6.4406,49.8112],[-67.1342,6.4283,132.7433],[-67.1562,6.4131,57.977],[-67.1708,6.4013,54.2496],[-67.1874,6.3846,58.7461],[-67.2069,6.3699,47.1078],[-67.2214,6.3503,57.2551],[-67.2304,6.3352,64.2283],[-67.2466,6.3213,69.0821],[-67.2635,6.3129,63.8518],[-67.277,6.3125,60.5774],[-67.2797,6.3143,58.5214],[-67.288,6.3077,52.5787],[-67.3185,6.2653,39.5],[-67.3314,6.2508,44.3251],[-67.3786,6.2304,40.0],[-67.3987,6.2189,60.1369],[-67.4122,6.2075,51.5333],[-67.4535,6.1799,55.3132],[-67.4909,6.1493,41.5],[-67.4817,6.1509,64.2001],[-67.4697,6.1566,41.0],[-67.4346,6.1548,53.6707],[-67.4228,6.152,51.6015],[-67.4131,6.1473,51.3638],[-67.4004,6.1309,55.0247],[-67.3909,6.1244,55.2612],[-67.374,6.1191,60.4051],[-67.356,6.1209,108.4267],[-67.3154,6.1304,81.4555],[-67.2995,6.1325,70.2222],[-67.2865,6.1312,77.173],[-67.2606,6.1085,158.8165],[-67.2467,6.1055,210.2859],[-67.1961,6.1095,220.7204],[-67.1795,6.1093,550.1948],[-67.1666,6.1039,481.5152],[-67.1524,6.0923,285.3052],[-67.1433,6.0818,115.342],[-67.1322,6.0567,135.7835],[-67.131,6.0038,505.5207],[-67.1212,5.9535,146.6216],[-67.1219,5.9265,149.8301],[-67.1285,5.9094,187.7479],[-67.1327,5.8885,93.9155],[-67.1352,5.8727,145.8363],[-67.136,5.8369,327.2325],[-67.1384,5.8187,141.9883],[-67.149,5.7714,491.1623],[-67.1509,5.7547,616.8695],[-67.1482,5.7399,678.6646],[-67.1393,5.7284,720.6626],[-67.1315,5.7249,762.2749],[-67.1116,5.7246,673.8246],[-67.0905,5.7286,745.8226],[-67.0587,5.7405,736.071],[-67.0238,5.7462,620.7245],[-67.0161,5.7452,482.8711],[-67.0054,5.7412,434.8496],[-66.9858,5.7276,737.8587],[-66.9758,5.713,869.6082],[-66.9708,5.7027,833.2705],[-66.9675,5.6906,1117.924],[-66.9604,5.6774,912.8287],[-66.9574,5.6647,1083.5247],[-66.9521,5.6536,994.057],[-66.9404,5.6447,1108.8009],[-66.9293,5.6411,716.4],[-66.9227,5.6407,652.2756],[-66.9131,5.643,758.3364],[-66.8811,5.6567,898.9622],[-66.8659,5.6659,1335.7468],[-66.8568,5.6739,1289.4653],[-66.844,5.6932,1038.238],[-66.8123,5.7127,830.0862],[-66.7988,5.7273,688.0584],[-66.7803,5.7519,931.1808],[-66.7692,5.7618,887.0649],[-66.7484,5.7735,797.7657],[-66.6983,5.7817,1222.8458],[-66.6778,5.7819,1145.875],[-66.6392,5.7765,1111.0337],[-66.6166,5.7714,872.4703],[-66.5902,5.7708,1255.0266],[-66.5569,5.7796,1495.2095],[-66.5171,5.795,1210.2793],[-66.5031,5.7973,1320.9751],[-66.484,5.7951,838.2648],[-66.4577,5.7858,543.9814],[-66.4323,5.7838,719.5619],[-66.4093,5.7872,1477.0699],[-66.3854,5.7935,1663.8108],[-66.3667,5.7953,1656.397],[-66.3394,5.7943,482.725],[-66.3014,5.7863,307.9654],[-66.2739,5.7772,446.7121],[-66.2219,5.7536,1674.906],[-66.1856,5.7428,1965.8955],[-66.1044,5.7282,1613.9253],[-66.0752,5.7255,1587.4928],[-66.0619,5.7265,1881.8109],[-66.0452,5.7357,1984.057],[-66.0143,5.7699,1639.4224],[-65.9718,5.8105,1270.7372],[-65.9392,5.8448,1013.158],[-65.8941,5.8871,986.0175],[-65.8779,5.9056,953.014],[-65.8695,5.9179,917.5121],[-65.8503,5.9568,723.2161],[-65.8452,5.9709,1080.8459],[-65.8334,5.9881,763.4852],[-65.8186,6.0001,694.9375],[-65.802,6.01,726.3278],[-65.7386,6.0309,496.4725],[-65.7148,6.0443,368.4127],[-65.6921,6.0662,378.7775],[-65.6714,6.0817,361.7668],[-65.5403,6.1245,463.5919],[-65.5308,6.1268,469.6362],[-65.5213,6.1268,469.8286],[-65.5024,6.1159,519.5765],[-65.4957,6.1157,582.0581],[-65.4775,6.117,410.2226],[-65.4558,6.1233,610.0704],[-65.4296,6.1255,1034.2786],[-65.4167,6.1224,1240.351],[-65.402,6.1148,1069.1221],[-65.3912,6.1023,996.1039],[-65.3881,6.094,921.15],[-65.3825,6.0537,1124.7976],[-65.3858,6.0249,1155.0676],[-65.4095,5.9637,959.2288],[-65.4189,5.9311,1150.1188],[-65.4186,5.9125,1192.9692],[-65.4103,5.8486,693.9464],[-65.4089,5.8158,725.5753],[-65.4,5.7821,774.3457],[-65.3822,5.7446,1287.3484],[-65.3681,5.704,1801.9404],[-65.3621,5.6939,1629.2738],[-65.3549,5.6857,1556.259],[-65.3469,5.6797,1585.7477],[-65.3209,5.6713,795.9928],[-65.3125,5.6695,827.351],[-65.3011,5.6723,1151.1428],[-65.2947,5.676,1207.0981],[-65.286,5.6866,1223.819],[-65.2812,5.6985,1000.7861],[-65.2474,5.7396,1474.8948],[-65.2381,5.746,1596.2913],[-65.2277,5.7505,1678.8242],[-65.2164,5.7522,1654.2922],[-65.2077,5.7517,1548.2664],[-65.171,5.7422,1194.2208],[-65.127,5.7438,1094.0521],[-65.0346,5.7428,688.2841],[-65.0141,5.7442,737.4268],[-65.005,5.7426,684.8951],[-64.9931,5.7381,714.9067],[-64.9857,5.7324,644.6606],[-64.9792,5.7227,689.5392],[-64.9767,5.7151,582.5742],[-64.9764,5.7072,650.7231],[-64.9793,5.699,677.8828],[-65.0009,5.6742,639.9172],[-65.0162,5.661,815.2036],[-65.0212,5.652,809.4301],[-65.0242,5.6368,899.2128],[-65.0218,5.6269,958.2802],[-65.0102,5.607,1090.562],[-64.993,5.5668,519.9204],[-64.977,5.5471,465.7312],[-64.9678,5.5291,398.2103],[-64.9509,5.505,480.6078],[-64.9379,5.4823,443.8015],[-64.924,5.4707,376.6129],[-64.8995,5.456,559.1504],[-64.8957,5.4479,401.0866],[-64.8942,5.4342,339.6652],[-64.8992,5.4184,345.5212],[-64.9108,5.3945,372.9198],[-64.9377,5.3531,350.491],[-64.9465,5.3446,345.0351],[-64.9594,5.3394,381.2718],[-64.9766,5.339,502.099],[-64.9975,5.3429,393.3738],[-65.0208,5.3448,573.8547],[-65.0385,5.3433,645.1119],[-65.0594,5.3356,731.8394],[-65.0662,5.3282,730.6117],[-65.0688,5.3159,745.2991],[-65.0681,5.2973,1005.8264],[-65.0631,5.2725,1219.7155],[-65.0524,5.2451,1155.76],[-65.0284,5.1951,622.9846],[-65.0115,5.1503,570.7401],[-64.9945,5.0883,531.9228],[-64.9846,5.0222,688.3862],[-64.9758,4.9947,757.7945],[-64.9643,4.967,661.1373],[-64.9366,4.9108,899.8129],[-64.919,4.8641,884.3379],[-64.9,4.8225,448.823],[-64.8846,4.7983,435.9045],[-64.8692,4.7789,426.162],[-64.8467,4.7437,416.4319],[-64.8157,4.6855,589.4147],[-64.788,4.6414,489.7258],[-64.7697,4.62,1006.3613],[-64.7532,4.6089,747.4596],[-64.7298,4.5984,620.8932],[-64.7009,4.5888,662.4229],[-64.6829,4.5858,589.2523],[-64.629,4.5834,712.3185],[-64.5944,4.579,1230.0933],[-64.5795,4.5745,1044.7455],[-64.5672,4.5673,1134.5558],[-64.5602,4.5564,1142.0701],[-64.5523,4.5139,1006.5552],[-64.5484,4.4706,1150.1287],[-64.5383,4.4401,1026.9835],[-64.5365,4.3933,923.1981],[-64.5296,4.3625,759.4934],[-64.5257,4.3245,965.1945],[-64.5244,4.2844,744.8954],[-64.5264,4.2643,833.2998],[-64.5322,4.2383,793.665],[-64.5366,4.227,748.3451],[-64.567,4.2367,707.7164],[-64.5918,4.2482,738.6313],[-64.6109,4.2514,762.0205],[-64.615,4.2495,718.9107],[-64.6335,4.2329,1002.1548],[-64.6402,4.2216,1333.0012],[-64.6417,4.2127,1277.9426],[-64.6387,4.2005,1430.8126],[-64.6378,4.1878,1054.313],[-64.6386,4.1647,1178.5566],[-64.6275,4.1385,1071.8997],[-64.593,4.114,961.2365],[-64.5605,4.1015,1032.9519],[-64.5444,4.1137,823.7648],[-64.5211,4.1163,957.5546],[-64.5005,4.1104,847.7802],[-64.5002,4.1126,784.9814],[-64.4577,4.1213,826.5037],[-64.4316,4.1346,741.9166],[-64.4038,4.1321,782.8465],[-64.3863,4.1371,822.1949],[-64.3355,4.129,760.2568],[-64.3063,4.1312,739.869],[-64.2897,4.1438,774.1492],[-64.2744,4.1426,812.2435],[-64.2691,4.1279,753.9779],[-64.2641,4.1254,767.6652],[-64.2508,4.1296,727.757],[-64.2322,4.1238,788.8929],[-64.2188,4.1154,763.0482],[-64.1908,4.1165,716.1426],[-64.1719,4.1288,829.7797],[-64.1644,4.1263,702.8457],[-64.1475,4.1101,1023.7952],[-64.1333,4.106,1193.8715],[-64.1127,4.0913,927.8934],[-64.0963,4.0535,1167.234],[-64.0947,4.0426,1162.0125],[-64.1,4.0346,822.1932],[-64.0972,4.0251,791.6268],[-64.0758,3.9996,1143.4056],[-64.0508,3.9501,1058.4763],[-64.0361,3.944,954.6134],[-64.0357,3.9342,912.4264],[-64.0019,3.9329,902.6256],[-63.9972,3.9035,995.073],[-63.9863,3.8968,1008.979],[-63.9788,3.9004,1104.6752],[-63.9641,3.8679,1083.8053],[-63.9613,3.8699,1106.2935],[-63.9594,3.8874,1099.4232],[-63.9566,3.8896,1116.0017],[-63.9499,3.8865,1030.6985],[-63.9463,3.9004,1040.9335],[-63.938,3.9013,939.6237],[-63.9352,3.9176,743.7377],[-63.9261,3.926,741.6429],[-63.9144,3.926,682.4863],[-63.9013,3.9338,744.0486],[-63.891,3.9304,735.7149],[-63.8668,3.9407,745.0078],[-63.8595,3.9476,632.9712],[-63.8544,3.9446,688.5374],[-63.8502,3.9499,677.1328],[-63.8394,3.946,716.6203],[-63.8352,3.9399,693.4012],[-63.8155,3.9396,685.2263],[-63.7966,3.9326,601.0041],[-63.7724,3.9388,633.2383],[-63.7674,3.9354,608.2097],[-63.7552,3.9401,596.5266],[-63.738,3.9285,557.6821],[-63.7438,3.921,614.1514],[-63.7388,3.9151,638.6307],[-63.7233,3.914,607.5993],[-63.713,3.9032,613.1873],[-63.7097,3.9063,566.7018],[-63.7102,3.9132,654.3986],[-63.6969,3.9132,539.4117],[-63.6827,3.9074,640.1605],[-63.6633,3.9213,672.4718],[-63.6752,3.9226,629.245],[-63.6735,3.9268,554.6031],[-63.6785,3.9282,551.5582],[-63.6824,3.9357,589.886],[-63.6933,3.936,530.4189],[-63.7005,3.9443,685.8338],[-63.7008,3.9494,622.7682],[-63.6949,3.9565,636.8996],[-63.6963,3.9663,567.9299],[-63.691,3.986,485.1707],[-63.686,3.9921,609.1351],[-63.6894,3.999,510.9609],[-63.6855,4.009,528.4244],[-63.6894,4.0154,548.5746],[-63.6769,4.019,586.8827],[-63.6758,4.0152,576.3868],[-63.6608,4.0099,761.4984],[-63.6527,4.0018,699.7836],[-63.6435,3.9785,736.5189],[-63.6276,3.9692,570.3171],[-63.5922,3.9282,756.7414],[-63.5883,3.919,756.5807],[-63.5933,3.9054,919.5847],[-63.5847,3.8957,841.5784],[-63.5919,3.8907,911.2273],[-63.5905,3.8846,827.4609],[-63.581,3.8863,802.7532],[-63.5716,3.8832,750.3773],[-63.5546,3.891,701.2693],[-63.5552,3.8743,754.8749],[-63.5519,3.8649,749.8459],[-63.5483,3.8626,684.9592],[-63.5394,3.8651,716.8989],[-63.533,3.8571,655.1689],[-63.5235,3.856,660.4302],[-63.5124,3.8474,722.7872],[-63.5035,3.8496,701.7365],[-63.4974,3.8399,766.9146],[-63.4949,3.8504,753.5073],[-63.503,3.8679,705.8776],[-63.4991,3.8699,776.7062],[-63.4938,3.8671,739.1461],[-63.4913,3.8735,685.0651],[-63.4825,3.8736,709.9141],[-63.4705,3.8674,743.6352],[-63.4691,3.8618,710.0002],[-63.4616,3.8624,811.7902],[-63.4527,3.8582,850.3803],[-63.4347,3.8649,913.5096],[-63.4338,3.876,823.5977],[-63.4385,3.8832,733.0476],[-63.418,3.901,967.6083],[-63.4119,3.9118,820.5174],[-63.4205,3.9238,746.6302],[-63.4163,3.9299,788.7905],[-63.4177,3.9349,787.3259],[-63.433,3.9343,758.8212],[-63.4397,3.9371,714.8595],[-63.4427,3.9396,736.765],[-63.4394,3.9485,751.6838],[-63.4522,3.9554,822.9503],[-63.4288,3.9771,935.4037],[-63.4135,3.9751,1028.6403],[-63.3933,3.9804,1052.7682],[-63.3534,3.9602,981.2128],[-63.3311,3.9605,688.7383],[-63.3246,3.9638,880.0859],[-63.3127,3.9604,941.1133],[-63.3149,3.9685,939.6564],[-63.311,3.9818,914.1277],[-63.2983,3.9765,830.2977],[-63.2924,3.9704,763.3456],[-63.2866,3.9726,727.5312],[-63.2808,3.9551,613.3194],[-63.2541,3.9615,708.8923],[-63.2475,3.9545,694.423],[-63.2049,3.9513,1186.9167],[-63.2221,3.8985,949.6363],[-63.2335,3.8815,1095.3722],[-63.2322,3.8507,1178.8827],[-63.2271,3.8446,1134.3151],[-63.2266,3.8354,1169.957],[-63.2044,3.8115,1013.5571],[-63.1958,3.8151,889.9724],[-63.1796,3.8129,952.5435],[-63.1646,3.8049,991.1752],[-63.1513,3.806,863.5215],[-63.1357,3.8024,969.3583],[-63.1233,3.8046,1005.7377],[-63.1033,3.7932,1030.6464],[-63.0869,3.7785,1052.5688],[-63.0824,3.7671,1139.5952],[-63.0696,3.7529,1174.4583],[-63.0608,3.7518,1256.7137],[-63.0591,3.7474,1254.0598],[-63.0591,3.7404,1226.0132],[-63.0635,3.7338,1211.9321],[-63.0635,3.7049,1266.5697],[-63.0705,3.6963,1254.3469],[-63.0813,3.6932,1290.0674],[-63.073,3.6854,1245.0479],[-63.0324,3.6657,1325.1162],[-63.0269,3.6501,1355.5552],[-63.0155,3.6451,1357.4604],[-63.0032,3.6246,1286.5293],[-62.9908,3.6121,1374.145],[-62.9849,3.6096,1341.7993],[-62.9656,3.6106,1364.4404],[-62.9602,3.6076,1366.967],[-62.9525,3.6118,1389.0842],[-62.9291,3.6393,1409.5541],[-62.9221,3.6526,1392.6342],[-62.9191,3.6724,1328.1163],[-62.9088,3.671,1357.9576],[-62.8869,3.6835,1441.4078],[-62.8724,3.699,1483.4978],[-62.853,3.7118,1516.6931],[-62.8358,3.7385,1449.3721],[-62.8194,3.7315,1425.3071],[-62.8102,3.7326,1430.1613],[-62.8044,3.7296,1259.7472],[-62.798,3.7207,1161.1542],[-62.7899,3.7176,1202.0259],[-62.7849,3.6996,1284.2341],[-62.776,3.6971,1313.8164],[-62.7707,3.6882,1349.467],[-62.7485,3.6726,1423.0594],[-62.7438,3.6732,1356.6304],[-62.7441,3.6838,1438.3367],[-62.7369,3.689,1342.9771],[-62.7366,3.699,1370.2239],[-62.731,3.7076,1172.4712],[-62.7349,3.7193,1333.4316],[-62.7344,3.7376,1331.1387],[-62.7399,3.7563,1325.6472],[-62.7357,3.779,1384.7327],[-62.7435,3.7871,1273.87],[-62.7383,3.7912,1359.8827],[-62.7354,3.8002,1385.9591],[-62.7499,3.8174,1393.2323],[-62.7713,3.834,1188.0051],[-62.7716,3.8396,993.9348],[-62.7538,3.8496,777.1915],[-62.7585,3.8543,932.8658],[-62.7574,3.8596,939.6506],[-62.7691,3.8671,658.5334],[-62.776,3.8751,766.6475],[-62.7763,3.8813,558.0392],[-62.7888,3.8932,579.6172],[-62.7874,3.9146,631.462],[-62.7832,3.9168,634.4451],[-62.7827,3.9218,624.7527],[-62.7866,3.9293,715.9446],[-62.783,3.9343,860.613],[-62.7619,3.9415,744.9581],[-62.7432,3.9743,764.8735],[-62.7624,3.984,864.2117],[-62.7688,4.0062,798.2587],[-62.7666,4.0124,815.3997],[-62.7496,4.0207,961.1595],[-62.7535,4.0313,759.6672],[-62.7485,4.0349,675.6217],[-62.736,4.0399,641.0959],[-62.7322,4.0358,616.1755],[-62.7157,4.0356,960.1718],[-62.7047,4.0328,978.0306],[-62.6866,4.0323,1010.0482],[-62.6765,4.0342,921.1641],[-62.6628,4.0395,880.9703],[-62.6414,4.0516,729.0289],[-62.626,4.0544,741.8843],[-62.6068,4.0502,662.1249],[-62.5882,4.038,730.7433],[-62.5782,4.0348,767.248],[-62.5562,4.0292,744.324],[-62.544,4.0303,626.5945],[-62.5353,4.0342,591.3332],[-62.5272,4.0561,712.611],[-62.5245,4.0593,704.059],[-62.5201,4.0764,673.4535],[-62.5146,4.0839,574.2111],[-62.5098,4.0872,567.785],[-62.4967,4.0904,569.3115],[-62.4589,4.106,562.8816],[-62.4224,4.1181,596.9861],[-62.4018,4.1223,525.1089],[-62.3878,4.1287,540.1535],[-62.3619,4.1475,518.8199],[-62.3555,4.1503,520.5681],[-62.3321,4.141,566.493],[-62.2697,4.1419,528.8027],[-62.2489,4.1386,573.6041],[-62.2331,4.1319,511.4604],[-62.2038,4.1158,508.2439],[-62.1912,4.107,511.1046]]]]}
,"properties": {"GID_1": "VEN.6_1","GID_0": "VEN","country": "Venezuela","province": "Bolívar","VARNAME_1": "NA","NL_NAME_1": "NA","TYPE_1": "Estado","ENGTYPE_1": "State","CC_1": "NA","HASC_1": "NA","ISO_1": "NA","name": "Bolívar.province","area_km2": 240978.29,"hist_schema_id": "Elevation0-9000","hist_area_km2": {"0": 18.48,"25": 2222.84,"50": 9986.66,"75": 9414.45,"100": 6992.47,"125": 8327.31,"150": 12161.7,"175": 11810.66,"200": 6761.53,"225": 5696.6,"250": 5901.63,"275": 15482.93,"300": 15303.99,"325": 12567.08,"350": 9351.55,"375": 7539.01,"400": 8669.67,"425": 7696.54,"450": 5853.85,"475": 5606.67,"500": 4985.83,"525": 3567.34,"550": 2810.11,"575": 2573.8,"600": 2464.74,"625": 2388.4,"650": 2654.15,"675": 2414.93,"700": 1997.52,"725": 1828.68,"750": 1638.52,"775": 1555.55,"800": 1617.88,"825": 2364.97,"850": 3179.03,"875": 2728.0,"900": 2329.63,"925": 2029.14,"950": 1884.11,"975": 1961.0,"1000": 1973.48,"1025": 1787.83,"1050": 1680.59,"1075": 1563.48,"1100": 1471.46,"1125": 1397.81,"1150": 1258.09,"1175": 1076.03,"1200": 1014.14,"1225": 973.61,"1250": 919.4,"1275": 956.59,"1300": 835.12,"1325": 734.89,"1350": 709.02,"1375": 643.59,"1400": 572.3,"1425": 505.09,"1450": 430.72,"1475": 357.25,"1500": 292.26,"1525": 260.37,"1550": 238.57,"1575": 210.28,"1600": 205.87,"1625": 182.02,"1650": 153.05,"1675": 142.0,"1700": 134.47,"1725": 119.11,"1750": 119.04,"1775": 110.64,"1800": 98.46,"1825": 85.54,"1850": 80.26,"1875": 78.71,"1900": 74.42,"1925": 72.46,"1950": 71.04,"1975": 70.54,"2000": 69.61,"2025": 68.49,"2050": 63.3,"2075": 61.84,"2100": 56.88,"2125": 56.29,"2150": 56.56,"2175": 51.16,"2200": 49.74,"2225": 62.41,"2250": 56.37,"2275": 52.26,"2300": 45.63,"2325": 42.96,"2350": 32.11,"2375": 27.93,"2400": 24.93,"2425": 21.05,"2450": 16.19,"2475": 12.54,"2500": 12.79,"2525": 11.29,"2550": 9.2,"2575": 8.17,"2600": 4.31,"2625": 3.48,"2650": 2.01}}}