{"type":"Feature","properties":{"ISO3166-1-Alpha-3":"VEN","country":"Venezuela","fill":"#000","id":"39","name":"Bolívar"},
"geometry":{"type": "Polygon","coordinates": [[[-61.3192,7.82058,225.8395],[-61.34243,7.83198,436.132],[-61.35679,7.84285,335.065],[-61.39408,7.87753,311.9657],[-61.55412,8.05504,145.7907],[-61.57582,8.08289,265.4977],[-61.59083,8.09563,284.8786],[-61.59766,8.10268,272.155],[-61.60921,8.11852,298.0007],[-61.63869,8.18593,313.2282],[-61.64339,8.20797,470.0494],[-61.64277,8.2366,414.0459],[-61.6352,8.28704,497.0103],[-62.24718,8.31381,408.041],[-62.31219,8.33063,562.8197],[-62.49993,8.40706,37.3975],[-62.59765,8.44799,3.0],[-62.67762,8.39006,11.0999],[-62.68583,8.38572,3.0],[-62.69661,8.37998,3.0],[-62.70777,8.37641,3.0],[-62.72105,8.37525,3.0],[-62.74487,8.37939,4.9791],[-62.75771,8.37982,8.5468],[-62.77061,8.37525,12.0549],[-62.78464,8.36582,3.0],[-62.80807,8.34468,3.0],[-62.8158,8.33466,8.6094],[-62.82812,8.31257,9.0601],[-62.83585,8.30252,3.0],[-62.84554,8.29394,3.0],[-62.8791,8.27412,3.0],[-62.90693,8.26689,12.033],[-62.93636,8.27027,8.496],[-62.96171,8.28443,11.1292],[-62.9769,8.30952,13.2254],[-63.07583,8.3205,14.2769],[-63.12588,8.32001,4.5],[-63.17464,8.31345,5.0],[-63.22549,8.2975,5.5],[-63.24957,8.28554,6.0],[-63.27156,8.27097,6.0],[-63.31047,8.22554,17.4156],[-63.33081,8.21389,17.0535],[-63.3824,8.22472,7.5],[-63.40003,8.22193,16.9962],[-63.41576,8.21304,22.7053],[-63.42827,8.19885,15.9736],[-63.44723,8.17154,8.5],[-63.45907,8.15963,8.5],[-63.47356,8.1502,8.5],[-63.4916,8.14563,9.0],[-63.54787,8.15172,9.0],[-63.61322,8.14788,13.0],[-63.63363,8.15105,13.0],[-63.6521,8.15671,17.3274],[-63.66768,8.15976,15.2005],[-63.68293,8.15821,13.0],[-63.70047,8.15012,13.0],[-63.72936,8.13224,14.1175],[-63.74471,8.12506,17.8713],[-63.76073,8.12118,13.0],[-63.77887,8.1232,13.0],[-63.79571,8.12868,13.0],[-63.81199,8.13098,13.0],[-63.82868,8.12348,13.0],[-63.8399,8.11041,16.7004],[-63.86842,8.05052,13.625],[-63.87199,8.03861,14.0],[-63.87682,8.02747,14.0],[-63.88537,8.01819,14.0],[-63.89659,8.01277,14.0],[-63.92147,8.00659,23.5589],[-63.93312,8.00142,21.501],[-63.94072,7.99491,21.8131],[-63.95322,7.97987,14.0],[-63.961,7.97362,16.2181],[-63.97079,7.96946,16.3581],[-63.98113,7.96745,18.0714],[-64.00247,7.96773,19.8807],[-64.04515,7.97866,19.1278],[-64.0659,7.98127,19.8062],[-64.08887,7.97489,15.0],[-64.107919999999993,7.96727,15.0],[-64.12556,7.96587,15.0],[-64.13859,7.97442,15.0],[-64.14381,7.9967,15.0],[-64.15551,8.00204,15.0],[-64.16688,8.01031,15.0],[-64.23163,8.07145,15.0],[-64.25013,8.08173,15.0],[-64.26571,8.08429,15.5074],[-64.28325,8.08142,18.2427],[-64.29995,8.07465,18.2614],[-64.31294,8.06545,15.0],[-64.3209,8.05403,15.0],[-64.33098,8.02832,15.0],[-64.33896,8.01706,36.0068],[-64.3524,8.00897,20.8254],[-64.43374,7.99173,15.6154],[-64.45007,7.99062,19.1255],[-64.50624,7.99918,15.0],[-64.52363,7.99628,20.1134],[-64.53711,7.98393,15.0],[-64.54254,7.97137,15.0],[-64.55251,7.92525,21.3598],[-64.54616,7.89665,21.8127],[-64.52606,7.8789,15.5],[-64.50143,7.86384,15.5],[-64.48156,7.8435,15.5],[-64.47815,7.81469,15.5],[-64.49546,7.79079,15.5],[-64.52316,7.77369,21.5081],[-64.55096,7.76529,15.5],[-64.56895,7.76521,15.5],[-64.62034,7.77438,28.3389],[-64.63706,7.77175,33.14],[-64.65176,7.76467,16.0],[-64.704,7.72643,16.0],[-64.76064,7.70304,61.4942],[-64.8202,7.66656,16.5],[-64.83847,7.6602,16.5],[-64.85733,7.65982,16.5],[-64.87306,7.66607,16.5],[-64.88621,7.67713,16.5],[-64.90849,7.70374,22.4],[-64.93528,7.71558,22.1323],[-64.99608,7.77069,25.7837],[-65.04778,7.80622,30.0807],[-65.1037,7.83438,30.9644],[-65.133,7.84107,23.6554],[-65.19237,7.8459,30.4194],[-65.25077,7.86756,28.3762],[-65.27808,7.87427,28.0506],[-65.3064,7.87575,22.0],[-65.35665,7.86942,26.0202],[-65.41967,7.86151,27.853],[-65.44677,7.86146,27.3094],[-65.47316,7.86663,23.5],[-65.54287,7.89996,24.5],[-65.59783,7.90972,27.113],[-65.64816,7.89991,25.5],[-65.74658,7.85469,26.5],[-65.76849,7.84107,32.592],[-65.78699,7.82262,31.1503],[-65.83399,7.75715,32.1274],[-65.93946,7.67917,27.0],[-65.95966,7.6715,27.0],[-65.9838,7.66951,30.6817],[-66.08175,7.68351,27.0],[-66.13089,7.68382,27.0],[-66.17546,7.66739,27.0],[-66.21569,7.64129,30.4615],[-66.23629,7.63612,27.0],[-66.26466,7.63775,27.0],[-66.31796,7.64834,27.0],[-66.33052,7.64842,27.0],[-66.34375,7.64853,27.0],[-66.37072,7.63979,27.0],[-66.40971,7.61468,27.0],[-66.42728,7.59845,27.0],[-66.44046,7.58044,27.0],[-66.45209,7.55282,27.0],[-66.4664,7.53352,35.3804],[-66.48224,7.50189,27.5],[-66.48896,7.49352,28.5],[-66.51436,7.47391,29.0],[-66.52056,7.46577,35.3362],[-66.52423,7.45725,34.4226],[-66.5296,7.43862,30.8452],[-66.53451,7.4274,34.8225],[-66.59572,7.33955,34.9807],[-66.61453,7.32294,29.0],[-66.63394,7.31356,29.0],[-66.67352,7.30852,34.3105],[-66.69285,7.30134,32.7564],[-66.70042,7.29516,29.0],[-66.7138,7.28074,29.0],[-66.72176,7.27503,29.0],[-66.73362,7.271,29.0],[-66.77168,7.26752,29.0],[-66.79473,7.25896,34.4383],[-66.84876,7.21669,30.0],[-66.85982,7.21245,41.1681],[-66.88276,7.20643,35.1465],[-66.89361,7.20199,37.3938],[-66.90374,7.19473,39.376],[-66.92126,7.17716,31.5],[-66.93115,7.16974,34.5324],[-66.95309,7.16246,31.5],[-66.99516,7.15682,31.5],[-67.07419,7.09383,32.5],[-67.08983,7.06567,38.9514],[-67.08156,7.02324,33.0],[-67.06544,6.97994,39.6099],[-67.05898,6.96833,39.6339],[-67.04355,6.94681,35.5],[-67.03722,6.93529,35.5],[-67.03438,6.91307,39.8481],[-67.04187,6.89276,39.6317],[-67.05316,6.87278,42.6313],[-67.0619,6.85149,45.9633],[-67.04877,6.84196,39.4464],[-67.04288,6.82201,37.0],[-67.04179,6.78256,37.5],[-67.04955,6.75527,45.2855],[-67.06668,6.73853,49.2808],[-67.08673,6.72352,44.3917],[-67.10339,6.70145,39.8465],[-67.12851,6.63825,47.3381],[-67.14884,6.52854,46.9084],[-67.14835,6.51836,38.5],[-67.14447,6.50741,38.5],[-67.13303,6.48692,54.2495],[-67.13114,6.47555,51.921],[-67.13781,6.45862,55.2297],[-67.15246,6.44276,53.3152],[-67.17024,6.42938,51.9234],[-67.21401,6.40679,39.0],[-67.22253,6.4008,39.0],[-67.24553,6.3794,39.5],[-67.2554,6.37418,43.4524],[-67.27504,6.36747,47.4617],[-67.28235,6.3622,39.5],[-67.28878,6.35199,45.1629],[-67.29728,6.32336,39.5],[-67.32235,6.27251,39.5],[-67.33689,6.25419,46.7474],[-67.35586,6.24326,47.6652],[-67.36674,6.2422,39.5],[-67.38816,6.24528,47.3329],[-67.39927,6.24505,40.0],[-67.41239,6.24058,40.0],[-67.42133,6.23285,40.0],[-67.43508,6.20996,43.6945],[-67.45079,6.19817,40.0],[-67.45097,6.19804,40.0],[-67.44996,6.19794,40.0],[-67.4563,6.19322,40.0],[-67.42547,6.17117,46.2394],[-67.41642,6.16017,46.8314],[-67.40645,6.13526,58.7613],[-67.4035,6.13138,50.9544],[-67.40001,6.12795,49.1671],[-67.39622,6.12485,51.7898],[-67.39095,6.12213,60.02],[-67.38454,6.11996,54.2578],[-67.3742,6.11919,60.4051],[-67.36751,6.12027,56.1276],[-67.36201,6.12244,55.2468],[-67.35405,6.12852,61.2915],[-67.34023,6.14208,62.2859],[-67.33622,6.14487,58.9361],[-67.33152,6.14627,64.9695],[-67.32534,6.14479,64.115],[-67.31896,6.14107,69.5837],[-67.30082,6.12353,81.9564],[-67.29527,6.12004,86.0366],[-67.28829,6.11663,79.9843],[-67.27509,6.11291,109.2241],[-67.25837,6.10989,159.2568],[-67.24522,6.10973,210.4621],[-67.2147,6.11368,306.1692],[-67.20196,6.11368,210.8125],[-67.19571,6.11299,163.7995],[-67.18949,6.11089,258.7488],[-67.1839,6.1071,360.3921],[-67.17796,6.09978,475.59],[-67.1691,6.08459,321.652],[-67.16522,6.07482,396.6125],[-67.14962,6.00994,491.0139],[-67.14863,5.99568,228.9564],[-67.1446,5.97426,657.7459],[-67.14453,5.93432,229.6245],[-67.14592,5.92158,451.4225],[-67.14871,5.91049,340.1004],[-67.20178,5.78215,522.013],[-67.20737,5.74585,339.1746],[-67.20737,5.73965,419.2858],[-67.20656,5.73376,459.3671],[-67.20403,5.7228,569.9295],[-67.20209,5.71792,658.0895],[-67.19961,5.71358,590.3373],[-67.19447,5.70963,711.399],[-67.18685,5.70658,682.9636],[-67.17122,5.70503,696.9356],[-67.16243,5.70575,780.7866],[-67.15522,5.7073,520.0353],[-67.1398,5.71273,632.2079],[-67.11693,5.71707,558.1873],[-67.09254,5.71932,941.6648],[-67.08497,5.71753,727.6224],[-67.0767,5.71397,656.0851],[-67.06469,5.7058,697.0209],[-67.05903,5.69976,631.3888],[-67.05489,5.69433,759.6349],[-67.05122,5.68449,763.8372],[-67.0442,5.65102,649.8746],[-67.04084,5.64079,752.1385],[-67.03577,5.63227,667.4374],[-67.03249,5.62862,551.161],[-67.0289,5.62529,547.4569],[-67.02345,5.6224,614.6405],[-67.01673,5.62033,661.8994],[-67.00001,5.61906,849.8046],[-66.99384,5.61945,808.6454],[-66.97733,5.62234,909.0809],[-66.97221,5.62405,990.3693],[-66.95299,5.63211,978.3972],[-66.88374,5.67213,850.9181],[-66.87421,5.67624,923.8068],[-66.81757,5.69425,981.2623],[-66.80574,5.6958,1136.554],[-66.69494,5.69906,1021.8734],[-66.67319,5.70417,960.9273],[-66.63321,5.7187,1003.3133],[-66.60071,5.72544,1113.944],[-66.55288,5.74275,1231.0383],[-66.54358,5.74756,1225.1329],[-66.53531,5.75314,1290.3315],[-66.46651,5.82205,960.3625],[-66.34553,5.9222,524.2639],[-66.34078,5.92421,475.5968],[-66.33491,5.92499,436.7333],[-66.32677,5.92204,401.7488],[-66.31788,5.91553,367.8568],[-66.30437,5.89946,591.1569],[-66.29918,5.88969,1156.4943],[-66.29587,5.88163,1032.0739],[-66.27486,5.78146,600.8695],[-66.27094,5.77177,338.9985],[-66.25321,5.74143,1049.7209],[-66.24918,5.73717,1109.6309],[-66.24383,5.73335,1428.8489],[-66.23396,5.73055,1710.1179],[-66.22688,5.73055,1841.2938],[-66.22047,5.73164,2042.3845],[-66.19588,5.74105,1812.2866],[-66.17779,5.75019,1894.6781],[-66.1657,5.75864,1620.739],[-66.15087,5.77146,1915.6346],[-66.13818,5.77936,1911.1733],[-66.12888,5.78339,1796.2946],[-66.1234,5.78463,1713.2126],[-66.11733,5.78525,1595.3092],[-66.03883,5.77998,1678.7539],[-66.02746,5.78223,2052.6587],[-65.99346,5.79629,1331.9086],[-65.98545,5.80164,1331.8542],[-65.98227,5.8052,1332.813],[-65.97933,5.80931,1229.5367],[-65.97685,5.81357,1324.9321],[-65.97475,5.81861,1266.4873],[-65.97134,5.82918,1225.702],[-65.96734,5.85331,1308.9818],[-65.96253,5.86254,1138.7478],[-65.9568,5.87052,1308.9255],[-65.85889,6.03733,788.6758],[-65.84347,6.07785,549.2315],[-65.83595,6.09126,747.6944],[-65.83215,6.10151,553.6711],[-65.8299,6.10617,593.3613],[-65.82711,6.1102,533.6743],[-65.78296,6.13665,633.0736],[-65.77815,6.13851,626.5107],[-65.77272,6.13983,552.3652],[-65.76089,6.14154,399.9416],[-65.69451,6.14185,460.8928],[-65.65875,6.1465,410.5307],[-65.63333,6.14735,587.5782],[-65.62692,6.14611,677.9935],[-65.62085,6.14417,593.4388],[-65.61413,6.14061,527.4539],[-65.59679,6.12841,463.1976],[-65.59015,6.1212,470.0231],[-65.58532,6.11252,515.7827],[-65.58294,6.1057,644.3674],[-65.58124,6.09684,566.4279],[-65.58026,6.08064,615.0721],[-65.58093,6.07126,630.5867],[-65.58227,6.0634,739.4293],[-65.58547,6.05216,699.9148],[-65.5871,6.04067,599.281],[-65.58718,6.03539,626.3774],[-65.5878,6.03067,609.0674],[-65.59281,6.01571,587.125],[-65.59565,6.00025,623.0667],[-65.59919,5.99025,803.9714],[-65.60808,5.94253,699.3762],[-65.61018,5.93749,707.6061],[-65.6126,5.93284,670.3845],[-65.62082,5.92034,631.1078],[-65.62772,5.90615,681.5682],[-65.63671,5.87114,195.9058],[-65.63834,5.85432,529.0223],[-65.63674,5.78921,588.7137],[-65.634,5.77867,825.3326],[-65.60886,5.7149,1243.2286],[-65.60547,5.70885,1262.1267],[-65.60041,5.70247,926.0168],[-65.58953,5.69332,551.7066],[-65.58201,5.68937,517.3408],[-65.57475,5.68735,491.003],[-65.56253,5.6879,536.1563],[-65.55176,5.69053,724.5288],[-65.54284,5.69526,775.2292],[-65.53876,5.69813,800.9581],[-65.50424,5.73187,662.2632],[-65.48217,5.75872,655.7624],[-65.47509,5.76549,741.3488],[-65.47106,5.76836,818.2311],[-65.46633,5.77053,738.4568],[-65.46114,5.77192,814.0745],[-65.4375,5.77518,950.359],[-65.26593,5.77394,1381.3284],[-65.24203,5.76944,1492.319],[-65.23668,5.76766,1510.924],[-65.23196,5.7651,1544.5879],[-65.22793,5.76208,1693.7451],[-65.22464,5.75856,1764.7606],[-65.22247,5.75197,1795.2444],[-65.22175,5.74345,1766.8579],[-65.22379,5.72769,1819.9685],[-65.22643,5.71955,1837.2328],[-65.22984,5.71358,1787.3734],[-65.23294,5.7097,1795.9924],[-65.26058,5.68216,1639.1554],[-65.2634,5.6781,1650.4414],[-65.26477,5.67105,1761.5786],[-65.26454,5.66175,1857.9009],[-65.25971,5.6449,1682.7612],[-65.25301,5.62924,1670.2853],[-65.24183,5.61317,1870.298],[-65.22772,5.59976,2255.7375],[-65.14424,5.53775,1416.7727],[-65.14085,5.53418,1378.6318],[-65.13558,5.52597,1240.6064],[-65.13362,5.52108,1164.2656],[-65.133,5.5131,1019.406],[-65.13408,5.50246,1275.528],[-65.13984,5.4823,1283.5413],[-65.14442,5.47305,1366.1959],[-65.14917,5.46693,1451.7147],[-65.17501,5.45179,1673.9254],[-65.17863,5.44845,1672.4475],[-65.18193,5.44489,1615.9282],[-65.18361,5.43977,1544.5496],[-65.18361,5.43404,1512.281],[-65.1795,5.42603,1580.2271],[-65.17534,5.4213,1832.3134],[-65.12682,5.38546,1752.7175],[-65.12023,5.37841,1668.5437],[-65.11749,5.37422,1484.5996],[-65.11646,5.36629,1268.3877],[-65.11747,5.35544,1206.2161],[-65.12418,5.3334,1041.5765],[-65.12853,5.32285,1132.0289],[-65.13256,5.31518,1441.5854],[-65.13568,5.31136,1523.4756],[-65.14628,5.30151,1480.1052],[-65.15904,5.29368,1450.4626],[-65.1793,5.2864,1353.335],[-65.18516,5.28536,1388.2666],[-65.24493,5.2881,1346.1799],[-65.25102,5.28748,1359.5637],[-65.25661,5.2864,1398.2773],[-65.26157,5.28443,1403.4366],[-65.26617,5.28218,1420.5999],[-65.27443,5.27676,1481.9287],[-65.27792,5.27335,1360.1091],[-65.28089,5.26939,1461.375],[-65.28539,5.26017,1348.224],[-65.28722,5.25487,1319.7019],[-65.28844,5.2489,1251.4526],[-65.28658,5.23891,1212.8541],[-65.28229,5.22601,1385.4446],[-65.26322,5.19141,969.7485],[-65.25774,5.18397,948.5096],[-65.24317,5.171,1287.4618],[-65.23345,5.16,1545.8616],[-65.22216,5.14392,1524.1593],[-65.1841,4.99977,794.5192],[-65.14827,4.91358,854.0039],[-65.11408,4.85973,891.1754],[-65.10747,4.84477,854.0435],[-65.09749,4.82754,918.0013],[-65.08507,4.79922,645.562],[-64.942,4.6252,629.0917],[-64.93285,4.62039,708.4357],[-64.82857,4.59789,1000.2505],[-64.73827,4.59385,654.7189],[-64.70222,4.58765,687.3923],[-64.69718,4.58572,641.277],[-64.69261,4.58344,613.7311],[-64.68047,4.5746,769.8818],[-64.67674,4.57088,765.5363],[-64.6677,4.55833,733.2488],[-64.6601,4.54187,783.3601],[-64.6499,4.49585,679.1425],[-64.63507,4.36513,1209.9175],[-64.6277,4.33899,1182.1377],[-64.62685,4.32997,1259.4664],[-64.6292,4.28816,852.001],[-64.64212,4.22401,1364.2914],[-64.64802,4.2079,1330.8287],[-64.6369,4.19111,1113.4136],[-64.62106,4.14688,1047.571],[-64.60822,4.12649,860.1747],[-64.58967,4.11887,882.242],[-64.36498,4.15187,684.0364],[-64.2406,4.14202,740.0046],[-64.17269,4.12339,752.818],[-64.1467,4.11055,1199.3489],[-64.1251,4.08849,1015.3697],[-64.10815,4.0581,998.9791],[-64.09577,4.02438,791.6268],[-64.07903,3.95309,695.3311],[-64.06381,3.9116,734.8547],[-64.03766,3.8825,865.0629],[-63.99642,3.8808,796.3318],[-63.95694,3.90188,923.8839],[-63.91684,3.92937,687.6584],[-63.87514,3.94981,707.3229],[-63.83111,3.94945,664.3304],[-63.7906,3.93304,621.7773],[-63.77101,3.92881,540.8378],[-63.7459,3.93028,471.7024],[-63.69076,3.944,561.4332],[-63.67159,3.94625,491.2949],[-63.6228,3.93521,411.4066],[-63.55423,3.87537,759.8112],[-63.51067,3.85455,710.0271],[-63.46886,3.86723,739.3817],[-63.45537,3.90059,723.0917],[-63.44824,3.93937,719.6541],[-63.4254,3.96836,701.1979],[-63.39145,3.97157,813.0838],[-63.35171,3.95873,959.5914],[-63.28598,3.92082,655.0502],[-63.2512,3.88656,530.403],[-63.19322,3.80675,912.9225],[-63.13084,3.76212,954.3799],[-63.02496,3.63776,889.9033],[-63.0107,3.61497,759.9409],[-62.99705,3.59914,635.0082],[-62.97514,3.58306,454.0326],[-62.95106,3.57017,487.3833],[-62.93101,3.56376,586.9749],[-62.90771,3.56097,650.2982],[-62.88941,3.56082,744.2217],[-62.872,3.56547,873.8007],[-62.85128,3.57722,767.6135],[-62.83159,3.59487,849.5024],[-62.82234,3.59883,834.5913],[-62.80776,3.59668,866.7893],[-62.79645,3.5973,1137.9084],[-62.78632,3.60441,1071.811],[-62.77102,3.62335,1119.7546],[-62.74958,3.66037,1273.8853],[-62.73991,3.70045,1374.7437],[-62.74043,3.74194,1295.5717],[-62.74958,3.78357,1278.3591],[-62.76684,3.82204,1290.1163],[-62.77019,3.84783,830.1116],[-62.77428,3.85486,702.9351],[-62.77981,3.86129,658.1379],[-62.78513,3.8723,473.1722],[-62.7888,3.8994,607.1318],[-62.7828,3.92005,628.3594],[-62.77319,3.93994,765.0972],[-62.76627,3.96469,786.2429],[-62.7674,3.9871,757.7523],[-62.77066,4.00539,788.9157],[-62.76622,4.02071,666.1465],[-62.74436,4.03402,636.9716],[-62.72746,4.03851,710.0082],[-62.67067,4.04366,874.2885],[-62.58866,4.03071,845.7758],[-62.56096,4.03779,789.1907],[-62.54881,4.07745,744.8127],[-62.54861,4.09807,677.5094],[-62.54644,4.11391,635.9009],[-62.53698,4.12541,643.3829],[-62.51491,4.13311,633.9937],[-62.4837,4.13918,595.4718],[-62.47517,4.14388,548.2676],[-62.46985,4.15161,644.3397],[-62.46654,4.16874,658.4248],[-62.46298,4.17471,701.2354],[-62.4281,4.18318,773.5618],[-62.38417,4.17347,653.3571],[-62.19266,4.09474,492.396],[-62.15359,4.09029,616.4061],[-62.11111,4.10484,667.9189],[-62.03505,4.15988,800.6083],[-61.99019,4.16641,623.2209],[-61.96859,4.16008,667.0488],[-61.95035,4.15223,616.4833],[-61.93149,4.14641,675.1255],[-61.90823,4.14616,655.6764],[-61.88813,4.15016,682.1269],[-61.86689,4.15703,634.1902],[-61.84705,4.16605,670.9565],[-61.83103,4.17693,662.0983],[-61.7792,4.23269,677.5889],[-61.75635,4.24636,663.6843],[-61.7378,4.25207,672.5363],[-61.71889,4.25465,547.9056],[-61.68055,4.25248,729.6193],[-61.64915,4.24341,824.1077],[-61.64052,4.24191,995.968],[-61.62822,4.24346,842.7734],[-61.61019,4.25163,689.1452],[-61.59908,4.25439,629.5764],[-61.58541,4.25341,650.4874],[-61.57657,4.24972,740.0745],[-61.56727,4.24853,745.1083],[-61.55216,4.25496,772.5258],[-61.5421,4.26302,795.7794],[-61.5335,4.27359,823.3942],[-61.52673,4.2855,907.317],[-61.52236,4.29777,1007.5422],[-61.51642,4.37477,524.1738],[-61.50187,4.40185,923.3264],[-61.45818,4.41914,912.2064],[-61.43862,4.42115,1059.6124],[-61.38108,4.41774,957.7599],[-61.36002,4.41893,1095.3253],[-61.33323,4.42387,919.7787],[-61.30824,4.43332,956.3927],[-61.29305,4.44805,997.7377],[-61.29584,4.469,1009.1134],[-61.32294,4.50885,1008.4709],[-61.31558,4.52078,998.1458],[-61.29726,4.52373,987.8247],[-61.23807,4.51588,966.8413],[-61.22011,4.51068,969.2867],[-61.18592,4.49412,921.6492],[-61.16859,4.49024,907.2812],[-61.1512,4.49205,914.8347],[-61.09547,4.50768,952.09],[-61.01196,4.5183,999.0961],[-60.97728,4.53497,1090.4226],[-60.9478,4.5736,1053.9021],[-60.94041,4.59406,951.123],[-60.93106,4.63739,1069.6022],[-60.90344,4.69959,1095.6887],[-60.89581,4.70853,1026.4841],[-60.88796,4.71113,1035.046],[-60.86868,4.71119,1005.2772],[-60.86003,4.71243,976.421],[-60.76368,4.75509,917.4651],[-60.71815,4.78428,1052.8478],[-60.68006,4.81795,1159.3558],[-60.61263,4.90058,1144.4062],[-60.59193,4.94972,1172.4114],[-60.59867,4.99688,1351.142],[-60.6643,5.17025,1161.9265],[-60.68487,5.18831,1308.2411],[-60.71102,5.19816,1588.5729],[-60.73985,5.20214,2284.4187],[-60.8169,5.28508,1172.1141],[-60.89266,5.36856,852.5269],[-60.9685,5.45207,1296.5632],[-61.04425,5.53561,1083.7968],[-61.12001,5.61912,879.6481],[-61.19582,5.70268,961.9117],[-61.2716,5.78611,1235.3118],[-61.34736,5.86967,1558.4314],[-61.37961,5.9053,1426.45],[-61.39671,5.94558,1545.2635],[-61.38627,5.95659,1157.8481],[-61.35276,5.97519,785.3008],[-61.33809,5.98679,864.4867],[-61.29119,6.06116,350.4097],[-61.27855,6.09304,316.4834],[-61.26938,6.10723,305.4242],[-61.2561,6.11438,336.6484],[-61.22292,6.12053,303.2776],[-61.20652,6.12578,312.1791],[-61.19448,6.13286,314.5707],[-61.18474,6.14601,311.9031],[-61.17399,6.17164,325.0678],[-61.16112,6.18288,287.2285],[-61.14735,6.18505,299.9587],[-61.1327,6.18355,293.3604],[-61.12156,6.18665,298.1894],[-61.11836,6.20257,305.8679],[-61.11805,6.21624,404.9624],[-61.11285,6.25414,416.3847],[-61.11479,6.26401,313.1583],[-61.11794,6.26724,285.9816],[-61.12135,6.26946,295.5904],[-61.12415,6.27623,275.5023],[-61.12908,6.28331,308.0505],[-61.1467,6.29422,212.5342],[-61.15197,6.30336,324.9743],[-61.15949,6.33127,302.2115],[-61.16091,6.34235,202.8135],[-61.15482,6.39057,131.6201],[-61.14993,6.40444,121.9946],[-61.1411,6.41646,146.0338],[-61.13898,6.4248,146.2956],[-61.13856,6.43307,143.152],[-61.13975,6.44126,150.5415],[-61.14259,6.44943,150.3642],[-61.15347,6.46436,125.7176],[-61.16303,6.49428,156.0749],[-61.17086,6.50924,148.0121],[-61.18613,6.52332,139.4738],[-61.20008,6.5311,137.4343],[-61.20967,6.54097,122.0528],[-61.21197,6.56144,149.7701],[-61.20479,6.59583,134.4204],[-61.19019,6.63288,124.871],[-61.17065,6.66851,128.4235],[-61.13931,6.70445,136.1594],[-61.12983,6.71584,122.758],[-61.11097,6.71951,100.1854],[-61.08906,6.7175,101.5891],[-61.0704,6.71187,127.1856],[-61.06123,6.73008,127.1766],[-61.04007,6.72698,120.966],[-61.01867,6.72044,96.3922],[-61.00025,6.73437,120.9462],[-60.9546,6.72874,129.129],[-60.93382,6.73173,155.7396],[-60.92837,6.73587,122.6913],[-60.90124,6.76442,112.9387],[-60.89948,6.76855,122.8593],[-60.89907,6.77677,131.3603],[-60.90129,6.78602,133.3745],[-60.91116,6.80003,129.1544],[-60.91338,6.81121,119.9025],[-60.90757,6.81524,90.0],[-60.89457,6.81416,120.9022],[-60.8724,6.80811,117.3633],[-60.86571,6.80331,120.3829],[-60.85853,6.79646,121.2698],[-60.84961,6.78995,115.738],[-60.83763,6.78636,116.3299],[-60.8283,6.78713,90.0],[-60.80525,6.79248,99.1223],[-60.79352,6.79382,115.1431],[-60.77306,6.78842,125.0073],[-60.73647,6.76478,115.0708],[-60.72153,6.75969,119.4969],[-60.70035,6.76708,123.646],[-60.68415,6.78403,121.2361],[-60.6558,6.82457,112.7409],[-60.63955,6.83772,88.0],[-60.62069,6.84589,112.8364],[-60.54873,6.8631,114.0214],[-60.42096,6.94221,115.57],[-60.39419,6.94847,117.2233],[-60.37734,6.93854,118.8544],[-60.36809,6.9881,124.4104],[-60.3597,7.0049,126.4358],[-60.34458,7.01761,128.1136],[-60.32755,7.02856,134.5099],[-60.31342,7.04024,127.8737],[-60.30358,7.05414,127.3368],[-60.2958,7.07073,130.8824],[-60.29159,7.0883,133.291],[-60.29234,7.10525,134.9452],[-60.29993,7.12101,135.5793],[-60.31283,7.13259,148.3221],[-60.34758,7.15192,155.6283],[-60.34827,7.15268,153.5159],[-60.36011,7.16577,205.1681],[-60.37202,7.17228,194.6893],[-60.38517,7.17331,156.8964],[-60.40148,7.17088,174.4346],[-60.41582,7.17135,177.3542],[-60.42675,7.17688,208.8332],[-60.43713,7.18375,148.9147],[-60.44951,7.18835,140.3759],[-60.47532,7.1885,147.8461],[-60.49661,7.1806,154.5701],[-60.51286,7.1652,165.3344],[-60.5349,7.12577,265.6732],[-60.548,7.12551,362.8537],[-60.61764,7.18039,198.171],[-60.62841,7.19114,298.0802],[-60.64306,7.2209,347.1318],[-60.64355,7.25067,248.3064],[-60.6311,7.2777,241.9068],[-60.60676,7.29945,298.3701],[-60.60224,7.30653,297.7686],[-60.59997,7.31392,216.0835],[-60.59986,7.32188,210.4689],[-60.60177,7.33015,199.5676],[-60.61056,7.34364,201.4865],[-60.62201,7.37154,332.9495],[-60.62898,7.38436,182.9424],[-60.63609,7.38983,192.875],[-60.64516,7.3934,188.2439],[-60.65324,7.39846,187.6115],[-60.65727,7.40813,179.3937],[-60.65691,7.41655,193.7848],[-60.65583,7.42286,211.1083],[-60.65627,7.4288,206.8444],[-60.66063,7.43614,352.7692],[-60.6742,7.44549,284.1483],[-60.68813,7.44864,194.9249],[-60.70066,7.4535,199.745],[-60.72383,7.49582,186.2318],[-60.7297,7.51034,203.5215],[-60.73058,7.52543,153.075],[-60.7165,7.55158,151.3742],[-60.67115,7.56605,162.9386],[-60.65562,7.58522,136.225],[-60.64149,7.61091,125.7794],[-60.63169,7.6246,136.6797],[-60.62516,7.62946,194.6264],[-60.61066,7.62682,122.2383],[-60.60126,7.63385,125.0955],[-60.59746,7.64672,134.244],[-60.59986,7.66155,124.7813],[-60.58451,7.68852,122.52],[-60.58441,7.69938,115.2448],[-60.58772,7.71834,116.9162],[-60.58699,7.72713,120.5612],[-60.58209,7.73632,126.2894],[-60.55958,7.76304,115.407],[-60.53984,7.80009,117.8288],[-60.52576,7.81337,134.4277],[-60.50328,7.82087,115.745],[-60.4185,7.81937,116.3985],[-60.37476,7.82361,106.5219],[-60.35042,7.8418,106.4007],[-60.34241,7.86479,106.9246],[-60.32034,7.88474,83.538],[-60.27187,7.91776,83.2025],[-60.268,7.92126,81.1232],[-60.2689,7.92125,81.3978],[-60.53906,7.91693,131.8798],[-60.54441,7.91554,154.2589],[-60.54899,7.91329,123.1221],[-60.56092,7.90476,105.4364],[-60.56971,7.89988,86.9071],[-60.57462,7.8981,85.531],[-60.591,7.89435,80.298],[-60.59583,7.89234,85.417],[-60.6002,7.89001,96.9653],[-60.68466,7.83012,95.8505],[-60.70681,7.81826,82.5718],[-60.71053,7.81508,83.7321],[-60.73301,7.78901,106.5888],[-60.76647,7.7603,113.5962],[-60.77959,7.75302,112.993],[-60.78463,7.75178,138.3216],[-60.7899,7.75198,139.2767],[-60.79696,7.75705,127.8171],[-60.93966,7.92096,121.5556],[-60.94421,7.92735,109.7354],[-60.94524,7.92967,105.7109],[-60.95571,7.94138,118.9911],[-60.96198,7.94424,124.6208],[-60.97098,7.94603,111.4194],[-60.98798,7.94618,113.8793],[-61.01366,7.94393,128.8261],[-61.01922,7.94262,135.7121],[-61.02446,7.94068,140.3228],[-61.03239,7.93471,129.9964],[-61.05335,7.9143,127.695],[-61.06115,7.90841,140.0406],[-61.06572,7.90616,140.601],[-61.08575,7.89903,143.0658],[-61.09143,7.89786,149.9347],[-61.09763,7.8974,147.1479],[-61.12456,7.89794,141.5114],[-61.13042,7.89701,112.3466],[-61.13515,7.89497,124.1453],[-61.16029,7.879,101.8486],[-61.16528,7.87722,118.8507],[-61.18171,7.8735,161.6662],[-61.1861,7.87094,151.4147],[-61.20021,7.85735,108.4587],[-61.20437,7.85471,125.8492],[-61.209,7.85254,125.3352],[-61.2245,7.84774,85.5281],[-61.24292,7.83895,138.9522],[-61.24837,7.83766,118.6149],[-61.26659,7.8357,74.7327],[-61.28848,7.83074,141.7463],[-61.29822,7.82686,110.5402],[-61.30708,7.82206,170.5388],[-61.31263,7.82058,188.8768],[-61.3192,7.82058,225.8395]]]}}