{"type":"Feature","properties":{"GID_2":"VEN.17.8_1","GID_0":"VEN","country":"Venezuela","GID_1":"VEN.17_1","province":"Monagas","NL_NAME_1":"NA","county":"Maturín","VARNAME_2":"NA","NL_NAME_2":"NA","TYPE_2":"Municipio","ENGTYPE_2":"Municipality","CC_2":"NA","HASC_2":"NA","name":"Maturín.county"},
"geometry":{"type": "MultiPolygon","coordinates": [[[[-63.3705,8.9265,125.955],[-63.2947,8.7521,129.9526],[-63.2924,8.7411,143.7041],[-62.946,8.7287,75.6304],[-62.9417,8.7507,71.0437],[-62.9285,8.7587,83.8242],[-62.9012,8.7715,88.3367],[-62.8917,8.7805,83.4694],[-62.8724,8.8039,89.5198],[-62.8557,8.8179,84.9984],[-62.8413,8.8273,84.105],[-62.8343,8.8347,81.0861],[-62.8284,8.8459,67.9346],[-62.8175,8.8947,47.663],[-62.8137,8.9057,35.044],[-62.8057,8.9173,35.6715],[-62.7998,8.9311,26.1655],[-62.7973,8.9503,37.7359],[-62.7889,8.9835,24.4293],[-62.788,8.9991,27.9967],[-62.7917,9.0153,32.4384],[-62.8046,9.0395,43.9619],[-62.8091,9.0519,47.6737],[-62.8103,9.0637,47.7599],[-62.8074,9.0757,24.7417],[-62.7985,9.0923,19.9292],[-62.7955,9.1015,18.4952],[-62.7949,9.1121,23.5592],[-62.7997,9.1371,20.7954],[-62.7988,9.1491,13.3456],[-62.7958,9.1555,15.7075],[-62.7889,9.1595,21.2461],[-62.7743,9.1773,18.6889],[-62.7624,9.1873,20.8003],[-62.7476,9.1909,16.5029],[-62.7298,9.1859,10.148],[-62.7165,9.1785,13.1287],[-62.7016,9.1753,13.4986],[-62.683,9.1769,6.3099],[-62.6747,9.1753,5.2316],[-62.654,9.1441,20.6659],[-62.6276,9.1209,11.7196],[-62.6194,9.1163,8.7125],[-62.612,9.1145,12.1401],[-62.5922,9.1169,11.2439],[-62.5716,9.1147,19.3441],[-62.5589,9.1189,13.078],[-62.5525,9.1247,11.7275],[-62.5464,9.1421,6.4292],[-62.5455,9.1529,4.1157],[-62.5488,9.1715,3.1591],[-62.5486,9.1795,3.3392],[-62.5412,9.1859,2.7451],[-62.531,9.1889,2.707],[-62.521,9.2003,5.3785],[-62.5135,9.2253,11.0483],[-62.5085,9.2357,14.9931],[-62.4921,9.2479,2.8827],[-62.4627,9.2583,3.643],[-62.4579,9.2631,1.9593],[-62.4573,9.2703,3.2642],[-62.4654,9.2839,1.3403],[-62.4674,9.2933,1.215],[-62.4649,9.3029,1.2963],[-62.4573,9.3183,1.4028],[-62.4347,9.3495,1.3238],[-62.4266,9.3597,1.5973],[-62.4236,9.356,1.1887],[-62.4192,9.3868,2.0244],[-62.4256,9.3997,2.3263],[-62.4358,9.4059,7.3484],[-62.4416,9.4139,6.6172],[-62.4414,9.4179,7.2644],[-62.4335,9.4282,3.3007],[-62.4306,9.4366,1.3366],[-62.4317,9.4365,3.6663],[-62.4275,9.4408,1.3329],[-62.4483,9.4558,12.7687],[-62.4605,9.4837,15.1003],[-62.4619,9.5179,19.8193],[-62.4575,9.5407,9.9215],[-62.4244,9.5878,12.0022],[-62.3991,9.617,11.2032],[-62.3825,9.6398,14.9635],[-62.3637,9.6997,0.0],[-62.3428,9.7318,16.9538],[-62.3356,9.7546,12.9285],[-62.3356,9.7689,11.6229],[-62.3456,9.8046,15.2098],[-62.3476,9.8217,0.0],[-62.349,9.8725,26.6974],[-62.3475,9.8811,24.7425],[-62.3521,9.8853,20.0668],[-62.3549,9.8837,0.0],[-62.3674,9.8837,19.1509],[-62.3732,9.8896,0.0],[-62.3851,9.8957,0.0],[-62.3999,9.9099,12.2579],[-62.4054,9.921,0.0],[-62.4132,9.9251,19.5596],[-62.4196,9.9318,12.8379],[-62.4354,9.931,0.0],[-62.4412,9.9265,2.8088],[-62.444,9.9288,12.3453],[-62.4382,9.9404,17.0634],[-62.4354,9.9413,15.6041],[-62.4321,9.9499,0.0],[-62.4157,9.9679,9.3298],[-62.4257,9.9804,20.9036],[-62.4287,9.9871,0.0],[-62.4337,10.0063,18.1907],[-62.4335,10.0224,19.745],[-62.4349,10.0282,2.3846],[-62.4418,10.0371,0.0],[-62.4468,10.0401,6.2428],[-62.4507,10.0454,6.2465],[-62.4538,10.0463,5.1444],[-62.4582,10.0546,0.0],[-62.4671,10.0549,14.5899],[-62.4657,10.0574,6.541],[-62.461,10.0596,1.7725],[-62.4621,10.0737,6.6104],[-62.4674,10.0849,0.0],[-62.471,10.1007,0.0],[-62.476,10.1101,0.0],[-62.4746,10.1143,0.0],[-62.4815,10.1368,0.0],[-62.4846,10.1396,12.1973],[-62.4843,10.1451,0.0],[-62.4912,10.1601,0.0],[-62.5101,10.1904,3.2269],[-62.5171,10.1965,0.0],[-62.5213,10.1979,0.0],[-62.5296,10.2068,0.0],[-62.5393,10.2124,0.0],[-62.5449,10.2129,7.7549],[-62.5484,10.2157,0.0],[-62.5943,10.2335,0.0],[-62.6168,10.2357,0.0],[-62.6557,10.2315,0.0],[-62.6646,10.2326,0.0],[-62.6488,10.2067,0.0],[-62.6263,10.1897,0.0],[-62.6181,10.1747,0.0],[-62.6124,10.1515,0.0],[-62.6123,10.1441,0.0],[-62.6141,10.1363,0.0],[-62.6228,10.1229,24.3965],[-62.6359,10.1101,17.4179],[-62.6466,10.1051,26.6068],[-62.6626,10.1007,1.8869],[-62.6797,10.0933,12.9865],[-62.6908,10.0923,3.5491],[-62.71,10.0911,3.7366],[-62.7178,10.0937,2.0719],[-62.7269,10.1017,8.1617],[-62.7398,10.1085,9.122],[-62.7639,10.1109,1.495],[-62.7713,10.1097,3.8371],[-62.777,10.1061,1.8613],[-62.7808,10.0997,2.5254],[-62.7844,10.0751,7.0941],[-62.7893,10.0693,21.2965],[-62.8049,10.0707,2.6703],[-62.8109,10.0759,1.8013],[-62.8221,10.0901,1.7621],[-62.8266,10.1037,3.2912],[-62.8314,10.1087,3.6267],[-62.8418,10.1091,11.3192],[-62.8558,10.0957,11.3877],[-62.8633,10.0919,10.2416],[-62.8705,10.0917,9.9853],[-62.8747,10.0937,10.5965],[-62.8777,10.1059,12.4269],[-62.883,10.1169,8.5079],[-62.8906,10.1257,3.8968],[-62.9009,10.1311,2.0118],[-62.9121,10.1267,9.8329],[-62.9245,10.1245,1.9638],[-62.9297,10.1255,5.0879],[-62.9456,10.1057,13.5697],[-63.0833,9.897,16.3893],[-63.0921,9.888,27.8395],[-63.0985,9.8847,22.6671],[-63.1083,9.8857,36.2861],[-63.1148,9.8883,33.3879],[-63.1275,9.9001,23.0596],[-63.1656,9.9125,32.2711],[-63.1958,9.9053,28.1816],[-63.2035,9.8995,31.4954],[-63.2177,9.8821,46.0112],[-63.2289,9.8727,70.6968],[-63.2541,9.8591,60.8394],[-63.2652,9.8553,83.3294],[-63.3016,9.8567,105.5549],[-63.3242,9.8677,134.9094],[-63.3326,9.8688,151.373],[-63.3396,9.8622,154.1657],[-63.3381,9.8461,141.4848],[-63.3293,9.8261,106.9761],[-63.3267,9.8141,77.2698],[-63.329,9.8029,121.8932],[-63.3377,9.8033,127.3523],[-63.3604,9.8121,138.3164],[-63.3893,9.8137,126.1815],[-63.3969,9.8129,150.9412],[-63.4152,9.8069,176.6194],[-63.4433,9.8049,162.3092],[-63.4529,9.8097,176.8021],[-63.4702,9.8265,182.9256],[-63.4745,9.8329,198.7954],[-63.4857,9.8309,197.1261],[-63.456,9.7201,89.4064],[-63.4541,9.7197,91.8871],[-63.5497,9.6831,196.9006],[-63.5436,9.6751,187.3141],[-63.5241,9.6612,160.5112],[-63.5206,9.6551,151.0472],[-63.5249,9.6452,130.6954],[-63.5284,9.6438,135.6771],[-63.4964,9.6403,123.767],[-63.4537,9.6393,162.3988],[-63.447,9.6526,107.2092],[-63.4252,9.6517,99.0798],[-63.4252,9.6412,111.9556],[-63.428,9.6251,171.212],[-63.4176,9.6223,162.5737],[-63.4176,9.5843,128.7111],[-63.4148,9.5425,110.4472],[-63.4119,9.534,113.8058],[-63.41,9.4808,116.2262],[-63.4119,9.4751,110.4407],[-63.4262,9.4742,119.6092],[-63.4394,9.4761,121.3635],[-63.4584,9.4818,128.5942],[-63.4765,9.4903,133.2583],[-63.4935,9.4913,133.2142],[-63.504,9.4941,137.6038],[-63.5135,9.5064,135.1308],[-63.5268,9.5093,137.6688],[-63.5427,9.5056,148.3979],[-63.4318,9.1818,111.2815],[-63.3997,8.9951,94.1114],[-63.3705,8.9265,125.955]]],
[[[-62.3546,9.8996,0.0],[-62.356,9.8993,0.0],[-62.3568,9.894,13.903],[-62.3563,9.8871,6.7025],[-62.3529,9.8887,0.0],[-62.3532,9.8976,0.0],[-62.3546,9.8996,0.0]]],
[[[-62.4341,10.0518,5.4426],[-62.4424,10.0515,0.0],[-62.4454,10.0474,0.0],[-62.446,10.0435,0.0],[-62.4376,10.0388,16.4338],[-62.4335,10.0332,0.0],[-62.4307,10.0224,16.3024],[-62.4301,10.0024,9.1664],[-62.4268,9.9913,0.0],[-62.4232,9.9826,14.3154],[-62.4143,9.9729,16.6402],[-62.4124,9.9649,0.0],[-62.4129,9.959,9.5606],[-62.416,9.9518,7.1496],[-62.4129,9.9471,9.1365],[-62.4154,9.9476,14.1055],[-62.4179,9.951,2.5527],[-62.4212,9.9488,7.6066],[-62.4279,9.9476,7.125],[-62.4299,9.9465,7.3176],[-62.4296,9.9401,6.5985],[-62.426,9.9354,8.8451],[-62.4165,9.9346,13.8981],[-62.4162,9.9354,14.3295],[-62.4196,9.9365,20.7584],[-62.4104,9.9377,13.6819],[-62.4096,9.9351,6.4982],[-62.4074,9.9351,9.9109],[-62.4051,9.9401,8.4271],[-62.4015,9.9391,10.755],[-62.4018,9.9405,12.5307],[-62.4043,9.941,13.7525],[-62.4038,9.944,11.8921],[-62.3999,9.9437,12.5302],[-62.4004,9.9457,13.5652],[-62.3963,9.9479,10.201599999999999],[-62.394,9.9596,10.0484],[-62.3915,9.9635,12.9487],[-62.3899,9.9637,12.9487],[-62.3935,9.9674,8.7512],[-62.3857,9.9687,10.409],[-62.384,9.9724,10.6055],[-62.3807,9.9718,7.1],[-62.3724,9.976,7.1493],[-62.3715,9.9788,5.8525],[-62.3746,9.9854,10.8406],[-62.3799,9.9874,11.0195],[-62.3793,9.9893,0.0],[-62.3846,9.9951,10.059],[-62.3843,9.9965,3.3321],[-62.3879,9.9965,13.3027],[-62.3907,10.0055,2.4795],[-62.3954,10.0119,0.0],[-62.4012,10.0138,0.0],[-62.4037,10.0127,2.4923],[-62.4054,10.0093,7.5844],[-62.4051,10.0132,0.0],[-62.4068,10.0135,17.9696],[-62.4082,10.0199,0.0],[-62.4118,10.0229,5.4041],[-62.4104,10.0249,0.0],[-62.4104,10.0307,2.5081],[-62.4135,10.0332,1.7828],[-62.4179,10.044,0.0],[-62.4293,10.0507,0.0],[-62.4341,10.0518,5.4426]]]]}}