{"type": "Feature","bbox": [-68.6034,9.0787,-68.3162,9.6542],"geometry": {"type": "MultiPolygon","coordinates": [[[[-68.6034,9.6042,133.4635],[-68.6017,9.604,133.2288],[-68.6011,9.5504,118.3209],[-68.5964,9.549,115.7764],[-68.5812,9.5006,105.1325],[-68.5585,9.4612,92.2206],[-68.5391,9.4093,86.8308],[-68.5322,9.3949,86.1299],[-68.5258,9.3856,84.235],[-68.4881,9.3508,79.7046],[-68.4696,9.346,82.8913],[-68.4648,9.3434,81.0008],[-68.4623,9.3358,87.0429],[-68.466,9.3069,77.4423],[-68.4639,9.2926,76.4513],[-68.4587,9.2843,76.0938],[-68.4361,9.2643,77.1344],[-68.4257,9.251,85.5799],[-68.4166,9.2299,78.2521],[-68.4003,9.2022,79.5824],[-68.3959,9.1888,81.0362],[-68.3948,9.1733,81.5306],[-68.3971,9.151,68.8415],[-68.3968,9.1395,68.589],[-68.3927,9.1254,68.8488],[-68.3878,9.1165,67.2861],[-68.368,9.0912,76.8678],[-68.3629,9.0787,73.9373],[-68.332,9.087,73.373],[-68.329,9.0894,71.843],[-68.3445,9.1052,66.6368],[-68.3464,9.1134,69.0774],[-68.3457,9.1187,73.2978],[-68.3479,9.1252,77.9913],[-68.3475,9.1376,71.0865],[-68.3402,9.1593,81.2849],[-68.3328,9.1727,80.6676],[-68.3336,9.1846,69.7071],[-68.3409,9.2026,71.3957],[-68.3616,9.2436,72.5349],[-68.3656,9.2624,73.7291],[-68.377,9.2832,75.9261],[-68.3784,9.324,79.8742],[-68.3749,9.3333,79.3336],[-68.3576,9.3483,81.1826],[-68.3528,9.3766,84.4081],[-68.3521,9.3986,94.9598],[-68.3489,9.4085,92.6624],[-68.3486,9.42,93.9546],[-68.3516,9.446,97.0867],[-68.3508,9.471,97.8053],[-68.3468,9.4781,102.7012],[-68.3334,9.4935,134.7052],[-68.331,9.5107,205.2486],[-68.3307,9.5272,219.5962],[-68.3209,9.5569,120.7166],[-68.3209,9.5728,110.5182],[-68.3162,9.5857,116.3848],[-68.3193,9.5927,112.9857],[-68.331,9.6022,115.5967],[-68.3374,9.6053,123.8979],[-68.3484,9.6079,117.4401],[-68.3782,9.6197,118.8462],[-68.4146,9.6317,126.7168],[-68.427,9.6399,130.8266],[-68.4421,9.6451,136.265],[-68.4432,9.6471,135.7423],[-68.4803,9.6068,129.5525],[-68.4927,9.6001,131.5939],[-68.5012,9.5935,123.4678],[-68.504,9.5992,125.3093],[-68.5154,9.602,126.0722],[-68.5259,9.6087,127.2003],[-68.5268,9.6115,127.8272],[-68.5373,9.6191,132.9655],[-68.5506,9.6258,139.3491],[-68.5667,9.6428,142.5286],[-68.5724,9.6542,147.8833],[-68.579,9.6542,148.384],[-68.5923,9.6134,135.4924],[-68.6034,9.6042,133.4635]]]]}
,"properties": {"GID_2": "VEN.8.8_1","GID_0": "VEN","country": "Venezuela","GID_1": "VEN.8_1","province": "Cojedes","NL_NAME_1": "NA","county": "RomuloGallegos","VARNAME_2": "NA","NL_NAME_2": "NA","TYPE_2": "Municipio","ENGTYPE_2": "Municipality","CC_2": "NA","HASC_2": "NA","name": "Romulo_Gallegos.county","area_km2": 963.3356,"hist_schema_id": "Elevation0-9000","hist_area_km2": {"75": 348.4382,"100": 310.6326,"125": 246.9335,"150": 34.3717,"175": 9.5979,"200": 6.3358,"225": 4.3285,"250": 1.9447,"275": 0.5855,"300": 0.1673}}}