{"type":"Feature","properties":{"GID_2":"VEN.3.5_1","GID_0":"VEN","country":"Venezuela","GID_1":"VEN.3_1","province":"Apure","NL_NAME_1":"NA","county":"PedroCamejo","VARNAME_2":"NA","NL_NAME_2":"NA","TYPE_2":"Municipio","ENGTYPE_2":"Municipality","CC_2":"NA","HASC_2":"NA","name":"Pedro_Camejo.county"},
"geometry":{"type": "MultiPolygon","coordinates": [[[[-69.4269,6.1022,83.2019],[-69.4032,6.1154,86.6593],[-69.3765,6.1272,76.5],[-69.3624,6.1374,76.5],[-69.3567,6.1393,76.5],[-69.346,6.1392,78.6529],[-69.3363,6.1349,78.8],[-69.3255,6.124,76.0],[-69.3213,6.1157,75.5],[-69.3138,6.0928,75.0],[-69.2946,6.069,74.5],[-69.2806,6.0614,75.7905],[-69.2706,6.0611,74.375],[-69.257,6.0634,74.0],[-69.2314,6.0821,75.6182],[-69.217,6.0851,77.8531],[-69.2149,6.0868,80.0095],[-69.2101,6.0957,75.8452],[-69.2062,6.1123,79.0225],[-69.2008,6.1287,72.5],[-69.1986,6.1312,72.5],[-69.1859,6.1389,72.0],[-69.1728,6.14,72.0],[-69.1641,6.1456,72.0],[-69.149,6.1502,74.3744],[-69.1368,6.1776,71.0],[-69.1322,6.1957,72.7393],[-69.1279,6.2039,79.6889],[-69.1103,6.2142,80.4],[-69.1069,6.2146,79.6244],[-69.0834,6.2135,70.0],[-69.0689,6.2084,69.5],[-69.0515,6.213,73.7715],[-69.0363,6.2124,76.6033],[-69.0283,6.2101,75.7215],[-69.0197,6.2028,69.8336],[-69.0123,6.1987,68.5],[-69.0073,6.1978,69.743],[-68.9996,6.2046,76.8381],[-68.9886,6.2057,77.1566],[-68.9595,6.1877,68.0],[-68.9472,6.1822,67.5],[-68.9412,6.1757,67.5],[-68.9387,6.1692,73.3479],[-68.9295,6.1658,71.8344],[-68.9265,6.1667,74.6143],[-68.9207,6.1746,67.0],[-68.9166,6.1758,67.0],[-68.8903,6.1727,66.5],[-68.8819,6.1756,66.5],[-68.8362,6.1819,66.0],[-68.8133,6.1748,65.5],[-68.7968,6.1569,65.0],[-68.7917,6.1547,65.0],[-68.7846,6.1556,65.0],[-68.7636,6.1655,73.019],[-68.7506,6.1675,70.5736],[-68.7422,6.1664,68.9777],[-68.7259,6.1588,63.5],[-68.7089,6.156,63.5],[-68.6978,6.1521,63.0],[-68.6947,6.148,63.0],[-68.6921,6.1398,63.0],[-68.6887,6.1366,63.0],[-68.6438,6.1282,62.0],[-68.639,6.1308,65.689],[-68.6354,6.1372,62.0],[-68.625,6.1425,64.1924],[-68.613,6.1548,61.0],[-68.6024,6.1617,61.0],[-68.5925,6.1633,60.625],[-68.5894,6.1654,60.5],[-68.5769,6.1653,62.5745],[-68.5505,6.1467,61.9807],[-68.5446,6.1457,59.5],[-68.5209,6.1588,59.0],[-68.5038,6.1624,59.0],[-68.4995,6.1675,59.0],[-68.488,6.1705,63.1724],[-68.4836,6.1758,62.9834],[-68.4704,6.1817,59.867],[-68.4502,6.1858,58.0],[-68.4383,6.1862,58.0],[-68.428,6.1807,57.5],[-68.4099,6.1841,57.5],[-68.3927,6.1768,57.0],[-68.3565,6.168,63.2132],[-68.3417,6.166,56.5],[-68.3294,6.1689,59.4866],[-68.3202,6.1629,56.0],[-68.3002,6.1722,57.9531],[-68.2877,6.1683,60.1959],[-68.2757,6.1688,63.9842],[-68.2626,6.1755,55.5],[-68.2601,6.1866,62.4984],[-68.2515,6.1902,55.0],[-68.249,6.1978,58.1436],[-68.2461,6.2,55.975],[-68.231,6.2039,54.5],[-68.2204,6.2088,54.5],[-68.2033,6.2119,54.5],[-68.1895,6.2109,54.0],[-68.1779,6.2129,54.0],[-68.1683,6.2117,54.0],[-68.1435,6.2218,61.0209],[-68.1362,6.2328,55.1588],[-68.125,6.237,53.0],[-68.1185,6.236,53.0],[-68.0897,6.2255,52.5],[-68.0785,6.2163,56.6028],[-68.0601,6.2099,56.2108],[-68.0498,6.2103,52.5],[-68.0326,6.214,54.1623],[-68.0111,6.2096,52.0],[-68.0081,6.2081,52.0],[-67.9987,6.1974,55.125],[-67.9892,6.1936,55.7242],[-67.9827,6.193,55.4674],[-67.9754,6.1958,55.1305],[-67.9686,6.2046,54.0277],[-67.9582,6.2071,54.9857],[-67.9313,6.2219,56.5984],[-67.9106,6.2276,56.9242],[-67.902,6.2318,54.97],[-67.8923,6.2411,59.9657],[-67.8894,6.2472,61.4822],[-67.8887,6.2581,61.6654],[-67.884,6.2649,55.2649],[-67.8763,6.2695,54.7086],[-67.8627,6.2728,62.9176],[-67.8449,6.2799,59.5846],[-67.8397,6.2857,56.7831],[-67.8363,6.2927,54.1271],[-67.8235,6.3066,52.5893],[-67.8149,6.309,52.621],[-67.8045,6.3086,52.6166],[-67.7813,6.32,50.0],[-67.7763,6.3183,52.3265],[-67.7706,6.2983,49.5],[-67.7612,6.2911,49.0],[-67.7556,6.291,49.0],[-67.7451,6.2946,49.0],[-67.7165,6.288,49.0],[-67.7054,6.293,50.0331],[-67.6961,6.2924,48.5],[-67.6654,6.302,50.0573],[-67.6469,6.2969,47.5],[-67.6364,6.291,47.0],[-67.6231,6.2907,46.5],[-67.6152,6.283,47.248],[-67.6099,6.2799,46.0],[-67.6049,6.2799,46.0],[-67.5972,6.2849,46.0],[-67.5938,6.2853,46.0],[-67.5864,6.2774,46.0],[-67.5802,6.2739,45.5],[-67.5664,6.2786,48.5208],[-67.553,6.2804,47.855],[-67.5475,6.2791,48.1377],[-67.5431,6.2676,44.0],[-67.5372,6.2629,43.625],[-67.5353,6.2535,48.242],[-67.4991,6.2236,44.0439],[-67.4843,6.219,41.0],[-67.4762,6.2035,44.8273],[-67.4629,6.1917,40.5],[-67.4639,6.1869,40.5],[-67.4789,6.172,40.625],[-67.4894,6.1561,41.0],[-67.4909,6.1493,41.5],[-67.4535,6.1799,55.3132],[-67.4122,6.2075,51.5333],[-67.3987,6.2189,60.1369],[-67.3786,6.2304,40.0],[-67.3314,6.2508,44.3251],[-67.3185,6.2653,39.5],[-67.288,6.3077,52.5787],[-67.2797,6.3143,58.5214],[-67.277,6.3125,60.5774],[-67.2635,6.3129,63.8518],[-67.2466,6.3213,69.0821],[-67.2304,6.3352,64.2283],[-67.2214,6.3503,57.2551],[-67.2069,6.3699,47.1078],[-67.1874,6.3846,58.7461],[-67.1708,6.4013,54.2496],[-67.1562,6.4131,57.977],[-67.1342,6.4283,132.7433],[-67.1273,6.4406,49.8112],[-67.1252,6.4514,50.4949],[-67.126,6.4861,57.9371],[-67.1239,6.5225,54.7296],[-67.1163,6.5587,56.2453],[-67.1078,6.5821,62.6099],[-67.0995,6.5991,56.8504],[-67.0871,6.6498,37.5],[-67.0628,6.6932,37.5],[-67.0463,6.7381,37.5],[-67.0421,6.7551,37.5],[-67.0331,6.8209,37.0],[-67.0256,6.8578,36.5],[-67.0273,6.8709,36.0],[-67.0347,6.8824,36.0],[-67.0573,6.903,41.347],[-67.0668,6.9162,41.7066],[-67.0795,6.9445,38.3279],[-67.084,6.9645,38.2128],[-67.0859,6.9917,39.6326],[-67.0828,7.0272,33.0],[-67.0779,7.0443,38.8273],[-67.0689,7.0585,32.5],[-67.0519,7.0758,40.4412],[-67.0378,7.0815,43.2195],[-67.0096,7.0834,37.5492],[-67.0625,7.1277,34.5],[-67.0654,7.132,32.0],[-67.0831,7.1424,39.3127],[-67.113,7.1561,39.6759],[-67.1249,7.1691,43.6575],[-67.1315,7.1821,42.6585],[-67.1332,7.1999,39.8826],[-67.1325,7.2166,40.9849],[-67.1264,7.2418,38.4161],[-67.1288,7.2506,45.2244],[-67.135,7.2598,43.9388],[-67.1504,7.2703,36.5511],[-67.164,7.2769,38.0577],[-67.1809,7.2889,36.8011],[-67.1877,7.3008,36.6288],[-67.2002,7.333,36.4115],[-67.2094,7.3431,36.7543],[-67.22,7.3492,37.9959],[-67.2847,7.3665,38.3869],[-67.3078,7.3872,39.5808],[-67.3233,7.3977,38.6926],[-67.3616,7.4102,39.2253],[-67.3796,7.4194,39.442],[-67.4306,7.456,40.5128],[-67.4589,7.4679,39.0],[-67.4693,7.474,40.9183],[-67.4371,7.5073,42.8825],[-67.3198,7.6078,37.604],[-67.3898,7.6221,40.5621],[-67.4091,7.6244,41.0502],[-67.4308,7.6228,46.0184],[-67.4454,7.6187,40.3157],[-67.4582,7.6107,42.5654],[-67.4772,7.5929,40.724],[-67.4974,7.5809,42.5404],[-67.5086,7.5802,45.1772],[-67.5731,7.5965,42.7235],[-67.5892,7.5967,42.7449],[-67.6168,7.5868,44.9517],[-67.6377,7.5829,44.3251],[-67.7862,7.5752,46.67],[-67.8118,7.5795,47.451],[-67.8492,7.594,52.2338],[-67.8506,7.5439,47.8467],[-67.8537,7.5237,48.1969],[-67.8569,7.5145,48.2538],[-67.8626,7.5092,47.823],[-67.8713,7.5083,48.2236],[-67.8843,7.5098,48.4452],[-67.9106,7.5185,48.988],[-67.9388,7.5196,49.8384],[-67.9539,7.5177,50.0834],[-67.9744,7.5089,50.3251],[-68.0043,7.4879,51.3601],[-68.016,7.4816,51.4195],[-68.0502,7.4684,52.3737],[-68.058,7.4586,52.6107],[-68.0585,7.4452,52.6902],[-68.0482,7.4208,52.574],[-68.0156,7.3285,52.5813],[-68.0118,7.3098,52.6249],[-68.0128,7.2974,53.247],[-68.1107,6.9227,60.4878],[-68.0746,6.8459,65.8457],[-67.9623,6.6172,51.264],[-67.9412,6.569,66.2799],[-67.9358,6.5497,49.259],[-67.9366,6.5452,50.1569],[-67.9445,6.5446,57.8913],[-67.9711,6.551,62.6069],[-67.989,6.5535,69.245],[-68.0092,6.5541,59.6461],[-68.0288,6.5527,67.4984],[-68.0405,6.5461,70.4821],[-68.0478,6.5337,75.4224],[-68.0509,6.5152,72.3013],[-68.0562,6.5072,72.3385],[-68.0705,6.5015,73.0939],[-68.1099,6.4947,74.5375],[-68.1674,6.4964,74.3991],[-68.1835,6.4933,76.3371],[-68.2071,6.4792,79.3335],[-68.2226,6.4722,77.0058],[-68.2357,6.4707,78.9764],[-68.2541,6.4715,75.9545],[-68.2889,6.4782,69.5002],[-68.3575,6.4752,76.8614],[-68.374,6.478,78.1823],[-68.4041,6.5038,81.6619],[-68.4129,6.509,82.6362],[-68.4288,6.5147,76.7768],[-68.4403,6.515,82.0072],[-68.4659,6.5048,80.131],[-68.4792,6.5023,82.3112],[-68.49,6.504,79.3221],[-68.4974,6.5072,79.1227],[-68.5115,6.52,71.0034],[-68.5162,6.5313,70.5949],[-68.5205,6.5535,63.4746],[-68.5226,6.556,63.8247],[-68.5355,6.5575,63.3369],[-68.5894,6.5473,82.549],[-68.6705,6.5219,85.4282],[-68.6983,6.4993,85.5704],[-68.7134,6.4896,87.1149],[-68.7636,6.4685,88.0429],[-68.799,6.4598,91.1345],[-68.8219,6.4564,90.4272],[-68.8616,6.4589,92.2617],[-68.8768,6.4569,92.1493],[-68.8936,6.4502,85.5079],[-68.9107,6.4408,92.7785],[-68.9446,6.4183,90.6866],[-68.9595,6.4123,90.0738],[-69.0828,6.4013,74.6094],[-69.14,6.3906,88.2437],[-69.1617,6.3839,85.389],[-69.1898,6.3691,76.0078],[-69.2119,6.3535,76.51],[-69.247,6.3207,91.2274],[-69.2598,6.3154,95.3139],[-69.2809,6.3112,83.6626],[-69.3582,6.314,84.0986],[-69.3731,6.311,92.559],[-69.4154,6.2973,93.7474],[-69.4848,6.2858,81.1103],[-69.504,6.278,92.3728],[-69.5093,6.2736,89.5273],[-69.5177,6.2594,85.1776],[-69.529,6.2322,91.974],[-69.4269,6.1022,83.2019]]]]}}