{"type":"Feature","properties":{"GID_2":"VEN.22.1_1","GID_0":"VEN","country":"Venezuela","GID_1":"VEN.22_1","province":"Trujillo","NL_NAME_1":"NA","county":"AndrésBello","VARNAME_2":"NA","NL_NAME_2":"NA","TYPE_2":"Municipio","ENGTYPE_2":"Municipality","CC_2":"NA","HASC_2":"NA","name":"Andrés_Bello.county"},
"geometry":{"type": "MultiPolygon","coordinates": [[[[-70.6692,9.7738,577.4588],[-70.6973,9.7619,701.1609],[-70.7163,9.7457,371.9001],[-70.736,9.7258,249.466],[-70.765,9.6908,29.7277],[-70.8236,9.6312,26.9235],[-70.8174,9.6272,29.4567],[-70.8072,9.6159,31.8744],[-70.6612,9.6033,235.8907],[-70.631,9.7322,389.4808],[-70.6409,9.7494,382.6211],[-70.6373,9.7607,390.7527],[-70.6398,9.7667,372.8832],[-70.6692,9.7738,577.4588]]]]}}