{"type": "Feature","bbox": [-64.7172,8.9512,-64.4153,9.3978],"geometry": {"type": "MultiPolygon","coordinates": [[[[-64.5672,9.3978,174.893],[-64.6224,9.3684,153.1709],[-64.6303,9.3702,152.6124],[-64.6774,9.369,137.9899],[-64.6856,9.3635,146.4505],[-64.6965,9.3274,170.4058],[-64.704,9.3213,174.7673],[-64.6966,9.313,179.5266],[-64.6925,9.2582,147.0882],[-64.6966,9.2474,146.2901],[-64.7172,9.21,137.511],[-64.7098,9.2013,147.9701],[-64.6992,9.1947,156.1549],[-64.7069,9.1415,164.2554],[-64.6944,9.1087,179.764],[-64.662,9.0541,211.7615],[-64.6176,9.032,223.2102],[-64.5953,9.0158,242.9279],[-64.5808,9.0028,259.8193],[-64.5627,8.9991,281.4273],[-64.5265,8.9962,323.89],[-64.4744,8.9767,296.6332],[-64.4486,8.9609,306.5135],[-64.4153,8.9512,299.6456],[-64.4688,9.0723,306.3569],[-64.476,9.0841,313.0919],[-64.521,9.1453,272.5655],[-64.5358,9.1702,237.0163],[-64.5808,9.2282,183.2835],[-64.5672,9.3978,174.893]]]]}
,"properties": {"GID_2": "VEN.2.20_1","GID_0": "VEN","country": "Venezuela","GID_1": "VEN.2_1","province": "Anzoátegui","NL_NAME_1": "NA","county": "SantaAna","VARNAME_2": "NA","NL_NAME_2": "NA","TYPE_2": "Municipio","ENGTYPE_2": "Municipality","CC_2": "NA","HASC_2": "NA","name": "Santa_Ana.county","area_km2": 735.184,"hist_schema_id": "Elevation0-9000","hist_area_km2": {"125": 16.7367,"150": 117.6934,"175": 204.0102,"200": 87.1043,"225": 81.916,"250": 46.9591,"275": 52.3455,"300": 78.4604,"325": 48.2624,"350": 1.696}}}