{"type":"Feature","properties":{"GID_2":"VEN.21.27_1","GID_0":"VEN","country":"Venezuela","GID_1":"VEN.21_1","province":"Táchira","NL_NAME_1":"NA","county":"Sucre","VARNAME_2":"NA","NL_NAME_2":"NA","TYPE_2":"Municipio","ENGTYPE_2":"Municipality","CC_2":"NA","HASC_2":"NA","name":"Sucre.county"},
"geometry":{"type": "MultiPolygon","coordinates": [[[[-72.0824,7.8663,1918.4172],[-72.0756,7.8471,1660.2593],[-72.0678,7.8358,1327.075],[-72.0632,7.8324,1389.0712],[-72.0557,7.8324,1640.3042],[-72.0446,7.8404,1996.2285],[-72.0359,7.8401,1868.2725],[-72.0283,7.8372,1836.46],[-72.021,7.8314,1358.032],[-72.0147,7.8233,959.0459],[-72.0028,7.801,952.6326],[-71.9956,7.7919,771.8282],[-71.9895,7.787,961.6335],[-71.9807,7.7834,851.1108],[-71.9598,7.7797,1013.4802],[-71.9536,7.7764,1216.2919],[-71.9497,7.7687,1225.1295],[-71.9449,7.7464,804.1656],[-71.9455,7.7358,1031.0104],[-71.94,7.7308,1077.6604],[-71.9338,7.7301,1211.0596],[-71.9242,7.7332,979.8117],[-71.8427,7.7714,758.7531],[-71.8302,7.7854,720.724],[-71.8205,7.7923,911.4468],[-71.8429,7.8083,854.0688],[-71.8673,7.8212,1612.2805],[-71.8827,7.8424,1266.5391],[-71.8899,7.85,1426.1099],[-71.8974,7.8538,1876.2056],[-71.9651,7.8616,2420.5396],[-71.9556,7.8828,1975.4559],[-71.9495,7.9017,1445.7661],[-71.9464,7.9277,2242.989],[-71.941,7.9408,2460.2827],[-71.9383,7.975,2852.5544],[-71.9397,7.9925,3429.209],[-71.9422,7.9975,3383.6797],[-71.9558,8.0095,2803.3286],[-71.9698,8.0196,3172.1721],[-71.9801,8.024,2864.1006],[-71.9941,8.0245,3453.4106],[-72.0049,8.0225,3226.0601],[-72.0139,8.0167,3010.7422],[-72.0213,8.0081,3072.073],[-72.0377,7.9816,2717.9155],[-72.0644,7.9504,2672.1731],[-72.0725,7.9372,2875.7649],[-72.0738,7.9294,3168.4937],[-72.0677,7.9274,2875.6355],[-72.0622,7.9214,3100.7122],[-72.0608,7.9179,2817.3906],[-72.061,7.9085,2405.7393],[-72.0653,7.89,2200.2539],[-72.0725,7.878,2125.7395],[-72.0824,7.8663,1918.4172]]]]}}