{"type":"Feature","properties":{"GID_2":"VEN.2.17_1","GID_0":"VEN","country":"Venezuela","GID_1":"VEN.2_1","province":"Anzoátegui","NL_NAME_1":"NA","county":"Monagas","VARNAME_2":"NA","NL_NAME_2":"NA","TYPE_2":"Municipio","ENGTYPE_2":"Municipality","CC_2":"NA","HASC_2":"NA","name":"Monagas.county"},
"geometry":{"type": "MultiPolygon","coordinates": [[[[-64.841,8.6136,195.2411],[-64.8502,8.6088,195.5478],[-64.8653,8.6088,204.036],[-64.8905,8.6115,204.1315],[-64.9477,8.6214,208.4121],[-64.9726,8.6235,156.267],[-64.9836,8.6262,147.688],[-65.0041,8.6341,138.9145],[-65.0144,8.6398,145.699],[-65.0408,8.6605,136.9369],[-65.0584,8.6701,137.1113],[-65.0651,8.6719,129.0933],[-65.0727,8.6723,125.1844],[-65.093,8.6669,141.6797],[-65.1074,8.6612,158.1514],[-65.1219,8.65,121.6744],[-65.1378,8.6311,111.4427],[-65.1448,8.6178,105.025],[-65.1484,8.6023,104.211],[-65.15,8.5769,92.2454],[-65.1495,8.5495,92.5383],[-65.1391,8.5296,98.6517],[-65.1315,8.5067,103.9656],[-65.1287,8.4825,117.1653],[-65.1307,8.472,112.1516],[-65.1411,8.4476,88.3505],[-65.1477,8.4368,84.4918],[-65.1614,8.4209,86.272],[-65.1686,8.4028,84.4303],[-65.1827,8.3501,83.7257],[-65.2079,8.2927,100.4674],[-65.2366,8.2515,88.0816],[-65.2475,8.2401,89.4941],[-65.2628,8.2149,99.3277],[-65.2811,8.1979,114.8905],[-65.2908,8.1833,100.2887],[-65.2946,8.1724,105.0591],[-65.3017,8.1606,106.2587],[-65.3126,8.149,114.5778],[-65.3411,8.127,94.4709],[-65.3486,8.1185,93.2147],[-65.3683,8.0824,79.6198],[-65.3691,8.0569,62.5735],[-65.4028,8.0341,65.4154],[-65.4099,8.0241,58.563],[-65.4221,7.9986,59.2015],[-65.4287,7.99,67.5476],[-65.474,7.9435,53.5895],[-65.4803,7.9313,35.284],[-65.4825,7.9236,32.8855],[-65.486,7.9031,39.5939],[-65.4868,7.8856,24.0],[-65.4824,7.8636,23.5],[-65.4761,7.8487,23.5],[-65.4691,7.8458,23.5],[-65.4281,7.8454,23.0],[-65.3936,7.8389,22.5],[-65.3774,7.8322,27.623],[-65.3519,7.816,22.5],[-65.3318,7.796,29.3233],[-65.3298,7.7451,43.9646],[-65.3221,7.7424,44.359],[-65.2945,7.7424,41.9164],[-65.247,7.7495,32.252],[-65.2288,7.7507,34.9426],[-65.2114,7.7481,34.558],[-65.1936,7.7387,33.4042],[-65.1661,7.7305,34.9109],[-65.1262,7.7309,34.9917],[-65.105,7.7345,32.1695],[-65.0968,7.7343,31.1569],[-65.0888,7.7319,28.7708],[-65.0825,7.7274,29.5231],[-65.0654,7.7102,23.1616],[-65.048,7.7026,26.6523],[-65.0206,7.6989,26.1512],[-65.0031,7.6856,23.4074],[-64.9872,7.6772,23.2955],[-64.9715,7.6628,25.4679],[-64.9511,7.6389,22.6827],[-64.9264,7.6162,21.2234],[-64.9034,7.6019,16.5],[-64.8871,7.5827,21.3543],[-64.8796,7.5796,23.0981],[-64.8595,7.5803,24.1977],[-64.8411,7.5767,31.1826],[-64.8356,7.5697,53.5195],[-64.8135,7.5761,64.8336],[-64.78,7.5982,101.4969],[-64.7481,7.6061,58.9662],[-64.7285,7.6079,61.3753],[-64.7204,7.6113,67.5847],[-64.702,7.626,61.0219],[-64.6803,7.6367,80.474],[-64.6593,7.6446,80.5384],[-64.6509,7.6526,53.1125],[-64.641,7.6683,27.7406],[-64.6319,7.6748,40.9445],[-64.6127,7.6819,57.1023],[-64.5858,7.6999,30.0553],[-64.5686,7.7038,32.0799],[-64.5347,7.7044,62.5705],[-64.5123,7.6969,68.0018],[-64.4902,7.6972,69.7321],[-64.4673,7.7051,69.682],[-64.4516,7.715,83.7116],[-64.4472,7.7208,93.3762],[-64.4444,7.7343,124.7191],[-64.4435,7.7438,106.6294],[-64.4466,7.7495,110.0946],[-64.4571,7.7581,97.9553],[-64.4655,7.7618,112.8523],[-64.476,7.7643,90.4425],[-64.4971,7.7663,30.649],[-64.5009,7.768,30.131],[-64.534,7.7898,24.1649],[-64.5398,7.7996,32.1068],[-64.5434,7.8126,52.0242],[-64.5432,7.844,34.9549],[-64.5471,7.8662,15.5],[-64.5459,7.8769,15.0],[-64.5416,7.8861,23.4798],[-64.5115,7.9193,15.0],[-64.4768,7.9408,21.0165],[-64.4696,7.9475,15.9852],[-64.4524,7.9551,19.971],[-64.4273,7.9574,13.7613],[-64.4131,7.9613,25.0946],[-64.4006,7.9606,45.1466],[-64.3882,7.9547,150.8909],[-64.3679,7.9363,77.5273],[-64.3533,7.9273,76.4134],[-64.3454,7.9258,64.2712],[-64.336,7.9294,79.4121],[-64.3298,7.9365,80.3491],[-64.3255,7.9447,61.629],[-64.3237,7.9499,48.2241],[-64.3247,7.9638,42.5539],[-64.3145,7.9909,26.277],[-64.2811,8.0343,21.0164],[-64.2685,8.0402,19.7514],[-64.2482,8.0438,21.0666],[-64.2423,8.0759,15.0],[-64.2442,8.0883,15.0],[-64.2534,8.1183,21.2688],[-64.2562,8.1379,27.5858],[-64.2685,8.1867,41.6879],[-64.2732,8.2134,60.6841],[-64.2833,8.2333,98.667],[-64.3015,8.2577,83.7138],[-64.3084,8.2707,66.7654],[-64.3163,8.2962,67.2596],[-64.3285,8.3118,63.7187],[-64.3776,8.3466,75.404],[-64.4047,8.3622,104.2327],[-64.4252,8.3765,132.4886],[-64.4863,8.4104,146.8178],[-64.5211,8.4251,169.2085],[-64.5296,8.4409,149.9273],[-64.5318,8.4483,150.1871],[-64.5361,8.4871,124.8754],[-64.5492,8.5395,133.9647],[-64.5538,8.5536,144.8388],[-64.5617,8.5644,148.9916],[-64.5739,8.5721,135.348],[-64.5824,8.5748,128.061],[-64.6271,8.587,142.2759],[-64.6505,8.5898,160.7625],[-64.7023,8.5928,190.417],[-64.7295,8.5898,179.8415],[-64.7655,8.5823,162.711],[-64.7942,8.5816,196.5274],[-64.8028,8.583,194.41],[-64.8099,8.5845,179.1232],[-64.8161,8.5881,185.2245],[-64.841,8.6136,195.2411]]]]}}