{"type": "Feature","bbox": [-68.8825,10.2542,-68.777,10.3837],"geometry": {"type": "MultiPolygon","coordinates": [[[[-68.8825,10.3582,1397.614],[-68.862,10.3474,1578.3463],[-68.8533,10.34,1156.7413],[-68.8327,10.3136,654.8558],[-68.8111,10.2922,424.5948],[-68.7942,10.26,283.3291],[-68.7888,10.2563,264.3066],[-68.777,10.2542,231.3916],[-68.7799,10.2623,250.9928],[-68.7799,10.2794,278.3101],[-68.7849,10.3015,366.5343],[-68.7935,10.3179,461.2065],[-68.8027,10.3492,961.5281],[-68.8084,10.3578,1143.5012],[-68.8134,10.3578,1363.5021],[-68.8184,10.3635,1684.2211],[-68.8268,10.3837,1542.7695],[-68.8469,10.366,1406.7405],[-68.8579,10.3614,1401.3973],[-68.8825,10.3582,1397.614]]]]}
,"properties": {"GID_2": "VEN.24.1_1","GID_0": "VEN","country": "Venezuela","GID_1": "VEN.24_1","province": "Yaracuy","NL_NAME_1": "NA","county": "ArístidesBastidas","VARNAME_2": "NA","NL_NAME_2": "NA","TYPE_2": "Municipio","ENGTYPE_2": "Municipality","CC_2": "NA","HASC_2": "NA","name": "Arístides_Bastidas.county","area_km2": 54.87971,"hist_schema_id": "Elevation0-9000","hist_area_km2": {"225": 0.04173,"250": 0.77194,"275": 2.16973,"300": 2.02364,"325": 1.83584,"350": 1.52288,"375": 1.66889,"400": 1.7523,"425": 1.39764,"450": 1.2099,"475": 1.25162,"500": 1.31418,"525": 1.04299,"550": 1.37673,"575": 1.29329,"600": 1.71047,"625": 0.68835,"650": 0.66749,"675": 0.43804,"700": 0.43804,"725": 0.39632,"750": 0.41717,"775": 0.54232,"800": 0.68833,"825": 0.58403,"850": 0.73004,"875": 0.73004,"900": 0.77176,"925": 0.7509,"950": 0.68832,"975": 0.58403,"1000": 0.31288,"1025": 0.43802,"1050": 0.3963,"1075": 0.37545,"1100": 0.43802,"1125": 0.3963,"1150": 0.37544,"1175": 0.50059,"1200": 0.58402,"1225": 0.45887,"1250": 0.5423,"1275": 0.52144,"1300": 0.58402,"1325": 0.66744,"1350": 0.87601,"1375": 0.89687,"1400": 0.70915,"1425": 0.83429,"1450": 0.64657,"1475": 0.91771,"1500": 0.87599,"1525": 1.08455,"1550": 1.12627,"1575": 1.31398,"1600": 0.98026,"1625": 1.54339,"1650": 1.27225,"1675": 0.75084,"1700": 0.77168,"1725": 0.83425,"1750": 0.87596,"1775": 0.47969}}}