{"type": "Feature","bbox": [-65.615,7.7451,-64.7778,8.976],"geometry": {"type": "MultiPolygon","coordinates": [[[[-64.7778,8.7045,211.6209],[-64.797,8.7115,213.5386],[-64.848,8.76,240.4648],[-64.8745,8.7744,216.4197],[-64.8906,8.7863,185.2817],[-64.9061,8.7921,169.639],[-64.9395,8.7894,160.0623],[-64.9568,8.7943,148.5266],[-64.9852,8.7929,145.1335],[-65.005,8.7952,144.0492],[-65.0319,8.7944,134.5839],[-65.0596,8.8073,150.7519],[-65.0699,8.8089,152.8376],[-65.0963,8.8059,139.7148],[-65.1259,8.7998,140.0996],[-65.1534,8.7977,140.4282],[-65.1875,8.7986,130.2588],[-65.2099,8.8064,136.9923],[-65.2185,8.8108,149.3022],[-65.2288,8.819,139.2628],[-65.2369,8.8282,132.3508],[-65.2472,8.8443,117.9573],[-65.272,8.8895,106.5652],[-65.2865,8.9395,99.8035],[-65.2903,8.9451,100.8007],[-65.3056,8.9414,84.6406],[-65.3125,8.9418,79.5106],[-65.3324,8.9519,84.9962],[-65.349,8.9616,93.0969],[-65.3595,8.9708,79.4458],[-65.3667,8.9738,86.0066],[-65.3819,8.976,89.9276],[-65.3896,8.9684,92.0867],[-65.3948,8.9566,92.804],[-65.4016,8.9094,88.4812],[-65.4067,8.9071,89.3856],[-65.4237,8.9186,96.6496],[-65.43,8.9173,93.9532],[-65.4574,8.8972,102.2426],[-65.4624,8.8912,103.9768],[-65.4851,8.8738,107.9163],[-65.5099,8.8113,121.6485],[-65.521,8.7938,141.3548],[-65.5287,8.7861,146.365],[-65.5549,8.7727,153.347],[-65.56,8.7652,177.3482],[-65.5742,8.7302,167.5418],[-65.5787,8.7088,150.3989],[-65.5862,8.6547,143.6678],[-65.5901,8.5999,145.6232],[-65.5886,8.5734,135.678],[-65.5848,8.5488,143.662],[-65.5839,8.5137,141.1299],[-65.581,8.4862,131.8657],[-65.5846,8.4777,127.944],[-65.6124,8.4568,114.0723],[-65.615,8.4486,109.9454],[-65.613,8.4387,112.361],[-65.5938,8.3841,103.5752],[-65.575,8.3486,116.361],[-65.5531,8.3243,97.3338],[-65.5357,8.3086,85.7763],[-65.5113,8.2794,90.9317],[-65.4786,8.2476,78.5109],[-65.4698,8.2302,75.6946],[-65.4663,8.2187,72.6911],[-65.4616,8.1888,70.4961],[-65.4605,8.1598,80.7306],[-65.4698,8.1274,76.3045],[-65.4773,8.0904,87.2661],[-65.5003,8.039,67.8557],[-65.5175,7.9808,34.084],[-65.5172,7.9339,31.2158],[-65.5189,7.9217,32.2415],[-65.5225,7.9112,29.3791],[-65.5359,7.8905,25.1379],[-65.556,7.8697,27.6678],[-65.5629,7.8584,31.2979],[-65.5659,7.841,34.1184],[-65.5684,7.7917,48.2853],[-65.552,7.7879,63.8111],[-65.5004,7.7845,49.4803],[-65.4594,7.772,47.7454],[-65.4212,7.7693,46.2919],[-65.3983,7.7605,43.7244],[-65.3838,7.7575,30.1288],[-65.3597,7.7559,47.7512],[-65.3298,7.7451,43.9646],[-65.3318,7.796,29.3233],[-65.3519,7.816,22.5],[-65.3774,7.8322,27.623],[-65.3936,7.8389,22.5],[-65.4281,7.8454,23.0],[-65.4691,7.8458,23.5],[-65.4761,7.8487,23.5],[-65.4824,7.8636,23.5],[-65.4868,7.8856,24.0],[-65.486,7.9031,39.5939],[-65.4825,7.9236,32.8855],[-65.4803,7.9313,35.284],[-65.474,7.9435,53.5895],[-65.4345,7.9834,57.1278],[-65.4221,7.9986,59.2015],[-65.4099,8.0241,58.563],[-65.4028,8.0341,65.4154],[-65.3691,8.0569,62.5735],[-65.3683,8.0824,79.6198],[-65.3486,8.1185,93.2147],[-65.3411,8.127,94.4709],[-65.3126,8.149,114.5778],[-65.3017,8.1606,106.2587],[-65.2946,8.1724,105.0591],[-65.2908,8.1833,100.2887],[-65.2811,8.1979,114.8905],[-65.2628,8.2149,99.3277],[-65.2475,8.2401,89.4941],[-65.2366,8.2515,88.0816],[-65.2079,8.2927,100.4674],[-65.1827,8.3501,83.7257],[-65.1686,8.4028,84.4303],[-65.1614,8.4209,86.272],[-65.1477,8.4368,84.4918],[-65.1411,8.4476,88.3505],[-65.1307,8.472,112.1516],[-65.1287,8.4825,117.1653],[-65.1315,8.5067,103.9656],[-65.1391,8.5296,98.6517],[-65.1495,8.5495,92.5383],[-65.15,8.5769,92.2454],[-65.1484,8.6023,104.211],[-65.1448,8.6178,105.025],[-65.1378,8.6311,111.4427],[-65.1219,8.65,121.6744],[-65.1074,8.6612,158.1514],[-65.093,8.6669,141.6797],[-65.0727,8.6723,125.1844],[-65.0651,8.6719,129.0933],[-65.0584,8.6701,137.1113],[-65.0408,8.6605,136.9369],[-65.0144,8.6398,145.699],[-65.0041,8.6341,138.9145],[-64.9836,8.6262,147.688],[-64.9726,8.6235,156.267],[-64.9477,8.6214,208.4121],[-64.8905,8.6115,204.1315],[-64.8653,8.6088,204.036],[-64.8502,8.6088,195.5478],[-64.8412,8.6134,195.2411],[-64.8186,8.6401,195.8035],[-64.7861,8.6895,212.5543],[-64.7778,8.7045,211.6209]]]]}
,"properties": {"GID_2": "VEN.13.14_1","GID_0": "VEN","country": "Venezuela","GID_1": "VEN.13_1","province": "Guárico","NL_NAME_1": "NA","county": "SantaMaríadeIpire","VARNAME_2": "NA","NL_NAME_2": "NA","TYPE_2": "Municipio","ENGTYPE_2": "Municipality","CC_2": "NA","HASC_2": "NA","name": "Santa_Maríade_Ipire.county","area_km2": 4568.011,"hist_schema_id": "Elevation0-9000","hist_area_km2": {"25": 132.292,"50": 385.865,"75": 662.13,"100": 1097.732,"125": 1247.191,"150": 669.683,"175": 170.839,"200": 90.71,"225": 96.1,"250": 15.469}}}