{"type": "Feature","bbox": [-65.9201,1.4941,-63.3723,4.4],"geometry": {"type": "MultiPolygon","coordinates": [[[[-63.3723,2.2117,1036.0255],[-63.4012,2.2456,1022.3235],[-63.4027,2.253,999.4995],[-63.3978,2.2743,931.1609],[-63.4014,2.2966,1000.6792],[-63.4255,2.3642,763.5427],[-63.4223,2.3785,816.5388],[-63.3948,2.4071,849.3102],[-63.3959,2.4261,904.0465],[-63.4068,2.4359,982.924],[-63.4459,2.4424,965.5775],[-63.4999,2.436,883.3605],[-63.5908,2.4149,722.939],[-63.6559,2.3939,808.8433],[-63.6887,2.388,684.8399],[-63.7279,2.3862,914.7665],[-63.7808,2.3912,1001.5968],[-63.834,2.4081,1162.3086],[-63.8678,2.4245,1053.2743],[-63.8939,2.4318,1000.3488],[-63.9612,2.4546,1160.6732],[-63.978,2.4675,1233.4377],[-63.9883,2.4649,1207.6072],[-64.0005,2.4782,1267.7791],[-64.0056,2.478,1182.4343],[-64.0125,2.4697,1269.765],[-64.0208,2.4665,1303.0308],[-64.0249,2.4718,1233.453],[-64.032,2.4722,1249.7139],[-64.0302,2.4818,1235.8739],[-64.038,2.4868,1279.1519],[-64.0388,2.494,1179.5438],[-64.0561,2.4977,1262.1177],[-64.0588,2.5024,1215.8674],[-64.0572,2.5129,1191.6886],[-64.0454,2.5325,1177.4727],[-64.0489,2.5486,1227.459],[-64.0444,2.5588,1212.3884],[-64.0444,2.5732,1262.0482],[-64.0391,2.5785,1262.0466],[-64.0337,2.5749,1353.1775],[-64.0291,2.576,1429.0276],[-64.0244,2.5907,1336.9962],[-64.0091,2.6082,1317.9619],[-64.0099,2.6202,1371.1439],[-63.9916,2.6362,1307.4298],[-63.9849,2.6485,1360.3176],[-63.9844,2.6596,1241.7998],[-63.9914,2.6701,1325.5752],[-63.9872,2.6743,1331.5802],[-63.9855,2.686,1291.1769],[-64.0018,2.6996,1324.3047],[-64.0036,2.7071,1276.6775],[-63.9897,2.7165,1287.858],[-63.9827,2.7174,1269.5574],[-63.9866,2.7307,1310.3699],[-63.9997,2.7402,1208.6349],[-63.9991,2.7599,1311.4486],[-63.9944,2.7643,1194.5817],[-63.9938,2.7699,1224.9457],[-64.0045,2.7729,1292.7648],[-64.0094,2.7782,1191.4874],[-64.0094,2.7871,1270.0668],[-64.0141,2.7954,1217.1774],[-64.0147,2.8066,1372.6818],[-64.0105,2.8113,1308.3844],[-64.0133,2.819,1241.5417],[-64.0472,2.8363,1327.4006],[-64.0577,2.8504,1440.2202],[-64.0669,2.8796,1326.7433],[-64.0716,2.9376,1297.4429],[-64.1024,2.9515,1389.5573],[-64.1113,2.9604,1367.4771],[-64.1249,2.9804,1271.5079],[-64.1305,3.0043,1264.2423],[-64.1608,3.0327,1191.6726],[-64.178,3.0632,1193.5414],[-64.2205,3.0957,1437.5042],[-64.2352,3.1143,1220.3204],[-64.2336,3.1299,1214.7764],[-64.2191,3.1526,1341.7272],[-64.2108,3.1721,1217.0601],[-64.2083,3.1888,1238.4271],[-64.2138,3.2232,1084.0789],[-64.2138,3.2463,1143.4663],[-64.2413,3.3149,684.8726],[-64.2344,3.384,560.8302],[-64.2491,3.399,388.6415],[-64.2552,3.411,471.6234],[-64.2519,3.4279,539.9211],[-64.2399,3.4429,635.3386],[-64.2027,3.4771,630.4903],[-64.1899,3.4949,621.3722],[-64.1844,3.4893,643.3728],[-64.1869,3.4996,606.6775],[-64.1838,3.5379,626.6464],[-64.1858,3.5596,647.2648],[-64.2061,3.5904,778.4366],[-64.2444,3.6249,714.7644],[-64.2577,3.6476,711.4747],[-64.2758,3.6613,820.8043],[-64.2811,3.6693,858.78],[-64.2891,3.6996,1081.4868],[-64.328,3.7204,1070.2717],[-64.3427,3.7349,1139.0312],[-64.39,3.7596,1282.2932],[-64.4091,3.7657,1279.1084],[-64.4286,3.7799,1325.8953],[-64.4475,3.784,1382.3273],[-64.4725,3.7815,1364.1375],[-64.4855,3.7874,991.117],[-64.5055,3.8098,857.7388],[-64.5245,3.8419,865.7529],[-64.553,3.8636,1429.5775],[-64.5684,3.8817,1342.7659],[-64.5802,3.9283,1215.3947],[-64.6199,3.9513,1356.4298],[-64.634,3.975,1655.8904],[-64.6507,3.9919,1385.1665],[-64.6739,4.0046,1356.2764],[-64.6752,4.0123,1468.344],[-64.6808,4.0163,1406.3657],[-64.6839,4.0401,1438.4932],[-64.7086,4.0665,1402.9769],[-64.7169,4.0887,1386.291],[-64.8089,4.0581,1291.5481],[-64.9343,4.0353,1051.5035],[-65.0653,4.041,1165.9978],[-65.1508,4.0695,1298.2192],[-65.2591,4.1094,1150.6494],[-65.2933,4.172,1042.457],[-65.3047,4.2518,1336.0045],[-65.3503,4.3373,1107.4294],[-65.413,4.3886,1418.3459],[-65.4699,4.4,1003.7404],[-65.5212,4.4,1129.0032],[-65.5554,4.3031,1037.2781],[-65.5611,4.1549,580.6144],[-65.5896,4.1322,502.3572],[-65.6466,4.1549,572.6837],[-65.7264,4.1549,468.9481],[-65.7509,4.1481,406.0442],[-65.8802,3.9498,419.7898],[-65.9201,3.8814,382.5154],[-65.9201,3.8073,435.5341],[-65.8973,3.7731,406.6259],[-65.829,3.6421,227.5988],[-65.7777,3.5908,646.995],[-65.7492,3.5053,522.439],[-65.7663,3.3628,488.5911],[-65.7663,3.1121,124.8142],[-65.7492,3.0893,123.451],[-65.715,3.0494,127.898],[-65.658,3.0323,151.7202],[-65.6352,3.0437,134.1215],[-65.601,3.0209,140.5139],[-65.6238,2.9639,144.4143],[-65.6409,2.9468,147.1822],[-65.658,2.924,153.5433],[-65.658,2.8841,174.6969],[-65.6409,2.7987,162.6704],[-65.6202,2.7369,147.0518],[-65.6215,2.7454,156.7355],[-65.5601,2.7478,146.784],[-65.5032,2.7478,155.8879],[-65.4462,2.7136,169.9743],[-65.4348,2.6737,168.9668],[-65.4177,2.6281,220.6874],[-65.4177,2.5882,261.6794],[-65.3892,2.5028,487.9943],[-65.3379,2.4458,237.8633],[-65.2752,2.3945,236.8551],[-65.3094,2.195,270.773],[-65.3322,1.9728,201.918],[-65.3778,1.8702,596.4186],[-65.4604,1.6024,810.2994],[-65.449,1.571,775.7891],[-65.4262,1.5511,579.9774],[-65.4063,1.5226,596.4011],[-65.392,1.5083,592.063],[-65.3664,1.4941,545.7547],[-65.3037,1.4941,512.2993],[-65.2524,1.5055,612.4626],[-65.1783,1.5254,523.9557],[-65.147,1.5824,538.7053],[-65.0843,1.6593,515.5895],[-65.0159,1.6964,555.2714],[-64.654,1.9186,873.3273],[-64.617,1.9642,599.3257],[-64.6028,1.9984,769.5686],[-64.5828,2.0013,554.6651],[-64.56,1.9956,748.7489],[-64.5287,1.9614,543.1086],[-64.5201,1.95,695.0236],[-64.5059,1.9357,773.5416],[-64.4831,1.93,706.4933],[-64.4603,1.9329,601.7026],[-64.4005,1.9557,599.6969],[-64.3777,1.9671,630.7671],[-64.315,1.9671,586.1833],[-64.2352,1.9614,589.1104],[-64.2038,1.9614,595.4352],[-64.144,1.95,568.5038],[-64.1041,1.9471,596.2604],[-64.0614,1.9249,676.3844],[-64.0619,1.9307,617.4047],[-64.0452,1.9341,597.4988],[-64.0416,1.9427,582.8683],[-64.0191,1.9513,603.9176],[-64.018,1.9588,581.0792],[-64.0113,1.9624,594.0088],[-64.0016,1.9749,584.9209],[-63.9955,1.9799,571.9171],[-63.9874,1.9791,592.4038],[-63.9755,1.9913,594.6661],[-63.9677,1.9882,599.4096],[-63.9613,1.9924,589.9548],[-63.9541,1.9882,590.0734],[-63.9385,1.9893,580.4374],[-63.9227,1.9829,587.2411],[-63.9066,1.9915,594.7927],[-63.8985,1.9924,611.1576],[-63.8908,1.9893,606.7778],[-63.8877,1.9824,610.2023],[-63.8541,1.9785,613.6569],[-63.846,1.964,606.7686],[-63.8297,1.9682,604.2772],[-63.8238,1.991,639.215],[-63.7999,1.9874,625.1043],[-63.7849,1.9815,618.4254],[-63.7774,1.9851,611.9758],[-63.7688,1.9996,613.206],[-63.7602,2.0041,605.9998],[-63.7519,1.996,663.4555],[-63.7405,1.9996,716.1985],[-63.7427,2.0085,628.6375],[-63.7391,2.0163,605.6215],[-63.731,2.0179,591.3816],[-63.7283,2.0262,588.3434],[-63.7033,2.0462,584.6182],[-63.6938,2.041,583.2101],[-63.6885,2.0315,606.2841],[-63.6922,2.0232,597.6407],[-63.6749,2.0213,605.8395],[-63.668,2.0169,608.211],[-63.6622,2.0235,599.9261],[-63.6608,2.0332,566.303],[-63.6649,2.0574,597.6858],[-63.6622,2.0654,590.7589],[-63.6538,2.068,574.6089],[-63.6449,2.0649,589.9495],[-63.638,2.0692,614.8538],[-63.6305,2.0846,606.4153],[-63.6227,2.0891,612.8127],[-63.6185,2.0963,616.8041],[-63.6174,2.1065,615.0283],[-63.6066,2.1073,606.3788],[-63.5944,2.1202,637.3069],[-63.5855,2.1196,665.3339],[-63.5688,2.1246,607.3076],[-63.5619,2.1323,649.4392],[-63.5363,2.131,621.4614],[-63.5144,2.1209,765.6272],[-63.5094,2.1135,714.428],[-63.4924,2.1154,787.3408],[-63.4755,2.1266,923.574],[-63.4743,2.1379,992.3824],[-63.4666,2.141,1007.2158],[-63.4441,2.1251,928.2084],[-63.4341,2.1263,940.2733],[-63.4277,2.1352,966.2395],[-63.423,2.1324,950.0452],[-63.4191,2.133,943.6698],[-63.4058,2.1443,970.3961],[-63.3977,2.1469,946.2978],[-63.3938,2.1568,978.526],[-63.3944,2.1657,1025.7164],[-63.3888,2.183,1032.0227],[-63.3952,2.1885,1137.2838],[-63.3952,2.1996,1130.0032],[-63.3723,2.2117,1036.0255]]]]}
,"properties": {"GID_2": "VEN.1.1_1","GID_0": "VEN","country": "Venezuela","GID_1": "VEN.1_1","province": "Amazonas","NL_NAME_1": "NA","county": "AltoOrinoco","VARNAME_2": "NA","NL_NAME_2": "NA","TYPE_2": "Municipio","ENGTYPE_2": "Municipality","CC_2": "NA","HASC_2": "NA","name": "Alto_Orinoco.county","area_km2": 43956.42,"hist_schema_id": "Elevation0-9000","hist_area_km2": {"100": 16.45,"125": 819.65,"150": 4182.91,"175": 5620.69,"200": 2690.53,"225": 1327.28,"250": 915.82,"275": 759.71,"300": 687.24,"325": 667.43,"350": 624.75,"375": 634.9,"400": 638.41,"425": 646.81,"450": 705.11,"475": 746.04,"500": 738.9,"525": 739.98,"550": 804.95,"575": 1024.67,"600": 1242.71,"625": 941.39,"650": 589.58,"675": 515.98,"700": 507.63,"725": 521.18,"750": 535.66,"775": 567.38,"800": 613.68,"825": 669.25,"850": 741.85,"875": 803.44,"900": 767.62,"925": 693.87,"950": 667.84,"975": 680.67,"1000": 676.61,"1025": 649.0,"1050": 622.68,"1075": 592.36,"1100": 573.1,"1125": 531.08,"1150": 496.14,"1175": 458.44,"1200": 387.05,"1225": 337.66,"1250": 300.98,"1275": 268.07,"1300": 236.76,"1325": 205.64,"1350": 181.12,"1375": 169.09,"1400": 153.0,"1425": 122.64,"1450": 91.6,"1475": 78.35,"1500": 66.12,"1525": 55.76,"1550": 49.54,"1575": 40.93,"1600": 36.69,"1625": 36.57,"1650": 35.24,"1675": 29.56,"1700": 26.88,"1725": 24.8,"1750": 21.92,"1775": 20.72,"1800": 19.68,"1825": 18.86,"1850": 19.6,"1875": 18.26,"1900": 16.04,"1925": 14.28,"1950": 15.45,"1975": 16.8,"2000": 18.39,"2025": 18.98,"2050": 20.36,"2075": 15.79,"2100": 11.13,"2125": 8.4,"2150": 7.11,"2175": 5.97,"2200": 5.88,"2225": 5.71,"2250": 3.91,"2275": 3.3,"2300": 3.19,"2325": 2.64,"2350": 2.96,"2375": 2.33,"2400": 2.09,"2425": 1.65,"2450": 1.54,"2475": 1.99,"2500": 1.8,"2525": 2.54,"2550": 3.0,"2575": 3.64,"2600": 4.93,"2625": 5.08,"2650": 6.24,"2675": 4.51,"2700": 3.51,"2725": 4.08,"2750": 3.75,"2775": 1.65,"2800": 1.18}}}