{"type":"Feature","properties":{"GID_2":"VEN.22.18_1","GID_0":"VEN","country":"Venezuela","GID_1":"VEN.22_1","province":"Trujillo","NL_NAME_1":"NA","county":"Trujillo","VARNAME_2":"NA","NL_NAME_2":"NA","TYPE_2":"Municipio","ENGTYPE_2":"Municipality","CC_2":"NA","HASC_2":"NA","name":"Trujillo.county"},
"geometry":{"type": "MultiPolygon","coordinates": [[[[-70.3196,9.4718,1767.0784],[-70.3404,9.4617,1715.7554],[-70.3449,9.4611,1455.2983],[-70.3496,9.4638,1343.8009],[-70.3559,9.4733,1596.5339],[-70.3597,9.4748,1399.2894],[-70.396,9.4745,768.5451],[-70.4028,9.479,675.88],[-70.4136,9.4742,862.7067],[-70.4243,9.4731,873.7501],[-70.4204,9.4658,1099.8843],[-70.4208,9.4591,1142.6271],[-70.4518,9.4569,822.8354],[-70.4553,9.4441,620.5829],[-70.445,9.4309,683.6557],[-70.4521,9.4131,737.4162],[-70.4539,9.4124,737.4162],[-70.5073,9.4242,570.8143],[-70.5144,9.4135,409.8439],[-70.518,9.4035,306.9376],[-70.5283,9.4028,306.2867],[-70.5372,9.4039,280.8648],[-70.5444,9.4158,258.0692],[-70.5544,9.4015,328.3657],[-70.5594,9.3825,447.4425],[-70.5594,9.3674,434.7751],[-70.5566,9.3595,430.776],[-70.5502,9.3515,405.8398],[-70.5495,9.3444,419.477],[-70.5513,9.3393,442.4378],[-70.5543,9.3366,444.5453],[-70.5367,9.3324,724.7028],[-70.5238,9.3265,1093.3311],[-70.5137,9.3135,1315.0427],[-70.4996,9.2859,1181.2233],[-70.4892,9.2772,1067.7712],[-70.4776,9.2633,1371.0056],[-70.4659,9.2574,2008.7098],[-70.4456,9.2518,2128.0989],[-70.4227,9.2533,1947.952],[-70.4093,9.2575,2615.3755],[-70.4042,9.2611,2322.4351],[-70.4006,9.2667,2122.8472],[-70.3891,9.2947,2171.5906],[-70.3723,9.3205,1690.5254],[-70.3508,9.3417,1948.3247],[-70.3446,9.3445,1889.0872],[-70.3348,9.3572,1526.649],[-70.3185,9.3702,2281.4727],[-70.3165,9.38,2136.2505],[-70.3101,9.3835,2629.8608],[-70.2898,9.4005,2339.4702],[-70.2837,9.4106,2017.265],[-70.2826,9.4165,2032.4229],[-70.2838,9.4197,1932.4432],[-70.2912,9.4349,1763.3568],[-70.3036,9.4524,2067.7583],[-70.3046,9.4645,2075.7251],[-70.3086,9.469,2149.4619],[-70.3196,9.4718,1767.0784]]]]}}