{"type":"Feature","properties":{"GID_2":"VEN.25.15_1","GID_0":"VEN","country":"Venezuela","GID_1":"VEN.25_1","province":"Zulia","NL_NAME_1":"NA","county":"Miranda","VARNAME_2":"NA","NL_NAME_2":"NA","TYPE_2":"Municipio","ENGTYPE_2":"Municipality","CC_2":"NA","HASC_2":"NA","name":"Miranda.county"},
"geometry":{"type": "MultiPolygon","coordinates": [[[[-71.2356,10.9523,8.9683],[-71.2557,10.9826,0.0],[-71.2615,10.9799,0.0],[-71.2799,10.9779,0.0],[-71.2899,10.9732,2.5555],[-71.3074,10.9707,0.0],[-71.3185,10.966,0.4659],[-71.3207,10.9635,0.8285],[-71.3274,10.9626,0.0],[-71.3329,10.9599,0.0],[-71.3674,10.9618,0.6551],[-71.3712,10.9635,0.0],[-71.4137,10.9682,0.0],[-71.4279,10.9668,3.973],[-71.4362,10.9682,0.0],[-71.4499,10.9632,1.1083],[-71.4474,10.9626,1.1356],[-71.4399,10.9651,1.2062],[-71.4463,10.9621,1.1356],[-71.4512,10.9624,1.2868],[-71.4538,10.9604,-0.8048],[-71.4507,10.9607,-0.1301],[-71.4571,10.9587,1.9613],[-71.4604,10.956,0.0],[-71.4549,10.9546,0.0],[-71.4501,10.9563,1.072],[-71.4518,10.9546,0.0],[-71.4576,10.9538,0.0],[-71.4612,10.9551,0.8856],[-71.4729,10.9532,0.3097],[-71.4807,10.9507,0.0],[-71.4849,10.9468,7.1512],[-71.4885,10.946,4.8629],[-71.4868,10.9401,0.0],[-71.4801,10.9326,4.3462],[-71.4771,10.9332,4.5201],[-71.4762,10.9315,2.091],[-71.4726,10.9312,15.3966],[-71.4715,10.9279,7.2785],[-71.4676,10.9246,3.0874],[-71.459,10.9201,5.1717],[-71.4563,10.9146,0.0],[-71.4451,10.9074,8.4795],[-71.441,10.9074,10.161],[-71.4413,10.9035,0.0],[-71.4385,10.9021,17.3929],[-71.4262,10.901,3.9789],[-71.4207,10.9063,0.0],[-71.4126,10.9093,0.0],[-71.411,10.9132,6.8811],[-71.4085,10.9135,15.0399],[-71.4115,10.9057,11.5691],[-71.4165,10.9038,0.0],[-71.4168,10.8932,15.2121],[-71.424,10.8837,18.068],[-71.4293,10.8824,3.7949],[-71.4371,10.8829,7.9415],[-71.4421,10.8796,6.2305],[-71.4454,10.8796,7.2139],[-71.4476,10.8751,20.1869],[-71.4476,10.8643,12.2236],[-71.4449,10.8526,3.3482],[-71.4379,10.8376,7.7749],[-71.4332,10.8226,7.0633],[-71.4337,10.8165,0.0],[-71.4318,10.8049,1.2776],[-71.4332,10.7946,1.7445],[-71.4496,10.791,1.4472],[-71.479,10.7971,0.0],[-71.514,10.7993,0.0],[-71.5329,10.7965,12.4068],[-71.5368,10.7976,0.0],[-71.5393,10.796,6.9738],[-71.5476,10.7971,0.0],[-71.5529,10.7951,5.0543],[-71.5571,10.7965,2.0869],[-71.564,10.796,0.0],[-71.5693,10.7932,2.8483],[-71.579,10.794,0.0],[-71.5857,10.7979,0.0],[-71.5874,10.7946,4.5099],[-71.5912,10.7918,3.0595],[-71.5904,10.7851,0.0],[-71.566,10.7779,0.6695],[-71.5621,10.7732,0.5761],[-71.5612,10.7632,0.0],[-71.5537,10.7626,1.1483],[-71.554,10.7585,0.0],[-71.5488,10.7624,3.2317],[-71.539,10.7596,0.6451],[-71.536,10.7546,2.9712],[-71.5429,10.7488,0.0],[-71.544,10.7446,3.6557],[-71.5407,10.7404,0.0],[-71.5329,10.7379,2.1541],[-71.5326,10.734,0.0],[-71.529,10.7324,0.851],[-71.5232,10.7243,5.7493],[-71.5257,10.7151,5.6568],[-71.5304,10.709,0.0],[-71.5304,10.7046,0.0],[-71.5229,10.699,4.5626],[-71.5218,10.6935,4.3321],[-71.526,10.6857,7.7728],[-71.5307,10.6818,0.0],[-71.5304,10.6735,0.0],[-71.5332,10.6699,1.8844],[-71.5282,10.6626,0.0],[-71.5229,10.659,1.3733],[-71.5212,10.6546,0.5108],[-71.5218,10.6507,2.8767],[-71.5284,10.6381,2.6397],[-71.5247,10.6369,2.1501],[-71.5084,10.6405,9.6737],[-71.504,10.6393,8.7256],[-71.4988,10.6326,3.7717],[-71.4953,10.632,7.1127],[-71.4881,10.6351,8.2497],[-71.4699,10.6313,6.7427],[-71.45,10.6355,13.8279],[-71.4431,10.6345,20.5627],[-71.4365,10.6306,16.5687],[-71.4294,10.629,12.8391],[-71.4082,10.6366,13.0555],[-71.3905,10.6454,18.9698],[-71.3839,10.6461,20.5835],[-71.3801,10.6443,20.1758],[-71.3715,10.6187,18.008],[-71.3626,10.6105,23.3065],[-71.3532,10.6067,30.4338],[-71.3118,10.5955,32.172],[-71.2995,10.5903,48.6558],[-71.2846,10.5778,56.2748],[-71.2671,10.56,89.7697],[-71.2549,10.5541,67.4718],[-71.2142,10.5396,92.1625],[-71.1673,10.5023,115.1527],[-71.1634,10.4967,118.8841],[-71.162,10.4806,115.9333],[-71.0248,10.4572,177.1745],[-70.9701,10.4555,235.0557],[-70.9514,10.4569,239.2327],[-70.9213,10.4626,270.4253],[-70.9257,10.4642,254.3514],[-70.9326,10.4699,242.5308],[-70.9499,10.4872,229.8742],[-70.9865,10.5015,156.5437],[-70.9973,10.5099,157.4862],[-71.003,10.5225,165.632],[-71.0145,10.5683,119.1028],[-71.0267,10.6005,133.276],[-71.0356,10.619,125.8346],[-71.062,10.6592,125.7671],[-71.0664,10.6723,85.0462],[-71.0735,10.732,47.4793],[-71.0817,10.7562,39.7001],[-71.0987,10.7832,36.6988],[-71.1153,10.8035,33.1427],[-71.1709,10.8604,22.444],[-71.1831,10.8768,20.1241],[-71.1934,10.8945,16.9231],[-71.2356,10.9523,8.9683]]],
[[[-71.4868,10.9349,0.0],[-71.4868,10.9385,0.0],[-71.4918,10.9382,2.4174],[-71.4943,10.9343,0.0],[-71.4943,10.9279,0.0],[-71.4871,10.9265,0.0],[-71.4837,10.9318,6.4269],[-71.4868,10.9349,0.0]]],
[[[-71.4896,10.9413,8.4308],[-71.4938,10.9418,7.2751],[-71.4918,10.9393,4.6368],[-71.4893,10.9399,5.3314],[-71.4896,10.9413,8.4308]]],
[[[-71.5062,10.9446,1.2377],[-71.5085,10.9449,5.6147],[-71.5113,10.9426,1.3154],[-71.5135,10.9376,3.9011],[-71.5121,10.9332,4.4584],[-71.5135,10.934,5.0375],[-71.5135,10.9315,0.0],[-71.5101,10.931,1.1923],[-71.5079,10.9335,0.8543],[-71.5024,10.9332,0.0],[-71.4987,10.936,0.0],[-71.499,10.9396,2.1283],[-71.5107,10.941,4.3575],[-71.5101,10.9426,1.3154],[-71.5068,10.9429,3.1831],[-71.5015,10.9407,4.8432],[-71.5062,10.9432,3.1831],[-71.5062,10.9446,1.2377]]],
[[[-71.4907,10.9465,1.3463],[-71.4946,10.9465,4.2725],[-71.4971,10.9435,2.3549],[-71.4887,10.9424,1.7845],[-71.4882,10.9443,0.0],[-71.4907,10.9465,1.3463]]],
[[[-71.4832,10.9513,0.0],[-71.4943,10.9515,0.0],[-71.5021,10.9493,2.3085],[-71.5032,10.9465,0.9157],[-71.5004,10.9443,2.8795],[-71.4921,10.9479,0.8262],[-71.4879,10.9465,4.8629],[-71.4832,10.9496,3.6989],[-71.4896,10.9496,2.6014],[-71.4938,10.9476,1.6508],[-71.4999,10.9482,3.8448],[-71.4832,10.9513,0.0]]]]}}