{"type": "Feature","bbox": [-65.7021,9.3565,-64.949,9.8371],"geometry": {"type": "MultiPolygon","coordinates": [[[[-64.9749,9.7381,51.808],[-64.949,9.7906,73.2806],[-65.1022,9.792,17.5341],[-65.1069,9.8371,21.4267],[-65.111,9.8321,17.968],[-65.1136,9.8331,14.1328],[-65.1174,9.8274,18.0319],[-65.1194,9.8186,23.3254],[-65.1193,9.7899,13.7542],[-65.124,9.7806,18.2756],[-65.1304,9.7754,17.6838],[-65.1464,9.7697,29.8112],[-65.1875,9.7621,69.7941],[-65.1991,9.7574,90.2063],[-65.2126,9.7491,57.9501],[-65.2277,9.7451,65.5791],[-65.2502,9.7447,83.9086],[-65.2615,9.7417,76.8243],[-65.2865,9.7233,69.7639],[-65.2911,9.7172,81.7933],[-65.293,9.6985,82.9609],[-65.2959,9.6915,76.8195],[-65.3068,9.6893,83.4542],[-65.3175,9.6919,83.0517],[-65.3644,9.6911,82.5036],[-65.3714,9.6927,82.2888],[-65.3711,9.6995,76.9503],[-65.3624,9.7133,67.1688],[-65.3604,9.7198,63.0033],[-65.3598,9.7302,67.0392],[-65.3646,9.7498,59.5404],[-65.3772,9.7584,64.3105],[-65.3885,9.7613,56.2939],[-65.4301,9.7603,77.8828],[-65.4365,9.7625,77.2075],[-65.4428,9.7664,71.0292],[-65.4626,9.7861,88.7659],[-65.4701,9.7912,114.7931],[-65.6885,9.7894,198.2425],[-65.6978,9.7605,171.1023],[-65.7021,9.7352,182.4054],[-65.7014,9.7229,163.9073],[-65.6974,9.711,180.2953],[-65.6663,9.6674,170.2172],[-65.6088,9.6234,166.52],[-65.5764,9.604,161.496],[-65.5422,9.5762,116.8748],[-65.5232,9.5683,111.2779],[-65.5143,9.5709,104.2173],[-65.5046,9.5764,116.4402],[-65.4721,9.6137,123.3321],[-65.4562,9.6254,125.2035],[-65.4314,9.639,107.3917],[-65.4175,9.6421,107.6465],[-65.41,9.6402,114.7943],[-65.3827,9.6117,84.3122],[-65.368,9.5987,83.3333],[-65.3523,9.5877,74.1937],[-65.326,9.5601,61.6241],[-65.318,9.554,54.7225],[-65.2951,9.542,45.3355],[-65.2478,9.5262,41.8127],[-65.208,9.5065,21.9375],[-65.1995,9.4995,28.5533],[-65.1911,9.4885,32.5548],[-65.1858,9.4747,45.8896],[-65.18,9.4496,45.5598],[-65.181,9.4392,32.4657],[-65.1866,9.433,32.2611],[-65.1515,9.4268,40.4038],[-65.1349,9.4214,39.9072],[-65.12,9.4141,45.1772],[-65.1101,9.4073,47.4952],[-65.0928,9.3895,57.1982],[-65.0798,9.3685,62.3484],[-65.0731,9.3605,69.2026],[-65.0658,9.3565,76.8624],[-65.0629,9.3576,71.0369],[-65.0603,9.3614,70.2865],[-65.0594,9.3762,63.7868],[-65.0583,9.563,93.3227],[-65.0454,9.5952,88.3554],[-64.9749,9.7381,51.808]]]]}
,"properties": {"GID_2": "VEN.2.5_1","GID_0": "VEN","country": "Venezuela","GID_1": "VEN.2_1","province": "Anzoátegui","NL_NAME_1": "NA","county": "Cajigal","VARNAME_2": "NA","NL_NAME_2": "NA","TYPE_2": "Municipio","ENGTYPE_2": "Municipality","CC_2": "NA","HASC_2": "NA","name": "Cajigal.county","area_km2": 1793.798,"hist_schema_id": "Elevation0-9000","hist_area_km2": {"0": 4.241,"25": 340.618,"50": 477.765,"75": 348.396,"100": 199.122,"125": 178.506,"150": 169.454,"175": 69.72,"200": 5.977}}}