{"type": "Feature","bbox": [-69.437,11.1202,-69.1869,11.5149],"geometry": {"type": "MultiPolygon","coordinates": [[[[-69.3904,11.1407,174.4615],[-69.3767,11.1363,121.6203],[-69.3083,11.133,68.5566],[-69.2195,11.1202,54.2835],[-69.1943,11.1211,54.374],[-69.1928,11.1243,52.9715],[-69.2028,11.1626,44.7919],[-69.2045,11.1788,44.8129],[-69.2056,11.2212,65.5115],[-69.2041,11.3658,65.831],[-69.2032,11.3788,43.2219],[-69.199,11.3902,28.0576],[-69.1869,11.409,44.9124],[-69.1888,11.4214,151.9249],[-69.2048,11.4461,109.2095],[-69.2169,11.4603,10.7795],[-69.2174,11.4629,7.8621],[-69.2738,11.4696,94.0882],[-69.288,11.4734,216.6793],[-69.3013,11.4791,169.2757],[-69.307,11.4867,148.7211],[-69.308,11.5028,53.8023],[-69.3112,11.5149,4.9142],[-69.3193,11.5124,0.0],[-69.3221,11.509,10.0371],[-69.3285,11.5079,0.0],[-69.3288,11.5032,4.4349],[-69.3401,11.4957,7.0848],[-69.3546,11.4913,0.0],[-69.3568,11.4899,0.8861],[-69.3576,11.4868,9.5605],[-69.3621,11.4843,4.124],[-69.3665,11.4846,0.0],[-69.3688,11.4826,8.5719],[-69.3838,11.4826,3.4723],[-69.389,11.4849,0.6881],[-69.3965,11.4838,2.4201],[-69.4065,11.4885,2.7535],[-69.4132,11.4888,4.4269],[-69.4274,11.4932,15.5128],[-69.437,11.4916,24.5181],[-69.4298,11.4772,73.5388],[-69.416,11.4684,156.2922],[-69.3911,11.4609,50.5708],[-69.3895,11.4547,84.8935],[-69.3889,11.3754,211.1312],[-69.386,11.324,149.0096],[-69.3847,11.3205,136.3932],[-69.3636,11.3077,93.1173],[-69.3623,11.3001,95.4754],[-69.3656,11.2396,386.4307],[-69.3652,11.165,103.9382],[-69.369,11.1577,147.4517],[-69.3904,11.1407,174.4615]]]]}
,"properties": {"GID_2": "VEN.12.25_1","GID_0": "VEN","country": "Venezuela","GID_1": "VEN.12_1","province": "Falcón","NL_NAME_1": "NA","county": "Zamora","VARNAME_2": "NA","NL_NAME_2": "NA","TYPE_2": "Municipio","ENGTYPE_2": "Municipality","CC_2": "NA","HASC_2": "NA","name": "Zamora.county","area_km2": 755.4969,"hist_schema_id": "Elevation0-9000","hist_area_km2": {"0": 6.5039,"25": 62.8861,"50": 127.6565,"75": 87.8879,"100": 89.9844,"125": 80.7287,"150": 60.2689,"175": 46.3804,"200": 39.6656,"225": 35.5714,"250": 29.1891,"275": 23.4931,"300": 17.9629,"325": 12.7654,"350": 10.2495,"375": 9.5009,"400": 6.5903,"425": 4.6154,"450": 2.2246,"475": 0.9771,"500": 0.3742,"525": 0.0208}}}