{"type":"Feature","properties":{"GID_2":"VEN.24.4_1","GID_0":"VEN","country":"Venezuela","GID_1":"VEN.24_1","province":"Yaracuy","NL_NAME_1":"NA","county":"Cocorote","VARNAME_2":"NA","NL_NAME_2":"NA","TYPE_2":"Municipio","ENGTYPE_2":"Municipality","CC_2":"NA","HASC_2":"NA","name":"Cocorote.county"},
"geometry":{"type": "MultiPolygon","coordinates": [[[[-68.7753,10.4047,1629.0043],[-68.7706,10.4012,1584.3323],[-68.7663,10.3804,836.7153],[-68.761,10.3688,683.3445],[-68.7504,10.3543,392.6625],[-68.7448,10.3523,330.1278],[-68.726,10.3263,203.3598],[-68.7194,10.3208,171.7164],[-68.6981,10.3088,130.1083],[-68.6557,10.2921,113.4829],[-68.6338,10.2796,625.1337],[-68.6291,10.2685,929.0082],[-68.6289,10.2565,1215.6078],[-68.6195,10.2623,834.9916],[-68.6569,10.3159,101.9245],[-68.6768,10.3368,134.491],[-68.6948,10.3662,177.2793],[-68.6986,10.3805,189.9364],[-68.7043,10.3909,276.0372],[-68.711,10.4099,319.57],[-68.7129,10.4298,613.5592],[-68.7186,10.4507,1004.5217],[-68.7186,10.4559,939.1069],[-68.7498,10.4336,1466.0986],[-68.7753,10.4047,1629.0043]]]]}}