{"type":"Feature","properties":{"GID_2":"VEN.24.9_1","GID_0":"VEN","country":"Venezuela","GID_1":"VEN.24_1","province":"Yaracuy","NL_NAME_1":"NA","county":"Nirgua","VARNAME_2":"NA","NL_NAME_2":"NA","TYPE_2":"Municipio","ENGTYPE_2":"Municipality","CC_2":"NA","HASC_2":"NA","name":"Nirgua.county"},
"geometry":{"type": "MultiPolygon","coordinates": [[[[-68.3443,10.3979,261.4071],[-68.4174,10.3829,612.8409],[-68.4359,10.3717,616.2053],[-68.4513,10.3472,544.5568],[-68.4544,10.3301,383.5068],[-68.4528,10.3131,442.6987],[-68.4423,10.2746,453.84],[-68.445,10.2658,399.9851],[-68.4705,10.2622,572.5743],[-68.4974,10.265,804.1691],[-68.5392,10.262,337.9961],[-68.549,10.2655,379.1384],[-68.5652,10.279,575.1691],[-68.5726,10.2819,742.0363],[-68.5841,10.2822,598.7662],[-68.6007,10.2756,638.1708],[-68.6204,10.2617,816.7146],[-68.6495,10.2442,543.5757],[-68.6608,10.2348,693.2521],[-68.6837,10.2092,618.9474],[-68.6919,10.2044,549.6647],[-68.7147,10.1969,610.7012],[-68.7247,10.1907,337.7608],[-68.7354,10.1825,373.444],[-68.7514,10.1623,362.8266],[-68.7606,10.1558,343.4322],[-68.7722,10.153,387.5618],[-68.7867,10.1524,400.9474],[-68.807,10.1555,201.5],[-68.8437,10.1645,233.2227],[-68.8549,10.165,248.7575],[-68.8629,10.1605,255.1621],[-68.8712,10.152,251.6762],[-68.8795,10.1263,229.437],[-68.8825,10.1125,434.6275],[-68.8854,10.0794,905.6642],[-68.8903,10.0625,809.4543],[-68.9008,10.0513,781.0776],[-68.9064,10.0485,606.5669],[-68.898,10.0343,604.8414],[-68.889,10.0257,422.1358],[-68.8697,10.0133,297.3448],[-68.862,10.0023,463.9866],[-68.8642,9.9932,411.7224],[-68.8714,9.9864,520.4878],[-68.9015,9.9707,319.0824],[-68.9121,9.9608,377.4386],[-68.9193,9.9498,334.8923],[-68.9286,9.9259,321.6853],[-68.9301,9.9105,303.7935],[-68.9287,9.9027,262.5652],[-68.9218,9.8976,310.4773],[-68.9219,9.8949,276.6019],[-68.9111,9.8966,267.4028],[-68.8873,9.9101,429.9932],[-68.872,9.9124,548.3994],[-68.858,9.9109,518.6663],[-68.8495,9.9073,616.1607],[-68.8289,9.9022,595.0727],[-68.7887,9.9,635.1779],[-68.7533,9.9042,616.9631],[-68.7299,9.9092,735.2815],[-68.7021,9.9183,671.2921],[-68.6737,9.9306,1010.5549],[-68.6538,9.9448,788.3253],[-68.6183,9.9912,1357.7234],[-68.6006,10.0067,1170.8492],[-68.5809,10.0159,1244.6584],[-68.5601,10.0197,1230.6882],[-68.5405,10.0179,1084.1691],[-68.5139,10.007,876.978],[-68.4993,9.9976,570.0201],[-68.4925,9.9894,625.4946],[-68.4905,9.958,1004.0462],[-68.4852,9.9509,884.7993],[-68.4763,9.9468,849.7474],[-68.4675,9.9493,797.2391],[-68.4302,9.9659,541.2374],[-68.4143,9.976,846.6926],[-68.3823,10.0045,531.4087],[-68.3586,10.016,728.2587],[-68.3369,10.0197,560.3943],[-68.3217,10.026,803.4658],[-68.3195,10.0323,843.4899],[-68.3228,10.0517,662.2486],[-68.3415,10.1081,772.8137],[-68.3544,10.1566,767.155],[-68.3587,10.176,687.5712],[-68.3603,10.1977,715.0308],[-68.3592,10.2227,1244.392],[-68.3417,10.2565,1464.422],[-68.3224,10.2841,1276.8763],[-68.3155,10.2978,916.7534],[-68.3122,10.3114,723.8124],[-68.3139,10.3224,483.256],[-68.3406,10.3668,667.8157],[-68.3452,10.3876,229.7155],[-68.3443,10.3979,261.4071]]]]}}