{"type": "Feature","bbox": [-70.6713,9.3928,-70.5612,9.6],"geometry": {"type": "MultiPolygon","coordinates": [[[[-70.6178,9.3928,569.3317],[-70.6087,9.4004,547.664],[-70.5967,9.4017,446.2037],[-70.597,9.41,481.9254],[-70.5942,9.4195,469.2879],[-70.5836,9.432,254.6836],[-70.5793,9.4418,236.3297],[-70.5773,9.4687,303.4235],[-70.5748,9.4761,227.3497],[-70.566,9.4904,195.4743],[-70.5612,9.507,207.9718],[-70.5633,9.5185,183.2491],[-70.5708,9.5417,177.22],[-70.5867,9.5748,134.0],[-70.6035,9.6,269.1959],[-70.6096,9.5955,328.4226],[-70.6283,9.589,275.95119999999997],[-70.6271,9.5617,205.1399],[-70.6306,9.5336,175.2717],[-70.6276,9.5233,224.0904],[-70.6141,9.5017,465.4575],[-70.6116,9.4949,503.7311],[-70.6129,9.4893,586.189],[-70.6362,9.473,343.5904],[-70.6512,9.4599,546.2363],[-70.6516,9.4539,555.1685],[-70.6549,9.4488,606.7453],[-70.6611,9.4449,680.386],[-70.6713,9.4418,606.686],[-70.6479,9.4265,443.842],[-70.6207,9.403,770.509],[-70.6178,9.3928,569.3317]]]]}
,"properties": {"GID_2": "VEN.22.12_1","GID_0": "VEN","country": "Venezuela","GID_1": "VEN.22_1","province": "Trujillo","NL_NAME_1": "NA","county": "Motatán","VARNAME_2": "NA","NL_NAME_2": "NA","TYPE_2": "Municipio","ENGTYPE_2": "Municipality","CC_2": "NA","HASC_2": "NA","name": "Motatán.county","area_km2": 129.6119,"hist_schema_id": "Elevation0-9000","hist_area_km2": {"100": 1.0036,"125": 6.3769,"150": 8.7608,"175": 12.0648,"200": 11.2493,"225": 6.1264,"250": 5.7293,"275": 5.8758,"300": 5.8344,"325": 7.6122,"350": 6.9849,"375": 5.9812,"400": 7.0479,"425": 7.1317,"450": 6.6299,"475": 4.9986,"500": 3.932,"525": 3.3255,"550": 2.5726,"575": 2.1961,"600": 1.8196,"625": 0.9412,"650": 0.8785,"675": 0.753,"700": 0.6484,"725": 0.4602,"750": 0.502,"775": 0.5857,"800": 0.3556,"825": 0.4183,"850": 0.2719,"875": 0.2092,"900": 0.1883,"925": 0.0628,"950": 0.0837}}}