{"type":"Feature","properties":{"GID_2":"VEN.13.11_1","GID_0":"VEN","country":"Venezuela","GID_1":"VEN.13_1","province":"Guárico","NL_NAME_1":"NA","county":"Roscio","VARNAME_2":"NA","NL_NAME_2":"NA","TYPE_2":"Municipio","ENGTYPE_2":"Municipality","CC_2":"NA","HASC_2":"NA","name":"Roscio.county"},
"geometry":{"type": "MultiPolygon","coordinates": [[[[-67.1087,9.8531,326.7153],[-67.113,9.8591,317.9106],[-67.1386,9.879,413.277],[-67.1664,9.9233,347.6997],[-67.1771,9.9323,370.2852],[-67.1924,9.9393,356.4253],[-67.2073,9.9409,467.8102],[-67.2475,9.9409,531.0364],[-67.2653,9.95,472.231],[-67.2786,9.9591,587.8765],[-67.2898,9.9633,568.6486],[-67.3054,9.9634,585.83],[-67.3277,9.9666,476.3549],[-67.3453,9.9721,533.639],[-67.3881,9.9971,588.1608],[-67.4081,10.0014,828.5809],[-67.4275,9.9983,530.2505],[-67.4627,9.9859,615.9298],[-67.4821,9.9812,893.4609],[-67.5008,9.981,675.0067],[-67.5083,9.983,849.2241],[-67.5105,9.9553,594.724],[-67.5075,9.9406,944.2784],[-67.5009,9.9244,945.5087],[-67.5006,9.9081,894.1558],[-67.5037,9.9045,979.1535],[-67.5168,9.9031,1266.197],[-67.5198,9.9049,1059.7345],[-67.5243,9.8869,1525.0564],[-67.5215,9.7369,322.7804],[-67.5189,9.7303,337.1334],[-67.5125,9.724,303.8503],[-67.5033,9.7203,300.1769],[-67.4741,9.7225,323.0688],[-67.4278,9.7371,263.1983],[-67.4151,9.7359,264.7515],[-67.3995,9.7298,244.4726],[-67.3709,9.7118,226.4497],[-67.3411,9.697,250.1556],[-67.3258,9.6925,226.4381],[-67.2701,9.6825,226.4472],[-67.2517,9.6765,205.6983],[-67.2384,9.6698,263.435],[-67.2298,9.6617,262.9883],[-67.223,9.6514,226.5726],[-67.1854,9.5733,363.7486],[-67.1858,9.5695,268.9465],[-67.1803,9.5754,417.5019],[-67.1681,9.5838,350.6099],[-67.1462,9.5838,252.3402],[-67.1316,9.5861,232.9875],[-67.0727,9.613,349.3999],[-67.065,9.6208,332.8245],[-67.0502,9.6433,265.4385],[-67.0407,9.6543,354.5184],[-67.0277,9.6627,358.5287],[-67.005,9.6664,289.4727],[-66.9901,9.6717,408.8872],[-66.9827,9.6782,569.3955],[-66.9465,9.7302,457.8254],[-66.9631,9.7397,561.7746],[-66.9688,9.7457,445.0763],[-66.9789,9.7747,335.2206],[-66.9839,9.7805,309.5222],[-67.0122,9.7873,316.5928],[-67.0265,9.7972,302.2847],[-67.0472,9.818,298.0],[-67.0582,9.8247,415.0443],[-67.0842,9.8288,500.8365],[-67.0969,9.8366,350.9648],[-67.1087,9.8531,326.7153]]]]}}