{"type":"Feature","properties":{"GID_2":"VEN.13.12_1","GID_0":"VEN","country":"Venezuela","GID_1":"VEN.13_1","province":"Guárico","NL_NAME_1":"NA","county":"SanGerónimodeGuayabal","VARNAME_2":"NA","NL_NAME_2":"NA","TYPE_2":"Municipio","ENGTYPE_2":"Municipality","CC_2":"NA","HASC_2":"NA","name":"San_Gerónimode_Guayabal.county"},
"geometry":{"type": "MultiPolygon","coordinates": [[[[-66.595,7.7855,32.9725],[-66.6089,7.8058,31.7743],[-66.6317,7.8225,32.9611],[-66.6622,7.8357,32.8267],[-66.6996,7.8548,34.0104],[-66.7195,7.859,35.1244],[-66.7575,7.8626,35.0531],[-66.7814,7.8714,34.2765],[-66.9332,7.9776,37.5174],[-66.939,7.984,38.2483],[-66.9421,7.9905,42.6477],[-66.9398,8.0335,44.6267],[-66.9473,8.0524,43.9598],[-66.9737,8.1041,39.1781],[-66.9979,8.179,40.7324],[-67.0057,8.197,39.9944],[-67.0319,8.1945,43.1923],[-67.0437,8.1989,45.8015],[-67.0871,8.2193,47.6322],[-67.157,8.2574,49.7323],[-67.1976,8.2659,51.3924],[-67.221,8.2815,54.3105],[-67.2459,8.2857,53.9409],[-67.3174,8.2757,49.0362],[-67.3375,8.2805,52.1024],[-67.356,8.2886,53.0743],[-67.3899,8.3073,53.3056],[-67.412,8.3156,61.0479],[-67.4524,8.3279,52.543],[-67.4769,8.3327,57.1002],[-67.485,8.3329,63.1078],[-67.473,8.3208,53.6766],[-67.4597,8.2923,57.7315],[-67.4426,8.2771,57.4432],[-67.4141,8.2657,59.5791],[-67.4027,8.2562,57.108],[-67.3932,8.2429,54.0005],[-67.3838,8.2353,48.8177],[-67.3743,8.224,47.4104],[-67.3781,8.2088,49.3943],[-67.397,8.1803,57.6295],[-67.4046,8.1632,58.5665],[-67.4046,8.1537,55.1758],[-67.397,8.1499,48.5931],[-67.3876,8.1385,58.2767],[-67.3932,8.1271,56.3953],[-67.4483,8.0854,45.9266],[-67.4559,8.0721,44.7171],[-67.4578,8.0455,43.4992],[-67.435,8.0303,45.9786],[-67.4274,8.0113,45.2192],[-67.4198,7.9714,47.7879],[-67.4065,7.9449,42.7926],[-67.397,7.9164,42.0415],[-67.397,7.905,43.3643],[-67.4046,7.8936,47.3649],[-67.4257,7.8812,40.6512],[-67.4094,7.8787,43.3844],[-67.378,7.8624,43.4753],[-67.3532,7.853,42.9962],[-67.3343,7.8407,40.6506],[-67.3156,7.8342,40.4309],[-67.2754,7.8303,43.3076],[-67.2422,7.8241,40.8906],[-67.2073,7.8202,39.5857],[-67.1929,7.8168,38.8507],[-67.1565,7.7943,37.7088],[-67.1386,7.7925,38.836],[-67.0445,7.7902,38.1236],[-67.0154,7.7829,37.4948],[-66.9854,7.7708,36.921],[-66.9557,7.7664,36.633],[-66.9357,7.7581,36.9637],[-66.8879,7.743,36.1931],[-66.8717,7.7344,35.7594],[-66.861,7.7217,36.7939],[-66.8547,7.7109,34.7105],[-66.8382,7.6913,35.6461],[-66.8134,7.679,33.7747],[-66.792,7.6906,35.1639],[-66.7756,7.6877,34.7717],[-66.7358,7.6865,33.829],[-66.7082,7.69,33.8824],[-66.6967,7.6947,34.5589],[-66.6935,7.7038,33.6381],[-66.6951,7.7154,34.1936],[-66.7043,7.7345,34.6078],[-66.7056,7.7444,34.8896],[-66.7014,7.7568,38.9375],[-66.6848,7.7643,34.3651],[-66.6683,7.7679,34.2396],[-66.6493,7.7686,32.3302],[-66.6258,7.7728,33.0678],[-66.6053,7.7794,32.8384],[-66.595,7.7855,32.9725]]]]}}