{"type":"Feature","properties":{"GID_2":"VEN.15.11_1","GID_0":"VEN","country":"Venezuela","GID_1":"VEN.15_1","province":"Mérida","NL_NAME_1":"NA","county":"JustoBriceño","VARNAME_2":"NA","NL_NAME_2":"NA","TYPE_2":"Municipio","ENGTYPE_2":"Municipality","CC_2":"NA","HASC_2":"NA","name":"Justo_Briceño.county"},
"geometry":{"type": "MultiPolygon","coordinates": [[[[-70.9918,8.7783,4350.5435],[-70.9647,8.7811,3932.2935],[-70.9496,8.7847,4164.0103],[-70.9081,8.799,3527.7852],[-70.8947,8.8075,4120.4658],[-70.863,8.8523,3836.375],[-70.8441,8.8648,4192.8018],[-70.8405,8.8758,4127.2686],[-70.8407,8.8846,4100.1309],[-70.8442,8.8929,3960.8872],[-70.848,8.9248,4069.2957],[-70.8513,8.9356,4106.29],[-70.872,8.9771,3960.7876],[-70.8921,8.9949,3238.7339],[-70.8922,8.9973,3212.7505],[-70.8913,9.012,2954.2385],[-70.8836,9.0216,2987.2583],[-70.8669,9.0349,2550.3201],[-70.8595,9.0458,3147.3521],[-70.8429,9.0628,3170.3198],[-70.8637,9.0773,2838.9426],[-70.9041,9.1115,1700.9564],[-70.9155,9.1005,1814.4901],[-70.9181,9.1003,1927.2639],[-70.9286,9.0741,2630.6943],[-70.932,9.0498,2271.6919],[-70.9309,9.0289,2555.679],[-70.9286,9.0173,1965.731],[-70.9403,9.025,2349.0137],[-70.954,9.0451,1739.6683],[-70.967,9.0832,1529.8497],[-70.9739,9.1239,579.1923],[-70.9772,9.1355,469.36],[-71.0166,9.1049,510.0493],[-71.0318,9.0869,412.9815],[-71.0329,9.0722,709.0191],[-71.0249,9.0559,668.1207],[-71.0058,9.0324,1283.2468],[-71.0084,9.0284,1337.1427],[-71.014,9.0273,1221.6641],[-71.0206,9.0286,1323.347],[-71.0632,9.0446,801.6851],[-71.0758,9.0437,577.1429],[-71.0662,9.0229,739.9629],[-71.0471,9.0007,1483.8278],[-71.038,8.9948,1337.717],[-71.0193,8.9876,1716.4772],[-71.0168,8.9824,1936.8335],[-71.0174,8.9559,2232.928],[-71.0069,8.9208,2140.5337],[-71.0069,8.9086,2402.3774],[-71.0167,8.8787,3102.4116],[-71.0183,8.8615,3434.8335],[-71.0152,8.8548,3743.4607],[-71.0082,8.8475,4139.3291],[-71.0019,8.8437,4346.2402],[-70.9955,8.8364,4299.7754],[-70.9915,8.8255,4436.9429],[-70.9918,8.7783,4350.5435]]]]}}