{"type": "Feature","bbox": [-66.5386,9.9649,-66.0589,10.5355],"geometry": {"type": "MultiPolygon","coordinates": [[[[-66.0722,9.976,680.4096],[-66.0798,9.9997,487.607],[-66.0869,10.009,324.8158],[-66.1146,10.0226,377.4594],[-66.1305,10.0377,730.0699],[-66.1317,10.0401,675.6839],[-66.1302,10.044,824.6219],[-66.125,10.0489,750.5723],[-66.1223,10.0575,593.629],[-66.1241,10.0626,621.2592],[-66.1439,10.0734,911.2156],[-66.1484,10.0795,932.0984],[-66.1493,10.0845,687.9176],[-66.1462,10.091,564.3492],[-66.118,10.1094,655.6286],[-66.1107,10.1217,510.0472],[-66.0951,10.1258,706.9905],[-66.0827,10.127,792.2725],[-66.0761,10.131,837.6589],[-66.0622,10.1453,632.3927],[-66.0589,10.1514,679.2711],[-66.0589,10.1627,491.6106],[-66.0647,10.1743,141.7042],[-66.0692,10.1792,28.2602],[-66.0707,10.1848,23.1604],[-66.0701,10.2037,30.3163],[-66.0863,10.2216,27.9485],[-66.0966,10.2422,31.9064],[-66.1065,10.2514,26.0288],[-66.1709,10.2968,31.9922],[-66.2275,10.341,46.3562],[-66.2335,10.349,71.8264],[-66.235,10.3583,64.3827],[-66.232,10.3668,49.1399],[-66.2287,10.4069,59.2654],[-66.2221,10.418,48.7947],[-66.2073,10.4247,52.6552],[-66.2042,10.4335,57.0227],[-66.2077,10.4417,43.1033],[-66.2506,10.4657,291.3548],[-66.2621,10.4674,189.3082],[-66.2788,10.4674,395.7376],[-66.2829,10.4724,260.5177],[-66.2792,10.4794,319.9093],[-66.2798,10.4944,467.1451],[-66.2833,10.5054,642.129],[-66.2976,10.518,872.8235],[-66.308,10.5229,851.8433],[-66.3489,10.5355,914.5986],[-66.3505,10.5348,877.1588],[-66.3511,10.523,991.2504],[-66.3548,10.5133,988.2246],[-66.3636,10.5089,930.463],[-66.3675,10.4907,663.2972],[-66.3668,10.473,406.1734],[-66.3687,10.469,279.9261],[-66.398,10.4604,457.7047],[-66.4036,10.455,536.1962],[-66.4079,10.4087,572.0441],[-66.4118,10.3982,450.607],[-66.4181,10.3883,549.5394],[-66.4267,10.3849,353.6346],[-66.4394,10.385,343.0794],[-66.4465,10.3872,294.4055],[-66.4617,10.3986,428.4828],[-66.4871,10.3416,488.335],[-66.4963,10.3421,353.1396],[-66.5192,10.3531,584.0399],[-66.5006,10.3125,501.2648],[-66.5,10.3032,593.0271],[-66.5085,10.2824,483.8966],[-66.5167,10.2558,407.5309],[-66.5122,10.2557,458.6437],[-66.5071,10.2531,530.7609],[-66.5045,10.2434,298.6035],[-66.5046,10.2317,121.1069],[-66.5089,10.2113,274.7543],[-66.5077,10.1984,295.1582],[-66.5045,10.1904,507.4894],[-66.5046,10.1818,574.7661],[-66.5088,10.1706,667.1899],[-66.5135,10.1388,580.0468],[-66.5333,10.1132,789.8054],[-66.5364,10.1026,848.831],[-66.5386,10.0847,544.4698],[-66.5343,10.067,714.7609],[-66.5222,10.0588,850.9324],[-66.4937,10.0488,631.9829],[-66.461,10.0422,608.6208],[-66.4514,10.0371,462.1643],[-66.4313,10.0489,656.2465],[-66.4017,10.0594,810.9246],[-66.3821,10.0589,1034.2725],[-66.359,10.0529,620.685],[-66.3385,10.0412,1052.5938],[-66.3092,10.0077,759.4006],[-66.2988,10.0001,863.2501],[-66.2812,9.994,684.0983],[-66.2286,9.9853,703.7244],[-66.1575,9.9695,741.2297],[-66.135,9.9652,621.7773],[-66.1167,9.9649,648.2081],[-66.0844,9.9707,771.9612],[-66.0722,9.976,680.4096]]]]}
,"properties": {"GID_2": "VEN.16.1_1","GID_0": "VEN","country": "Venezuela","GID_1": "VEN.16_1","province": "Miranda","NL_NAME_1": "NA","county": "Acevedo","VARNAME_2": "NA","NL_NAME_2": "NA","TYPE_2": "Municipio","ENGTYPE_2": "Municipality","CC_2": "NA","HASC_2": "NA","name": "Acevedo.county","area_km2": 1965.542,"hist_schema_id": "Elevation0-9000","hist_area_km2": {"0": 1.127,"25": 140.378,"50": 241.743,"75": 175.651,"100": 80.919,"125": 48.63,"150": 49.598,"175": 49.077,"200": 53.939,"225": 59.908,"250": 62.015,"275": 66.626,"300": 67.878,"325": 72.154,"350": 69.672,"375": 65.333,"400": 63.414,"425": 58.366,"450": 56.051,"475": 52.149,"500": 49.584,"525": 46.121,"550": 42.969,"575": 36.731,"600": 34.478,"625": 29.427,"650": 26.84,"675": 23.126,"700": 20.037,"725": 17.992,"750": 16.175,"775": 13.274,"800": 11.542,"825": 10.331,"850": 9.539,"875": 7.556,"900": 7.054,"925": 5.781,"950": 4.78,"975": 3.673,"1000": 3.611,"1025": 2.797,"1050": 1.733,"1075": 1.608,"1100": 1.253,"1125": 0.605,"1150": 0.626,"1175": 0.522,"1200": 0.334,"1225": 0.271,"1250": 0.376,"1275": 0.104,"1300": 0.063}}}