{"type":"Feature","properties":{"GID_1":"VEN.8_1","GID_0":"VEN","country":"Venezuela","province":"Cojedes","VARNAME_1":"NA","NL_NAME_1":"NA","TYPE_1":"Estado","ENGTYPE_1":"State","CC_1":"NA","HASC_1":"NA","ISO_1":"VE-H","name":"Cojedes.province"},
"geometry":{"type": "MultiPolygon","coordinates": [[[[-68.0661,8.4812,53.383],[-68.0489,8.4738,52.7582],[-68.0342,8.4628,55.6538],[-68.0248,8.4476,53.7901],[-68.0147,8.4601,56.9821],[-67.9996,8.4868,68.988],[-67.9949,8.5123,53.025],[-67.9991,8.5281,53.1255],[-68.0196,8.5711,53.5023],[-68.0228,8.5906,53.876],[-68.0076,8.6204,56.3539],[-68.0119,8.6414,54.4384],[-68.0081,8.6754,68.4073],[-68.0124,8.6894,63.9104],[-68.0245,8.7077,60.2924],[-68.0224,8.7507,61.9987],[-68.0206,8.7618,61.0965],[-68.0123,8.7769,63.5843],[-67.9931,8.7913,66.6269],[-67.9903,8.8043,67.0958],[-67.9916,8.8262,67.8248],[-67.9878,8.8414,66.2812],[-67.9686,8.8819,62.8742],[-67.941,8.9215,67.9467],[-67.9101,8.9497,68.0574],[-67.8782,8.9879,69.5831],[-67.8655,9.0106,67.96],[-67.8524,9.0503,70.7606],[-67.8434,9.0686,72.1286],[-67.8401,9.0862,74.801],[-67.8453,9.1029,73.2494],[-67.856,9.1149,74.4261],[-67.8651,9.1287,80.1596],[-67.8668,9.1411,85.8922],[-67.8629,9.1785,81.5903],[-67.8644,9.1952,84.3277],[-67.862,9.2239,89.4723],[-67.8623,9.2421,91.5283],[-67.8816,9.2753,87.7285],[-67.9046,9.2972,92.037],[-67.9136,9.3086,94.2045],[-67.9179,9.3224,103.5766],[-67.9157,9.3351,96.5289],[-67.8969,9.3853,111.6979],[-67.8949,9.4007,116.0872],[-67.9052,9.4284,110.6504],[-67.9033,9.4505,126.1041],[-67.9041,9.4662,116.5747],[-67.908,9.4748,125.2899],[-67.9098,9.4871,119.7564],[-67.9151,9.4985,131.6695],[-67.9341,9.5292,130.5007],[-67.9396,9.547,160.1064],[-67.937,9.5635,151.6353],[-67.931,9.5739,161.8268],[-67.9058,9.5892,436.6434],[-67.896,9.618,184.5939],[-67.8834,9.629,262.3956],[-67.8711,9.6308,244.57],[-67.854,9.6296,232.5491],[-67.8363,9.6318,262.2009],[-67.8051,9.6444,259.0462],[-67.7738,9.6698,286.4574],[-67.7596,9.6875,299.2965],[-67.7332,9.7012,312.4139],[-67.7283,9.7165,303.649],[-67.7332,9.7359,327.0173],[-67.7494,9.7608,655.6235],[-67.7586,9.7921,532.5958],[-67.7674,9.8033,541.0756],[-67.7811,9.833,1164.8535],[-67.7892,9.8467,1201.7631],[-67.7963,9.8531,823.4971],[-67.8139,9.8584,758.6835],[-67.8464,9.8593,678.3695],[-67.8664,9.8562,813.4183],[-67.8847,9.8554,627.6421],[-67.9048,9.8573,634.5396],[-67.9313,9.8626,636.2545],[-67.9514,9.877,534.3954],[-67.9548,9.8888,651.8094],[-67.9519,9.9002,535.5988],[-67.9471,9.9098,541.9272],[-67.9469,9.9206,543.4229],[-67.9549,9.9246,550.0929],[-67.9701,9.9238,639.0861],[-67.9857,9.9164,622.6743],[-67.9982,9.9064,577.1982],[-68.0268,9.8915,522.6031],[-68.0405,9.8917,545.9821],[-68.0519,9.9016,505.1935],[-68.0563,9.909,456.5992],[-68.0681,9.9215,436.5491],[-68.0824,9.9306,461.8518],[-68.0932,9.9419,505.3248],[-68.1029,9.9645,485.1466],[-68.1333,9.9791,485.7436],[-68.1451,9.988,482.5391],[-68.178,10.0082,478.8391],[-68.1947,10.0251,605.8997],[-68.1998,10.0401,686.6845],[-68.1978,10.0506,652.543],[-68.1915,10.0589,623.6802],[-68.1671,10.0824,574.7361],[-68.1583,10.0929,567.8262],[-68.152,10.111,595.5037],[-68.1533,10.1243,702.6069],[-68.1595,10.1328,781.6343],[-68.1689,10.1353,803.4472],[-68.1898,10.1339,738.5643],[-68.2244,10.1167,863.8253],[-68.2421,10.1136,1007.9902],[-68.2606,10.1137,851.3208],[-68.2705,10.1088,939.6066],[-68.2814,10.0738,800.875],[-68.2887,10.0561,705.9954],[-68.2985,10.0428,693.7239],[-68.3163,10.0313,708.3904],[-68.3201,10.0307,806.6216],[-68.3217,10.026,803.4658],[-68.3369,10.0197,560.3943],[-68.3586,10.016,728.2587],[-68.3823,10.0045,531.4087],[-68.4143,9.976,846.6926],[-68.4302,9.9659,541.2374],[-68.4675,9.9493,797.2391],[-68.4763,9.9468,849.7474],[-68.4852,9.9509,884.7993],[-68.4905,9.958,1004.0462],[-68.4925,9.9894,625.4946],[-68.4993,9.9976,570.0201],[-68.5139,10.007,876.978],[-68.5405,10.0179,1084.1691],[-68.5601,10.0197,1230.6882],[-68.5809,10.0159,1244.6584],[-68.6006,10.0067,1170.8492],[-68.6183,9.9912,1357.7234],[-68.6538,9.9448,788.3253],[-68.6737,9.9306,1010.5549],[-68.7021,9.9183,671.2921],[-68.7299,9.9092,735.2815],[-68.7533,9.9042,616.9631],[-68.7887,9.9,635.1779],[-68.8289,9.9022,595.0727],[-68.8495,9.9073,616.1607],[-68.858,9.9109,518.6663],[-68.872,9.9124,548.3994],[-68.8873,9.9101,429.9932],[-68.9111,9.8966,267.4028],[-68.9219,9.8949,276.6019],[-68.925,9.8731,375.2193],[-68.9334,9.8506,326.6515],[-68.9388,9.8241,278.2922],[-68.9437,9.8109,268.8208],[-68.9505,9.8041,290.0705],[-68.9709,9.7949,211.2804],[-68.9749,9.7913,214.922],[-68.9522,9.7666,440.2187],[-68.9448,9.7553,467.0323],[-68.9412,9.7345,255.4341],[-68.9145,9.6915,175.1037],[-68.9044,9.6662,181.2595],[-68.9013,9.6518,143.8992],[-68.8912,9.6223,134.8925],[-68.8837,9.5714,125.728],[-68.8843,9.5432,121.5804],[-68.8874,9.529,119.5444],[-68.8895,9.5057,117.6257],[-68.8877,9.4895,116.6007],[-68.876,9.4526,109.9902],[-68.8665,9.4374,106.1781],[-68.8566,9.4309,104.75],[-68.8305,9.4206,106.424],[-68.8006,9.4035,107.4462],[-68.7079,9.3187,97.5115],[-68.6635,9.2935,84.4754],[-68.6319,9.2692,81.683],[-68.6164,9.2549,83.359],[-68.6091,9.2443,80.8956],[-68.6002,9.2228,78.6666],[-68.6005,9.1993,84.7574],[-68.6346,9.0034,69.1909],[-68.6352,8.9795,68.8438],[-68.631,8.9542,67.9711],[-68.6172,8.9136,67.1044],[-68.5979,8.8879,66.2726],[-68.5855,8.8777,65.8774],[-68.5697,8.8697,65.623],[-68.5358,8.8607,64.7175],[-68.523,8.8548,69.1425],[-68.5164,8.8457,65.1064],[-68.5163,8.8378,64.0002],[-68.5199,8.8246,64.0677],[-68.5289,8.8174,64.1876],[-68.6028,8.8055,65.6245],[-68.66,8.7994,78.4978],[-68.682,8.7956,71.1757],[-68.6919,8.7886,71.5638],[-68.6941,8.7762,69.0348],[-68.6889,8.7636,70.5889],[-68.6765,8.7514,74.7032],[-68.6439,8.731,69.0277],[-68.6181,8.7104,68.0822],[-68.5785,8.6562,67.4207],[-68.5637,8.6446,77.6948],[-68.5393,8.6311,67.2072],[-68.5131,8.6124,63.3706],[-68.495,8.5954,61.9305],[-68.4529,8.5468,61.9769],[-68.4284,8.5106,60.6767],[-68.3827,8.5448,67.1949],[-68.3627,8.5507,63.8579],[-68.3351,8.5573,62.2285],[-68.2921,8.5602,61.5672],[-68.2609,8.5591,57.7353],[-68.2313,8.5541,58.5985],[-68.2171,8.5484,64.0505],[-68.2052,8.5415,61.595],[-68.1948,8.5324,57.5349],[-68.1839,8.5293,65.2428],[-68.1703,8.532,60.5793],[-68.1596,8.5317,54.7073],[-68.1396,8.5271,54.8245],[-68.101,8.5087,53.6638],[-68.0661,8.4812,53.383]]]]}}