{"type":"Feature","properties":{"featurecla":"River","scalerank":9,"rivernum":1018,"dissolve":"1018River","name":"Cojedes1","name_alt":null,"note":null,"min_zoom":7.1,"strokeweig":0.2,"name_en":"Cojedes","min_label":8.1},
"geometry":{"type": "LineString","coordinates": [[-69.077319335937489,9.9307803406191084,331.8723],[-69.062670898437489,9.9131045593691169,328.5398],[-69.02890625,9.88165924686912,273.5195],[-69.01513671875,9.86322662968162,237.7838],[-68.990283203124989,9.81781647343162,261.8139],[-68.9814453125,9.79291412968162,229.7022],[-68.980273437499989,9.76911041874412,205.1632],[-68.992431640625,9.73822662968162,228.2669],[-68.992480468749989,9.7282901062441169,176.3228],[-68.98828125,9.72186920780662,170.8292],[-68.975195312499991,9.7104678406191169,231.9726],[-68.972509765624991,9.70282623905662,264.6096],[-68.96826171875,9.67987702030662,154.2827],[-68.949462890625,9.64667389530662,146.997],[-68.940527343749991,9.6097354187441084,138.2507],[-68.918505859374989,9.57245514530662,129.3384],[-68.910986328124991,9.5554385437441169,125.3283],[-68.908935546875,9.5269717468691084,122.9876],[-68.905517578125,9.5091494812441084,119.7562],[-68.897387695312489,9.49335358280662,115.6602],[-68.904394531249991,9.46869537968162,111.7178],[-68.899023437499991,9.4346865906191084,106.9747],[-68.885107421874991,9.4045596374941169,103.7589],[-68.781787109374989,9.32208893436912,92.7749],[-68.771484375,9.3109072937441084,92.5244],[-68.761523437499989,9.28620026249412,90.4216],[-68.748632812499991,9.27509186405662,86.8661],[-68.701708984374989,9.24323151249412,90.1138],[-68.6298828125,9.21344635624412,85.2131],[-68.617285156249991,9.20026276249412,89.8836],[-68.583105468749991,9.15448639530662,76.172],[-68.571826171874989,9.1445498718691169,83.934],[-68.568041992187489,9.1402529968691084,79.9512],[-68.568603515625,9.1308779968691169,79.2223],[-68.567431640624989,9.1214541687441084,83.2027],[-68.558203124999991,9.11725494999412,74.0344],[-68.546142578125,9.1148623718691084,75.2871],[-68.539160156249991,9.1089053406191169,79.6556],[-68.527197265624991,9.0913272156191169,76.0478],[-68.492431640625,9.06439850468162,87.3182],[-68.482836914062489,9.05243561405662,74.6907],[-68.478198242187489,9.0415225281191169,68.0461],[-68.471923828125,9.01776764530662,73.4055],[-68.4677734375,9.0081729187441084,70.3482],[-68.451269531249991,8.99555084843162,67.239],[-68.431005859374991,8.99506256718162,65.353],[-68.390869140625,9.0051455749941169,63.157],[-68.369677734374989,9.0027041687441169,62.9997],[-68.351000976562489,8.99164459843162,62.4185],[-68.335546874999991,8.9752139343691084,62.4068],[-68.324145507812489,8.95648834843162,68.7385],[-68.320605468749989,8.9459170593691084,61.5882],[-68.31591796875,8.9233584656191169,62.6348],[-68.31103515625,8.91217682499412,60.3251],[-68.302978515625,8.90350983280662,59.9982],[-68.282885742187489,8.8863467468691084,60.0864],[-68.278369140624989,8.87738678593162,67.0108]]}}