{"type": "Feature","id": "32","bbox": [-68.9924,8.53281,-67.75521,10.12868],"geometry": {"type": "Polygon","coordinates": [[[-68.06535,9.85537,473.0664],[-68.07209,9.85676,604.4214],[-68.08119,9.8625,494.8275],[-68.09685,9.87916,383.7495],[-68.11253,9.89206,360.2917],[-68.12196,9.89663,395.8313],[-68.13087,9.90345,389.1337],[-68.14,9.91278,353.5],[-68.14428,9.91619,353.5],[-68.21658,9.96296,460.2113],[-68.22883,9.97306,460.8078],[-68.24167,9.98701,545.2755],[-68.24908,9.99952,453.406],[-68.25213,10.00758,472.4679],[-68.25343,10.01463,562.0656],[-68.2535,10.02146,547.6034],[-68.24407,10.03621,632.8975],[-68.20521,10.0629,623.4613],[-68.21963,10.08292,711.4019],[-68.22428,10.09199,657.1346],[-68.23182,10.11845,847.8044],[-68.23389,10.1231,924.3953],[-68.23733,10.12667,1085.4666],[-68.24167,10.12868,1232.4456],[-68.2502,10.12458,1099.8533],[-68.25813,10.11682,917.115],[-68.28448,10.08292,866.5724],[-68.30272,10.0698,672.0298],[-68.31776,10.04164,803.9337],[-68.32833,10.01308,588.078],[-68.33892,10.00316,585.8251],[-68.3705,9.99004,516.0633],[-68.40603,9.96988,631.5836],[-68.48716,9.90927,411.7359],[-68.50395,9.90051,533.9925],[-68.51553,9.89648,613.2808],[-68.52256,9.89586,450.6283],[-68.53013,9.89655,429.8604],[-68.54064,9.9002,497.1575],[-68.54297,9.90438,599.806],[-68.54162,9.90803,569.5624],[-68.53801,9.91123,401.7558],[-68.53382,9.91392,390.5116],[-68.53018,9.91681,395.5506],[-68.52757,9.91968,638.512],[-68.52829,9.92301,417.328],[-68.53157,9.9258,550.0958],[-68.53648,9.92774,718.1664],[-68.55834,9.93417,566.2065],[-68.56834,9.93813,905.8715],[-68.57258,9.94094,915.5673],[-68.57622,9.9442,935.1617],[-68.5794,9.94784,794.577],[-68.58211,9.95211,1024.3455],[-68.58428,9.95683,1173.3252],[-68.58599,9.96187,1138.1268],[-68.58692,9.96745,1139.8513],[-68.58682,9.9736,1229.9518],[-68.58555,9.97918,1373.9606],[-68.58018,9.99368,1319.2576],[-68.57979,9.99789,1174.1567],[-68.57979,10.00006,1143.9143],[-68.58054,10.002,1203.1167],[-68.58224,10.00502,1257.3328],[-68.58576,10.00758,1272.6785],[-68.59056,10.00952,1190.9753],[-68.62302,10.01138,1463.3501],[-68.62994,10.01037,1485.2109],[-68.63736,10.00681,1430.6631],[-68.64673,9.9965,1293.4529],[-68.65108,9.98918,1293.3934],[-68.65671,9.97748,1412.05],[-68.66175,9.97322,1475.187],[-68.6697,9.9688,1363.6113],[-68.68123,9.9659,1207.9829],[-68.68926,9.96459,1150.8101],[-68.6964,9.96474,992.9434],[-68.70149,9.96583,845.4431],[-68.70813,9.96544,751.0282],[-68.72712,9.96156,900.9065],[-68.7435,9.96694,747.2084],[-68.74931,9.96709,624.6038],[-68.79326,9.96358,606.4682],[-68.80432,9.96087,742.4206],[-68.80941,9.95621,732.6195],[-68.81386,9.9487,839.3452],[-68.81794,9.93162,654.9369],[-68.81913,9.92138,707.4863],[-68.82143,9.91159,693.7272],[-68.82504,9.90361,635.7867],[-68.8407,9.88601,402.1943],[-68.84827,9.87033,414.4071],[-68.8499,9.86351,418.4578],[-68.85179,9.86002,463.6788],[-68.85478,9.85604,455.4956],[-68.85889,9.85317,526.0969],[-68.88501,9.85108,429.2073],[-68.97772,9.85728,231.5077],[-68.98121,9.80441,292.9726],[-68.98129,9.79297,229.7022],[-68.98082,9.7833,213.9168],[-68.9808,9.78227,213.9168],[-68.98013,9.7692,205.1632],[-68.99229,9.73832,228.2669],[-68.9924,9.72835,176.3228],[-68.98811,9.72191,170.8292],[-68.97514,9.71049,231.9726],[-68.97237,9.7029,251.9991],[-68.96811,9.67993,154.2827],[-68.94933,9.64672,146.997],[-68.94044,9.6098,138.2507],[-68.91837,9.57252,129.3384],[-68.91093,9.55549,125.3283],[-68.90879,9.52704,122.9876],[-68.90543,9.50921,119.7562],[-68.89917,9.49707,115.5329],[-68.88791,9.48952,116.6007],[-68.87212,9.43953,106.7958],[-68.8622,9.431,105.0919],[-68.84517,9.42534,102.5069],[-68.82104,9.41966,106.1128],[-68.7983,9.40121,110.257],[-68.78272,9.387,95.4507],[-68.77135,9.37563,93.7092],[-68.75004,9.35579,92.468],[-68.71738,9.32739,87.7836],[-68.68332,9.30465,92.3367],[-68.66203,9.29189,84.2104],[-68.64216,9.27768,82.9259],[-68.62798,9.26491,83.4326],[-68.6109,9.24362,80.0839],[-68.60524,9.22517,78.8143],[-68.60379,9.20104,89.4189],[-68.60666,9.1783,86.7633],[-68.63079,9.03066,73.2814],[-68.6464,8.97103,69.0425],[-68.65066,8.95542,79.5251],[-68.65211,8.94545,71.3782],[-68.65025,8.93175,68.5893],[-68.63619,8.89747,68.3279],[-68.61839,8.87894,67.9358],[-68.61183,8.87574,67.1317],[-68.60108,8.8724,66.0792],[-68.59157,8.86806,66.0764],[-68.58738,8.8652,66.601],[-68.58405,8.86194,66.633],[-68.58204,8.85775,66.2088],[-68.5824,8.85279,66.0545],[-68.58614,8.84853,65.8053],[-68.5901,8.84571,66.0767],[-68.61012,8.84277,71.8147],[-68.61847,8.84013,74.9487],[-68.62203,8.83788,77.1969],[-68.62524,8.83378,66.5541],[-68.62978,8.82447,66.5115],[-68.63286,8.82075,66.7486],[-68.63705,8.81796,66.706],[-68.6472,8.81429,68.2278],[-68.65167,8.81189,70.9846],[-68.65947,8.80631,72.7992],[-68.66368,8.80461,71.8867],[-68.66834,8.80546,71.5303],[-68.67239,8.80786,71.4327],[-68.67598,8.81088,69.167],[-68.67981,8.81313,67.1995],[-68.68454,8.81298,67.5644],[-68.68926,8.8115,67.9643],[-68.69857,8.80724,69.0139],[-68.738,8.79879,73.5319],[-68.74843,8.79546,72.403],[-68.75032,8.79218,69.9914],[-68.74911,8.78861,73.2988],[-68.73893,8.78404,74.2135],[-68.72378,8.78094,69.7764],[-68.71862,8.77931,76.0287],[-68.70955,8.77443,69.0251],[-68.70399,8.76908,68.8338],[-68.69787,8.76133,68.1006],[-68.68859,8.74479,71.1283],[-68.68554,8.73461,76.3634],[-68.68456,8.72616,69.8415],[-68.68464,8.71988,68.5158],[-68.6828,8.71461,76.1503],[-68.67872,8.71097,67.8566],[-68.66978,8.7081,68.598],[-68.66242,8.70389,68.6382],[-68.65474,8.69459,68.4013],[-68.64803,8.68211,72.5984],[-68.63172,8.66921,75.0189],[-68.57353,8.63539,76.7964],[-68.50232,8.61258,66.6308],[-68.4884,8.6118,64.6081],[-68.45326,8.61389,62.0487],[-68.44641,8.6125,70.7864],[-68.43936,8.61017,65.2982],[-68.43031,8.6056,63.5097],[-68.42305,8.60374,70.6064],[-68.41375,8.60575,62.1177],[-68.40848,8.60885,64.5997],[-68.40003,8.61537,60.6499],[-68.39564,8.61777,58.838],[-68.3867,8.61785,64.6749],[-68.37414,8.6156,60.2316],[-68.34954,8.60738,71.7424],[-68.32624,8.60196,67.9016],[-68.30552,8.60568,66.3395],[-68.29291,8.60606,65.665],[-68.23795,8.5994,58.4727],[-68.22606,8.59986,56.1846],[-68.21756,8.60134,56.2039],[-68.20816,8.60552,56.1897],[-68.20289,8.60707,56.371],[-68.19154,8.6094,55.8287],[-68.18521,8.61002,55.7769],[-68.16539,8.60893,55.576],[-68.14612,8.60467,59.9083],[-68.09287,8.58309,55.6354],[-68.08731,8.5817,63.374],[-68.07276,8.57968,66.2212],[-68.06336,8.57542,63.9332],[-68.05662,8.57108,62.5917],[-68.05258,8.56074,55.238],[-68.05085,8.55346,61.0395],[-68.04734,8.5464,62.5337],[-68.04445,8.54222,62.2193],[-68.03649,8.5385,53.5131],[-68.0244,8.53281,55.1786],[-68.0169,8.54369,54.8571],[-68.01357,8.54524,55.3306],[-68.00339,8.54702,53.7577],[-68.00029,8.5485,54.0958],[-67.99789,8.55074,59.3221],[-67.99602,8.55547,59.5512],[-67.9953,8.5616,60.6757],[-67.99716,8.57092,54.2622],[-67.99925,8.5762,57.5594],[-68.00112,8.57953,56.3718],[-68.00972,8.58984,60.3119],[-68.01181,8.59451,55.5098],[-68.01334,8.59986,59.7358],[-68.01287,8.608,58.9741],[-68.01117,8.61761,61.7448],[-67.9992,8.64898,60.5865],[-67.99863,8.65464,55.9945],[-67.99897,8.66193,54.8941],[-68.00367,8.68125,62.0024],[-68.00517,8.70911,62.6924],[-68.00698,8.71794,55.7015],[-68.00951,8.72438,67.247],[-68.01217,8.72856,63.3993],[-68.01372,8.73611,64.2228],[-68.01272,8.7496,65.0339],[-67.99272,8.83114,66.1534],[-67.97685,8.85233,69.0279],[-67.96964,8.89747,61.575],[-67.96698,8.9078,72.5867],[-67.96344,8.91509,67.1413],[-67.95554,8.92385,61.6052],[-67.94944,8.92865,66.5628],[-67.93959,8.93449,69.425],[-67.92972,8.94535,74.5653],[-67.92577,8.94829,71.5868],[-67.91254,8.95581,74.9543],[-67.90905,8.95925,70.6012],[-67.90327,8.96739,79.9317],[-67.87526,9.01594,67.1923],[-67.8657,9.03736,74.2174],[-67.855,9.07257,71.9525],[-67.85397,9.08516,76.7722],[-67.87105,9.18259,83.6535],[-67.90724,9.26243,96.9808],[-67.94001,9.30543,96.5243],[-67.94218,9.31,102.7476],[-67.94195,9.3176,99.3058],[-67.93993,9.32708,107.6228],[-67.92471,9.35881,109.4618],[-67.91934,9.3786,113.3573],[-67.91673,9.40759,110.4072],[-67.91673,9.44973,116.6037],[-67.9174,9.45593,120.781],[-67.9198,9.46712,120.9613],[-67.92947,9.49645,121.6829],[-67.92996,9.49932,121.0461],[-67.93164,9.5042,122.9928],[-67.93443,9.50707,123.2809],[-67.93835,9.5097,125.7388],[-67.943,9.5118,125.4199],[-67.94636,9.51474,127.6345],[-67.94838,9.52035,131.7168],[-67.95246,9.5357,139.6568],[-67.95693,9.53857,143.286],[-67.96127,9.5395,146.3697],[-67.96406,9.54182,140.9206],[-67.96331,9.54639,143.5544],[-67.95585,9.55386,147.7364],[-67.94983,9.55774,148.5013],[-67.93481,9.56541,150.4255],[-67.9314,9.56859,148.7464],[-67.92947,9.5727,157.534],[-67.93342,9.58954,191.9122],[-67.93096,9.59637,195.9305],[-67.92637,9.60422,176.0419],[-67.91533,9.61647,185.4234],[-67.89916,9.63011,288.5746],[-67.89484,9.63244,251.0801],[-67.8904,9.63386,255.2737],[-67.88551,9.63316,258.7536],[-67.88097,9.6312,242.3586],[-67.87681,9.62848,239.3941],[-67.87213,9.62616,219.8354],[-67.86647,9.62507,244.9207],[-67.86009,9.62484,257.5324],[-67.85402,9.62569,240.2597],[-67.84833,9.62716,252.0512],[-67.82487,9.63789,261.5458],[-67.81629,9.64316,252.3535],[-67.78059,9.67683,311.4276],[-67.77668,9.67962,312.55],[-67.77211,9.68132,291.9559],[-67.76165,9.68179,287.0209],[-67.7563,9.68272,277.5538],[-67.75521,9.69259,296.5197],[-67.75787,9.7098,304.1595],[-67.78338,9.78142,932.1597],[-67.78581,9.78568,918.8475],[-67.78937,9.79839,673.5396],[-67.78883,9.82705,876.5814],[-67.83169,9.82493,512.0424],[-67.86725,9.81966,502.3191],[-67.8798,9.81912,588.6326],[-67.93605,9.82299,462.1978],[-67.97758,9.83193,667.1169],[-67.98789,9.83519,519.9225],[-67.99323,9.8386,541.3163],[-67.99778,9.84271,538.9545],[-68.00285,9.85395,550.8798],[-68.00246,9.85948,538.0998],[-68.00083,9.86389,577.124],[-67.98897,9.87459,550.0024],[-67.98657,9.8787,512.0079],[-67.9869,9.88322,559.559],[-67.98936,9.88733,558.4616],[-67.99533,9.88934,678.9174],[-67.99933,9.88927,717.7614],[-68.00313,9.88818,749.4996],[-68.02429,9.87622,659.2301],[-68.0447,9.86924,576.2025],[-68.06535,9.85537,473.0664]]]}
,"properties": {"ISO3166-1-Alpha-3": "VEN","country": "Venezuela","fill": "#00F","name": "Cojedes","area_km2": 13916.41,"hist_schema_id": "Elevation0-9000","hist_area_km2": {"50": 1371.87,"75": 4640.05,"100": 1859.99,"125": 1289.17,"150": 634.7,"175": 463.63,"200": 332.06,"225": 245.3,"250": 205.07,"275": 186.32,"300": 173.26,"325": 161.99,"350": 164.71,"375": 191.28,"400": 231.04,"425": 251.46,"450": 217.93,"475": 176.34,"500": 147.42,"525": 132.8,"550": 118.94,"575": 101.0,"600": 86.31,"625": 75.47,"650": 61.34,"675": 53.09,"700": 46.12,"725": 40.2,"750": 32.89,"775": 25.96,"800": 20.88,"825": 15.81,"850": 13.05,"875": 11.15,"900": 9.08,"925": 7.64,"950": 7.6,"975": 6.91,"1000": 6.43,"1025": 5.85,"1050": 6.14,"1075": 6.08,"1100": 5.68,"1125": 6.39,"1150": 5.66,"1175": 5.62,"1200": 5.2,"1225": 4.74,"1250": 4.76,"1275": 4.53,"1300": 4.16,"1325": 3.9,"1350": 3.84,"1375": 3.61,"1400": 3.4,"1425": 3.13,"1450": 2.99,"1475": 3.19,"1500": 2.34,"1525": 1.88,"1550": 1.63,"1575": 1.17,"1600": 1.06,"1625": 1.17,"1650": 0.75,"1675": 0.61,"1700": 0.33,"1725": 0.17}}}