{"type":"Feature","properties":{"GID_2":"VEN.4.7_1","GID_0":"VEN","country":"Venezuela","GID_1":"VEN.4_1","province":"Aragua","NL_NAME_1":"NA","county":"JoséRRevenga","VARNAME_2":"NA","NL_NAME_2":"NA","TYPE_2":"Municipio","ENGTYPE_2":"Municipality","CC_2":"NA","HASC_2":"NA","name":"José_R_Revenga.county"},
"geometry":{"type": "MultiPolygon","coordinates": [[[[-67.1611,10.2025,924.0004],[-67.1568,10.2168,868.6727],[-67.1461,10.2322,852.2358],[-67.1436,10.2463,512.989],[-67.151,10.2699,576.9194],[-67.1616,10.2932,767.86],[-67.1635,10.3,867.6678],[-67.1626,10.3094,1272.0615],[-67.1519,10.3191,1316.9775],[-67.1341,10.3297,1520.3013],[-67.1392,10.3625,1845.3589],[-67.1444,10.3784,1795.9364],[-67.157,10.4006,2038.4036],[-67.1674,10.4137,1979.0769],[-67.2176,10.3403,835.1004],[-67.2223,10.3455,851.1002],[-67.2232,10.3228,847.6673],[-67.228,10.3038,871.7772],[-67.2308,10.262,945.6713],[-67.2242,10.225,872.013],[-67.2194,10.2184,806.7216],[-67.1966,10.2098,668.8202],[-67.1852,10.2098,793.0612],[-67.1738,10.2041,1106.6616],[-67.1611,10.2025,924.0004]]]]}}