{"type": "Feature","bbox": [-64.5093,10.0035,-61.8474,10.766],"geometry": {"type": "MultiPolygon","coordinates": [[[[-64.2786,10.0264,999.7825],[-64.2625,10.0209,638.2101],[-64.2459,10.009,809.0496],[-64.2322,10.0049,815.1227],[-64.1908,10.0035,943.959],[-64.179,10.0066,1312.6414],[-64.1581,10.0158,1546.4738],[-64.1256,10.0272,2033.734],[-64.0805,10.0383,1415.5452],[-64.0413,10.0583,1345.6787],[-63.9765,10.0651,1769.3718],[-63.8821,10.0851,1918.6735],[-63.8626,10.0913,1940.1343],[-63.8448,10.0997,1997.941],[-63.8321,10.1104,1699.4064],[-63.8186,10.1247,1239.1183],[-63.8041,10.1423,1066.4517],[-63.7772,10.185,1121.4141],[-63.7636,10.1963,969.7952],[-63.7502,10.2011,872.5823],[-63.7336,10.2045,817.969],[-63.6596,10.2152,1541.6616],[-63.607,10.2322,1095.4912],[-63.5747,10.2515,612.616],[-63.5581,10.263,787.3065],[-63.549,10.2716,431.722],[-63.5156,10.2944,280.6691],[-63.4963,10.305,505.3511],[-63.4832,10.3101,183.0311],[-63.4658,10.3123,237.7034],[-63.4494,10.3117,276.9879],[-63.4297,10.3078,208.229],[-63.4059,10.3007,655.9304],[-63.3577,10.2722,432.3205],[-63.3392,10.2645,507.433],[-63.3129,10.2562,658.0251],[-63.299,10.2486,500.1855],[-63.2726,10.2308,947.1743],[-63.2454,10.2201,576.307],[-63.2315,10.2173,429.2935],[-63.2104,10.2175,205.3127],[-63.182,10.2305,4.7829],[-63.1498,10.2379,2.8197],[-63.136,10.2378,2.764],[-63.1278,10.2344,2.7769],[-63.1244,10.236,2.6693],[-63.1012,10.2332,4.4152],[-63.098,10.2275,4.17],[-63.0905,10.2225,6.016],[-63.0837,10.2207,3.7727],[-63.0598,10.2267,226.7054],[-63.053,10.2253,142.3799],[-63.0486,10.2201,88.3671],[-63.0458,10.2113,103.1017],[-63.0386,10.1725,8.1072],[-63.0251,10.1593,24.7406],[-63.0223,10.1595,26.6973],[-63.0119,10.1541,8.8977],[-62.9875,10.1305,8.0589],[-62.9777,10.1258,6.0769],[-62.9671,10.1258,21.9972],[-62.9546,10.1293,8.0974],[-62.9245,10.1245,1.9638],[-62.9121,10.1267,9.8329],[-62.9009,10.1311,2.0118],[-62.8906,10.1257,3.8968],[-62.883,10.1169,8.5079],[-62.8777,10.1059,12.4269],[-62.8747,10.0937,10.5965],[-62.8705,10.0917,9.9853],[-62.8633,10.0919,10.2416],[-62.8558,10.0957,11.3877],[-62.8418,10.1091,11.3192],[-62.8314,10.1087,3.6267],[-62.8266,10.1037,3.2912],[-62.8221,10.0901,1.7621],[-62.8109,10.0759,1.8013],[-62.8049,10.0707,2.6703],[-62.7893,10.0693,21.2965],[-62.7844,10.0751,7.0941],[-62.7808,10.0997,2.5254],[-62.777,10.1061,1.8613],[-62.7713,10.1097,3.8371],[-62.7639,10.1109,1.495],[-62.7398,10.1085,9.122],[-62.7269,10.1017,8.1617],[-62.7178,10.0937,2.0719],[-62.71,10.0911,3.7366],[-62.6797,10.0933,12.9865],[-62.6359,10.1101,17.4179],[-62.6175,10.1301,0.0],[-62.6141,10.1363,0.0],[-62.6123,10.1441,0.0],[-62.6124,10.1515,0.0],[-62.6181,10.1747,0.0],[-62.6263,10.1897,0.0],[-62.6488,10.2067,0.0],[-62.6648,10.2329,0.0],[-62.6693,10.2349,0.0],[-62.6682,10.2601,0.0],[-62.6704,10.2718,1.1324],[-62.6735,10.2801,0.0],[-62.6763,10.281,0.0],[-62.679,10.286,0.0],[-62.679,10.296,0.0],[-62.6849,10.2991,0.0],[-62.6874,10.3024,0.0],[-62.6868,10.3055,1.208],[-62.6757,10.3096,0.0],[-62.6707,10.3079,0.0],[-62.6674,10.3021,0.0],[-62.6629,10.3063,0.0],[-62.6543,10.3196,0.0],[-62.6499,10.3315,0.0],[-62.6501,10.341,0.0],[-62.6535,10.3512,0.0],[-62.6595,10.3596,0.0],[-62.6735,10.3721,0.0],[-62.6754,10.3755,0.0],[-62.6849,10.3821,0.0],[-62.6921,10.3896,1.7023],[-62.7118,10.4157,0.0],[-62.7226,10.4257,0.0],[-62.7354,10.441,0.0],[-62.7388,10.4474,0.0],[-62.7468,10.4551,0.0],[-62.7596,10.4749,0.0],[-62.7657,10.4935,0.0],[-62.7702,10.4988,0.0],[-62.7779,10.5013,6.3559],[-62.7957,10.5015,7.5198],[-62.8118,10.4979,0.0],[-62.8354,10.4999,0.0],[-62.8329,10.5268,0.0],[-62.8299,10.5357,22.3927],[-62.8193,10.5382,0.0],[-62.8029,10.5488,2.1413],[-62.7974,10.5507,0.0],[-62.7924,10.556,0.0],[-62.7826,10.5593,4.3512],[-62.7771,10.5593,0.0],[-62.7696,10.5621,1.834],[-62.7593,10.5618,0.0],[-62.7562,10.5599,0.0],[-62.7554,10.5612,0.0],[-62.7571,10.5654,0.0],[-62.7535,10.5704,4.1366],[-62.7415,10.5765,6.6344],[-62.736,10.5771,16.2855],[-62.7282,10.5818,5.25],[-62.7337,10.5771,4.9569],[-62.7432,10.5749,10.1669],[-62.7529,10.5696,4.1366],[-62.7554,10.5665,13.9215],[-62.754,10.5615,0.0],[-62.7487,10.5565,0.0],[-62.7335,10.5601,0.0],[-62.7232,10.5585,0.0],[-62.7185,10.5599,10.8256],[-62.6899,10.5604,0.0],[-62.6826,10.5654,0.0],[-62.6818,10.5685,1.2746],[-62.6729,10.5763,12.3361],[-62.6579,10.5779,12.1749],[-62.6521,10.576,0.0],[-62.639,10.5754,0.0],[-62.6351,10.5726,0.0],[-62.6287,10.5737,0.0],[-62.6207,10.5715,0.0],[-62.6176,10.5721,16.2751],[-62.5926,10.5649,0.0],[-62.5782,10.5657,2.3222],[-62.5704,10.5626,7.2493],[-62.5671,10.559,0.7312],[-62.5499,10.5521,3.808],[-62.544,10.5521,11.6059],[-62.541,10.5501,0.0],[-62.5379,10.5524,8.3261],[-62.5365,10.5504,0.0],[-62.5318,10.549,1.3258],[-62.5276,10.5435,0.0],[-62.516,10.5485,0.0],[-62.5121,10.5479,0.0],[-62.511,10.5463,0.0],[-62.5079,10.5468,0.0],[-62.5037,10.5518,5.1399],[-62.4979,10.5535,0.0],[-62.4921,10.5513,0.0],[-62.4857,10.5538,15.2327],[-62.4837,10.551,1.1253],[-62.481,10.5515,0.0],[-62.479,10.5485,0.0],[-62.4674,10.5526,22.5779],[-62.4635,10.549,10.6873],[-62.4576,10.5485,3.5933],[-62.4521,10.5379,0.0],[-62.4471,10.5376,3.3226],[-62.441,10.5332,0.0],[-62.4376,10.5335,0.0],[-62.4354,10.5357,4.6525],[-62.4335,10.534,0.0],[-62.4299,10.5346,0.0],[-62.4224,10.5407,0.0],[-62.4196,10.5454,4.6901],[-62.4129,10.5501,0.0],[-62.4076,10.5513,2.8433],[-62.404,10.5468,0.0],[-62.3971,10.5526,1.4141],[-62.3915,10.5546,2.7375],[-62.3812,10.5504,0.0],[-62.3754,10.5451,0.0],[-62.3651,10.5418,0.0],[-62.3599,10.5324,0.0],[-62.3507,10.5343,0.4042],[-62.3457,10.5321,1.334],[-62.3413,10.5349,0.0],[-62.3374,10.5351,0.0],[-62.3329,10.5399,0.8099],[-62.3221,10.5388,7.1948],[-62.3193,10.5438,2.0304],[-62.3143,10.5471,2.4612],[-62.311,10.5557,6.6602],[-62.3063,10.5621,7.7514],[-62.2982,10.5638,0.0],[-62.2985,10.5665,0.0],[-62.2968,10.5685,0.0],[-62.2912,10.5668,0.0],[-62.2912,10.5688,0.0],[-62.2949,10.569,0.0],[-62.2949,10.5751,0.0],[-62.2899,10.5701,0.0],[-62.2882,10.5662,0.0],[-62.2887,10.5704,0.0],[-62.2926,10.5749,0.0],[-62.286,10.591,4.3177],[-62.2829,10.596,12.4193],[-62.2774,10.5968,0.0],[-62.2757,10.5996,1.4004],[-62.2729,10.599,0.0],[-62.2704,10.6088,17.9325],[-62.266,10.6129,0.0],[-62.2649,10.6171,5.9025],[-62.2621,10.6193,0.0],[-62.2562,10.6296,2.6377],[-62.2537,10.6301,0.0],[-62.2501,10.6349,8.9106],[-62.2462,10.6335,0.0],[-62.2399,10.6349,7.9012],[-62.2376,10.6332,0.0],[-62.2279,10.6346,7.6125],[-62.2215,10.6315,0.0],[-62.2126,10.634,0.0],[-62.2099,10.6362,4.237],[-62.2057,10.6346,0.4135],[-62.2026,10.6354,0.0],[-62.2018,10.6329,0.0],[-62.1993,10.634,13.4621],[-62.1868,10.6332,0.0],[-62.1804,10.634,8.2852],[-62.1774,10.6371,32.198],[-62.1643,10.6357,12.4187],[-62.161,10.6382,0.0],[-62.1568,10.6385,0.0],[-62.1557,10.6426,26.719],[-62.154,10.6429,0.7951],[-62.1526,10.6368,2.9343],[-62.1468,10.634,22.7817],[-62.1426,10.6338,0.0],[-62.1399,10.6357,6.2253],[-62.1385,10.6329,0.0],[-62.1357,10.634,34.5668],[-62.1338,10.6329,0.0],[-62.1326,10.639,9.5389],[-62.1301,10.6399,0.0],[-62.1285,10.639,0.0],[-62.1274,10.6343,4.9253],[-62.1224,10.6335,0.0],[-62.1204,10.6313,0.0],[-62.1193,10.6343,24.8707],[-62.1171,10.6346,1.5436],[-62.1137,10.6293,0.0],[-62.1085,10.6343,5.8516],[-62.104,10.631,8.5209],[-62.101,10.6313,5.6709],[-62.0999,10.6329,49.8841],[-62.0949,10.6315,0.0],[-62.094,10.6335,6.5515],[-62.0913,10.6338,4.8128],[-62.0899,10.631,0.0],[-62.0868,10.6299,0.0],[-62.0735,10.631,8.4024],[-62.0779,10.6376,0.0],[-62.0746,10.6415,0.0],[-62.0662,10.6404,0.0],[-62.0646,10.6329,18.4685],[-62.0632,10.6321,18.4685],[-62.0596,10.6354,0.0],[-62.0549,10.6349,0.0],[-62.0563,10.6376,0.0],[-62.0551,10.6401,0.0],[-62.0521,10.6393,0.0],[-62.0518,10.641,3.8224],[-62.0488,10.641,4.5711],[-62.0468,10.639,0.0],[-62.0468,10.6326,0.0],[-62.0343,10.6313,0.0],[-62.0265,10.6343,0.0],[-62.0262,10.6374,0.0],[-62.0282,10.6396,1.4555],[-62.0246,10.644,8.5485],[-62.019,10.6454,0.0],[-62.0151,10.6446,4.2968],[-62.0135,10.6379,0.0],[-62.0107,10.6382,0.0],[-62.0082,10.641,6.9368],[-61.9968,10.641,8.9154],[-61.9954,10.644,46.8163],[-61.9912,10.6454,0.0],[-61.991,10.6504,1.0271],[-61.9879,10.6518,0.0],[-61.9832,10.6515,4.2003],[-61.981,10.6443,5.6563],[-61.9771,10.6421,26.5539],[-61.9696,10.6426,6.5042],[-61.9679,10.6446,2.3145],[-61.961,10.6421,28.1624],[-61.9579,10.6426,2.377],[-61.9549,10.6435,0.0],[-61.9501,10.6501,0.0],[-61.9451,10.6488,2.7693],[-61.9424,10.6538,0.0],[-61.9432,10.6568,0.0],[-61.9399,10.6604,0.0],[-61.9354,10.6607,5.287],[-61.934,10.664,31.3784],[-61.931,10.6637,0.0],[-61.9299,10.6576,0.0],[-61.9249,10.6563,2.7354],[-61.9188,10.6571,12.7148],[-61.9179,10.659,50.1535],[-61.9093,10.6621,16.8946],[-61.9093,10.664,53.8609],[-61.9015,10.6649,0.0],[-61.9018,10.6668,0.0],[-61.9046,10.6668,51.3765],[-61.9068,10.6699,39.8988],[-61.9093,10.6704,100.5027],[-61.9082,10.6743,0.0],[-61.9099,10.6765,6.804],[-61.9085,10.6782,22.9893],[-61.9054,10.6776,0.0],[-61.9062,10.6832,85.4079],[-61.9029,10.6854,0.0],[-61.9004,10.6926,30.0469],[-61.8974,10.6957,20.6166],[-61.8954,10.6951,10.827],[-61.8954,10.6935,16.6036],[-61.8999,10.6826,0.0],[-61.8999,10.6771,0.0],[-61.8932,10.6726,-0.2486],[-61.8907,10.676,26.8087],[-61.8879,10.676,0.0],[-61.8885,10.6826,10.4323],[-61.8876,10.6838,51.0622],[-61.8838,10.6832,0.0],[-61.8824,10.6868,26.112],[-61.8843,10.6938,64.2881],[-61.8771,10.7004,0.0],[-61.8771,10.7026,0.0],[-61.8799,10.704,12.7428],[-61.8771,10.7096,0.0],[-61.8787,10.7129,0.0],[-61.8776,10.7174,3.5992],[-61.8787,10.7188,11.1686],[-61.8768,10.7212,0.0],[-61.8787,10.7229,17.1224],[-61.8768,10.7232,0.0],[-61.8751,10.7265,0.0],[-61.8685,10.7226,0.0],[-61.8626,10.731,12.1674],[-61.8571,10.7279,2.0976],[-61.8574,10.7321,34.2011],[-61.854,10.7313,0.0],[-61.8474,10.7343,18.898],[-61.851,10.7379,9.9736],[-61.861,10.7401,88.8136],[-61.8643,10.7424,28.8584],[-61.8637,10.7454,47.0996],[-61.861,10.7471,16.3597],[-61.8618,10.7488,0.0],[-61.8671,10.746,0.0],[-61.8682,10.7413,41.9668],[-61.8749,10.7382,3.2744],[-61.874,10.7346,0.0],[-61.8765,10.7296,21.6746],[-61.8835,10.7315,5.9969],[-61.8857,10.7301,103.3574],[-61.8929,10.7307,0.0],[-61.8946,10.7288,3.4641],[-61.8957,10.731,0.0],[-61.8976,10.7313,0.0],[-61.9026,10.731,0.0],[-61.9049,10.7288,8.4256],[-61.906,10.7304,8.4256],[-61.9096,10.7296,8.7403],[-61.9101,10.7315,0.0],[-61.9135,10.7318,0.0],[-61.914,10.734,0.0],[-61.9162,10.7335,11.2586],[-61.9174,10.7301,6.7434],[-61.9162,10.7263,178.7402],[-61.9199,10.7212,54.9548],[-61.9232,10.721,4.9946],[-61.9257,10.714,0.0],[-61.9337,10.7149,26.7528],[-61.9349,10.7168,0.0],[-61.9399,10.7146,30.6149],[-61.9429,10.7174,29.4673],[-61.9443,10.7221,0.0],[-61.9496,10.7212,16.8918],[-61.9515,10.7235,2.4941],[-61.9585,10.7243,31.6202],[-61.9618,10.7229,0.0],[-61.9599,10.7193,0.0],[-61.9604,10.716,0.0],[-61.9668,10.7154,5.4969],[-61.9674,10.7132,63.181399999999996],[-61.9729,10.7146,9.9964],[-61.9787,10.7113,46.2366],[-61.9807,10.7165,7.1438],[-61.9799,10.719,0.0],[-61.9882,10.7187,187.9354],[-61.991,10.7238,0.0],[-61.9985,10.7251,57.6805],[-61.9993,10.7279,7.1335],[-62.004,10.7265,0.0],[-62.0004,10.7232,10.4134],[-62.0021,10.7182,0.0],[-62.0001,10.7174,20.7972],[-62.0001,10.7132,16.1054],[-62.0043,10.7126,0.0],[-62.0054,10.7088,0.0],[-62.0076,10.7079,11.194],[-62.014,10.7115,7.5462],[-62.0171,10.7101,76.0892],[-62.0171,10.7074,153.1229],[-62.0193,10.7054,72.1779],[-62.0246,10.7093,0.0],[-62.0315,10.7085,8.8346],[-62.0318,10.7115,57.7213],[-62.0262,10.7171,0.0],[-62.0371,10.716,27.7002],[-62.0385,10.7174,0.0],[-62.0401,10.7157,23.6946],[-62.0449,10.7165,58.1235],[-62.0451,10.7179,0.0],[-62.0515,10.7171,0.0],[-62.054,10.7121,3.6689],[-62.0512,10.7107,9.0685],[-62.051,10.704,0.0],[-62.0571,10.7013,32.086],[-62.0601,10.7035,7.1371],[-62.064,10.7038,0.0],[-62.0707,10.7004,30.236],[-62.0818,10.706,0.0],[-62.0846,10.706,0.0],[-62.0854,10.7046,64.3846],[-62.0871,10.7054,64.3846],[-62.0918,10.7035,0.0],[-62.094,10.7001,25.4643],[-62.0962,10.6996,3.7267],[-62.1004,10.7057,30.7164],[-62.1004,10.709,0.0],[-62.1046,10.7093,0.0],[-62.1057,10.7079,25.6205],[-62.1074,10.7085,0.0],[-62.1079,10.7054,0.0],[-62.111,10.7035,0.0],[-62.1118,10.7007,0.0],[-62.1232,10.7026,0.0],[-62.1304,10.701,21.1816],[-62.139,10.7029,-0.0325],[-62.139,10.7051,0.1056],[-62.1426,10.7082,0.0],[-62.1399,10.6982,25.7078],[-62.1512,10.6943,0.0],[-62.1512,10.6904,6.8864],[-62.1546,10.6879,3.4374],[-62.1554,10.6849,29.5212],[-62.171,10.6835,44.5155],[-62.1715,10.6851,0.0],[-62.1799,10.6846,34.5687],[-62.1857,10.686,0.0],[-62.1874,10.6885,0.0],[-62.1871,10.6915,0.0],[-62.1893,10.6918,30.9246],[-62.1921,10.6974,0.0],[-62.196,10.6993,0.0],[-62.1985,10.6988,13.7632],[-62.1996,10.7004,13.7632],[-62.2054,10.6985,0.0],[-62.206,10.696,40.7287],[-62.2135,10.6954,114.4546],[-62.2249,10.699,0.0],[-62.2351,10.6982,26.2507],[-62.2429,10.7007,0.0],[-62.2532,10.6938,0.0],[-62.2571,10.6968,0.0],[-62.2576,10.701,0.0],[-62.2607,10.6996,39.3978],[-62.2643,10.7007,0.0],[-62.2671,10.7001,0.0],[-62.2721,10.6946,70.4586],[-62.2746,10.6957,0.0],[-62.2785,10.6912,30.155],[-62.2815,10.6912,0.0],[-62.2829,10.6893,113.2734],[-62.2901,10.6935,8.0685],[-62.2904,10.699,0.0],[-62.2951,10.7032,0.0],[-62.3007,10.696,13.1625],[-62.3079,10.6988,35.844],[-62.309,10.7021,6.9178],[-62.3068,10.7032,0.0],[-62.3074,10.7049,0.0],[-62.3096,10.7038,143.256],[-62.3107,10.7071,0.0],[-62.321,10.7038,0.0],[-62.3246,10.7079,0.0],[-62.3371,10.7113,0.0],[-62.3424,10.7104,49.2921],[-62.344,10.7129,0.0],[-62.3501,10.7118,15.0706],[-62.3524,10.7093,42.9358],[-62.3637,10.7149,0.0],[-62.371,10.7138,0.0],[-62.3732,10.711,15.9389],[-62.3751,10.711,0.0],[-62.3807,10.7163,0.0],[-62.3851,10.7171,0.0],[-62.3876,10.7154,112.9457],[-62.3954,10.7168,40.0372],[-62.4021,10.7151,18.2378],[-62.404,10.7171,0.0],[-62.4096,10.7165,77.4412],[-62.4235,10.7196,0.0],[-62.429,10.7168,70.8467],[-62.4321,10.7193,0.0],[-62.436,10.7196,60.7396],[-62.4415,10.7243,0.0],[-62.4446,10.7212,5.1549],[-62.4496,10.7229,0.0],[-62.4588,10.721,0.0],[-62.4654,10.724,0.0],[-62.4665,10.7263,2.6145],[-62.4718,10.7243,13.6023],[-62.4754,10.726,0.0],[-62.4757,10.7243,71.7819],[-62.4776,10.7251,0.0],[-62.4774,10.7232,1.2467],[-62.4796,10.7226,1.3466],[-62.4849,10.7279,0.0],[-62.4882,10.7265,28.6103],[-62.489,10.7279,0.0],[-62.4924,10.7276,0.0],[-62.4926,10.7254,42.462],[-62.4949,10.7254,60.2776],[-62.496,10.7271,0.0],[-62.4996,10.726,0.0],[-62.5015,10.7285,2.8073],[-62.5032,10.7276,6.1277],[-62.5065,10.7299,20.8535],[-62.5112,10.7301,0.0],[-62.5129,10.7279,68.4992],[-62.5165,10.7299,7.4306],[-62.5176,10.7285,18.2244],[-62.5246,10.7346,0.0],[-62.5274,10.7332,39.8576],[-62.5307,10.7346,0.0],[-62.5332,10.7321,7.5546],[-62.5385,10.7351,12.8392],[-62.5421,10.7329,25.0222],[-62.5451,10.7343,0.0],[-62.5457,10.7329,40.9534],[-62.5507,10.7329,2.9682],[-62.5543,10.7374,0.0],[-62.5568,10.736,42.0226],[-62.559,10.7376,0.0],[-62.5604,10.7354,77.7422],[-62.564,10.7354,8.5467],[-62.5665,10.7387,0.0],[-62.5704,10.7371,0.0],[-62.5735,10.7387,0.0],[-62.5754,10.736,1.2789],[-62.5796,10.7376,2.1138],[-62.5838,10.7349,15.5445],[-62.591,10.7382,0.0],[-62.5926,10.7415,0.0],[-62.5982,10.7415,0.0],[-62.6004,10.7396,25.3742],[-62.6046,10.7393,4.1669],[-62.6104,10.7421,0.0],[-62.6321,10.7435,25.557],[-62.634,10.7462,0.0],[-62.6396,10.7421,0.0],[-62.6451,10.7424,10.8919],[-62.6476,10.7443,0.0],[-62.6501,10.7424,0.0],[-62.6543,10.7437,8.5013],[-62.6574,10.7426,8.7256],[-62.6585,10.7443,0.0],[-62.661,10.7443,0.0],[-62.6646,10.7415,13.6182],[-62.6685,10.7432,0.0],[-62.6701,10.7413,33.9877],[-62.674,10.7424,9.2324],[-62.6785,10.7465,0.0],[-62.6904,10.7457,0.0],[-62.6946,10.7476,2.5796],[-62.7049,10.7574,6.9676],[-62.7051,10.7588,74.7356],[-62.7029,10.759,2.6002],[-62.7024,10.761,0.0],[-62.7082,10.7621,1.8099],[-62.7082,10.7651,1.0925],[-62.7124,10.766,0.0],[-62.7204,10.7613,43.0258],[-62.7246,10.7615,0.0],[-62.7274,10.7585,11.9244],[-62.7307,10.7593,0.0],[-62.7326,10.7563,10.6907],[-62.7346,10.7568,4.1049],[-62.7365,10.7521,4.136],[-62.7412,10.7526,0.0],[-62.7418,10.7493,0.9491],[-62.746,10.7501,0.0],[-62.749,10.7476,0.0],[-62.7482,10.7457,0.0],[-62.7501,10.7426,0.0],[-62.7574,10.7376,16.1379],[-62.7632,10.7357,0.0],[-62.7671,10.7363,0.0],[-62.771,10.7338,0.0],[-62.7846,10.734,0.0],[-62.7882,10.7313,41.0968],[-62.7912,10.7321,0.0],[-62.7926,10.7293,75.5838],[-62.8012,10.7276,12.8172],[-62.8051,10.729,0.0],[-62.8049,10.726,29.1356],[-62.8076,10.7215,15.0472],[-62.8135,10.7215,0.0],[-62.8143,10.7193,8.4254],[-62.8249,10.7204,24.8794],[-62.8262,10.7185,26.6758],[-62.8285,10.7185,0.0],[-62.8276,10.716,17.6312],[-62.8315,10.7157,0.0],[-62.8318,10.714,2.9411],[-62.8343,10.7143,0.0],[-62.8365,10.7118,6.2868],[-62.8432,10.7121,0.0],[-62.8476,10.7143,0.0],[-62.8468,10.7115,0.0],[-62.8488,10.709,0.0],[-62.856,10.7085,5.106],[-62.859,10.7101,0.0],[-62.8704,10.7035,28.1207],[-62.8715,10.7001,0.0],[-62.8743,10.6985,3.1905],[-62.8857,10.6993,42.2205],[-62.8893,10.7024,0.0],[-62.8937,10.7018,68.5202],[-62.8974,10.6988,1.9064],[-62.8971,10.6963,68.1877],[-62.9021,10.6943,0.0],[-62.9032,10.6921,0.0],[-62.9115,10.694,0.0],[-62.9126,10.6957,0.0],[-62.9188,10.6962,49.2129],[-62.9201,10.6979,0.0],[-62.9238,10.6965,36.6198],[-62.9299,10.699,0.0],[-62.9368,10.699,0.0],[-62.9407,10.6968,31.0247],[-62.9482,10.7004,9.8681],[-62.9568,10.7004,47.4664],[-62.9582,10.7018,23.5279],[-62.9643,10.6996,0.0],[-62.9712,10.7026,0.0],[-62.9804,10.711,0.0],[-62.984,10.7101,28.6682],[-62.9854,10.7113,0.0],[-62.9874,10.7099,12.3084],[-62.9949,10.7146,28.8255],[-62.9946,10.7188,0.0],[-63.0007,10.7196,77.2035],[-63.0013,10.7243,0.0],[-63.0135,10.7174,0.0],[-63.0115,10.714,0.0],[-63.0149,10.7113,10.9087],[-63.0296,10.7099,37.3889],[-63.0318,10.7076,11.4391],[-63.036,10.709,0.0],[-63.0371,10.7115,0.0],[-63.0426,10.7113,11.2436],[-63.0526,10.7179,9.714],[-63.0568,10.7149,18.4302],[-63.0607,10.7143,0.0],[-63.0693,10.7157,0.0],[-63.0707,10.7113,49.9731],[-63.0757,10.7107,0.0],[-63.0757,10.7096,0.0],[-63.0732,10.7099,5.2963],[-63.074,10.7082,12.3985],[-63.0846,10.7093,0.6565],[-63.0874,10.7115,5.788],[-63.0871,10.7129,0.0],[-63.0974,10.7088,28.1193],[-63.1074,10.7085,28.0503],[-63.1157,10.7049,18.6598],[-63.1149,10.7015,2.6641],[-63.1193,10.7004,37.3537],[-63.131,10.704,0.0],[-63.1335,10.7026,25.001],[-63.1362,10.7035,23.0822],[-63.1415,10.7085,0.0],[-63.1443,10.7085,0.0],[-63.1446,10.7068,24.8283],[-63.1479,10.7076,0.5444],[-63.154,10.7129,0.8535],[-63.1582,10.7204,1.3031],[-63.1565,10.7238,28.2238],[-63.1501,10.7232,0.0],[-63.151,10.726,0.0],[-63.1549,10.7279,0.0],[-63.159,10.7263,11.0187],[-63.166,10.7276,0.0],[-63.1682,10.7271,0.0],[-63.1679,10.7235,0.0],[-63.1649,10.7237,0.0],[-63.164,10.7254,0.0],[-63.1629,10.7224,5.2281],[-63.1607,10.7224,23.6675],[-63.1593,10.7204,1.3031],[-63.1618,10.7143,0.0],[-63.1654,10.7149,0.0],[-63.1654,10.7126,41.8227],[-63.1701,10.709,0.0],[-63.1868,10.7063,0.0],[-63.1915,10.7021,0.0],[-63.2001,10.7004,13.0259],[-63.2021,10.6976,33.1858],[-63.2093,10.6951,38.7987],[-63.2143,10.6951,10.2619],[-63.2168,10.6915,25.7543],[-63.2221,10.6912,0.0],[-63.224,10.6885,16.4786],[-63.2287,10.6888,0.0],[-63.2315,10.6865,0.0],[-63.2285,10.6835,17.9407],[-63.2315,10.6774,0.0],[-63.234,10.6751,32.0198],[-63.2401,10.6746,4.9722],[-63.2451,10.6774,0.0],[-63.2451,10.6718,7.1053],[-63.2518,10.6726,0.0],[-63.2515,10.671,3.2366],[-63.2551,10.6701,5.6418],[-63.2615,10.6729,0.0],[-63.2649,10.6724,1.2363],[-63.2687,10.6768,14.773],[-63.2715,10.6774,0.0],[-63.2732,10.6763,6.8684],[-63.2726,10.6737,18.7686],[-63.2751,10.6724,0.0],[-63.2732,10.6685,5.7392],[-63.2743,10.6657,5.5345],[-63.2782,10.6637,10.1426],[-63.2876,10.664,1.3915],[-63.2971,10.6671,0.0],[-63.3029,10.6699,2.665],[-63.3035,10.6715,0.0],[-63.3079,10.6715,23.8108],[-63.309,10.674,0.0],[-63.3124,10.6732,2.5116],[-63.316,10.676,4.3673],[-63.3151,10.6788,0.0],[-63.324,10.6804,29.6157],[-63.3265,10.6838,0.0],[-63.3276,10.6824,8.4768],[-63.3254,10.6774,26.7293],[-63.3288,10.6757,0.0],[-63.3285,10.6699,0.3632],[-63.3396,10.6685,4.1651],[-63.3554,10.676,5.3545],[-63.3576,10.6785,10.4175],[-63.3574,10.6812,1.8882],[-63.3613,10.6846,0.0],[-63.3618,10.6901,0.0],[-63.364,10.689,0.0],[-63.3626,10.6835,4.43],[-63.3713,10.6793,20.296],[-63.3799,10.6821,1.9033],[-63.3854,10.686,0.2866],[-63.3868,10.6888,0.8933],[-63.3851,10.691,0.0],[-63.386,10.6924,0.0],[-63.3896,10.691,2.0498],[-63.3904,10.6857,0.0],[-63.3926,10.6843,0.0],[-63.3943,10.6799,34.5891],[-63.3965,10.6799,4.3041],[-63.3965,10.6771,0.2893],[-63.4001,10.6776,36.7886],[-63.3985,10.6863,0.0],[-63.4021,10.6838,3.3685],[-63.4021,10.6788,28.3041],[-63.4074,10.6754,0.0],[-63.404,10.671,1.3363],[-63.409,10.6657,0.0],[-63.4135,10.6685,0.0],[-63.4129,10.666,0.0],[-63.4162,10.6626,0.0],[-63.4185,10.6649,0.0],[-63.4224,10.664,0.0],[-63.4226,10.6613,0.0],[-63.4257,10.6613,0.0],[-63.429,10.6637,2.7335],[-63.4299,10.6676,0.0],[-63.4376,10.6685,0.0],[-63.4374,10.6607,0.0],[-63.4335,10.6599,0.0],[-63.4329,10.6574,0.0],[-63.434,10.6551,0.9467],[-63.4399,10.6526,1.3278],[-63.4449,10.6546,0.4833],[-63.4429,10.6585,0.0],[-63.446,10.6588,13.9763],[-63.4468,10.6615,0.0],[-63.4515,10.6604,53.3839],[-63.4538,10.6615,0.0],[-63.4543,10.6596,16.0768],[-63.4565,10.6593,5.704],[-63.4571,10.6615,0.0],[-63.4604,10.6599,5.5983],[-63.4649,10.6624,0.0],[-63.4685,10.6526,0.0],[-63.4704,10.6526,0.0],[-63.4699,10.6496,16.8568],[-63.4721,10.6474,2.9992],[-63.4754,10.6474,1.3341],[-63.4801,10.651,0.0],[-63.4857,10.649,1.4086],[-63.4912,10.6557,0.0],[-63.4957,10.6563,0.0],[-63.4982,10.6538,4.1951],[-63.5032,10.6526,0.0],[-63.5015,10.6501,0.0],[-63.4993,10.6507,14.1856],[-63.4932,10.6479,0.9366],[-63.4929,10.644,0.6422],[-63.4985,10.6343,3.345],[-63.5279,10.629,0.0],[-63.5321,10.6271,0.0],[-63.5499,10.6307,0.0],[-63.5543,10.6301,13.9734],[-63.5585,10.6324,0.0],[-63.5679,10.6288,0.0],[-63.5774,10.6321,0.9533],[-63.5801,10.6349,0.0],[-63.5868,10.6338,0.0],[-63.5871,10.6299,6.8574],[-63.5907,10.629,2.0575],[-63.6085,10.6351,6.248],[-63.6176,10.6338,0.0],[-63.6271,10.636,0.0],[-63.6321,10.6343,0.0],[-63.6393,10.6379,0.0],[-63.6487,10.6376,6.846],[-63.6532,10.6399,5.3168],[-63.6832,10.6412,11.6528],[-63.6996,10.6479,3.5717],[-63.7121,10.6571,0.0],[-63.7229,10.6535,21.0412],[-63.7346,10.6532,14.4191],[-63.7426,10.6563,0.0],[-63.7451,10.6554,7.6591],[-63.7537,10.6596,0.0],[-63.7621,10.6588,0.0],[-63.7874,10.6815,0.4255],[-63.8101,10.7065,8.9367],[-63.8104,10.7085,8.9514],[-63.816,10.7076,0.0],[-63.8162,10.7057,0.0],[-63.8135,10.7049,0.4091],[-63.8143,10.7004,0.0],[-63.8132,10.6999,1.516],[-63.8151,10.696,1.9567],[-63.8146,10.6888,1.7497],[-63.8213,10.6818,2.055],[-63.8221,10.6796,0.0],[-63.821,10.6782,0.6865],[-63.8237,10.6779,0.0],[-63.8246,10.6763,0.0],[-63.8226,10.6729,0.0254],[-63.8229,10.6679,-0.0138],[-63.8251,10.6637,0.0],[-63.824,10.6624,0.0],[-63.8271,10.6604,1.419],[-63.8276,10.6554,0.0],[-63.8335,10.6468,1.7631],[-63.8404,10.6426,2.2739],[-63.851,10.6396,2.7963],[-63.8596,10.6396,0.5102],[-63.8693,10.6354,1.5881],[-63.8835,10.6343,0.596],[-63.8838,10.6318,3.7301],[-63.8874,10.631,1.9396],[-63.8976,10.6304,0.4716],[-63.9032,10.6324,0.0],[-63.9026,10.6301,0.2481],[-63.9046,10.6282,0.2145],[-63.9135,10.6274,0.0],[-63.9162,10.6251,1.5929],[-63.9279,10.6257,0.0],[-63.9362,10.6321,0.0],[-63.941,10.6318,6.5796],[-63.9443,10.6346,0.4519],[-63.9468,10.6332,9.3247],[-63.9549,10.6343,0.0],[-63.9565,10.6321,0.0],[-63.9657,10.6285,2.0908],[-63.9704,10.6301,12.184],[-63.9824,10.6304,10.418],[-63.9887,10.6354,10.6798],[-63.9943,10.6324,0.0],[-64.0001,10.634,7.5188],[-64.006,10.6332,4.3558],[-64.0113,10.6288,0.3466],[-64.0149,10.6293,1.3637],[-64.0226,10.634,0.0],[-64.0265,10.6315,21.7878],[-64.0312,10.634,0.0],[-64.0332,10.6329,4.9576],[-64.0371,10.6349,2.3868],[-64.0413,10.6338,3.9042],[-64.0454,10.6354,4.2396],[-64.0465,10.6388,-1.5],[-64.0479,10.6374,1.3548],[-64.0532,10.6385,3.0263],[-64.0496,10.6412,4.341],[-64.0529,10.6465,4.5643],[-64.046,10.6471,0.4519],[-64.046,10.6504,0.283],[-64.0515,10.6507,0.0],[-64.0532,10.6493,18.3814],[-64.0563,10.6504,4.8684],[-64.0554,10.6479,7.6045],[-64.0607,10.6499,5.7006],[-64.0629,10.6474,3.4192],[-64.061,10.6437,12.1148],[-64.0649,10.6449,0.0855],[-64.0635,10.6424,9.8387],[-64.0657,10.6426,-0.7817],[-64.0651,10.639,6.8129],[-64.0665,10.641,-1.0],[-64.0707,10.6418,15.573],[-64.0724,10.6393,6.4465],[-64.0771,10.6388,0.0],[-64.0804,10.6365,1.6349],[-64.0832,10.6374,0.0],[-64.0832,10.6351,13.6456],[-64.0849,10.6346,4.7105],[-64.091,10.6362,0.0],[-64.0937,10.6343,0.0],[-64.1054,10.6346,0.0],[-64.111,10.6301,8.459],[-64.1143,10.6301,0.0],[-64.114,10.626,10.951],[-64.1168,10.6246,0.0],[-64.1168,10.6221,0.0],[-64.1207,10.619,0.5181],[-64.1232,10.6207,0.0],[-64.1276,10.6188,0.0],[-64.1326,10.621,0.0],[-64.1335,10.6179,2.785],[-64.1379,10.616,0.3561],[-64.1449,10.6193,1.4599],[-64.1454,10.6213,0.2678],[-64.1493,10.6215,1.1967],[-64.1521,10.6182,2.1508],[-64.1549,10.619,0.3847],[-64.1632,10.6279,0.0],[-64.1704,10.6296,0.6009],[-64.1846,10.6232,0.0],[-64.1901,10.6168,1.9049],[-64.191,10.6138,0.0],[-64.1896,10.6118,2.3993],[-64.1932,10.6118,0.7596],[-64.1932,10.6154,0.0],[-64.1982,10.6185,0.0],[-64.1946,10.6235,0.0],[-64.1913,10.6235,0.0],[-64.1904,10.6249,0.6495],[-64.1918,10.6307,0.5821],[-64.1885,10.6362,1.6665],[-64.1907,10.6401,3.9438],[-64.1971,10.6412,5.0549],[-64.1982,10.6429,0.0],[-64.206,10.6429,0.0],[-64.2101,10.641,1.1094],[-64.2162,10.6412,0.0],[-64.2174,10.639,0.0],[-64.2254,10.6407,0.0],[-64.2288,10.6393,2.3182],[-64.229,10.6407,0.0],[-64.2337,10.641,0.0],[-64.2396,10.6382,2.2365],[-64.2465,10.6443,0.0],[-64.259,10.6646,0.299],[-64.2624,10.6654,0.5375],[-64.2696,10.6601,0.0],[-64.2668,10.6582,0.0],[-64.2685,10.6518,0.7683],[-64.2715,10.6493,1.1],[-64.2804,10.6468,1.4162],[-64.281,10.644,0.0],[-64.2838,10.6443,0.0],[-64.2876,10.6385,0.2848],[-64.2951,10.6368,0.3406],[-64.2968,10.6313,0.0531],[-64.2929,10.6276,0.5683],[-64.2857,10.6121,0.3284],[-64.2832,10.5993,0.0],[-64.2799,10.5946,0.312],[-64.2765,10.5929,0.7583],[-64.2729,10.5829,0.0],[-64.2671,10.5771,0.2274],[-64.2604,10.5754,0.0],[-64.2585,10.5721,0.2359],[-64.259,10.5685,1.9446],[-64.2618,10.5665,0.9355],[-64.2604,10.5651,0.0],[-64.2601,10.5596,3.2517],[-64.2632,10.5446,6.2692],[-64.2613,10.5404,0.0],[-64.2576,10.5349,0.0],[-64.2538,10.534,17.203],[-64.2501,10.5257,0.0],[-64.2482,10.5243,2.7955],[-64.2471,10.5254,20.3128],[-64.2476,10.5238,20.3128],[-64.2457,10.5224,39.7546],[-64.2468,10.5193,6.0088],[-64.2446,10.5151,0.0],[-64.241,10.5121,10.241],[-64.2354,10.5104,2.6881],[-64.2326,10.5065,0.3814],[-64.2293,10.5065,0.0],[-64.2185,10.5165,0.2107],[-64.2187,10.5201,5.0283],[-64.2162,10.5207,3.1894],[-64.2171,10.5221,9.5994],[-64.2146,10.526,0.8166],[-64.2176,10.5299,6.7693],[-64.2138,10.5351,2.9502],[-64.2157,10.5362,4.0981],[-64.2146,10.5401,1.3239],[-64.2115,10.5438,5.6184],[-64.2071,10.5446,3.116],[-64.206,10.5504,1.5892],[-64.2071,10.5524,5.5166],[-64.2035,10.5543,1.1451],[-64.1971,10.5568,3.9765],[-64.1915,10.5557,1.6671],[-64.1888,10.5579,10.3856],[-64.1807,10.5582,2.0354],[-64.1746,10.5621,5.0999],[-64.1738,10.5649,0.0],[-64.1685,10.5668,0.0],[-64.1699,10.5693,23.7268],[-64.166,10.5713,0.9877],[-64.1513,10.5726,5.7288],[-64.1446,10.5763,6.6411],[-64.1393,10.5757,21.3581],[-64.1376,10.5774,22.1304],[-64.1276,10.5793,11.7582],[-64.1218,10.5785,20.3257],[-64.1254,10.5746,0.0],[-64.1257,10.5715,0.0],[-64.1235,10.5693,2.834],[-64.121,10.5715,4.2399],[-64.1199,10.5685,0.0],[-64.1143,10.5715,4.3265],[-64.1126,10.571,1.0281],[-64.114,10.5679,32.1726],[-64.119,10.5657,0.0],[-64.1176,10.5649,0.0],[-64.0999,10.5676,9.8112],[-64.0915,10.571,24.8549],[-64.0846,10.571,2.2317],[-64.0829,10.5729,3.8369],[-64.0799,10.5721,3.244],[-64.0788,10.5729,0.0],[-64.0796,10.5757,5.6179],[-64.0774,10.5757,1.3735],[-64.0757,10.5782,2.4977],[-64.0743,10.5738,5.2165],[-64.071,10.5721,5.5981],[-64.0685,10.5738,16.9077],[-64.0663,10.5726,0.0],[-64.066,10.574,12.5262],[-64.0624,10.5751,0.0],[-64.0537,10.5757,0.0],[-64.0521,10.5768,0.0],[-64.0529,10.5801,0.0],[-64.0568,10.5804,12.7428],[-64.0604,10.5832,0.0],[-64.056,10.5863,2.2952],[-64.0554,10.5843,0.0],[-64.0535,10.5843,5.3791],[-64.0488,10.5868,7.7252],[-64.0512,10.594,2.7873],[-64.0485,10.5957,2.1867],[-64.046,10.5885,0.0],[-64.0429,10.5935,0.0],[-64.041,10.5929,3.8592],[-64.0426,10.5915,1.1758],[-64.0413,10.5904,0.0],[-64.0371,10.5938,11.5628],[-64.0335,10.5943,13.548],[-64.0315,10.5899,0.0],[-64.0299,10.5943,11.6031],[-64.0279,10.5946,3.3552],[-64.0285,10.591,1.4064],[-64.0243,10.5949,1.7783],[-64.0218,10.5938,2.8259],[-64.0293,10.5868,34.3948],[-64.0404,10.586,0.0],[-64.0454,10.5824,1.6823],[-64.0482,10.5774,10.8932],[-64.0435,10.5749,0.0],[-64.0387,10.5746,0.0],[-64.0315,10.5776,11.8413],[-64.0265,10.5757,19.9558],[-64.0204,10.5757,9.8108],[-64.0099,10.5788,36.5284],[-64.0015,10.5768,0.0],[-64.0001,10.5796,42.3258],[-63.999,10.5774,0.0],[-63.9951,10.5763,0.0],[-63.9912,10.5776,8.9254],[-63.9857,10.576,4.0021],[-63.9813,10.5776,12.1217],[-63.9785,10.5768,0.0],[-63.9771,10.5799,37.3407],[-63.9749,10.5785,0.0],[-63.9721,10.5804,4.8989],[-63.9701,10.5793,4.8989],[-63.969,10.581,13.0371],[-63.9685,10.5793,0.0],[-63.9657,10.5788,0.0],[-63.9601,10.581,15.5216],[-63.9568,10.5779,0.0],[-63.956,10.5804,3.6286],[-63.954,10.5807,19.439],[-63.9521,10.5771,0.0],[-63.9474,10.579,17.5324],[-63.9479,10.5751,0.0],[-63.9385,10.5732,8.512],[-63.9357,10.5715,0.0],[-63.934,10.5676,0.0],[-63.9313,10.5682,2.6613],[-63.9251,10.5649,0.0],[-63.9207,10.559,8.8126],[-63.9118,10.5543,12.1098],[-63.9065,10.5538,34.7204],[-63.9046,10.5554,0.3641],[-63.9012,10.5529,0.0],[-63.8949,10.5521,29.5194],[-63.8887,10.5535,2.7863],[-63.8857,10.5507,12.4323],[-63.8829,10.5504,0.0],[-63.879,10.5543,12.9069],[-63.8774,10.5526,10.2635],[-63.8699,10.5535,1.7521],[-63.8685,10.5521,13.8083],[-63.8649,10.5546,5.1864],[-63.8607,10.5546,13.2611],[-63.8557,10.5518,0.0],[-63.854,10.5535,1.8131],[-63.8468,10.5543,5.0303],[-63.8443,10.5518,0.0],[-63.8396,10.5529,9.2143],[-63.8343,10.5501,0.0],[-63.8293,10.5513,0.5001],[-63.8251,10.5501,0.0],[-63.8232,10.5515,0.7552],[-63.8182,10.5501,0.0],[-63.8112,10.5435,0.0],[-63.8063,10.5429,0.1469],[-63.8035,10.5374,0.0],[-63.7932,10.5315,0.0],[-63.791,10.5279,1.1373],[-63.7679,10.5254,0.0],[-63.7618,10.5221,7.0821],[-63.7429,10.5046,3.9291],[-63.739,10.4932,0.2561],[-63.7337,10.4979,1.0539],[-63.731,10.4957,3.1965],[-63.7243,10.4965,3.8067],[-63.7185,10.4935,0.0],[-63.7115,10.4935,0.7094],[-63.7071,10.4912,0.8165],[-63.7051,10.4879,0.0],[-63.7043,10.4801,0.0],[-63.6929,10.4815,0.0],[-63.6813,10.4857,0.5034],[-63.669,10.4926,3.7652],[-63.6557,10.4963,4.4834],[-63.6465,10.4935,1.9369],[-63.644,10.4899,3.7995],[-63.6518,10.4907,0.0],[-63.6585,10.4885,5.3144],[-63.6601,10.4857,4.0865],[-63.6582,10.4829,3.6979],[-63.6635,10.4757,0.0],[-63.6688,10.4749,1.4829],[-63.6707,10.4724,0.0],[-63.674,10.4732,1.6822],[-63.6799,10.469,0.0],[-63.684,10.471,0.0],[-63.689,10.4674,0.0],[-63.6954,10.4685,5.2668],[-63.6985,10.466,0.0],[-63.7068,10.4685,0.4203],[-63.7093,10.4671,0.0],[-63.7096,10.4646,4.9522],[-63.7137,10.4649,2.1229],[-63.7226,10.4615,13.4181],[-63.731,10.4665,0.0],[-63.734,10.466,0.0],[-63.736,10.4624,3.7738],[-63.7399,10.4649,0.0],[-63.7429,10.459,0.0],[-63.7476,10.4604,0.239],[-63.7551,10.4585,5.4953],[-63.7565,10.4543,0.0],[-63.7593,10.4529,1.0947],[-63.7779,10.4496,1.2255],[-63.7849,10.4443,0.0],[-63.8004,10.441,1.5007],[-63.8093,10.4413,7.1598],[-63.8124,10.4449,2.2201],[-63.8165,10.4446,1.029],[-63.8196,10.4393,4.2488],[-63.8237,10.4393,3.9837],[-63.826,10.4415,0.0],[-63.8332,10.4399,12.6625],[-63.8382,10.4474,0.0],[-63.8499,10.4454,1.9758],[-63.8546,10.4421,0.0],[-63.8696,10.4438,0.0],[-63.8737,10.4421,0.0],[-63.8832,10.4438,0.0],[-63.8865,10.4471,0.0],[-63.8915,10.4457,0.0],[-63.8957,10.4479,1.2082],[-63.8976,10.4518,0.0],[-63.9087,10.4551,0.4496],[-63.914,10.4485,27.0319],[-63.9251,10.4504,25.6505],[-63.9362,10.4479,5.443],[-63.936,10.451,0.0],[-63.9415,10.4463,16.5915],[-63.9426,10.4468,16.5915],[-63.9404,10.4501,0.0],[-63.9415,10.4518,19.8649],[-63.9437,10.4524,0.0],[-63.9463,10.4507,3.1928],[-63.9474,10.4529,0.0],[-63.9512,10.4512,2.4716],[-63.9529,10.4532,0.521],[-63.9576,10.4532,1.3913],[-63.9651,10.4474,4.462],[-63.9701,10.4471,0.0],[-63.9718,10.4451,7.275],[-63.976,10.4449,6.1797],[-63.976,10.4465,0.0],[-63.9793,10.4482,0.3232],[-63.9832,10.4443,9.7768],[-63.9871,10.4463,0.0],[-63.9876,10.4451,37.5758],[-63.9915,10.4457,2.6161],[-63.9949,10.4429,1.8876],[-64.0071,10.444,0.0],[-64.011,10.4426,8.999],[-64.0124,10.4404,6.2425],[-64.016,10.4415,11.3122],[-64.021,10.4404,0.0],[-64.0215,10.4368,31.3707],[-64.0246,10.4357,0.0],[-64.0274,10.4379,0.0],[-64.0279,10.4432,0.0],[-64.0293,10.444,0.0],[-64.0324,10.4446,1.0181],[-64.0338,10.4432,12.0195],[-64.034,10.4446,5.125],[-64.0357,10.4443,5.125],[-64.0385,10.4415,0.0],[-64.0374,10.4393,14.8108],[-64.0387,10.4388,0.9443],[-64.0421,10.441,0.0],[-64.0446,10.4401,2.618],[-64.0451,10.4415,0.0],[-64.0568,10.4407,3.4653],[-64.0893,10.4504,3.0514],[-64.0926,10.4529,2.8428],[-64.0957,10.459,0.0],[-64.099,10.4604,0.0],[-64.1001,10.4646,3.5316],[-64.1065,10.4676,0.4501],[-64.1124,10.4779,2.3805],[-64.1149,10.4796,1.0149],[-64.1176,10.4782,0.0],[-64.1146,10.4771,3.457],[-64.1171,10.4726,1.9248],[-64.1271,10.4757,0.0],[-64.1301,10.4757,0.0],[-64.1326,10.4738,1.1626],[-64.1374,10.4751,0.8038],[-64.1401,10.4732,1.4239],[-64.1426,10.4749,0.0],[-64.1521,10.4738,0.3472],[-64.1582,10.4776,0.0],[-64.1735,10.4801,1.2178],[-64.1821,10.4774,0.3849],[-64.1854,10.479,0.0],[-64.1871,10.4762,0.5896],[-64.1899,10.4771,0.0],[-64.1924,10.4757,0.0],[-64.1937,10.4721,0.0],[-64.1924,10.4712,0.0],[-64.1935,10.4635,0.0],[-64.1915,10.4629,1.2419],[-64.1901,10.4579,1.4335],[-64.196,10.4426,0.7604],[-64.2171,10.4199,2.821],[-64.2193,10.4199,1.571],[-64.2224,10.4168,1.8915],[-64.2343,10.4132,15.176],[-64.2376,10.4146,6.8842],[-64.2438,10.4129,15.7776],[-64.2468,10.4146,10.0245],[-64.2554,10.4121,0.0],[-64.2579,10.414,0.0],[-64.2787,10.4132,35.1783],[-64.2821,10.4118,31.4294],[-64.2846,10.4085,4.9588],[-64.2868,10.4088,0.2257],[-64.2868,10.4107,0.0],[-64.2896,10.4101,12.972],[-64.2901,10.4071,28.1519],[-64.2951,10.4024,18.3089],[-64.2988,10.4035,0.4812],[-64.2957,10.4093,3.3806],[-64.3063,10.4104,34.9117],[-64.3107,10.4096,1.997],[-64.3124,10.4063,19.7807],[-64.3165,10.4065,15.4727],[-64.3179,10.4051,0.0],[-64.3171,10.4021,17.035],[-64.321,10.3987,20.8916],[-64.326,10.3999,35.9152],[-64.3274,10.4021,0.0],[-64.336,10.3993,4.7863],[-64.3365,10.3979,0.0],[-64.3313,10.399,5.5079],[-64.3346,10.3946,0.0],[-64.3337,10.3926,52.8497],[-64.341,10.3888,0.0],[-64.3385,10.3871,2.6233],[-64.339,10.3851,0.0],[-64.3365,10.3854,0.0],[-64.3357,10.384,18.6502],[-64.3288,10.3865,0.0],[-64.3279,10.3829,4.8423],[-64.334,10.3821,0.0],[-64.3357,10.379,18.5722],[-64.3421,10.3838,0.0],[-64.3451,10.381,0.0],[-64.3418,10.3751,0.0],[-64.3376,10.3743,5.7843],[-64.3374,10.3718,10.1691],[-64.3399,10.3704,0.0],[-64.336,10.3668,18.7589],[-64.3388,10.3663,18.7436],[-64.341,10.3693,0.0],[-64.3435,10.3682,0.0],[-64.3429,10.3654,18.0672],[-64.3446,10.3618,0.0],[-64.3393,10.3576,1.0929],[-64.3454,10.3535,0.0],[-64.3401,10.3546,14.2741],[-64.3365,10.3485,0.7086],[-64.3432,10.3476,0.0],[-64.3457,10.3457,1.3538],[-64.3482,10.3471,0.0],[-64.3504,10.3454,12.5335],[-64.3501,10.3432,16.6246],[-64.3535,10.3418,6.8125],[-64.3551,10.3418,18.0494],[-64.3549,10.344,2.0383],[-64.3565,10.3443,2.0383],[-64.3576,10.3404,10.0806],[-64.3613,10.339,0.0],[-64.3643,10.3349,2.1005],[-64.369,10.3382,5.0683],[-64.3693,10.3407,16.1253],[-64.3671,10.3438,0.0],[-64.3701,10.3446,0.0],[-64.3704,10.3471,4.4821],[-64.3607,10.3493,0.0],[-64.3574,10.3532,6.7345],[-64.3624,10.3557,19.0845],[-64.3585,10.3596,3.2901],[-64.3543,10.359,12.0301],[-64.3496,10.3613,2.9583],[-64.3493,10.364,0.0],[-64.3512,10.366,0.7343],[-64.3485,10.3663,0.0],[-64.3457,10.3721,12.7138],[-64.3482,10.3751,3.3778],[-64.3485,10.3787,0.0],[-64.346,10.389,0.0],[-64.3501,10.3876,8.5107],[-64.351,10.3851,12.0868],[-64.3579,10.3935,20.186],[-64.3532,10.3951,0.0],[-64.3529,10.3968,28.6988],[-64.364,10.3979,6.2808],[-64.3674,10.3954,0.0],[-64.3626,10.394,24.6556],[-64.3626,10.3921,1.5123],[-64.3712,10.3888,6.5156],[-64.3715,10.3838,0.0],[-64.3732,10.3832,28.3006],[-64.3754,10.3843,0.0],[-64.3754,10.3924,0.0],[-64.3796,10.3926,0.0],[-64.3799,10.3882,0.0],[-64.3846,10.3829,29.4845],[-64.3918,10.3826,0.0],[-64.3949,10.3785,3.52],[-64.3924,10.3751,0.0],[-64.3863,10.374,13.0849],[-64.3843,10.3707,6.0924],[-64.3804,10.371,8.8868],[-64.3776,10.3687,0.0],[-64.3776,10.3649,12.3087],[-64.3821,10.3651,0.0],[-64.3893,10.3615,3.5111],[-64.389,10.3588,0.0],[-64.386,10.356,4.1245],[-64.3804,10.3554,1.5382],[-64.384,10.3518,0.0],[-64.3829,10.3499,0.0],[-64.3743,10.3482,0.0],[-64.3746,10.344,5.8164],[-64.3774,10.3426,13.105],[-64.3765,10.3401,27.2111],[-64.379,10.3365,44.2799],[-64.3835,10.3379,3.0898],[-64.3882,10.3363,22.1182],[-64.3904,10.3385,7.4202],[-64.3935,10.3376,6.4049],[-64.3982,10.3321,0.0],[-64.4024,10.3351,12.8498],[-64.4088,10.334,0.0],[-64.4101,10.331,20.332],[-64.4151,10.3324,0.0],[-64.4165,10.3293,3.3532],[-64.4212,10.3296,0.0],[-64.4207,10.3243,48.2997],[-64.4265,10.3187,33.1163],[-64.429,10.3185,25.0386],[-64.4385,10.3182,22.8154],[-64.4407,10.3204,4.9486],[-64.4399,10.3268,5.8248],[-64.4468,10.3229,9.0905],[-64.4496,10.3271,0.0],[-64.4529,10.3265,12.7765],[-64.456,10.3329,11.5478],[-64.4612,10.3307,2.621],[-64.4618,10.329,20.779],[-64.4557,10.3249,33.5211],[-64.4571,10.3151,0.0],[-64.4518,10.3154,0.0],[-64.4507,10.3176,26.7443],[-64.4476,10.3185,0.0],[-64.4457,10.316,0.0],[-64.4435,10.3157,5.0918],[-64.4443,10.3126,0.0],[-64.4413,10.3115,0.0],[-64.4404,10.3135,0.0],[-64.4349,10.3154,0.0],[-64.4313,10.3126,5.2929],[-64.4315,10.3162,3.2364],[-64.4215,10.3182,8.1963],[-64.4187,10.3157,6.5225],[-64.4199,10.3138,6.8713],[-64.4185,10.3129,42.5988],[-64.4193,10.3093,0.0],[-64.4182,10.3085,0.0],[-64.4129,10.3146,0.0],[-64.4085,10.3129,0.0],[-64.4071,10.3104,0.0],[-64.404,10.3154,0.0],[-64.4024,10.3138,0.0],[-64.3993,10.3138,5.9634],[-64.399,10.3176,18.4485],[-64.3962,10.3168,0.0],[-64.394,10.3135,0.0],[-64.3915,10.3135,0.0],[-64.3904,10.3171,30.8075],[-64.3879,10.3176,12.8968],[-64.3857,10.3149,0.0],[-64.3849,10.3182,0.5965],[-64.3785,10.3187,0.0],[-64.3763,10.3207,5.6193],[-64.371,10.3185,34.196],[-64.3707,10.3168,0.0],[-64.3676,10.3165,0.0],[-64.369,10.3118,0.0],[-64.3643,10.3107,6.5309],[-64.3646,10.301,4.3943],[-64.3654,10.3021,0.0],[-64.3729,10.3015,12.9767],[-64.3771,10.3035,20.3433],[-64.3763,10.3057,0.0],[-64.3799,10.3054,0.0],[-64.379,10.299,51.0875],[-64.3874,10.294,10.345],[-64.3907,10.2937,2.6924],[-64.3932,10.2907,6.3078],[-64.3999,10.2901,0.8035],[-64.3999,10.2843,2.4802],[-64.4013,10.2832,4.2163],[-64.4068,10.2832,1.0972],[-64.4096,10.2865,0.0],[-64.4212,10.2863,0.593],[-64.4251,10.2824,0.0],[-64.4285,10.2837,6.6069],[-64.4285,10.2804,68.1112],[-64.4299,10.2799,24.9506],[-64.4362,10.2821,0.0],[-64.4379,10.2774,24.0911],[-64.4443,10.2768,29.0566],[-64.4474,10.279,0.0],[-64.4504,10.2785,0.0],[-64.4465,10.2774,14.9594],[-64.4479,10.2751,0.0],[-64.4471,10.2735,0.0],[-64.4437,10.2732,0.0],[-64.444,10.2693,0.0],[-64.4482,10.2676,0.0],[-64.4465,10.2646,3.1235],[-64.4571,10.2629,9.6902],[-64.4549,10.2571,15.8262],[-64.4557,10.2549,3.087],[-64.4587,10.2535,11.7841],[-64.4626,10.2546,4.824],[-64.4676,10.2496,14.2997],[-64.4776,10.2471,0.0],[-64.4801,10.244,0.4345],[-64.4452,10.2028,1006.9059],[-64.4187,10.1583,534.7812],[-64.4026,10.1224,748.3185],[-64.3815,10.0627,653.2289],[-64.3733,10.0436,672.7979],[-64.3613,10.0332,339.4475],[-64.3536,10.0307,390.3447],[-64.3425,10.0305,338.824],[-64.3058,10.0343,838.2743],[-64.2929,10.0326,1000.389],[-64.2786,10.0264,999.7825]]],
[[[-64.474,10.2626,0.0],[-64.4743,10.2643,1.8506],[-64.4788,10.2618,0.0],[-64.474,10.2599,0.0],[-64.4701,10.2604,0.0],[-64.4704,10.2618,12.1585],[-64.474,10.2626,0.0]]],
[[[-64.4887,10.2682,27.1115],[-64.4912,10.2685,10.066],[-64.4907,10.2657,2.2589],[-64.4876,10.2665,4.2637],[-64.4849,10.2638,0.0],[-64.4818,10.2635,0.0],[-64.4846,10.2674,4.004],[-64.4887,10.2682,27.1115]]],
[[[-64.351,10.3545,0.0],[-64.3507,10.3532,0.0],[-64.3485,10.3535,0.0],[-64.3474,10.3568,1.2295],[-64.351,10.3563,0.7106],[-64.351,10.3545,0.0]]],
[[[-64.4932,10.3615,42.8026],[-64.4976,10.3626,2.1259],[-64.5049,10.3563,14.9442],[-64.5093,10.3482,0.0],[-64.5071,10.3471,6.3373],[-64.5001,10.3504,0.0],[-64.5024,10.3515,4.1969],[-64.5018,10.354,9.9823],[-64.4979,10.3576,13.0723],[-64.4935,10.3582,3.3071],[-64.4932,10.3615,42.8026]]],
[[[-64.3554,10.3551,7.3622],[-64.356,10.3565,6.4117],[-64.3582,10.356,0.0],[-64.3568,10.354,7.3622],[-64.3554,10.3551,7.3622]]],
[[[-64.4013,10.3718,29.1515],[-64.4035,10.3726,4.5031],[-64.4029,10.3582,37.3032],[-64.4076,10.3585,18.7043],[-64.4096,10.3538,0.0],[-64.4126,10.3529,0.0],[-64.4135,10.3479,0.0],[-64.4049,10.3529,3.8928],[-64.3987,10.3538,32.8419],[-64.3971,10.3568,0.0],[-64.3935,10.3585,0.0],[-64.3938,10.3599,0.0],[-64.399,10.3601,25.0752],[-64.3976,10.3671,15.7737],[-64.394,10.3682,1.8052],[-64.3954,10.3704,0.0],[-64.4013,10.3718,29.1515]]],
[[[-64.4576,10.3735,0.0],[-64.4582,10.3751,11.8634],[-64.4599,10.3749,0.0],[-64.4601,10.3715,0.0],[-64.4646,10.366,21.6494],[-64.4699,10.3646,16.7726],[-64.4701,10.3632,6.6566],[-64.4654,10.3649,30.3594],[-64.4649,10.3618,0.0],[-64.461,10.3629,8.3199],[-64.4596,10.3601,0.0],[-64.4551,10.3596,16.0419],[-64.4538,10.3579,0.0],[-64.4512,10.359,28.8337],[-64.4474,10.3579,28.7372],[-64.4465,10.3549,7.5878],[-64.4429,10.3532,8.6983],[-64.4407,10.3493,20.1157],[-64.4271,10.3499,10.5189],[-64.4268,10.3518,0.0],[-64.4315,10.3538,0.0],[-64.4413,10.3532,42.2288],[-64.4421,10.3576,32.99],[-64.4385,10.3596,0.0],[-64.4399,10.361,4.3592],[-64.4443,10.3601,39.9282],[-64.4415,10.3643,8.2605],[-64.4424,10.3674,5.9696],[-64.444,10.3679,0.0],[-64.4465,10.364,1.9433],[-64.4488,10.3638,0.0],[-64.4496,10.3668,48.9862],[-64.4535,10.3685,35.3543],[-64.4532,10.3701,0.6648],[-64.4576,10.3735,0.0]]],
[[[-64.496,10.3651,3.9928],[-64.496,10.3665,10.2444],[-64.499,10.3657,0.0],[-64.4974,10.3643,0.0],[-64.496,10.3651,3.9928]]],
[[[-64.4193,10.3807,3.0703],[-64.4282,10.3807,0.0],[-64.4287,10.3715,14.0176],[-64.4365,10.3712,5.0185],[-64.4371,10.364,22.3717],[-64.4335,10.3629,0.0],[-64.434,10.3596,0.0],[-64.431,10.3563,0.0],[-64.4279,10.3574,3.107],[-64.4274,10.3601,3.8931],[-64.4215,10.3596,0.0],[-64.4212,10.361,11.463],[-64.4149,10.3624,34.9486],[-64.411,10.3657,3.121],[-64.4124,10.3679,0.0],[-64.4163,10.3676,0.0],[-64.416,10.3704,4.3239],[-64.4174,10.3707,10.9516],[-64.4118,10.3771,0.0],[-64.4193,10.3807,3.0703]]],
[[[-61.856,10.6421,0.0],[-61.8593,10.6429,6.3995],[-61.8629,10.6401,47.7404],[-61.8662,10.6407,5.5687],[-61.8737,10.6379,0.0],[-61.8737,10.6365,0.0],[-61.8665,10.636,6.2029],[-61.8643,10.6379,16.1447],[-61.8554,10.6401,3.8225],[-61.856,10.6421,0.0]]],
[[[-61.8574,10.7504,10.5049],[-61.8585,10.7515,9.0342],[-61.861,10.749,0.0],[-61.8587,10.7482,0.0],[-61.8574,10.7504,10.5049]]],
[[[-63.5076,10.6574,0.0],[-63.5096,10.6579,0.0],[-63.5101,10.6549,0.0],[-63.504,10.6537,0.0],[-63.5074,10.6565,1.1984],[-63.5076,10.6574,0.0]]],
[[[-63.8499,10.6924,0.0],[-63.8543,10.6926,0.0],[-63.8549,10.6907,0.0],[-63.8515,10.6885,0.0],[-63.8462,10.6885,0.0],[-63.8429,10.6907,0.0],[-63.8443,10.691,0.0],[-63.8457,10.6904,12.1397],[-63.8474,10.6924,0.0],[-63.8499,10.6924,0.0]]],
[[[-63.8746,10.6915,1.3532],[-63.8754,10.6929,0.0],[-63.8774,10.6921,6.4433],[-63.8771,10.6907,10.6024],[-63.874,10.6901,0.0],[-63.8746,10.6915,1.3532]]]]}
,"properties": {"GID_1": "VEN.20_1","GID_0": "VEN","country": "Venezuela","province": "Sucre","VARNAME_1": "NA","NL_NAME_1": "NA","TYPE_1": "Estado","ENGTYPE_1": "State","CC_1": "NA","HASC_1": "NA","ISO_1": "VE-R","name": "Sucre.province","area_km2": 10925.077,"hist_schema_id": "Elevation0-9000","hist_area_km2": {"0": 2015.342,"25": 1321.263,"50": 516.419,"75": 430.025,"100": 359.451,"125": 327.751,"150": 299.201,"175": 276.841,"200": 266.827,"225": 261.156,"250": 241.289,"275": 223.551,"300": 234.215,"325": 246.912,"350": 233.311,"375": 230.875,"400": 222.746,"425": 221.435,"450": 215.369,"475": 196.209,"500": 182.678,"525": 165.557,"550": 143.913,"575": 126.836,"600": 107.964,"625": 97.645,"650": 87.741,"675": 82.444,"700": 79.088,"725": 76.774,"750": 71.125,"775": 71.962,"800": 68.417,"825": 66.649,"850": 64.107,"875": 62.229,"900": 57.582,"925": 54.892,"950": 50.284,"975": 47.157,"1000": 48.391,"1025": 42.778,"1050": 41.944,"1075": 40.442,"1100": 37.584,"1125": 34.496,"1150": 30.865,"1175": 26.755,"1200": 24.981,"1225": 22.894,"1250": 22.394,"1275": 20.098,"1300": 20.391,"1325": 18.471,"1350": 17.469,"1375": 16.864,"1400": 15.967,"1425": 15.07,"1450": 13.108,"1475": 14.736,"1500": 13.943,"1525": 13.421,"1550": 13.234,"1575": 12.879,"1600": 11.522,"1625": 12.294,"1650": 13.046,"1675": 11.94,"1700": 11.898,"1725": 11.334,"1750": 11.209,"1775": 10.124,"1800": 10.875,"1825": 9.79,"1850": 10.416,"1875": 8.871,"1900": 9.393,"1925": 8.788,"1950": 9.477,"1975": 8.558,"2000": 7.828,"2025": 7.285,"2050": 6.742,"2075": 5.928,"2100": 5.991,"2125": 4.968,"2150": 4.217,"2175": 4.78,"2200": 4.029,"2225": 3.632,"2250": 3.11,"2275": 2.776,"2300": 2.15,"2325": 2.108,"2350": 1.315,"2375": 1.232,"2400": 1.065,"2425": 0.647,"2450": 0.397,"2475": 0.25,"2500": 0.209,"2525": 0.271,"2550": 0.125}}}