{"type": "Feature","id": "49","bbox": [-64.53607,10.04206,-61.84577,10.76203],"geometry": {"type": "MultiPolygon","coordinates": [[[[-62.65982,10.31,0.0],[-62.65099,10.32587,0.0],[-62.6494,10.34492,0.0],[-62.65827,10.36017,0.0],[-62.66515,10.36636,0.0],[-62.72252,10.4278,0.0],[-62.74718,10.46027,0.0],[-62.77697,10.49262,21.4459],[-62.78112,10.49291,23.4716],[-62.7862,10.48517,3.3086],[-62.79019,10.47264,11.0216],[-62.79157,10.46613,10.1629],[-62.79308,10.44794,0.0],[-62.78759,10.43012,28.8058],[-62.76968,10.41161,24.1048],[-62.74104,10.39492,23.9712],[-62.71032,10.37202,22.3772],[-62.69286,10.35456,23.8327],[-62.68594,10.34577,24.8499],[-62.66955,10.33112,26.667],[-62.66584,10.3216,10.5512],[-62.6656,10.31,21.8613],[-62.65982,10.31,0.0]]],
[[[-62.31876,10.70474,4.6704],[-62.39704,10.71548,38.873],[-62.54157,10.74095,0.0],[-62.63805,10.74262,0.0],[-62.65925,10.74689,0.0],[-62.67154,10.74775,0.0],[-62.68301,10.74999,0.0],[-62.70568,10.76203,38.151],[-62.71963,10.76,64.2726],[-62.82771,10.72329,0.0],[-62.86339,10.71752,0.0],[-62.90429,10.70222,0.0],[-62.92821,10.69937,0.0],[-62.95173,10.70331,0.0],[-62.99177,10.71784,0.0],[-63.01423,10.7211,0.0],[-63.08251,10.71552,0.0],[-63.09952,10.7211,0.0],[-63.10753,10.71235,0.0],[-63.1162,10.70816,0.0],[-63.12588,10.70685,0.0],[-63.13744,10.70677,0.0],[-63.14948,10.71092,0.0],[-63.15559,10.72016,0.0],[-63.1586,10.72968,0.0],[-63.16161,10.73469,0.0],[-63.17129,10.73159,0.0],[-63.24087,10.68513,0.0],[-63.25129,10.68057,0.0],[-63.26061,10.68325,0.0],[-63.27172,10.68793,0.0],[-63.2799,10.68366,0.0],[-63.28454,10.67646,0.0],[-63.28515,10.67267,0.0],[-63.30134,10.67731,0.0],[-63.31774,10.68423,0.0],[-63.33153,10.68537,0.0],[-63.33975,10.67267,0.0],[-63.36022,10.68012,7.6596],[-63.35399,10.68635,0.0],[-63.36022,10.6931,0.0],[-63.36742,10.68891,0.0],[-63.37426,10.68879,0.0],[-63.38093,10.69245,0.0],[-63.38756,10.69937,0.0],[-63.39346,10.6909,0.0],[-63.3994,10.66999,12.8091],[-63.4049,10.66584,36.5252],[-63.41763,10.66861,0.0],[-63.42992,10.67259,0.0],[-63.43895,10.67137,0.0],[-63.44221,10.65839,0.0],[-63.44905,10.65839,115.084],[-63.46618,10.66763,0.0],[-63.49022,10.65762,0.0],[-63.53156,10.63105,0.0],[-63.55333,10.62914,13.9734],[-63.65319,10.64126,0.0],[-63.75695,10.66559,0.0],[-63.78067,10.67585,0.0],[-63.79967,10.69115,7.3946],[-63.81212,10.71361,0.0],[-63.81957,10.71361,0.0],[-63.82238,10.6944,0.0],[-63.82836,10.67683,0.0],[-63.83682,10.66234,0.0],[-63.84683,10.65217,0.0],[-63.86164,10.64631,0.0],[-63.90038,10.63825,0.0],[-63.91511,10.63105,0.0],[-63.93733,10.6389,0.0],[-64.03185,10.63788,0.0],[-64.03649,10.64102,0.0],[-64.03938,10.64574,0.0],[-64.04271,10.65021,0.0],[-64.0489,10.65217,0.0],[-64.06261,10.65103,0.0],[-64.0725,10.64789,0.0],[-64.13121,10.6197,4.2168],[-64.14476,10.61742,9.2216],[-64.15722,10.62018,0.8149],[-64.18391,10.63349,0.0],[-64.19628,10.63788,11.7854],[-64.24079,10.64606,0.0],[-64.25475,10.65493,0.5891],[-64.26456,10.67267,0.0],[-64.27074,10.67267,0.0],[-64.27099,10.6599,0.0],[-64.27473,10.65058,0.0],[-64.28189,10.64362,3.5758],[-64.29255,10.63788,0.1653],[-64.29768,10.61986,0.0],[-64.28458,10.5998,0.0],[-64.26671,10.57909,2.302],[-64.25772,10.55939,13.9247],[-64.25788,10.54804,60.2922],[-64.25609,10.53335,0.0],[-64.24913,10.52045,0.0],[-64.23388,10.51504,28.64],[-64.22427,10.52041,16.4831],[-64.2154,10.54377,17.4982],[-64.20686,10.54914,6.2296],[-64.19953,10.55219,0.0],[-64.16906,10.57026,0.377],[-64.15551,10.5727,7.5594],[-64.08617,10.56712,0.0],[-64.07274,10.57026,0.0],[-64.06485,10.57575,41.8882],[-64.05671,10.58348,0.0],[-64.04629,10.58959,0.0],[-64.03185,10.59007,0.0],[-64.04052,10.57514,0.0],[-64.04548,10.57026,0.0],[-63.99348,10.5808,97.69],[-63.96666,10.58137,64.0017],[-63.94644,10.57339,0.0],[-63.92374,10.56029,0.0],[-63.89973,10.55711,93.8031],[-63.84683,10.55598,35.1448],[-63.82315,10.54938,0.0],[-63.77184,10.52505,0.0056],[-63.75406,10.51162,0.0],[-63.72973,10.4975,13.3008],[-63.70368,10.49531,11.7441],[-63.67809,10.49698,12.2509],[-63.65502,10.49453,0.0],[-63.68346,10.47972,0.0],[-63.82038,10.44758,0.0],[-63.86364,10.44611,0.0],[-63.88402,10.44872,0.0],[-63.92317,10.45942,0.0],[-63.94302,10.46039,0.0],[-64.00487,10.4479,0.0],[-64.02843,10.44611,0.0],[-64.05183,10.44794,0.0],[-64.07038,10.45262,0.0],[-64.11461,10.47321,3.8803],[-64.12767,10.47761,0.0],[-64.14346,10.48013,0.0],[-64.1656,10.48086,0.0],[-64.18855,10.47761,0.0],[-64.19774,10.46865,0.0],[-64.20214,10.45539,0.0],[-64.21056,10.43928,0.0],[-64.24718,10.41987,0.0],[-64.29918,10.40648,24.5004],[-64.33918,10.39069,0.0],[-64.33971,10.3642,46.1902],[-64.34826,10.34919,0.0],[-64.35741,10.33869,64.4769],[-64.36461,10.33832,0.0],[-64.36754,10.35395,42.909],[-64.36783,10.3701,137.8099],[-64.37108,10.38223,62.7953],[-64.38126,10.38622,43.2462],[-64.40241,10.37849,0.0],[-64.40241,10.371,29.1766],[-64.3806,10.371,8.8868],[-64.38305,10.36152,84.2446],[-64.38353,10.35651,0.0],[-64.3806,10.3437,0.0],[-64.39533,10.3395,0.0],[-64.41666,10.32673,88.0683],[-64.42907,10.32319,0.0],[-64.44103,10.32591,5.8248],[-64.45303,10.33145,0.0],[-64.46337,10.33283,0.0],[-64.47004,10.32319,0.0],[-64.45495,10.31342,0.0],[-64.43277,10.30598,0.0],[-64.40958,10.30467,0.0],[-64.38223,10.31696,0.0],[-64.3767,10.31025,0.0],[-64.3767,10.30077,58.0584],[-64.38439,10.29588,3.3458],[-64.39029,10.29377,0.0],[-64.4086,10.28437,0.7263],[-64.44017,10.27627,64.8848],[-64.46837,10.2486,56.769],[-64.49055,10.24067,9.7888],[-64.49901,10.24234,23.5917],[-64.52099,10.25178,0.0],[-64.53148,10.25434,0.0],[-64.53607,10.25231,0.0],[-64.53469,10.25012,0.0],[-64.52257,10.23599,218.3323],[-64.51474,10.22351,650.961],[-64.49694,10.21465,666.0844],[-64.45578,10.19953,650.5848],[-64.44575,10.19323,711.4597],[-64.43976,10.18331,457.838],[-64.43846,10.1761,195.3661],[-64.43836,10.16889,352.3232],[-64.43901,10.16274,536.2233],[-64.43901,10.15654,723.1093],[-64.43792,10.15096,738.5538],[-64.43583,10.14623,645.119],[-64.43141,10.14266,670.564],[-64.42493,10.13956,863.0976],[-64.41379,10.137,1021.6828],[-64.40673,10.13186,868.4579],[-64.40229,10.12729,872.6907],[-64.3996,10.12248,860.6218],[-64.39387,10.11737,821.272],[-64.38544,10.11163,750.162],[-64.357,10.09773,786.9435],[-64.34731,10.09463,780.0916],[-64.33341,10.09626,1041.7511],[-64.31343,10.10207,1038.0029],[-64.30571,10.10137,1127.5869],[-64.29638,10.09874,1071.0784],[-64.26747,10.08135,781.8478],[-64.25982,10.07515,934.196],[-64.24695,10.07096,1090.5488],[-64.21468,10.07282,1439.3528],[-64.15383,10.07928,2188.4077],[-64.10634,10.09339,1877.0807],[-64.09577,10.09649,1896.8682],[-64.05962,10.11512,1658.6481],[-64.04906,10.12527,1756.17],[-64.04531,10.1283,1761.6113],[-64.03735,10.12915,1932.7307],[-64.02598,10.1276,1897.0306],[-63.97916,10.11512,1854.571],[-63.96728,10.10745,2092.9507],[-63.94883,10.08261,1952.7645],[-63.93493,10.08479,2355.2788],[-63.82767,10.11582,1561.8381],[-63.80078,10.12775,1366.5946],[-63.76703,10.17765,1091.5072],[-63.75432,10.18974,1152.5216],[-63.73957,10.20124,919.476],[-63.73024,10.20535,794.166],[-63.72223,10.20674,821.7513],[-63.70102,10.2079,1119.8171],[-63.65632,10.21721,1702.2524],[-63.62304,10.21511,1778.8168],[-63.59836,10.21899,1612.7112],[-63.57221,10.22661,924.7613],[-63.55503,10.22963,1066.9702],[-63.54787,10.23475,1039.8643],[-63.54617,10.23994,983.9843],[-63.5442,10.25865,588.4007],[-63.54289,10.26431,643.1804],[-63.54095,10.2695,527.9362],[-63.53547,10.27803,390.5869],[-63.53234,10.2817,344.1014],[-63.52389,10.28898,319.8771],[-63.49932,10.30428,528.9769],[-63.47594,10.31281,158.9353],[-63.46338,10.31467,159.7677],[-63.45604,10.31265,194.816],[-63.45248,10.30916,275.7138],[-63.44359,10.29743,350.0835],[-63.43997,10.29402,506.8369],[-63.43555,10.29139,556.1482],[-63.43054,10.28929,488.5554],[-63.4077,10.28371,620.2601],[-63.40406,10.28061,601.2789],[-63.40289,10.27612,743.2766],[-63.40354,10.27105,869.1271],[-63.40494,10.26648,1117.9672],[-63.40491,10.26167,1113.2197],[-63.40277,10.25795,1133.4628],[-63.39879,10.25532,1176.5986],[-63.39367,10.25384,1024.0273],[-63.38897,10.25175,1011.4926],[-63.38563,10.24832,1244.3876],[-63.37982,10.24467,1173.4229],[-63.37117,10.24173,1128.639],[-63.34163,10.24056,837.894],[-63.33466,10.23824,819.6729],[-63.33187,10.23429,1057.7542],[-63.3283,10.22429,1127.6873],[-63.3252,10.22031,1103.3955],[-63.32073,10.21752,1250.9934],[-63.26954,10.21256,1037.0386],[-63.26525,10.21023,1103.2117],[-63.26195,10.20666,1040.9803],[-63.25631,10.19829,1087.1401],[-63.25192,10.19511,1064.3076],[-63.24404,10.194,1033.8887],[-63.22727,10.19447,847.52],[-63.22061,10.19385,988.6536],[-63.21585,10.19168,853.2051],[-63.21285,10.18928,823.2651],[-63.21053,10.18338,635.8406],[-63.20304,10.17106,493.8298],[-63.19198,10.16765,516.0579],[-63.18495,10.16912,391.6564],[-63.17983,10.1716,265.8658],[-63.17234,10.17842,111.0959],[-63.1657,10.18563,128.0383],[-63.15255,10.19604,168.3601],[-63.11276,10.21868,6.9008],[-63.11627,10.20612,3.696],[-63.11516,10.20186,3.5595],[-63.11291,10.19597,3.8054],[-63.10896,10.19067,4.4416],[-63.10242,10.184,6.2048],[-63.0963,10.18199,9.8322],[-63.09079,10.18238,6.522],[-63.08242,10.18881,7.1248],[-63.07702,10.19121,22.3514],[-63.06813,10.19137,14.0325],[-63.06354,10.18726,10.2615],[-63.06023,10.18098,22.1983],[-63.05418,10.16568,23.3955],[-63.05263,10.15941,22.8807],[-63.05093,10.13925,19.866],[-63.04377,10.11993,0.0],[-63.03966,10.11365,9.9085],[-63.03444,10.10858,24.2949],[-63.03049,10.10587,26.8677],[-63.01679,10.09889,9.3833],[-63.01307,10.09737,10.4853],[-63.01309,10.0974,10.4853],[-63.01765,10.10346,17.7766],[-62.98933,10.09626,18.7937],[-62.97851,10.09809,19.6447],[-62.963,10.1103,17.8393],[-62.95287,10.10651,17.1052],[-62.94457,10.1013,22.1069],[-62.93847,10.09406,15.7317],[-62.93513,10.08364,25.1009],[-62.92886,10.09125,24.4345],[-62.92056,10.0987,23.8848],[-62.9112,10.1035,12.2012],[-62.90152,10.10346,20.9627],[-62.89436,10.09663,16.9352],[-62.8946,10.08674,0.0],[-62.89647,10.07673,8.0323],[-62.89411,10.06932,17.0425],[-62.87898,10.06623,18.9597],[-62.85139,10.08039,20.8451],[-62.83576,10.07274,21.014],[-62.83275,10.0655,22.7664],[-62.82771,10.04605,15.8889],[-62.82274,10.04206,23.3713],[-62.81387,10.04409,14.5895],[-62.8059,10.04951,7.8511],[-62.80012,10.05711,20.8205],[-62.79792,10.0659,3.1753999999999998],[-62.79198,10.08027,6.7543],[-62.77746,10.08649,2.5661],[-62.75959,10.08682,0.0],[-62.74328,10.08364,18.3918],[-62.7377,10.08027,5.7489],[-62.73282,10.07551,1.7194],[-62.72549,10.07123,2.6723],[-62.71255,10.06932,14.6067],[-62.70246,10.07046,16.5223],[-62.68285,10.0751,19.8398],[-62.67154,10.07616,16.3331],[-62.65661,10.08218,14.4107],[-62.64196,10.09663,11.0263],[-62.63073,10.11449,5.9888],[-62.62658,10.1308,23.556],[-62.62877,10.13638,22.3117],[-62.63805,10.154,25.9548],[-62.64354,10.17121,21.8416],[-62.65075,10.17609,17.6764],[-62.65803,10.1791,18.6538],[-62.66137,10.18232,11.0907],[-62.66332,10.19062,16.8085],[-62.67496,10.21332,2.1315],[-62.67496,10.22484,1.7383],[-62.66812,10.25434,0.0],[-62.6693,10.27692,0.0],[-62.67496,10.29336,0.0],[-62.68489,10.30671,0.0],[-62.69888,10.32014,4.3726],[-62.72232,10.3356,27.8197],[-62.72899,10.3437,23.7104],[-62.73225,10.35301,23.6682],[-62.73314,10.37067,15.0053],[-62.73644,10.37849,19.2936],[-62.74694,10.38666,26.5334],[-62.76448,10.39533,21.4822],[-62.78425,10.40229,20.4161],[-62.80163,10.40518,23.6202],[-62.80797,10.40249,0.0],[-62.83886,10.38467,0.0],[-62.85017,10.38182,0.0],[-62.86034,10.38085,0.0],[-62.86998,10.37836,0.0],[-62.87979,10.371,0.0],[-62.90783,10.39712,21.8888],[-62.92467,10.40567,0.0],[-62.94249,10.40518,0.0],[-62.95324,10.39655,0.0],[-62.9571,10.38378,0.0],[-62.95368,10.37153,0.0],[-62.94249,10.3642,2.1555],[-62.94762,10.34272,16.0368],[-62.92715,10.30337,7.2616],[-62.93163,10.28563,12.3013],[-62.94591,10.27814,8.3117],[-63.00398,10.27538,134.4619],[-62.99279,10.28905,76.7889],[-62.98078,10.30024,61.3494],[-62.97859,10.31098,30.672],[-62.99714,10.32319,71.27],[-62.98375,10.33051,11.3657],[-62.96788,10.35049,9.3531],[-62.95617,10.35737,16.9584],[-62.96557,10.36416,11.0567],[-62.97057,10.37397,9.2933],[-62.97598,10.39834,30.4732],[-62.99722,10.38959,27.4963],[-63.00398,10.38467,8.1639],[-62.99519,10.40786,8.1822],[-62.96402,10.41519,2.6982],[-62.89782,10.41201,4.5044],[-62.88972,10.409,3.046],[-62.87475,10.39549,3.595],[-62.86612,10.39151,8.7202],[-62.85945,10.39204,0.0],[-62.84406,10.39704,22.2183],[-62.83576,10.39834,20.3975],[-62.83113,10.40681,28.8925],[-62.83275,10.42585,25.6484],[-62.83886,10.45698,12.5099],[-62.838,10.48265,0.0],[-62.84118,10.51179,26.4313],[-62.857,10.53156,0.0],[-62.89411,10.52928,13.3942],[-62.92512,10.51179,25.6702],[-62.9803,10.46581,24.5101],[-63.01081,10.45356,20.8138],[-63.01081,10.46039,11.5765],[-62.99446,10.46768,28.7814],[-62.9689,10.48363,25.7459],[-62.94538,10.50243,2.2372],[-62.93513,10.51846,2.2793],[-62.92333,10.53083,19.7436],[-62.89586,10.53754,8.6686],[-62.66234,10.56704,0.0],[-62.60676,10.56281,0.0],[-62.54186,10.54531,0.0],[-62.52107,10.54295,0.0],[-62.50939,10.54413,0.0],[-62.49258,10.54881,0.0],[-62.48323,10.54914,0.0],[-62.47228,10.54645,0.0],[-62.45311,10.53779,0.0],[-62.44164,10.53547,3.9276],[-62.41784,10.53828,0.0],[-62.39835,10.54426,0.0],[-62.37914,10.54507,0.0],[-62.35595,10.53238,0.0],[-62.33495,10.53022,0.0],[-62.31363,10.54784,2.4612],[-62.2648,10.61929,24.0933],[-62.25267,10.63239,11.6683],[-62.23986,10.63788,60.0667],[-62.17447,10.64228,110.2801],[-62.08894,10.63129,22.255],[-62.06701,10.63813,0.0],[-62.00402,10.64472,83.9192],[-61.99315,10.65278,10.6021],[-61.984,10.65355,16.5006],[-61.97444,10.6518,87.4335],[-61.96247,10.65217,116.358],[-61.95458,10.65526,96.65],[-61.94197,10.66401,21.6862],[-61.93822,10.66584,211.2476],[-61.91881,10.67219,69.3005],[-61.90685,10.68407,50.3242],[-61.89769,10.69038,10.9058],[-61.88671,10.68012,0.0],[-61.88048,10.68635,0.0],[-61.88492,10.70742,104.1103],[-61.87686,10.72272,0.0],[-61.86197,10.73347,83.7327],[-61.84577,10.74095,0.0],[-61.86482,10.74482,47.0996],[-61.8922,10.74042,0.0],[-61.91869,10.73119,0.0],[-61.93517,10.7211,0.0],[-61.9442,10.73176,0.0],[-61.97126,10.72309,0.0],[-61.98233,10.73469,0.0],[-62.00707,10.71992,0.0],[-62.03624,10.71402,150.4684],[-62.10241,10.71361,0.0],[-62.1151,10.7097,0.0],[-62.14184,10.6918,289.6773],[-62.1542,10.68635,11.6329],[-62.17077,10.68651,0.0],[-62.20206,10.69672,176.9455],[-62.27392,10.69888,0.0],[-62.31876,10.70474,4.6704]]]]}
,"properties": {"ISO3166-1-Alpha-3": "VEN","country": "Venezuela","fill": "#FF0","name": "Sucre","area_km2": 10901.366,"hist_schema_id": "Elevation0-9000","hist_area_km2": {"0": 2257.484,"25": 1275.877,"50": 503.058,"75": 421.125,"100": 354.784,"125": 325.357,"150": 298.995,"175": 276.948,"200": 268.79,"225": 262.889,"250": 242.771,"275": 225.512,"300": 235.759,"325": 248.476,"350": 235.063,"375": 232.669,"400": 224.748,"425": 223.333,"450": 217.496,"475": 198.357,"500": 184.931,"525": 167.58,"550": 145.289,"575": 129.151,"600": 110.299,"625": 100.377,"650": 89.242,"675": 83.819,"700": 80.672,"725": 77.731,"750": 71.144,"775": 72.084,"800": 68.205,"825": 64.956,"850": 61.871,"875": 60.18,"900": 55.408,"925": 52.76,"950": 49.154,"975": 45.277,"1000": 47.157,"1025": 41.857,"1050": 40.522,"1075": 38.353,"1100": 34.806,"1125": 31.551,"1150": 27.232,"1175": 23.873,"1200": 22.35,"1225": 20.326,"1250": 19.095,"1275": 16.674,"1300": 17.113,"1325": 14.963,"1350": 13.941,"1375": 13.19,"1400": 12.0,"1425": 11.562,"1450": 9.872,"1475": 10.999,"1500": 9.204,"1525": 8.912,"1550": 8.035,"1575": 7.827,"1600": 6.533,"1625": 7.159,"1650": 7.994,"1675": 6.47,"1700": 6.637,"1725": 6.032,"1750": 6.116,"1775": 5.114,"1800": 5.239,"1825": 4.696,"1850": 4.049,"1875": 3.027,"1900": 3.235,"1925": 2.964,"1950": 2.567,"1975": 2.651,"2000": 1.983,"2025": 2.192,"2050": 1.795,"2075": 1.67,"2100": 1.774,"2125": 1.19,"2150": 1.294,"2175": 1.211,"2200": 1.19,"2225": 0.981,"2250": 0.668,"2275": 1.044,"2300": 0.689,"2325": 0.668,"2350": 0.271,"2375": 0.376,"2400": 0.167,"2425": 0.25,"2450": 0.167,"2500": 0.104}}}