{"type": "Feature","bbox": [-68.799,9.5883,-68.4,10.0197],"geometry": {"type": "MultiPolygon","coordinates": [[[[-68.6852,9.5883,119.0304],[-68.6715,9.6057,128.8488],[-68.6363,9.6064,128.4405],[-68.6034,9.6042,133.4635],[-68.5923,9.6134,135.4924],[-68.579,9.6542,148.384],[-68.5724,9.6542,147.8833],[-68.5667,9.6428,142.5286],[-68.5506,9.6258,139.3491],[-68.5373,9.6191,132.9655],[-68.5268,9.6115,127.8272],[-68.5259,9.6087,127.2003],[-68.5154,9.602,126.0722],[-68.504,9.5992,125.3093],[-68.5012,9.5935,123.4678],[-68.4927,9.6001,131.5939],[-68.4803,9.6068,129.5525],[-68.4432,9.6471,135.7423],[-68.445,9.6527,132.4315],[-68.4455,9.6731,172.805],[-68.4477,9.6831,147.5957],[-68.4585,9.7017,163.223],[-68.4593,9.708,169.6807],[-68.4531,9.7193,195.8969],[-68.4521,9.724,251.8144],[-68.4535,9.7316,228.0083],[-68.4622,9.7453,276.5186],[-68.4627,9.7552,469.8887],[-68.4577,9.7671,640.6518],[-68.4332,9.7844,409.0544],[-68.4258,9.7929,465.3356],[-68.4187,9.8089,273.2054],[-68.4192,9.8332,327.7076],[-68.4133,9.8516,394.2711],[-68.4144,9.8582,446.92],[-68.4176,9.8625,449.6886],[-68.4368,9.8755,617.0569],[-68.4413,9.8804,554.4181],[-68.4483,9.8899,508.095],[-68.4529,9.9035,509.1033],[-68.4504,9.9127,585.3726],[-68.4455,9.9176,636.7195],[-68.4247,9.932,638.3485],[-68.4159,9.9435,520.8528],[-68.4051,9.9662,560.2262],[-68.4,9.9888,913.5712],[-68.4143,9.976,846.6926],[-68.4302,9.9659,541.2374],[-68.4675,9.9493,797.2391],[-68.4763,9.9468,849.7474],[-68.4852,9.9509,884.7993],[-68.4905,9.958,1004.0462],[-68.4925,9.9894,625.4946],[-68.4993,9.9976,570.0201],[-68.5139,10.007,876.978],[-68.5405,10.0179,1084.1691],[-68.5601,10.0197,1230.6882],[-68.5809,10.0159,1244.6584],[-68.6006,10.0067,1170.8492],[-68.6183,9.9912,1357.7234],[-68.6538,9.9448,788.3253],[-68.6737,9.9306,1010.5549],[-68.7021,9.9183,671.2921],[-68.7222,9.9117,911.6737],[-68.7179,9.8983,806.8502],[-68.7181,9.8849,580.3292],[-68.7254,9.8491,595.7347],[-68.7376,9.812,551.2437],[-68.7696,9.7428,362.8055],[-68.7814,9.7284,489.4305],[-68.7922,9.7214,394.6996],[-68.799,9.7194,328.8748],[-68.7787,9.6957,218.3619],[-68.7547,9.6611,157.7881],[-68.7442,9.6541,145.2805],[-68.7124,9.6461,135.7816],[-68.6986,9.6348,138.3368],[-68.6954,9.628,129.0081],[-68.6954,9.6127,125.3885],[-68.6851,9.5943,122.9049],[-68.6852,9.5883,119.0304]]]]}
,"properties": {"GID_2": "VEN.8.2_1","GID_0": "VEN","country": "Venezuela","GID_1": "VEN.8_1","province": "Cojedes","NL_NAME_1": "NA","county": "EzequielZomora","VARNAME_2": "NA","NL_NAME_2": "NA","TYPE_2": "Municipio","ENGTYPE_2": "Municipality","CC_2": "NA","HASC_2": "NA","name": "Ezequiel_Zomora.county","area_km2": 1323.221,"hist_schema_id": "Elevation0-9000","hist_area_km2": {"125": 63.903,"150": 140.104,"175": 96.869,"200": 52.413,"225": 33.625,"250": 28.963,"275": 27.646,"300": 30.57,"325": 31.426,"350": 34.142,"375": 39.343,"400": 44.816,"425": 44.021,"450": 46.067,"475": 49.178,"500": 46.023,"525": 45.583,"550": 43.18,"575": 37.894,"600": 34.132,"625": 33.506,"650": 30.894,"675": 28.679,"700": 28.282,"725": 26.59,"750": 23.519,"775": 18.296,"800": 15.623,"825": 12.406,"850": 10.735,"875": 9.419,"900": 7.915,"925": 7.581,"950": 7.121,"975": 6.578,"1000": 6.077,"1025": 6.286,"1050": 5.617,"1075": 5.743,"1100": 4.866,"1125": 4.887,"1150": 4.97,"1175": 4.385,"1200": 4.469,"1225": 3.55,"1250": 4.218,"1275": 3.612,"1300": 2.756,"1325": 2.067,"1350": 1.963,"1375": 2.026,"1400": 1.963,"1425": 2.046,"1450": 1.984,"1475": 1.796,"1500": 1.984,"1525": 1.879,"1550": 1.629,"1575": 1.169,"1600": 1.065,"1625": 1.169,"1650": 0.752,"1675": 0.606,"1700": 0.334,"1725": 0.167,"1750": 0.104,"1775": 0.042}}}