{"type": "Feature","bbox": [-68.7119,10.2664,-68.5335,10.6617],"geometry": {"type": "MultiPolygon","coordinates": [[[[-68.5829,10.6617,69.8139],[-68.5981,10.6562,58.6386],[-68.6083,10.6564,59.6775],[-68.617,10.661,69.8412],[-68.6227,10.6474,59.1653],[-68.6236,10.6362,53.7894],[-68.6213,10.6179,46.375],[-68.6127,10.5929,49.1091],[-68.6119,10.5853,54.599],[-68.614,10.578,60.0068],[-68.6416,10.5333,109.3934],[-68.6443,10.5251,98.8894],[-68.6447,10.5113,158.0599],[-68.6412,10.4967,296.1508],[-68.6442,10.4933,207.35],[-68.6701,10.4863,562.5696],[-68.6813,10.4817,743.4991],[-68.7119,10.4602,962.2607],[-68.6673,10.4146,91.3671],[-68.6398,10.3814,76.4413],[-68.618,10.3615,75.107],[-68.6132,10.314,385.4823],[-68.6151,10.2931,465.4044],[-68.614,10.2664,568.8701],[-68.6007,10.2756,638.1708],[-68.5898,10.2806,528.1722],[-68.5841,10.2822,598.7662],[-68.5704,10.281,695.6301],[-68.5686,10.2865,724.542],[-68.5667,10.3225,383.08],[-68.561,10.352,257.3589],[-68.5629,10.4156,53.399],[-68.5648,10.4592,37.6799],[-68.5762,10.4649,36.4128],[-68.5335,10.5266,201.7164],[-68.5705,10.5817,54.731],[-68.562,10.6206,36.4535],[-68.562,10.6415,55.0405],[-68.5689,10.6539,75.0553],[-68.5829,10.6617,69.8139]]]]}
,"properties": {"GID_2": "VEN.24.11_1","GID_0": "VEN","country": "Venezuela","GID_1": "VEN.24_1","province": "Yaracuy","NL_NAME_1": "NA","county": "SanFelipe","VARNAME_2": "NA","NL_NAME_2": "NA","TYPE_2": "Municipio","ENGTYPE_2": "Municipality","CC_2": "NA","HASC_2": "NA","name": "San_Felipe.county","area_km2": 361.6717,"hist_schema_id": "Elevation0-9000","hist_area_km2": {"25": 13.3624,"50": 110.0881,"75": 59.1288,"100": 24.1028,"125": 16.2422,"150": 16.2424,"175": 15.8676,"200": 15.4302,"225": 14.2626,"250": 12.3024,"275": 9.1958,"300": 9.3209,"325": 7.2359,"350": 5.7343,"375": 5.5049,"400": 5.1088,"425": 3.5865,"450": 2.2104,"475": 2.3979,"500": 1.5014,"525": 1.5223,"550": 1.2929,"575": 1.293,"600": 1.0428,"625": 0.8551,"650": 0.5422,"675": 0.6256,"700": 0.4379,"725": 0.4588,"750": 0.6255,"775": 0.3753,"800": 0.5838,"825": 0.417,"850": 0.2919,"875": 0.6046,"900": 0.5838,"925": 0.5838,"950": 0.1668,"975": 0.2502,"1000": 0.1668,"1025": 0.0417,"1050": 0.0834}}}