{"type": "Feature","bbox": [-72.2935,7.6634,-71.9449,7.8663],"geometry": {"type": "MultiPolygon","coordinates": [[[[-72.1778,7.8345,1169.1094],[-72.1875,7.8307,1078.1984],[-72.2357,7.799,784.6505],[-72.2479,7.7963,917.9956],[-72.2803,7.7979,1163.9778],[-72.2899,7.795,1402.1356],[-72.2935,7.7843,1392.2314],[-72.2935,7.7753,1353.3745],[-72.2916,7.7692,1263.1614],[-72.2739,7.7507,816.8601],[-72.2692,7.7513,764.106],[-72.2611,7.7615,781.9401],[-72.254,7.7675,870.0455],[-72.2371,7.7719,781.1449],[-72.2246,7.7727,892.9012],[-72.1939,7.7705,1250.787],[-72.145,7.7784,2211.1125],[-72.134,7.778,2051.9343],[-72.1267,7.7754,1865.6019],[-72.1111,7.7638,1198.7748],[-72.0775,7.7491,969.8849],[-72.0682,7.741,567.3652],[-72.064,7.7326,915.8105],[-72.0634,7.7065,802.1147],[-72.0602,7.6916,827.9468],[-72.0552,7.677,993.7849],[-72.0484,7.6634,637.2698],[-72.0421,7.6694,592.6787],[-72.0039,7.6833,592.6069],[-71.9855,7.6939,795.2225],[-71.9776,7.703,792.9029],[-71.9584,7.7376,1119.5897],[-71.9533,7.7403,1095.681],[-71.9495,7.7401,953.4049],[-71.9455,7.7358,1031.0104],[-71.9449,7.7464,804.1656],[-71.9497,7.7687,1225.1295],[-71.9536,7.7764,1216.2919],[-71.9598,7.7797,1013.4802],[-71.9807,7.7834,851.1108],[-71.9895,7.787,961.6335],[-71.9956,7.7919,771.8282],[-72.0028,7.801,952.6326],[-72.0147,7.8233,959.0459],[-72.021,7.8314,1358.032],[-72.0283,7.8372,1836.46],[-72.0359,7.8401,1868.2725],[-72.0446,7.8404,1996.2285],[-72.0557,7.8324,1640.3042],[-72.0632,7.8324,1389.0712],[-72.0678,7.8358,1327.075],[-72.0756,7.8471,1660.2593],[-72.0824,7.8663,1918.4172],[-72.0921,7.8528,1617.7736],[-72.0987,7.839,1886.0145],[-72.0998,7.8184,1940.1168],[-72.0975,7.8025,1421.2377],[-72.1034,7.8068,1550.1107],[-72.108,7.8069,1751.127],[-72.1332,7.8256,2259.9653],[-72.1469,7.8324,2019.5149],[-72.1664,7.8354,1299.9022],[-72.1778,7.8345,1169.1094]]]]}
,"properties": {"GID_2": "VEN.21.5_1","GID_0": "VEN","country": "Venezuela","GID_1": "VEN.21_1","province": "Táchira","NL_NAME_1": "NA","county": "Cárdenas","VARNAME_2": "NA","NL_NAME_2": "NA","TYPE_2": "Municipio","ENGTYPE_2": "Municipality","CC_2": "NA","HASC_2": "NA","name": "Cárdenas.county","area_km2": 313.6829,"hist_schema_id": "Elevation0-9000","hist_area_km2": {"475": 0.084,"500": 0.1891,"525": 0.2311,"550": 0.5043,"575": 0.9875,"600": 1.5548,"625": 2.3531,"650": 2.4161,"675": 2.8152,"700": 3.0673,"725": 3.8027,"750": 4.916,"775": 5.5251,"800": 6.9957,"825": 8.0671,"850": 7.7729,"875": 8.7603,"900": 8.8233,"925": 8.6762,"950": 8.6762,"975": 9.6004,"1000": 10.3987,"1025": 9.0752,"1050": 8.8442,"1075": 8.529,"1100": 8.6131,"1125": 8.6341,"1150": 8.1929,"1175": 8.508,"1200": 7.8988,"1225": 7.3526,"1250": 6.1341,"1275": 7.2264,"1300": 6.4282,"1325": 5.3989,"1350": 6.0921,"1375": 6.1971,"1400": 5.4198,"1425": 5.5669,"1450": 4.7686,"1475": 4.7476,"1500": 4.8316,"1525": 4.8106,"1550": 4.7896,"1575": 4.3694,"1600": 4.7265,"1625": 3.9073,"1650": 3.5922,"1675": 3.9494,"1700": 3.7603,"1725": 3.6342,"1750": 3.3611,"1775": 2.4577,"1800": 2.3947,"1825": 2.3947,"1850": 1.8065,"1875": 1.7645,"1900": 1.8065,"1925": 1.3024,"1950": 1.2604,"1975": 1.3023,"2000": 1.0083,"2025": 1.1553,"2050": 1.1553,"2075": 0.9453,"2100": 0.8612,"2125": 0.8402,"2150": 0.8612,"2175": 0.7142,"2200": 0.7562,"2225": 0.8402,"2250": 0.6512,"2275": 0.4831,"2300": 0.5041,"2325": 0.2311,"2350": 0.2311,"2375": 0.1891,"2400": 0.105,"2425": 0.084}}}