{"type": "Feature","bbox": [-67.7031,7.0834,-66.3033,7.8815],"geometry": {"type": "MultiPolygon","coordinates": [[[[-67.7031,7.5795,44.6243],[-67.6377,7.5829,44.3251],[-67.6168,7.5868,44.9517],[-67.5892,7.5967,42.7449],[-67.5731,7.5965,42.7235],[-67.5086,7.5802,45.1772],[-67.4974,7.5809,42.5404],[-67.4772,7.5929,40.724],[-67.4582,7.6107,42.5654],[-67.4454,7.6187,40.3157],[-67.4308,7.6228,46.0184],[-67.4091,7.6244,41.0502],[-67.3898,7.6221,40.5621],[-67.3198,7.6078,37.604],[-67.4371,7.5073,42.8825],[-67.4693,7.474,40.9183],[-67.4589,7.4679,39.0],[-67.4306,7.456,40.5128],[-67.3796,7.4194,39.442],[-67.3616,7.4102,39.2253],[-67.3233,7.3977,38.6926],[-67.3078,7.3872,39.5808],[-67.2847,7.3665,38.3869],[-67.22,7.3492,37.9959],[-67.2094,7.3431,36.7543],[-67.2002,7.333,36.4115],[-67.1877,7.3008,36.6288],[-67.1809,7.2889,36.8011],[-67.164,7.2769,38.0577],[-67.1504,7.2703,36.5511],[-67.135,7.2598,43.9388],[-67.1288,7.2506,45.2244],[-67.1264,7.2418,38.4161],[-67.1325,7.2166,40.9849],[-67.1332,7.1999,39.8826],[-67.1315,7.1821,42.6585],[-67.1249,7.1691,43.6575],[-67.113,7.1561,39.6759],[-67.0831,7.1424,39.3127],[-67.0654,7.132,32.0],[-67.0625,7.1277,34.5],[-67.0096,7.0834,37.5492],[-66.9878,7.0872,36.6687],[-66.9396,7.0896,37.8542],[-66.9258,7.0928,144.6814],[-66.9144,7.1011,44.8558],[-66.8866,7.1306,37.6876],[-66.8788,7.1373,38.356],[-66.8674,7.1436,36.5515],[-66.8183,7.1639,41.2145],[-66.763,7.1766,56.7609],[-66.6811,7.2113,36.4863],[-66.6503,7.2264,35.3366],[-66.6354,7.232,34.2965],[-66.6138,7.2374,38.0155],[-66.602,7.2425,35.0743],[-66.585,7.2554,41.6008],[-66.5479,7.3033,39.116],[-66.5329,7.3259,41.1931],[-66.475,7.3899,37.246],[-66.4586,7.4219,146.2014],[-66.4258,7.4544,214.4412],[-66.4018,7.4884,104.8206],[-66.3893,7.5033,62.1071],[-66.3789,7.5126,43.1127],[-66.341,7.5358,34.9328],[-66.3251,7.5506,37.0668],[-66.3153,7.5543,32.4926],[-66.3033,7.555,33.3547],[-66.3192,7.5963,33.6798],[-66.3145,7.5977,33.0979],[-66.3326,7.6087,31.0046],[-66.3438,7.6261,27.0],[-66.356,7.6524,27.0],[-66.3633,7.6614,33.0075],[-66.3836,7.6726,32.6239],[-66.404,7.6763,33.3204],[-66.4411,7.6787,31.6864],[-66.472,7.7035,32.666],[-66.4994,7.7571,32.1579],[-66.5093,7.7693,34.8765],[-66.5353,7.7926,33.5225],[-66.5551,7.8026,32.7525],[-66.5699,7.8024,32.9032],[-66.6053,7.7794,32.8384],[-66.6258,7.7728,33.0678],[-66.6493,7.7686,32.3302],[-66.6683,7.7679,34.2396],[-66.6848,7.7643,34.3651],[-66.7014,7.7568,38.9375],[-66.7056,7.7444,34.8896],[-66.7043,7.7345,34.6078],[-66.6951,7.7154,34.1936],[-66.6935,7.7038,33.6381],[-66.6967,7.6947,34.5589],[-66.7082,7.69,33.8824],[-66.7358,7.6865,33.829],[-66.7756,7.6877,34.7717],[-66.792,7.6906,35.1639],[-66.8134,7.679,33.7747],[-66.8382,7.6913,35.6461],[-66.8547,7.7109,34.7105],[-66.861,7.7217,36.7939],[-66.8717,7.7344,35.7594],[-66.8879,7.743,36.1931],[-66.9357,7.7581,36.9637],[-66.9557,7.7664,36.633],[-66.9854,7.7708,36.921],[-67.0154,7.7829,37.4948],[-67.0445,7.7902,38.1236],[-67.1386,7.7925,38.836],[-67.1565,7.7943,37.7088],[-67.1929,7.8168,38.8507],[-67.2073,7.8202,39.5857],[-67.2422,7.8241,40.8906],[-67.2754,7.8303,43.3076],[-67.3156,7.8342,40.4309],[-67.3343,7.8407,40.6506],[-67.3532,7.853,42.9962],[-67.378,7.8624,43.4753],[-67.4094,7.8787,43.3844],[-67.4218,7.8815,43.9609],[-67.4377,7.8803,43.3538],[-67.4568,7.8536,42.2169],[-67.4889,7.8455,43.9078],[-67.5004,7.8483,42.6363],[-67.5185,7.8488,46.1836],[-67.5207,7.7287,45.1108],[-67.7031,7.5795,44.6243]]]]}
,"properties": {"GID_2": "VEN.3.7_1","GID_0": "VEN","country": "Venezuela","GID_1": "VEN.3_1","province": "Apure","NL_NAME_1": "NA","county": "SanFernando","VARNAME_2": "NA","NL_NAME_2": "NA","TYPE_2": "Municipio","ENGTYPE_2": "Municipality","CC_2": "NA","HASC_2": "NA","name": "San_Fernando.county","area_km2": 7000.222,"hist_schema_id": "Elevation0-9000","hist_area_km2": {"25": 4048.853,"50": 2901.35,"75": 15.852,"100": 8.409,"125": 6.56,"150": 5.635,"175": 3.553,"200": 3.259,"225": 2.481,"250": 1.914,"275": 1.03,"300": 0.736,"325": 0.316,"350": 0.21,"375": 0.063}}}