{"type": "Feature","bbox": [-67.429397861920478,8.9517268841461259,-67.306206474715879,9.1580761372654251],"geometry": {"type": "Polygon","coordinates": [[[-67.3091501159872,9.0836020131011139,98.0],[-67.314007124084867,9.0838963772282284,101.3262],[-67.318275403928268,9.0830132848468565,103.5409],[-67.322102137580984,9.083307648973971,103.4292],[-67.323721140280213,9.0868400184995437,98.0],[-67.322102137580984,9.1103891486700945,102.9738],[-67.323132412025942,9.1156877029584678,103.1065],[-67.325634507106557,9.1198088007382978,105.7127],[-67.332846428221288,9.1265791756623287,98.0],[-67.3422660802895,9.13747064836619,98.0],[-67.346239996005778,9.1398255613832475,101.8499],[-67.350655457912751,9.1407086537646478,101.5838],[-67.355806830137553,9.1398255613832475,101.702],[-67.364932118078642,9.141886110273191,101.7487],[-67.373468677765459,9.141886110273191,98.0],[-67.3762651369732,9.14424102329022,98.0],[-67.381710873325147,9.1516001264685372,98.0],[-67.385537606977863,9.1548381318669669,98.0],[-67.389805886821264,9.1574874090111678,98.0],[-67.39274952809258,9.1580761372654251,105.983],[-67.393926984601109,9.1563099525026246,103.1212],[-67.386862245549949,9.1404142896375333,98.0],[-67.384360150469334,9.131583365823559,98.0],[-67.383329876024376,9.1062680508902361,98.0],[-67.386862245549949,9.0994976759662052,98.0],[-67.3909833433298,9.0977314912034331,98.0],[-67.394662894918937,9.1009694966018628,98.0],[-67.3961347155546,9.1068567791445219,98.0],[-67.395251623173209,9.116570795339868,98.0],[-67.395398805236766,9.1221637137553557,98.0],[-67.399519903016611,9.125107355026671,98.5186],[-67.402905090478626,9.123046806136756,101.6775],[-67.405848731749941,9.11922007248404,102.7474],[-67.410117011593357,9.1095060562886943,111.2256],[-67.411588832229015,9.104207502000321,107.2109],[-67.414679655563887,9.0859569261181719,99.4013],[-67.418653571280174,9.0759485457956828,98.0],[-67.424393671759233,9.0677063502359943,101.4487],[-67.427778859221249,9.0641739807104216,101.5073],[-67.429397861920478,9.0568148775321333,98.0],[-67.4292506798569,9.0462177689553869,98.0],[-67.407614916512728,8.9690943676468748,98.0],[-67.40113890571584,8.9596747155786716,98.0],[-67.3831826939608,8.9517268841461259,98.0],[-67.365373664269342,8.9543761612902983,106.8996],[-67.36022229204454,8.955847981925956,104.2255],[-67.355806830137553,8.9582028949430139,98.0],[-67.352568824739109,8.96202962859573,98.0],[-67.350361093785622,8.9667394546298453,98.0],[-67.3491836372771,8.972332373045333,98.0],[-67.3496251834678,8.9882280359104527,100.0427],[-67.347270270450736,8.9920547695631683,101.5193],[-67.341088623780976,8.997647687978656,101.9616],[-67.3315217896492,9.0108940736995748,98.0],[-67.329166876632144,9.0150151714794333,98.0],[-67.328283784250743,9.01972499751355,98.0],[-67.329902786949972,9.0241404594205221,101.8677],[-67.3409414417174,9.032971383234468,98.0],[-67.341088623780976,9.0376812092685554,100.1026],[-67.338733710763918,9.0412135787941565,100.4758],[-67.329461240759272,9.04562904070113,98.0],[-67.325634507106557,9.0485726819724448,98.0],[-67.322396501708113,9.0521050514980175,98.0],[-67.31798103980114,9.0618190676933636,103.4365],[-67.315331762656953,9.0662345296003366,98.0],[-67.3082670236058,9.0730049045243675,98.0],[-67.306206474715879,9.0768316381770831,104.4956],[-67.306500838843007,9.0809527359569131,100.9563],[-67.3091501159872,9.0836020131011139,98.0]]]}
,"properties": {"featurecla": "Reservoir","scalerank": 8,"name": "Embalse de Gurico","name_abb": "Emb. de Gurico","name_alt": null,"note": null,"delta": null,"dam_name": null,"year": -99,"admin": null,"min_zoom": 6.0,"min_label": 7.0,"area_km2": 184.2144,"hist_schema_id": "Elevation0-9000","hist_area_km2": {"100": 184.1097,"125": 0.1047}}}