{"type":"Feature","properties":{"GID_2":"VEN.15.2_1","GID_0":"VEN","country":"Venezuela","GID_1":"VEN.15_1","province":"Mérida","NL_NAME_1":"NA","county":"AndrésBello","VARNAME_2":"NA","NL_NAME_2":"NA","TYPE_2":"Municipio","ENGTYPE_2":"Municipality","CC_2":"NA","HASC_2":"NA","name":"Andrés_Bello.county"},
"geometry":{"type": "MultiPolygon","coordinates": [[[[-71.5685,8.5887,300.1276],[-71.5483,8.5891,689.9866],[-71.4993,8.5856,1231.2679],[-71.4573,8.5898,2052.2332],[-71.4444,8.5921,2155.0496],[-71.4234,8.5985,2397.1313],[-71.4159,8.5987,2537.3413],[-71.3979,8.5918,2771.7139],[-71.3995,8.5966,2902.9329],[-71.3915,8.6213,2701.8909],[-71.3857,8.6289,2542.8999],[-71.3778,8.6328,2388.9385],[-71.3804,8.6358,2444.7727],[-71.3863,8.6383,2438.2805],[-71.3877,8.6463,2262.6792],[-71.3574,8.6595,2027.0175],[-71.2576,8.6652,3815.1091],[-71.1967,8.6895,3732.1162],[-71.2082,8.7015,3903.0056],[-71.2575,8.7424,3710.5181],[-71.2878,8.7566,3359.3015],[-71.3284,8.7712,2678.2761],[-71.3775,8.7685,1512.9636],[-71.3912,8.7695,1299.0774],[-71.3885,8.7591,1176.1016],[-71.3908,8.755,1496.8833],[-71.3992,8.7527,1448.4609],[-71.4384,8.7505,516.6349],[-71.4675,8.7518,1092.0493],[-71.4816,8.7468,1370.6196],[-71.4864,8.7386,1529.105],[-71.4957,8.7062,1744.4266],[-71.4999,8.6992,1700.9993],[-71.509,8.6904,1695.0984],[-71.5154,8.6872,1709.3076],[-71.5137,8.6569,1590.2316],[-71.5157,8.641,921.9051],[-71.5199,8.6293,755.7017],[-71.5259,8.6203,595.5995],[-71.5605,8.6037,308.2977],[-71.5671,8.5972,263.2003],[-71.5685,8.5887,300.1276]]]]}}