{"type": "Feature","bbox": [-69.6903,10.911,-69.1713,11.2392],"geometry": {"type": "MultiPolygon","coordinates": [[[[-69.5785,11.2319,1215.5299],[-69.6249,11.2218,1302.6367],[-69.6783,11.2046,1227.4258],[-69.6777,11.192,1325.4902],[-69.6846,11.1738,1242.9852],[-69.6903,11.1634,1120.4827],[-69.6669,11.1487,1123.6824],[-69.6536,11.146,1046.7556],[-69.6092,11.1477,654.8575],[-69.6056,11.1372,507.3971],[-69.6053,11.1053,378.9551],[-69.6072,11.0866,332.5914],[-69.6122,11.0739,332.6526],[-69.6041,11.071,350.9514],[-69.5984,11.064,392.4293],[-69.5795,11.0335,335.5575],[-69.5576,11.0038,334.2383],[-69.5531,10.9956,408.9203],[-69.5486,10.9836,374.7051],[-69.5529,10.9649,385.8562],[-69.5467,10.9651,395.3742],[-69.5156,10.9441,347.9081],[-69.4956,10.9258,316.5652],[-69.4788,10.9137,302.9465],[-69.4705,10.911,275.612],[-69.46,10.9118,300.1912],[-69.4472,10.9172,264.8172],[-69.4385,10.9218,276.2598],[-69.4198,10.9407,199.6852],[-69.4088,10.947,219.4376],[-69.3942,10.9507,219.8227],[-69.3711,10.9484,197.8393],[-69.3576,10.9447,164.968],[-69.3267,10.9315,170.6618],[-69.3193,10.9434,124.6775],[-69.3112,10.9477,130.7901],[-69.2909,10.9486,113.4387],[-69.249,10.9622,130.5992],[-69.244,10.9668,103.0637],[-69.2212,11.0012,90.0989],[-69.2167,11.0246,72.5059],[-69.2117,11.0369,73.0509],[-69.1975,11.0529,69.7206],[-69.1713,11.0737,64.2893],[-69.1857,11.1059,56.3083],[-69.1954,11.121,54.0231],[-69.2195,11.1202,54.2835],[-69.3083,11.133,68.5566],[-69.3767,11.1363,121.6203],[-69.3908,11.1408,174.4615],[-69.4013,11.1483,275.4665],[-69.4369,11.1943,245.0977],[-69.4475,11.2046,295.5619],[-69.4838,11.2303,479.371],[-69.5095,11.2392,750.8078],[-69.5253,11.2308,849.0459],[-69.542,11.2153,847.8556],[-69.5517,11.2112,1026.3556],[-69.5627,11.2109,1272.7632],[-69.5692,11.213,1151.2299],[-69.5737,11.2177,991.3959],[-69.5773,11.2239,1101.5098],[-69.5785,11.2319,1215.5299]]]]}
,"properties": {"GID_2": "VEN.12.17_1","GID_0": "VEN","country": "Venezuela","GID_1": "VEN.12_1","province": "Falcón","NL_NAME_1": "NA","county": "Petit","VARNAME_2": "NA","NL_NAME_2": "NA","TYPE_2": "Municipio","ENGTYPE_2": "Municipality","CC_2": "NA","HASC_2": "NA","name": "Petit.county","area_km2": 1119.2089,"hist_schema_id": "Elevation0-9000","hist_area_km2": {"50": 38.7184,"75": 111.8017,"100": 99.6367,"125": 79.9924,"150": 67.0287,"175": 54.5856,"200": 50.0714,"225": 69.0248,"250": 73.5583,"275": 74.5563,"300": 72.184,"325": 57.2016,"350": 42.8226,"375": 32.0425,"400": 22.262,"425": 13.5436,"450": 9.6939,"475": 8.8613,"500": 7.9458,"525": 6.0112,"550": 6.3231,"575": 4.888,"600": 3.7231,"625": 3.3487,"650": 2.3711,"675": 3.1407,"700": 2.4543,"725": 2.4751,"750": 2.1215,"775": 2.4543,"800": 1.9136,"825": 1.7888,"850": 2.08,"875": 2.4336,"900": 1.56,"925": 1.9135,"950": 3.0367,"975": 5.8654,"1000": 7.1134,"1025": 6.7598,"1050": 6.4686,"1075": 6.9054,"1100": 8.091,"1125": 7.9038,"1150": 7.3421,"1175": 6.7181,"1200": 4.3886,"1225": 3.7022,"1250": 2.6623,"1275": 2.0799,"1300": 1.1647,"1325": 1.1231,"1350": 0.6655,"1375": 0.4159,"1400": 0.1872,"1425": 0.0832}}}