{"type":"Feature","properties":{"GID_2":"VEN.15.13_1","GID_0":"VEN","country":"Venezuela","GID_1":"VEN.15_1","province":"Mérida","NL_NAME_1":"NA","county":"Miranda","VARNAME_2":"NA","NL_NAME_2":"NA","TYPE_2":"Municipio","ENGTYPE_2":"Municipality","CC_2":"NA","HASC_2":"NA","name":"Miranda.county"},
"geometry":{"type": "MultiPolygon","coordinates": [[[[-70.7029,8.8932,2727.5107],[-70.6945,8.9164,3249.5164],[-70.6904,8.9235,2900.7935],[-70.6875,8.9379,3037.6748],[-70.6895,8.9922,3082.2549],[-70.6853,9.0045,2746.4404],[-70.6803,9.0104,2876.6003],[-70.6735,9.0229,2458.4136],[-70.6787,9.0211,2541.0645],[-70.6943,9.0215,2090.7705],[-70.7053,9.0273,2124.3384],[-70.713,9.0329,1894.5703],[-70.7416,9.0739,2173.6582],[-70.752,9.0857,2930.6455],[-70.7697,9.094,3479.5261],[-70.7817,9.0972,3711.7141],[-70.8025,9.1116,2986.0383],[-70.8097,9.098,3073.7192],[-70.8136,9.0867,3448.2036],[-70.831,9.0583,3492.1675],[-70.8429,9.0628,3170.3198],[-70.8595,9.0458,3147.3521],[-70.8669,9.0349,2550.3201],[-70.8836,9.0216,2987.2583],[-70.8913,9.012,2954.2385],[-70.8921,8.9949,3238.7339],[-70.872,8.9771,3960.7876],[-70.8513,8.9356,4106.29],[-70.848,8.9248,4069.2957],[-70.8449,8.8966,3908.1299],[-70.8407,8.8846,4100.1309],[-70.8405,8.8758,4127.2686],[-70.8441,8.8648,4192.8018],[-70.8506,8.86,4101.8286],[-70.8346,8.8528,3973.719],[-70.8264,8.846,4115.2222],[-70.8199,8.8362,3696.137],[-70.8093,8.8272,3344.3779],[-70.7912,8.8153,3063.0894],[-70.7835,8.8069,3199.3223],[-70.7615,8.8162,3014.0393],[-70.749,8.8252,2869.616],[-70.7372,8.8405,2628.6504],[-70.718,8.8601,2886.5322],[-70.7112,8.8701,2545.4346],[-70.7044,8.8856,2665.1956],[-70.7029,8.8932,2727.5107]]]]}}