{"type": "Feature","bbox": [-67.4909,5.6407,-64.5988,7.7976],"geometry": {"type": "MultiPolygon","coordinates": [[[[-66.9409,5.645,1108.8009],[-66.9293,5.6411,716.4],[-66.9227,5.6407,652.2756],[-66.9131,5.643,758.3364],[-66.8811,5.6567,898.9622],[-66.8659,5.6659,1335.7468],[-66.8568,5.6739,1289.4653],[-66.844,5.6932,1038.238],[-66.8123,5.7127,830.0862],[-66.7988,5.7273,688.0584],[-66.7803,5.7519,931.1808],[-66.7692,5.7618,887.0649],[-66.7484,5.7735,797.7657],[-66.6983,5.7817,1222.8458],[-66.6778,5.7819,1145.875],[-66.6392,5.7765,1111.0337],[-66.6166,5.7714,872.4703],[-66.5902,5.7708,1255.0266],[-66.5569,5.7796,1495.2095],[-66.5171,5.795,1210.2793],[-66.5031,5.7973,1320.9751],[-66.484,5.7951,838.2648],[-66.4577,5.7858,543.9814],[-66.4323,5.7838,719.5619],[-66.4093,5.7872,1477.0699],[-66.3854,5.7935,1663.8108],[-66.3667,5.7953,1656.397],[-66.3394,5.7943,482.725],[-66.3014,5.7863,307.9654],[-66.2739,5.7772,446.7121],[-66.2219,5.7536,1674.906],[-66.1856,5.7428,1965.8955],[-66.1044,5.7282,1613.9253],[-66.0752,5.7255,1587.4928],[-66.0619,5.7265,1881.8109],[-66.0452,5.7357,1984.057],[-66.0143,5.7699,1639.4224],[-65.9718,5.8105,1270.7372],[-65.9392,5.8448,1013.158],[-65.8941,5.8871,986.0175],[-65.8779,5.9056,953.014],[-65.8695,5.9179,917.5121],[-65.8503,5.9568,723.2161],[-65.8452,5.9709,1080.8459],[-65.8334,5.9881,763.4852],[-65.8186,6.0001,694.9375],[-65.802,6.01,726.3278],[-65.7386,6.0309,496.4725],[-65.7148,6.0443,368.4127],[-65.6921,6.0662,378.7775],[-65.6714,6.0817,361.7668],[-65.5308,6.1268,469.6362],[-65.5213,6.1268,469.8286],[-65.5024,6.1159,519.5765],[-65.4957,6.1157,582.0581],[-65.4775,6.117,410.2226],[-65.4558,6.1233,610.0704],[-65.4444,6.1248,866.9155],[-65.4229,6.1244,1171.2339],[-65.402,6.1148,1069.1221],[-65.3912,6.1023,996.1039],[-65.3866,6.0871,910.9932],[-65.3836,6.0658,1013.1442],[-65.3825,6.0537,1124.7976],[-65.3845,6.0323,1146.0718],[-65.3911,6.0098,1013.3696],[-65.4159,5.945,1086.8882],[-65.4189,5.9311,1150.1188],[-65.4186,5.9125,1192.9692],[-65.4103,5.8486,693.9464],[-65.4089,5.8158,725.5753],[-65.4,5.7821,774.3457],[-65.3822,5.7446,1287.3484],[-65.3681,5.704,1801.9404],[-65.3621,5.6939,1629.2738],[-65.3549,5.6857,1556.259],[-65.3469,5.6797,1585.7477],[-65.3125,5.6695,827.351],[-65.3011,5.6723,1151.1428],[-65.2947,5.676,1207.0981],[-65.286,5.6866,1223.819],[-65.2812,5.6985,1000.7861],[-65.2508,5.7362,1380.7959],[-65.2381,5.746,1596.2913],[-65.2224,5.7515,1795.2444],[-65.2077,5.7517,1548.2664],[-65.171,5.7422,1194.2208],[-65.127,5.7438,1094.0521],[-65.0346,5.7428,688.2841],[-65.0141,5.7442,737.4268],[-64.9951,5.7388,679.7762],[-64.9809,5.7692,734.3555],[-64.9721,5.7945,700.0196],[-64.9628,5.8091,576.7751],[-64.9514,5.8191,706.9317],[-64.9319,5.8295,595.1984],[-64.9206,5.8406,844.2902],[-64.9033,5.8538,443.305],[-64.8634,5.8729,160.7585],[-64.8552,5.8803,97.1246],[-64.8502,5.8897,73.9337],[-64.8464,5.9025,95.0485],[-64.8327,5.9256,264.3835],[-64.816,5.9416,328.8617],[-64.7931,5.9522,304.3495],[-64.787,5.9576,303.4255],[-64.7593,6.0031,318.6367],[-64.7388,6.024,360.2136],[-64.7229,6.0539,606.4104],[-64.7177,6.0681,681.291],[-64.7141,6.1081,318.3574],[-64.7188,6.1345,181.3286],[-64.7287,6.1545,148.0057],[-64.7311,6.1679,87.0284],[-64.7314,6.1911,115.8407],[-64.7328,6.2031,72.907],[-64.7364,6.2152,84.719],[-64.737,6.2411,148.4948],[-64.7425,6.2759,75.2696],[-64.7525,6.3043,78.4401],[-64.7576,6.3492,68.4065],[-64.7584,6.3723,169.9546],[-64.7631,6.3904,132.1668],[-64.7732,6.417,69.1301],[-64.7723,6.4308,68.5337],[-64.7675,6.4392,76.8989],[-64.7618,6.4578,68.2653],[-64.7519,6.4671,72.458],[-64.7179,6.4808,76.8637],[-64.7129,6.4844,79.8569],[-64.6975,6.4908,82.7792],[-64.6789,6.4957,90.8301],[-64.6501,6.4946,115.6026],[-64.6426,6.4963,149.2108],[-64.6368,6.5024,89.2665],[-64.6353,6.5125,77.8007],[-64.6385,6.5342,77.1117],[-64.6357,6.5552,76.4342],[-64.63,6.5665,80.1241],[-64.6193,6.5783,104.9855],[-64.6075,6.6017,212.5379],[-64.5988,6.614,188.8392],[-64.5988,6.6203,245.2131],[-64.6021,6.6302,326.8547],[-64.6274,6.6793,80.0244],[-64.6301,6.6987,77.2613],[-64.6235,6.7084,79.1643],[-64.6242,6.7289,75.2647],[-64.6259,6.7412,78.6816],[-64.6281,6.7478,76.9359],[-64.6313,6.7517,71.8509],[-64.6374,6.7817,84.7877],[-64.6436,6.7895,83.7013],[-64.6503,6.7931,79.8148],[-64.6782,6.8001,85.1784],[-64.6877,6.8035,79.6432],[-64.6909,6.8063,71.4361],[-64.7006,6.8284,68.5055],[-64.7088,6.8402,64.5642],[-64.7199,6.8514,81.1335],[-64.7548,6.8792,72.3948],[-64.7722,6.9115,64.7621],[-64.7789,6.921,57.3486],[-64.7978,6.9355,64.794],[-64.811,6.948,81.2625],[-64.8179,6.9635,61.318],[-64.8182,6.9722,70.8682],[-64.8154,6.9865,85.0728],[-64.8194,7.0029,99.3184],[-64.8195,7.0188,84.7572],[-64.8258,7.0322,89.8948],[-64.8339,7.0405,79.2065],[-64.8462,7.0477,86.4225],[-64.8909,7.0561,60.8142],[-64.9273,7.0763,113.7717],[-64.9536,7.1011,70.6298],[-64.9657,7.1075,58.3392],[-64.9767,7.1102,80.8412],[-64.9992,7.1092,50.6908],[-65.0028,7.1103,52.1832],[-65.02,7.1239,39.3002],[-65.03,7.1387,61.4212],[-65.0424,7.1523,54.3014],[-65.0512,7.172,31.1567],[-65.0517,7.1781,52.888],[-65.0497,7.1841,72.998],[-65.0436,7.191,62.6731],[-65.039,7.193,64.8932],[-65.0177,7.1975,74.954],[-65.0135,7.2053,91.1241],[-65.0145,7.2143,100.4405],[-65.0179,7.2212,85.689],[-65.0249,7.2291,68.2703],[-65.035,7.245,84.6624],[-65.0603,7.2599,89.6837],[-65.069,7.2706,78.296],[-65.0756,7.2747,95.6868],[-65.0835,7.2828,73.1326],[-65.0877,7.293,48.5645],[-65.0885,7.2999,50.6264],[-65.084,7.3256,64.936],[-65.0952,7.3264,69.0556],[-65.0925,7.3409,61.1193],[-65.1127,7.3676,78.4807],[-65.1132,7.3894,89.3206],[-65.1291,7.4184,55.0073],[-65.1299,7.4327,40.0045],[-65.1283,7.4484,48.8936],[-65.1308,7.4678,31.4738],[-65.1287,7.4852,28.0517],[-65.1233,7.5006,26.6202],[-65.1191,7.5074,25.6779],[-65.0949,7.5289,28.4613],[-65.0866,7.5326,26.8714],[-65.0794,7.5333,26.6428],[-65.0562,7.5305,40.7284],[-65.0373,7.5351,36.9],[-65.0259,7.535,34.292],[-65.0137,7.5283,34.2909],[-65.0079,7.5225,36.8045],[-65.0018,7.5132,33.1883],[-64.9947,7.4958,25.0472],[-64.984,7.486,40.2699],[-64.9752,7.4828,39.0149],[-64.9611,7.4847,38.8418],[-64.9465,7.4913,40.2298],[-64.9426,7.4976,50.5745],[-64.9363,7.5021,52.5376],[-64.9252,7.5008,37.8529],[-64.9078,7.4919,37.3112],[-64.9001,7.4898,36.8408],[-64.8891,7.4905,50.1963],[-64.8804,7.4958,67.2887],[-64.8699,7.5143,61.943],[-64.856,7.521,64.569],[-64.8476,7.5271,56.2398],[-64.8461,7.5419,53.0306],[-64.8437,7.5493,47.7264],[-64.8347,7.5608,60.1684],[-64.8357,7.5708,52.4634],[-64.8411,7.5767,31.1826],[-64.8516,7.5792,27.7566],[-64.8796,7.5796,23.0981],[-64.8871,7.5827,21.3543],[-64.9034,7.6019,16.5],[-64.9264,7.6162,21.2234],[-64.9511,7.6389,22.6827],[-64.9715,7.6628,25.4679],[-64.9872,7.6772,23.2955],[-65.0031,7.6856,23.4074],[-65.0206,7.6989,26.1512],[-65.0553,7.7048,22.9332],[-65.0654,7.7102,23.1616],[-65.0825,7.7274,29.5231],[-65.0888,7.7319,28.7708],[-65.0968,7.7343,31.1569],[-65.105,7.7345,32.1695],[-65.1262,7.7309,34.9917],[-65.1661,7.7305,34.9109],[-65.1936,7.7387,33.4042],[-65.2114,7.7481,34.558],[-65.2288,7.7507,34.9426],[-65.247,7.7495,32.252],[-65.2945,7.7424,41.9164],[-65.3221,7.7424,44.359],[-65.3597,7.7559,47.7512],[-65.3838,7.7575,30.1288],[-65.3983,7.7605,43.7244],[-65.4212,7.7693,46.2919],[-65.4672,7.7735,47.0],[-65.4919,7.783,52.3993],[-65.5004,7.7845,49.4803],[-65.552,7.7879,63.8111],[-65.5826,7.7939,55.305],[-65.6073,7.7921,65.9536],[-65.6234,7.7932,82.1562],[-65.6344,7.7969,67.492],[-65.6434,7.7976,115.1881],[-65.651,7.7961,86.5035],[-65.6684,7.7848,50.6023],[-65.6775,7.7751,48.1005],[-65.6918,7.7706,49.3803],[-65.7031,7.7621,38.0315],[-65.7307,7.7275,32.3135],[-65.752,7.7061,30.8323],[-65.7695,7.6821,32.3618],[-65.7726,7.6745,33.6735],[-65.7863,7.6545,36.4331],[-65.8118,7.6297,39.7881],[-65.8599,7.6117,48.7169],[-65.9068,7.5848,43.8715],[-65.926,7.5804,38.5434],[-65.9474,7.5794,34.6649],[-65.9673,7.5812,32.0414],[-66.0047,7.5896,41.4928],[-66.0226,7.5903,38.0999],[-66.0443,7.5885,32.3039],[-66.1038,7.5732,36.7331],[-66.1143,7.5735,36.4529],[-66.1351,7.581,55.2051],[-66.1583,7.5804,37.0971],[-66.1721,7.5741,39.9494],[-66.2009,7.5481,39.5665],[-66.2166,7.5407,31.3243],[-66.2409,7.5418,33.1024],[-66.2591,7.548,32.184],[-66.2942,7.5545,32.2981],[-66.3153,7.5543,32.4926],[-66.3251,7.5506,37.0668],[-66.341,7.5358,34.9328],[-66.3789,7.5126,43.1127],[-66.3893,7.5033,62.1071],[-66.4018,7.4884,104.8206],[-66.4258,7.4544,214.4412],[-66.4586,7.4219,146.2014],[-66.475,7.3899,37.246],[-66.5329,7.3259,41.1931],[-66.5479,7.3033,39.116],[-66.585,7.2554,41.6008],[-66.602,7.2425,35.0743],[-66.6138,7.2374,38.0155],[-66.6354,7.232,34.2965],[-66.6503,7.2264,35.3366],[-66.6811,7.2113,36.4863],[-66.763,7.1766,56.7609],[-66.8183,7.1639,41.2145],[-66.8674,7.1436,36.5515],[-66.8788,7.1373,38.356],[-66.8866,7.1306,37.6876],[-66.9144,7.1011,44.8558],[-66.9258,7.0928,144.6814],[-66.9396,7.0896,37.8542],[-66.9878,7.0872,36.6687],[-67.0066,7.0836,39.5511],[-67.0378,7.0815,43.2195],[-67.0519,7.0758,40.4412],[-67.0689,7.0585,32.5],[-67.0779,7.0443,38.8273],[-67.0828,7.0272,33.0],[-67.0859,6.9917,39.6326],[-67.084,6.9645,38.2128],[-67.0795,6.9445,38.3279],[-67.0668,6.9162,41.7066],[-67.0573,6.903,41.347],[-67.0347,6.8824,36.0],[-67.0273,6.8709,36.0],[-67.0256,6.8578,36.5],[-67.0331,6.8209,37.0],[-67.0421,6.7551,37.5],[-67.0463,6.7381,37.5],[-67.0628,6.6932,37.5],[-67.0871,6.6498,37.5],[-67.0995,6.5991,56.8504],[-67.1078,6.5821,62.6099],[-67.1163,6.5587,56.2453],[-67.1239,6.5225,54.7296],[-67.126,6.4861,57.9371],[-67.1252,6.4514,50.4949],[-67.1273,6.4406,49.8112],[-67.1342,6.4283,132.7433],[-67.1562,6.4131,57.977],[-67.1708,6.4013,54.2496],[-67.1874,6.3846,58.7461],[-67.2069,6.3699,47.1078],[-67.2214,6.3503,57.2551],[-67.2304,6.3352,64.2283],[-67.2466,6.3213,69.0821],[-67.2635,6.3129,63.8518],[-67.277,6.3125,60.5774],[-67.2797,6.3143,58.5214],[-67.288,6.3077,52.5787],[-67.3185,6.2653,39.5],[-67.3314,6.2508,44.3251],[-67.3786,6.2304,40.0],[-67.3987,6.2189,60.1369],[-67.4122,6.2075,51.5333],[-67.4535,6.1799,55.3132],[-67.4909,6.1493,41.5],[-67.4817,6.1509,64.2001],[-67.4697,6.1566,41.0],[-67.4346,6.1548,53.6707],[-67.4228,6.152,51.6015],[-67.4131,6.1473,51.3638],[-67.4004,6.1309,55.0247],[-67.3909,6.1244,55.2612],[-67.374,6.1191,60.4051],[-67.356,6.1209,108.4267],[-67.3154,6.1304,81.4555],[-67.2995,6.1325,70.2222],[-67.2865,6.1312,77.173],[-67.2606,6.1085,158.8165],[-67.2467,6.1055,210.2859],[-67.1961,6.1095,220.7204],[-67.1795,6.1093,550.1948],[-67.1666,6.1039,481.5152],[-67.1524,6.0923,285.3052],[-67.1433,6.0818,115.342],[-67.1322,6.0567,135.7835],[-67.131,6.0038,505.5207],[-67.1212,5.9535,146.6216],[-67.1219,5.9265,149.8301],[-67.1285,5.9094,187.7479],[-67.1327,5.8885,93.9155],[-67.1352,5.8727,145.8363],[-67.136,5.8369,327.2325],[-67.1384,5.8187,141.9883],[-67.149,5.7714,491.1623],[-67.1509,5.7547,616.8695],[-67.1482,5.7399,678.6646],[-67.1393,5.7284,720.6626],[-67.1315,5.7249,762.2749],[-67.1116,5.7246,673.8246],[-67.0905,5.7286,745.8226],[-67.0587,5.7405,736.071],[-67.0398,5.744,710.1466],[-67.0238,5.7462,620.7245],[-67.0161,5.7452,482.8711],[-67.0054,5.7412,434.8496],[-66.9858,5.7276,737.8587],[-66.9758,5.713,869.6082],[-66.9708,5.7027,833.2705],[-66.9675,5.6906,1117.924],[-66.9604,5.6774,912.8287],[-66.9574,5.6647,1083.5247],[-66.9521,5.6536,994.057],[-66.9409,5.645,1108.8009]]]]}
,"properties": {"GID_2": "VEN.6.3_1","GID_0": "VEN","country": "Venezuela","GID_1": "VEN.6_1","province": "Bolívar","NL_NAME_1": "NA","county": "Cedeño","VARNAME_2": "NA","NL_NAME_2": "NA","TYPE_2": "Municipio","ENGTYPE_2": "Municipality","CC_2": "NA","HASC_2": "NA","name": "Cedeño.county","area_km2": 48424.2,"hist_schema_id": "Elevation0-9000","hist_area_km2": {"25": 1670.33,"50": 8867.57,"75": 6884.19,"100": 2533.35,"125": 1082.12,"150": 943.31,"175": 1177.04,"200": 1118.27,"225": 1102.99,"250": 1295.51,"275": 1485.37,"300": 1461.26,"325": 1272.54,"350": 1150.36,"375": 1200.62,"400": 976.01,"425": 787.32,"450": 706.03,"475": 654.92,"500": 609.35,"525": 570.56,"550": 556.11,"575": 555.17,"600": 538.78,"625": 525.12,"650": 506.52,"675": 494.86,"700": 457.39,"725": 406.8,"750": 375.07,"775": 351.12,"800": 328.11,"825": 313.12,"850": 298.88,"875": 289.6,"900": 278.41,"925": 266.92,"950": 263.94,"975": 255.47,"1000": 244.34,"1025": 236.62,"1050": 230.62,"1075": 231.69,"1100": 312.99,"1125": 338.39,"1150": 268.72,"1175": 224.63,"1200": 200.92,"1225": 162.99,"1250": 141.3,"1275": 127.23,"1300": 108.82,"1325": 87.93,"1350": 80.23,"1375": 73.61,"1400": 67.35,"1425": 65.16,"1450": 57.19,"1475": 48.02,"1500": 43.86,"1525": 43.29,"1550": 47.35,"1575": 40.85,"1600": 39.42,"1625": 35.26,"1650": 30.52,"1675": 27.84,"1700": 24.68,"1725": 20.59,"1750": 17.11,"1775": 16.03,"1800": 14.03,"1825": 13.25,"1850": 12.97,"1875": 11.64,"1900": 12.17,"1925": 11.05,"1950": 8.52,"1975": 6.83,"2000": 5.06,"2025": 4.54,"2050": 3.88,"2075": 3.42,"2100": 2.49,"2125": 1.52,"2150": 1.43,"2175": 0.97,"2200": 0.93,"2225": 0.89,"2250": 0.8,"2275": 0.44,"2300": 0.65,"2325": 0.51}}}