{"type": "Feature","bbox": [-72.3017,10.1064,-71.624,10.5321],"geometry": {"type": "MultiPolygon","coordinates": [[[[-72.3017,10.5076,71.9326],[-72.2824,10.48,62.8178],[-72.2804,10.4722,63.7438],[-72.2833,10.4459,58.8464],[-72.2818,10.4397,57.6146],[-72.2777,10.4334,54.8706],[-72.2498,10.4164,52.4044],[-72.2169,10.4032,49.3031],[-72.203,10.3956,48.7816],[-72.1892,10.3862,44.8512],[-72.1555,10.3582,37.4247],[-72.1075,10.3089,30.6046],[-72.0914,10.2897,25.1378],[-72.0596,10.2453,19.6235],[-72.0095,10.1825,10.1049],[-71.9684,10.1277,1.0],[-71.9537,10.1096,7.0145],[-71.9472,10.1064,2.6715],[-71.936,10.1071,2.1563],[-71.9235,10.1104,0.0],[-71.9021,10.1207,0.0],[-71.9015,10.1226,0.0],[-71.9032,10.121,1.6643],[-71.9071,10.1218,12.1775],[-71.9018,10.1271,13.1037],[-71.8993,10.1268,0.0],[-71.8932,10.1454,0.0],[-71.8851,10.1565,0.0],[-71.8771,10.1618,0.0],[-71.8671,10.1585,0.0],[-71.8679,10.1696,2.9371],[-71.8657,10.1746,2.4434],[-71.8624,10.1774,3.4254],[-71.8596,10.1893,0.0],[-71.8549,10.1968,0.0],[-71.8396,10.2074,0.0],[-71.8354,10.2176,0.9497],[-71.8351,10.231,1.2032],[-71.8315,10.2357,0.0],[-71.8293,10.2465,1.5502],[-71.8268,10.2474,2.3168],[-71.8249,10.2585,2.4446],[-71.8201,10.2712,0.3759],[-71.809,10.2818,0.0],[-71.8104,10.2835,5.9125],[-71.8093,10.2863,5.1835],[-71.8079,10.2865,0.4611],[-71.8085,10.2835,1.8815],[-71.8065,10.2851,0.0],[-71.8024,10.2999,2.3128],[-71.7971,10.3107,0.0],[-71.7968,10.3149,0.0],[-71.7921,10.3196,0.0],[-71.7921,10.3246,4.4269],[-71.7904,10.3276,1.4356],[-71.7854,10.3307,2.4314],[-71.781,10.3371,0.53],[-71.7679,10.3471,1.1286],[-71.7624,10.3543,0.0],[-71.7574,10.3571,2.7621],[-71.7343,10.3793,1.0726],[-71.7124,10.3888,0.4726],[-71.6974,10.3985,0.0],[-71.6851,10.4121,2.901],[-71.6646,10.4276,0.9414],[-71.6618,10.4288,2.6029],[-71.6601,10.4265,0.0],[-71.6582,10.4285,1.1867],[-71.6593,10.4304,2.4709],[-71.6557,10.4332,0.0],[-71.6435,10.4382,1.1762],[-71.6413,10.4368,0.0],[-71.6396,10.4396,0.2046],[-71.6363,10.4393,0.0],[-71.634,10.4365,0.0],[-71.6312,10.4371,0.0],[-71.6301,10.4407,0.0],[-71.6326,10.4487,2.863],[-71.6318,10.4579,6.0309],[-71.634,10.4621,5.1753],[-71.6282,10.4638,1.4068],[-71.6268,10.4704,0.0],[-71.6279,10.4843,1.3563],[-71.634,10.4946,2.1378],[-71.634,10.5024,1.6785],[-71.631,10.5096,0.0],[-71.6332,10.5149,6.5057],[-71.6307,10.5185,0.0],[-71.6285,10.5276,0.8721],[-71.6251,10.529,0.5586],[-71.624,10.5321,0.0],[-71.7583,10.5302,68.9854],[-71.9419,10.5229,99.6045],[-72.0822,10.5216,109.8694],[-72.3017,10.5076,71.9326]]]]}
,"properties": {"GID_2": "VEN.25.10_1","GID_0": "VEN","country": "Venezuela","GID_1": "VEN.25_1","province": "Zulia","NL_NAME_1": "NA","county": "LaCañadadeUrdaneta","VARNAME_2": "NA","NL_NAME_2": "NA","TYPE_2": "Municipio","ENGTYPE_2": "Municipality","CC_2": "NA","HASC_2": "NA","name": "La_Cañadade_Urdaneta.county","area_km2": 1822.622,"hist_schema_id": "Elevation0-9000","hist_area_km2": {"0": 453.986,"25": 594.572,"50": 345.294,"75": 293.865,"100": 124.919,"125": 9.861,"150": 0.125}}}