{"type": "Feature","bbox": [-62.1568,7.3678,-61.4938,8.2563],"geometry": {"type": "MultiPolygon","coordinates": [[[[-62.1568,8.182,638.3665],[-62.1266,8.1309,606.3443],[-62.0848,8.0702,370.8185],[-62.0051,7.9714,318.7922],[-61.9785,7.9449,296.5526],[-61.9481,7.9449,315.2552],[-61.9253,7.9411,316.843],[-61.9025,7.9335,298.8108],[-61.8987,7.9107,317.914],[-61.8873,7.8765,317.6566],[-61.9101,7.8385,322.9127],[-61.9215,7.8233,348.0966],[-61.9215,7.8196,333.252],[-61.9481,7.7816,229.6333],[-61.9709,7.7398,263.1105],[-61.9861,7.7018,266.1169],[-61.9595,7.6183,214.2387],[-61.9367,7.6069,210.5154],[-61.9212,7.5684,210.3432],[-61.9105,7.5701,212.7432],[-61.8632,7.5641,206.5609],[-61.8526,7.5599,199.4226],[-61.8388,7.5475,220.0173],[-61.8305,7.5424,216.1173],[-61.8009,7.5316,186.019],[-61.7779,7.5174,200.4297],[-61.774,7.5107,183.9334],[-61.7669,7.5034,184.5878],[-61.7487,7.4917,217.0464],[-61.7428,7.4867,192.398],[-61.738,7.4797,196.5496],[-61.7333,7.4591,177.8088],[-61.733,7.435,182.7319],[-61.7296,7.4252,170.1613],[-61.7187,7.4103,183.4546],[-61.6956,7.3875,161.9747],[-61.6757,7.3754,158.9718],[-61.6643,7.3726,167.4524],[-61.6022,7.3678,170.5975],[-61.607,7.3751,186.5705],[-61.622,7.4094,183.255],[-61.6436,7.4449,185.3502],[-61.651,7.4611,252.062],[-61.6538,7.4744,187.4111],[-61.6566,7.5123,215.6805],[-61.6624,7.5294,214.8638],[-61.6701,7.5634,212.2304],[-61.6756,7.5978,237.4323],[-61.6765,7.6137,222.4506],[-61.6724,7.6246,231.1761],[-61.6668,7.6323,234.0475],[-61.662,7.6455,248.576],[-61.6495,7.6636,263.0802],[-61.6375,7.6913,441.2446],[-61.6239,7.7134,445.0192],[-61.6139,7.7223,439.416],[-61.5953,7.7273,452.2856],[-61.587,7.7345,516.0022],[-61.5797,7.7437,458.4193],[-61.5617,7.7465,494.0652],[-61.5414,7.7539,365.1082],[-61.4938,7.7523,480.4723],[-61.5034,7.7755,390.6921],[-61.5189,7.8561,351.4626],[-61.5291,7.8802,291.911],[-61.5395,7.8988,308.7672],[-61.571,7.9461,272.8201],[-61.5958,7.9745,296.9562],[-61.6155,8.0036,291.6537],[-61.6268,8.0231,300.3874],[-61.6339,8.0402,273.3129],[-61.6465,8.0799,292.0574],[-61.648,8.0946,286.4811],[-61.6445,8.1066,290.7061],[-61.6363,8.1162,323.7835],[-61.6235,8.127,310.942],[-61.5889,8.1494,320.6106],[-61.5834,8.1571,276.7084],[-61.5765,8.1722,292.1605],[-61.5722,8.1888,290.2637],[-61.5714,8.2088,311.7868],[-61.5731,8.2187,310.5853],[-61.5824,8.2386,374.1795],[-61.5935,8.2483,361.2094],[-61.6021,8.2524,335.2164],[-61.6307,8.2563,321.3921],[-61.651,8.2561,437.8661],[-61.667,8.2538,355.4058],[-61.6835,8.247,255.2655],[-62.1568,8.182,638.3665]]]]}
,"properties": {"GID_2": "VEN.6.7_1","GID_0": "VEN","country": "Venezuela","GID_1": "VEN.6_1","province": "Bolívar","NL_NAME_1": "NA","county": "PadrePedroChien","VARNAME_2": "NA","NL_NAME_2": "NA","TYPE_2": "Municipio","ENGTYPE_2": "Municipality","CC_2": "NA","HASC_2": "NA","name": "Padre_Pedro_Chien.county","area_km2": 3527.461,"hist_schema_id": "Elevation0-9000","hist_area_km2": {"150": 6.245,"175": 95.001,"200": 299.567,"225": 472.898,"250": 318.913,"275": 255.966,"300": 822.053,"325": 490.497,"350": 165.083,"375": 102.067,"400": 58.02,"425": 47.368,"450": 42.816,"475": 22.862,"500": 18.327,"525": 22.249,"550": 34.967,"575": 54.296,"600": 62.06,"625": 60.989,"650": 45.73,"675": 22.876,"700": 6.506,"725": 0.105}}}