{"type":"Feature","properties":{"GID_2":"VEN.15.22_1","GID_0":"VEN","country":"Venezuela","GID_1":"VEN.15_1","province":"Mérida","NL_NAME_1":"NA","county":"TulioFebresCordero","VARNAME_2":"NA","NL_NAME_2":"NA","TYPE_2":"Municipio","ENGTYPE_2":"Municipality","CC_2":"NA","HASC_2":"NA","name":"Tulio_Febres_Cordero.county"},
"geometry":{"type": "MultiPolygon","coordinates": [[[[-71.0178,8.8667,3478.2397],[-71.0167,8.8787,3102.4116],[-71.0069,8.9086,2402.3774],[-71.0069,8.9208,2140.5337],[-71.0174,8.9559,2232.928],[-71.0168,8.9824,1936.8335],[-71.0193,8.9876,1716.4772],[-71.038,8.9948,1337.717],[-71.0471,9.0007,1483.8278],[-71.0662,9.0229,739.9629],[-71.0758,9.0437,577.1429],[-71.0632,9.0446,801.6851],[-71.0206,9.0286,1323.347],[-71.014,9.0273,1221.6641],[-71.0084,9.0284,1337.1427],[-71.0058,9.0324,1283.2468],[-71.0249,9.0559,668.1207],[-71.0329,9.0722,709.0191],[-71.0318,9.0869,412.9815],[-71.0166,9.1049,510.0493],[-70.9772,9.1355,469.36],[-70.9739,9.1239,579.1923],[-70.967,9.0832,1529.8497],[-70.954,9.0451,1739.6683],[-70.9403,9.025,2349.0137],[-70.9286,9.0173,1965.731],[-70.9318,9.0412,1848.7921],[-70.9309,9.0631,2819.5256],[-70.9286,9.0741,2630.6943],[-70.9181,9.1003,1927.2639],[-70.9251,9.1026,1406.8049],[-70.9361,9.1131,777.7485],[-70.9408,9.12,1134.2035],[-70.9459,9.1309,1225.9618],[-70.9602,9.1771,353.174],[-70.9654,9.1883,221.5364],[-70.9753,9.1978,129.3642],[-70.9838,9.2002,112.7219],[-70.9904,9.1996,104.0399],[-70.9895,9.1857,147.649],[-70.9908,9.1732,294.0597],[-70.9997,9.1622,250.7805],[-71.0129,9.1532,250.4827],[-71.0337,9.1485,145.4566],[-71.051,9.1491,116.445],[-71.104,9.1655,37.9673],[-71.1206,9.1736,27.2406],[-71.1507,9.1916,16.7849],[-71.1935,9.2254,0.0],[-71.1999,9.2182,1.0508],[-71.2071,9.2201,0.8127],[-71.2051,9.2174,1.2402],[-71.2054,9.2104,0.6932],[-71.2096,9.2035,1.6842],[-71.2174,9.1976,1.5983],[-71.221,9.1871,0.0],[-71.2224,9.1765,0.0],[-71.2144,9.1729,1.6273],[-71.1952,9.1597,10.3953],[-71.1447,9.1222,33.5308],[-71.1412,9.1142,41.4166],[-71.1419,9.0952,48.9749],[-71.1453,9.0799,73.8391],[-71.1486,9.0291,290.0623],[-71.1618,9.0074,547.6635],[-71.1738,8.9945,672.3081],[-71.1827,8.9896,733.93],[-71.1886,8.9882,661.4766],[-71.1941,8.993,515.521],[-71.1988,8.9769,662.5591],[-71.1983,8.9621,622.8071],[-71.1962,8.9506,881.9943],[-71.1929,8.9443,1082.2571],[-71.1716,8.9245,1859.6332],[-71.1638,8.9133,2178.8008],[-71.1529,8.8848,2420.5974],[-71.1498,8.8656,1510.0764],[-71.147,8.859,1666.1177],[-71.1437,8.8566,1830.4358],[-71.1111,8.8585,2477.7759],[-71.0911,8.869,2338.4565],[-71.0785,8.8716,2526.9897],[-71.0533,8.8719,2769.4561],[-71.0178,8.8667,3478.2397]]]]}}