{"type":"Feature","properties":{"GID_2":"VEN.4.8_1","GID_0":"VEN","country":"Venezuela","GID_1":"VEN.4_1","province":"Aragua","NL_NAME_1":"NA","county":"Libertador","VARNAME_2":"NA","NL_NAME_2":"NA","TYPE_2":"Municipio","ENGTYPE_2":"Municipality","CC_2":"NA","HASC_2":"NA","name":"Libertador.county"},
"geometry":{"type": "MultiPolygon","coordinates": [[[[-67.5588,10.1947,430.5755],[-67.5654,10.1871,425.5288],[-67.562,10.1542,429.0876],[-67.5396,10.1553,431.821],[-67.5289,10.1528,433.7927],[-67.5101,10.1521,439.0232],[-67.4765,10.1401,443.0],[-67.47,10.1511,446.7947],[-67.4695,10.1674,452.4596],[-67.4747,10.1817,453.9506],[-67.4731,10.1903,457.2488],[-67.4696,10.198,459.4485],[-67.475,10.201599999999999,458.8246],[-67.481,10.2029,456.8152],[-67.4914,10.2015,453.6267],[-67.5072,10.1933,448.2879],[-67.5141,10.1925,445.6615],[-67.5352,10.1948,438.5802],[-67.5588,10.1947,430.5755]]]]}}