{"type": "Feature","bbox": [-71.5027,8.9595,-70.9895,9.352],"geometry": {"type": "MultiPolygon","coordinates": [[[[-71.1943,8.9938,449.3555],[-71.1886,8.9882,661.4766],[-71.1827,8.9896,733.93],[-71.1738,8.9945,672.3081],[-71.1618,9.0074,547.6635],[-71.1486,9.0291,290.0623],[-71.1453,9.0799,73.8391],[-71.1419,9.0952,48.9749],[-71.1412,9.1142,41.4166],[-71.1447,9.1222,33.5308],[-71.1952,9.1597,10.3953],[-71.2144,9.1729,1.6273],[-71.2196,9.1746,0.0],[-71.2193,9.1732,2.2154],[-71.2265,9.1651,1.5245],[-71.2271,9.1601,2.5463],[-71.2371,9.1488,3.6732],[-71.2415,9.1482,1.3684],[-71.2485,9.1412,1.9351],[-71.2593,9.1424,0.0],[-71.261,9.1393,0.0],[-71.259,9.1388,0.5647],[-71.259,9.1362,1.2613],[-71.2663,9.1313,0.761],[-71.2688,9.1313,0.8921],[-71.2707,9.1351,0.0],[-71.2738,9.1318,2.6139],[-71.2868,9.1324,0.6074],[-71.2865,9.1285,1.6825],[-71.2893,9.1246,2.8291],[-71.339,9.0912,0.0],[-71.3593,9.0835,1.0232],[-71.3824,9.0801,0.8623],[-71.4693,9.0515,3.25],[-71.4982,9.0454,1.801],[-71.5024,9.0438,0.0],[-71.5027,9.0423,1.301],[-71.4641,9.0075,2.1055],[-71.4545,9.0006,4.4509],[-71.4289,8.9875,13.18],[-71.411,8.9659,20.0552],[-71.4053,8.9633,21.49],[-71.3935,8.9621,23.9133],[-71.3889,8.9595,24.7928],[-71.3672,8.9788,27.8966],[-71.3459,8.9941,28.603],[-71.2788,9.0212,35.0961],[-71.2334,9.0466,25.872],[-71.2275,9.0468,24.5033],[-71.2247,9.0453,25.7832],[-71.1994,9.0167,175.8657],[-71.1954,9.0049,215.8632],[-71.1943,8.9938,449.3555]]],
[[[-70.9941,9.3475,8.9816],[-71.0133,9.352,4.5359],[-71.0227,9.3509,6.9376],[-71.0521,9.3391,2.0917],[-71.0526,9.336,1.7175],[-71.0568,9.3313,0.9813],[-71.0554,9.3249,0.0],[-71.0568,9.3207,1.2077],[-71.0626,9.3135,2.014],[-71.0685,9.3146,1.5944],[-71.0735,9.3063,0.0],[-71.0876,9.3004,2.0056],[-71.0976,9.291,1.3036],[-71.1004,9.2896,1.64],[-71.1046,9.2901,3.3658],[-71.1121,9.2826,0.857],[-71.1221,9.2801,3.5028],[-71.1321,9.2735,3.2563],[-71.1346,9.2738,0.0],[-71.1476,9.2638,0.6191],[-71.1521,9.2649,0.0],[-71.1529,9.2601,2.9663],[-71.1582,9.254,0.0],[-71.1715,9.244,0.4006],[-71.1765,9.2429,0.0],[-71.186,9.2349,0.3048],[-71.1935,9.2254,0.0],[-71.1507,9.1916,16.7849],[-71.1206,9.1736,27.2406],[-71.104,9.1655,37.9673],[-71.051,9.1491,116.445],[-71.0337,9.1485,145.4566],[-71.0129,9.1532,250.4827],[-70.9997,9.1622,250.7805],[-70.9908,9.1732,294.0597],[-70.9895,9.1857,147.649],[-70.9954,9.2569,35.3138],[-70.9915,9.3224,12.1442],[-70.9918,9.3465,9.8919],[-70.9941,9.3475,8.9816]]]]}
,"properties": {"GID_2": "VEN.25.20_1","GID_0": "VEN","country": "Venezuela","GID_1": "VEN.25_1","province": "Zulia","NL_NAME_1": "NA","county": "Sucre","VARNAME_2": "NA","NL_NAME_2": "NA","TYPE_2": "Municipio","ENGTYPE_2": "Municipality","CC_2": "NA","HASC_2": "NA","name": "Sucre.county","area_km2": 742.8167,"hist_schema_id": "Elevation0-9000","hist_area_km2": {"0": 323.5746,"25": 300.884,"50": 55.2804,"75": 18.5883,"100": 10.1104,"125": 6.2801,"150": 4.4383,"175": 3.4544,"200": 2.9312,"225": 2.2194,"250": 2.1985,"275": 1.2354,"300": 1.3609,"325": 1.1517,"350": 0.7748,"375": 0.8586,"400": 0.8795,"425": 0.8795,"450": 1.068,"475": 0.7748,"500": 1.047,"525": 0.7957,"550": 0.4607,"575": 0.3351,"600": 0.3141,"625": 0.2094,"650": 0.1885,"675": 0.2304,"700": 0.1256,"725": 0.0628,"750": 0.0838,"775": 0.0209}}}