{"type": "Feature","bbox": [-66.9876,10.315,-66.9382,10.408],"geometry": {"type": "MultiPolygon","coordinates": [[[[-66.9876,10.404,1466.0067],[-66.9855,10.392,1631.0316],[-66.9871,10.3544,1342.1383],[-66.9805,10.3389,1145.5791],[-66.9792,10.3309,837.7584],[-66.9807,10.3188,782.0491],[-66.9631,10.3152,932.9739],[-66.9536,10.315,862.6579],[-66.9382,10.3186,917.9128],[-66.9435,10.3334,1175.5992],[-66.9418,10.3695,1337.5043],[-66.9454,10.3713,1365.9194],[-66.9491,10.3764,1389.4847],[-66.9557,10.3908,1453.4686],[-66.9671,10.408,1486.5417],[-66.9876,10.404,1466.0067]]]]}
,"properties": {"GID_2": "VEN.16.6_1","GID_0": "VEN","country": "Venezuela","GID_1": "VEN.16_1","province": "Miranda","NL_NAME_1": "NA","county": "Carrizal","VARNAME_2": "NA","NL_NAME_2": "NA","TYPE_2": "Municipio","ENGTYPE_2": "Municipality","CC_2": "NA","HASC_2": "NA","name": "Carrizal.county","area_km2": 40.54533,"hist_schema_id": "Elevation0-9000","hist_area_km2": {"725": 0.08344,"750": 0.33374,"775": 0.37546,"800": 0.7092,"825": 0.56319,"850": 0.98036,"875": 0.9595,"900": 1.02208,"925": 1.04294,"950": 0.85521,"975": 0.8552,"1000": 0.8552,"1025": 0.77176,"1050": 0.68832,"1075": 0.45888,"1100": 0.45887,"1125": 0.56317,"1150": 0.43801,"1175": 0.33372,"1200": 0.31286,"1225": 0.35457,"1250": 0.45886,"1275": 0.75087,"1300": 1.02199,"1325": 1.18885,"1350": 1.39739,"1375": 2.18987,"1400": 3.52463,"1425": 4.02516,"1450": 4.10858,"1475": 3.23264,"1500": 2.02299,"1525": 1.0636,"1550": 0.4588,"1575": 0.52135,"1600": 0.35452,"1625": 0.35452,"1650": 0.29196,"1675": 0.22939,"1700": 0.18769,"1725": 0.14598}}}