{"type": "Feature","bbox": [-72.1529,8.2092,-71.9334,8.3568],"geometry": {"type": "MultiPolygon","coordinates": [[[[-72.0871,8.2526,468.06],[-72.0646,8.2423,732.0888],[-72.0501,8.2274,1041.788],[-72.0464,8.219,1340.7599],[-72.0414,8.2136,1590.0149],[-72.0146,8.2092,1446.8845],[-71.9821,8.212,2562.1055],[-71.9725,8.2172,2828.1467],[-71.9555,8.2495,2802.3799],[-71.9335,8.2735,2021.4583],[-71.9334,8.2847,2214.1165],[-71.9719,8.3392,695.5397],[-71.9858,8.3511,592.3934],[-71.9956,8.3534,620.6047],[-72.02,8.3568,422.609],[-72.0231,8.3414,359.8128],[-72.0492,8.3566,134.6288],[-72.071,8.3471,125.2973],[-72.1181,8.3452,80.5567],[-72.1316,8.3377,72.9839],[-72.1469,8.3318,73.7565],[-72.152,8.328,83.8792],[-72.1529,8.3229,91.268],[-72.1497,8.3108,95.2656],[-72.1447,8.3023,87.6353],[-72.1376,8.2943,124.2803],[-72.1292,8.2902,140.3437],[-72.0993,8.2843,284.3596],[-72.0916,8.2784,353.3826],[-72.0893,8.2726,377.8706],[-72.0897,8.2592,306.9554],[-72.0871,8.2526,468.06]]]]}
,"properties": {"GID_2": "VEN.21.24_1","GID_0": "VEN","country": "Venezuela","GID_1": "VEN.21_1","province": "Táchira","NL_NAME_1": "NA","county": "SanJudasTadeo","VARNAME_2": "NA","NL_NAME_2": "NA","TYPE_2": "Municipio","ENGTYPE_2": "Municipality","CC_2": "NA","HASC_2": "NA","name": "San_Judas_Tadeo.county","area_km2": 251.2437,"hist_schema_id": "Elevation0-9000","hist_area_km2": {"75": 9.9439,"100": 14.0979,"125": 8.5594,"150": 6.7761,"175": 5.2658,"200": 5.2868,"225": 4.9931,"250": 4.3638,"275": 4.4057,"300": 4.9512,"325": 4.4687,"350": 4.4268,"375": 4.8045,"400": 4.1331,"425": 3.7345,"450": 3.0211,"475": 3.3358,"500": 3.0211,"525": 2.9372,"550": 2.8742,"575": 2.2239,"600": 3.105,"625": 3.2938,"650": 3.0421,"675": 2.9162,"700": 3.8393,"725": 3.7554,"750": 3.5876,"775": 3.6716,"800": 3.6926,"825": 2.7065,"850": 2.8743,"875": 2.8953,"900": 2.7065,"925": 2.5806,"950": 2.6856,"975": 2.3079,"1000": 2.0352,"1025": 1.8883,"1050": 1.4058,"1075": 1.7625,"1100": 1.9513,"1125": 1.7415,"1150": 1.9932,"1175": 1.8254,"1200": 1.8254,"1225": 1.8044,"1250": 2.0352,"1275": 1.8464,"1300": 1.9094,"1325": 2.0352,"1350": 1.9513,"1375": 1.9094,"1400": 2.308,"1425": 1.6366,"1450": 2.0143,"1475": 1.6576,"1500": 1.8884,"1525": 2.1822,"1550": 1.8884,"1575": 1.8255,"1600": 1.6576,"1625": 1.9933,"1650": 1.8045,"1675": 1.6996,"1700": 1.8674,"1725": 1.8045,"1750": 1.5107,"1775": 1.8464,"1800": 1.4478,"1825": 1.8465,"1850": 1.7205,"1875": 1.8674,"1900": 1.5947,"1925": 1.5947,"1950": 1.6156,"1975": 1.3219,"2000": 1.6157,"2025": 1.3219,"2050": 1.3429,"2075": 1.2799,"2100": 1.3219,"2125": 1.3219,"2150": 1.4059,"2175": 1.196,"2200": 0.6924,"2225": 0.9652,"2250": 0.9023,"2275": 0.8393,"2300": 0.7764,"2325": 0.4616,"2350": 0.5665,"2375": 0.6505,"2400": 0.4616,"2425": 0.2728,"2450": 0.3357,"2475": 0.3987,"2500": 0.3567,"2525": 0.3567,"2550": 0.3147,"2575": 0.3148,"2600": 0.2098,"2625": 0.3148,"2650": 0.2938,"2675": 0.2728,"2700": 0.1679,"2725": 0.1679,"2750": 0.1888,"2775": 0.1679,"2800": 0.1469,"2825": 0.042}}}