{"type":"Feature","properties":{"featurecla":"River","scalerank":8,"rivernum":644,"dissolve":"644River","name":"Guárico6","name_alt":null,"note":null,"min_zoom":7.0,"strokeweig":0.25,"name_en":"Guárico","min_label":8.0},
"geometry":{"type": "LineString","coordinates": [[-67.500170898437489,8.44928619999412,60.074],[-67.504077148437489,8.4458194031191169,64.4766],[-67.510351562499991,8.4372744812441169,62.3924],[-67.511474609375,8.4309268249941169,65.2083],[-67.5107421875,8.42536041874412,62.2411],[-67.5078125,8.4215029968691084,59.0522],[-67.504687499999989,8.4184756531191169,61.5705],[-67.491796874999991,8.40961334843162,65.297],[-67.488330078124989,8.40619537968162,64.183],[-67.4859375,8.40180084843162,58.0691],[-67.483325195312489,8.3908877624941169,65.8893],[-67.481298828124991,8.3861026062441084,62.8019],[-67.47802734375,8.3825869812441169,65.5274],[-67.469677734375,8.37689850468162,63.6414],[-67.46630859375,8.37335846561912,65.0191],[-67.463916015624989,8.36896393436912,64.0312],[-67.460009765624989,8.3592471374941084,65.1433],[-67.457128906249991,8.3557315124941169,63.6166],[-67.452978515624991,8.35382721561912,58.988],[-67.438818359374991,8.3554873718691169,65.2577],[-67.435302734375,8.35553619999412,62.7554],[-67.432910156249989,8.3531436218691084,64.5662],[-67.429858398437489,8.3526553406191084,64.9684],[-67.422460937499991,8.35455963749412,63.1683],[-67.418383789062489,8.3533877624941084,66.7689],[-67.403857421874989,8.34711334843162,61.8343],[-67.400146484375,8.34284088749412,64.1887],[-67.400317382812489,8.3386416687441169,64.0599],[-67.403491210937489,8.3348330749941084,64.7426],[-67.407958984375,8.3313174499941169,66.9834],[-67.413330078125,8.3167666687441084,64.2202],[-67.425,8.2971377624941169,61.0526],[-67.426123046874991,8.2903018249941169,62.2807],[-67.425830078124989,8.28424713749412,62.8612],[-67.424121093749989,8.27924225468162,64.5829],[-67.418505859374989,8.26959869999412,60.5317],[-67.416064453124989,8.26373932499412,55.0727],[-67.417236328125,8.25934479374412,58.1468],[-67.4208984375,8.2568545593691169,56.1009],[-67.425,8.2532901062441084,59.0799],[-67.424560546875,8.25006744999412,57.6529],[-67.422119140625,8.24640534061912,58.9846],[-67.417724609375,8.2373233093691169,59.4329],[-67.414477539062489,8.2332705749941084,58.0089],[-67.41015625,8.2304873718691169,57.3119],[-67.405688476562489,8.22492096561912,53.0029],[-67.405126953124991,8.2183779968691084,58.8579],[-67.406103515624991,8.20819733280662,52.2016],[-67.407763671874989,8.2016787781191169,52.8421],[-67.410253906249991,8.1963076843691169,55.6028],[-67.455175781249991,8.14227936405662,52.2285],[-67.458984375,8.1358584656191084,57.7114],[-67.463183593749989,8.12396881718162,47.0735],[-67.4638671875,8.1162295593691169,47.6674],[-67.458666992187489,8.0705752624941169,49.247],[-67.4609375,8.05707428593162,51.5581],[-67.460302734374991,8.04144928593162,43.5087],[-67.456591796874989,8.03156159061912,43.2144],[-67.451708984374989,8.00958893436912,46.2952],[-67.448291015624989,7.99982330936912,48.764],[-67.445556640625,7.9945010437441084,50.823],[-67.424609374999989,7.96796295780662,46.2108],[-67.404833984374989,7.95233795780662,47.6934],[-67.397705078125,7.9397158874941169,46.0754],[-67.400634765625,7.9111514343691169,43.8426]]}}