{"type":"Feature","properties":{"featurecla":"River","scalerank":9,"rivernum":1018,"dissolve":"1018River","name":"Cojedes3","name_alt":null,"note":null,"min_zoom":7.1,"strokeweig":0.3,"name_en":"Cojedes","min_label":8.1},
"geometry":{"type": "LineString","coordinates": [[-67.629321289062489,7.9931826843691169,45.6857],[-67.611499023437489,7.99835846561912,44.5187],[-67.60546875,7.99933502811912,45.4207],[-67.601660156249991,7.9973330749941169,45.1922],[-67.59521484375,7.98834869999412,44.9206],[-67.59140625,7.9863467468691169,44.5486],[-67.568359375,7.97931549686912,44.937],[-67.546337890625,7.96246979374412,43.9423],[-67.53564453125,7.94220612186912,45.2908],[-67.546728515624991,7.92487213749412,45.0086],[-67.538256835937489,7.91693756718162,40.6721],[-67.528076171875,7.9157901062441169,45.9808],[-67.51708984375,7.91730377811912,48.1967],[-67.505786132812489,7.91742584843162,40.0],[-67.481005859374989,7.9057803406191169,47.658],[-67.46826171875,7.90375397343162,45.7525],[-67.433837890625,7.90375397343162,42.4563],[-67.426440429687489,7.90546295780662,42.3126],[-67.418212890625,7.90900299686912,43.546],[-67.408251953124989,7.91168854374412,43.1675],[-67.395922851562489,7.91120026249412,45.668],[-67.337988281249991,7.8890322937441084,44.9388],[-67.327685546874989,7.88019440311912,49.5272],[-67.320971679687489,7.8562197937441169,45.0859],[-67.3046875,7.84284088749412,41.6884],[-67.266845703125,7.82868073124412,44.7768],[-67.251708984375,7.8176455749941169,45.8913],[-67.24091796875,7.80670807499412,42.7972],[-67.226611328124989,7.79840729374412,42.4427],[-67.177539062499989,7.7901553406191084,39.2483],[-67.158862304687489,7.7800479187441169,37.0995],[-67.139819335937489,7.77216217655662,38.4324],[-67.115405273437489,7.7740420593691084,41.4811],[-67.078662109374989,7.79352448124412,37.7291],[-67.056884765625,7.79743073124412,37.6335],[-67.0158203125,7.76947662968162,37.84],[-66.994384765625,7.77252838749412,37.4027],[-66.972753906249991,7.7824893249941169,36.7152],[-66.950927734375,7.7883486999941169,36.8225],[-66.943286132812489,7.78607819218162,36.9212],[-66.938281249999989,7.78119537968162,36.5053],[-66.931933593749989,7.77631256718162,36.8373],[-66.830810546875,7.7603701843691084,36.8391],[-66.824755859374989,7.7614932312441169,35.2794],[-66.815600585937489,7.7661319031191169,35.0611],[-66.810644531249991,7.7672061218691084,34.9856],[-66.802978515625,7.7652529968691084,35.1091],[-66.792089843749991,7.75653717655662,35.0999],[-66.786425781249989,7.7541690124941169,35.0594],[-66.764892578125,7.7549990906191084,34.4133],[-66.663134765624989,7.78290436405662,33.5331],[-66.639697265624989,7.7850283874941084,31.9083],[-66.62255859375,7.7808779968691084,32.8189],[-66.61591796875,7.78449127811912,32.553],[-66.574145507812489,7.7951846374941169,32.8931],[-66.567626953125,7.79559967655662,33.2862],[-66.552197265625,7.79376862186912,34.044],[-66.546191406249989,7.7951846374941169,34.5429],[-66.543872070312489,7.79987213749412,33.6062],[-66.545336914062489,7.8055361999941084,33.3818],[-66.545654296875,7.8110537781191169,34.0839],[-66.5400390625,7.81500885624412,34.6398],[-66.527636718749989,7.8162783874941084,37.0557],[-66.51953125,7.81171295780662,33.9156],[-66.498388671874991,7.7883486999941169,34.0984],[-66.487402343749991,7.7822451843691169,36.0384],[-66.475878906249989,7.77777741093162,34.1849],[-66.470556640624991,7.77167389530662,33.2903],[-66.477978515625,7.7603701843691084,31.8394],[-66.456640624999991,7.74616119999412,31.942],[-66.426074218749989,7.7331729187441169,34.3825],[-66.394946289062489,7.7278018249941169,35.3884],[-66.361499023437489,7.7412295593691169,31.3707],[-66.352709960937489,7.7357119812441084,41.31],[-66.330175781249991,7.7034854187441084,32.2847],[-66.32470703125,7.68756744999412,33.4237],[-66.324877929687489,7.6700381531191084,28.5],[-66.330517578125,7.6494326843691169,27.0]]}}