{"type":"Feature","properties":{"featurecla":"River","scalerank":9,"rivernum":1018,"dissolve":"1018River","name":"Cojedes2","name_alt":null,"note":null,"min_zoom":7.1,"strokeweig":0.25,"name_en":"Cojedes","min_label":8.1},
"geometry":{"type": "LineString","coordinates": [[-68.278369140624989,8.87738678593162,67.0108],[-68.2705078125,8.87482330936912,60.8964],[-68.266406249999989,8.86969635624412,66.532],[-68.263720703124989,8.86322662968162,64.2945],[-68.259863281249991,8.8565615906191084,68.8839],[-68.233447265624989,8.82746002811912,65.0165],[-68.216650390624991,8.80194733280662,58.6845],[-68.19384765625,8.7750186218691084,62.1122],[-68.184179687499991,8.76032135624412,56.9087],[-68.180517578124991,8.7501162781191084,56.7442],[-68.179125976562489,8.74152252811912,67.0739],[-68.176855468749991,8.7337588562441084,57.5432],[-68.170581054687489,8.7261904968691084,58.461],[-68.165698242187489,8.72540924686912,68.6878],[-68.155688476562489,8.7326846374941169,56.6462],[-68.15009765625,8.73297760624412,55.7516],[-68.143237304687489,8.7193545593691084,61.3734],[-68.123779296875,8.70734284061912,66.2872],[-68.110522460937489,8.6927432312441084,60.7832],[-68.1017578125,8.6761416687441084,62.7837],[-68.0869140625,8.6387881531191084,65.207],[-68.076464843749989,8.61945221561912,57.354],[-68.070410156249991,8.6004580749941084,61.5128],[-68.075,8.58283112186912,60.5643],[-68.063330078124991,8.5787295593691084,65.1837],[-68.054736328124989,8.56964752811912,58.6491],[-68.049487304687489,8.5577334656191084,60.486],[-68.047656249999989,8.54523346561912,62.4004],[-68.041845703124991,8.54401276249412,62.682],[-68.005175781249989,8.5051455749941169,53.9714],[-68.000097656249991,8.4953799499941169,60.7964],[-67.995849609375,8.4900088562441169,52.7258],[-67.974780273437489,8.4756045593691169,52.5329],[-67.971923828125,8.46954987186912,53.898],[-67.97802734375,8.45636627811912,55.2523],[-67.979785156249989,8.44891998905662,56.8431],[-67.975341796875,8.44562409061912,58.1831],[-67.9697265625,8.4446963562441084,52.0363],[-67.964208984374991,8.4424014343691169,51.9702],[-67.9599609375,8.4390811218691084,51.9481],[-67.958251953125,8.43537018436912,51.751],[-67.956298828125,8.42584869999412,51.3831],[-67.951342773437489,8.4145694031191169,52.727],[-67.944677734374991,8.40424225468162,54.3477],[-67.937792968749989,8.3978213562441084,52.4648],[-67.930224609374989,8.3969912781191169,51.8018],[-67.91669921875,8.40412018436912,51.4343],[-67.910498046874991,8.4040713562441169,51.2748],[-67.90771484375,8.4000186218691084,50.5372],[-67.904882812499991,8.38727448124412,51.2725],[-67.903076171875,8.3835635437441169,52.2249],[-67.888110351562489,8.3726748718691084,51.8741],[-67.883154296874991,8.3698916687441169,50.9086],[-67.875585937499991,8.3696475281191169,50.8626],[-67.861181640624991,8.37702057499412,50.8521],[-67.855883789062489,8.3767276062441169,50.8635],[-67.850927734374991,8.36713287968162,50.6909],[-67.854052734374989,8.35602448124412,51.41],[-67.859790039062489,8.3432803406191169,50.5419],[-67.862719726562489,8.32892487186912,53.3481],[-67.855883789062489,8.32892487186912,55.8916],[-67.849951171874991,8.3344912781191169,55.8544],[-67.8466796875,8.33380768436912,50.1025],[-67.843676757812489,8.33075592655662,50.0301],[-67.838476562499991,8.32892487186912,51.6226],[-67.839208984374991,8.32623932499412,49.9429],[-67.832177734375,8.32062409061912,49.9262],[-67.823876953125,8.31574127811912,50.3331],[-67.821142578124991,8.31525299686912,49.8926],[-67.820117187499989,8.3086123718691169,49.8039],[-67.821533203125,8.29144928593162,49.6653],[-67.817724609374991,8.2879580749941084,49.7184],[-67.807958984374991,8.2877139343691084,49.4435],[-67.802050781249989,8.2861514343691169,49.2841],[-67.797949218749991,8.28204987186912,49.1176],[-67.793798828124991,8.27435944218162,48.5863],[-67.79169921875,8.27960846561912,48.6335],[-67.789404296874991,8.2837100281191169,48.9712],[-67.787646484374989,8.2882022156191084,49.0353],[-67.786962890624991,8.2947940124941084,49.3188],[-67.780126953124991,8.2947940124941084,51.2371],[-67.775976562499991,8.2874697937441084,49.3924],[-67.77392578125,8.27887604374412,48.8452],[-67.77197265625,8.24286530155662,48.6638],[-67.768017578125,8.2390322937441169,48.7137],[-67.761572265624991,8.23993561405662,49.4627],[-67.71533203125,8.24017975468162,50.2627],[-67.708178710937489,8.23688385624412,49.258],[-67.693041992187489,8.22235748905662,49.0321],[-67.687670898437489,8.21906159061912,47.8134],[-67.677539062499989,8.20941803593162,47.5557],[-67.665771484375,8.1672549499941169,47.7888],[-67.660009765624991,8.15766022343162,47.2277],[-67.648535156249991,8.15131256718162,47.5854],[-67.6357421875,8.1356143249941084,46.0675],[-67.625659179687489,8.1155947937441084,46.405],[-67.622485351562489,8.0962100281191169,46.8757],[-67.609545898437489,8.09882233280662,43.8084],[-67.599365234375,8.0936221374941084,49.0262],[-67.588720703124991,8.08624909061912,48.6689],[-67.57470703125,8.0825381531191169,47.2271],[-67.579199218749991,8.07330963749412,50.8281],[-67.580322265625,8.06622955936912,58.1575],[-67.57861328125,8.06024811405662,47.4383],[-67.57470703125,8.05463287968162,47.4289],[-67.57470703125,8.04840729374412,43.9313],[-67.597021484374991,8.0544619812441169,45.829],[-67.59521484375,8.0472354187441084,50.413],[-67.57470703125,8.02728912968162,44.7283],[-67.563647460937489,7.9951358093691169,50.341],[-67.552832031249991,7.9846377624941169,49.2715],[-67.533740234374989,7.9931826843691169,44.8245],[-67.516845703125,7.98126862186912,45.8601],[-67.519091796874989,7.9715518249941084,45.6501],[-67.532080078124991,7.96405670780662,44.0333],[-67.545019531249991,7.9583682312441084,44.0401]]}}