{"type":"Feature","properties":{"featurecla":"River","scalerank":7,"rivernum":432,"dissolve":"432River","name":"Apure2","name_alt":null,"note":null,"min_zoom":6.0,"strokeweig":0.2,"name_en":"Apure","min_label":7.0},
"geometry":{"type": "LineString","coordinates": [[-71.844409179687489,7.49347565311912,201.25],[-71.829931640624991,7.4997744812441169,203.2073],[-71.809497070312489,7.4973330749941169,200.7747],[-71.748876953124991,7.47821686405662,196.7543],[-71.740771484374989,7.47235748905662,193.715],[-71.725390624999989,7.4521670593691169,191.3923],[-71.715991210937489,7.4424014343691169,189.9733],[-71.703540039062489,7.4382510437441169,188.9474],[-71.660498046874991,7.43207428593162,183.0589],[-71.639697265624989,7.43231842655662,183.1134],[-71.630908203124989,7.4416690124941169,180.6125],[-71.627685546875,7.45331452030662,180.6427],[-71.620361328125,7.4507998718691084,179.669],[-71.607275390624991,7.4382510437441169,180.2209],[-71.595068359374991,7.44049713749412,180.1534],[-71.572924804687489,7.45026276249412,175.223],[-71.563232421875,7.4525088562441084,177.2025],[-71.552661132812489,7.45038483280662,175.81],[-71.533007812499989,7.44049713749412,172.849],[-71.521044921874989,7.4382510437441169,169.3057],[-71.508886718749991,7.43952057499412,169.8357],[-71.503344726562489,7.4427432312441084,168.279],[-71.5,7.4472842468691169,167.7332],[-71.494311523437489,7.4525088562441084,168.6518],[-71.472338867187489,7.46271393436912,166.9255],[-71.45458984375,7.46381256718162,166.7675],[-71.41552734375,7.4587588562441169,162.4626],[-71.340576171875,7.46002838749412,156.4366],[-71.3046875,7.45636627811912,156.6518],[-71.267822265625,7.4450869812441169,154.9485],[-71.2490234375,7.4544619812441084,155.0802],[-71.226904296874991,7.4385928406191084,150.5616],[-71.205664062499991,7.41571686405662,149.7684],[-71.189306640624991,7.40412018436912,147.7637],[-71.166308593749989,7.40180084843162,151.5267],[-71.156054687499989,7.39850494999412,146.2246],[-71.144824218749989,7.38605377811912,150.5501],[-71.129443359374989,7.38580963749412,144.9764],[-71.103320312499989,7.38983795780662,143.1669],[-71.0615234375,7.3786807312441169,149.4164],[-71.020117187499991,7.3618350281191169,145.9627],[-70.98125,7.33856842655662,140.2921],[-70.946875,7.30792877811912,136.2605],[-70.930273437499991,7.3131045593691084,135.3582],[-70.912451171874991,7.3051944031191169,132.6409],[-70.893725585937489,7.29340241093162,131.8387],[-70.874267578125,7.28742096561912,137.4971],[-70.856542968749991,7.28998444218162,136.8842],[-70.810644531249991,7.30536530155662,129.2651],[-70.795458984374989,7.31476471561912,137.7592],[-70.759033203125,7.2996768249941084,128.4814],[-70.712988281249991,7.28986237186912,126.2013],[-70.6669921875,7.2873721374941169,124.2805],[-70.630957031249991,7.29425690311912,122.2846],[-70.625097656249991,7.3003115906191169,121.621],[-70.609228515624991,7.32245514530662,123.1962],[-70.603686523437489,7.3283877624941169,119.5],[-70.590991210937489,7.33246491093162,121.7552],[-70.582861328124991,7.33197662968162,122.8006],[-70.57568359375,7.32977936405662,124.309],[-70.565771484374991,7.3283877624941169,121.3212],[-70.547949218749991,7.33368561405662,119.5107],[-70.53173828125,7.3459658874941169,118.7598],[-70.507421874999991,7.3694033874941169,118.9568],[-70.500585937499991,7.38361237186912,117.4673],[-70.495214843749991,7.3833194031191169,117.1447],[-70.487597656249989,7.38129303593162,117.2756],[-70.481372070312489,7.37860748905662,116.8223],[-70.480126953125,7.37616608280662,117.7789],[-70.471972656249989,7.3818545593691169,115.9086],[-70.467944335937489,7.38605377811912,115.9291],[-70.466601562499989,7.39301178593162,119.7516],[-70.466479492187489,7.4072451843691169,124.2877],[-70.460302734374991,7.42304108280662,120.3475],[-70.444921874999991,7.42780182499412,115.6615],[-70.4248046875,7.42816803593162,121.465],[-70.404394531249991,7.4307803406191084,113.949],[-70.368457031249989,7.45038483280662,114.8404],[-70.340625,7.4807315124941169,111.0705],[-70.321044921875,7.51679108280662,111.1422],[-70.299609374999989,7.5903506531191169,107.8693],[-70.288989257812489,7.60370514530662,108.9522],[-70.27099609375,7.60895416874412,115.4955],[-70.260595703124991,7.61029694218162,113.6663],[-70.2431640625,7.61579010624412,114.6063],[-70.233154296875,7.61640045780662,105.2617],[-70.222509765624991,7.6136416687441084,105.2326],[-70.206787109375,7.60492584843162,106.5018],[-70.199560546874991,7.60272858280662,105.9367],[-70.183032226562489,7.60565827030662,104.3982],[-70.157324218749991,7.61493561405662,104.0692],[-70.133642578124991,7.6292666687441084,102.0782],[-70.123291015625,7.64740631718162,102.7766],[-70.117431640625,7.66632721561912,102.2193],[-70.103515625,7.6902041687441169,101.2109],[-70.086718749999989,7.7107119812441169,105.7009],[-70.072363281249991,7.71942780155662,104.7195],[-70.058935546874991,7.7241397156191169,108.4943],[-70.014013671874991,7.7541690124941169,98.1924],[-69.997998046875,7.7573428406191169,98.0598],[-69.948828124999991,7.7541690124941169,98.7599],[-69.935595703124989,7.7576846374941084,101.3801],[-69.921630859375,7.76679108280662,95.0107],[-69.892431640624991,7.79218170780662,95.0054]]}}