{"type":"Feature","properties":{"featurecla":"River","scalerank":7,"rivernum":432,"dissolve":"432River","name":"Apure3","name_alt":null,"note":null,"min_zoom":6.0,"strokeweig":0.25,"name_en":"Apure","min_label":7.0},
"geometry":{"type": "LineString","coordinates": [[-69.892431640624991,7.79218170780662,95.0054],[-69.877685546875,7.80390045780662,94.4288],[-69.863085937499989,7.8118838562441084,93.4086],[-69.848876953125,7.81391022343162,94.8183],[-69.835253906249989,7.80756256718162,92.8675],[-69.824560546874991,7.81537506718162,92.4123],[-69.790820312499989,7.8322940124941169,90.6692],[-69.77783203125,7.83551666874412,89.9163],[-69.751806640624991,7.83771393436912,89.3211],[-69.733837890625,7.8443545593691084,88.4617],[-69.5771484375,7.95099518436912,90.2689],[-69.4625,8.05829498905662,81.8438],[-69.441088867187489,8.07160065311912,87.4211],[-69.41748046875,8.0722842468691169,81.8906],[-69.369726562499991,8.0620303406191169,79.9681],[-69.331347656249989,8.0618838562441084,78.2997],[-69.212695312499989,8.0757022156191169,80.8999],[-69.188769531249989,8.07062409061912,79.9326],[-69.153369140624989,8.0469912781191084,73.4172],[-69.133544921875,8.04157135624412,75.0386],[-69.127783203124991,8.0361514343691169,74.1123],[-69.118212890624989,8.0122256531191169,74.3737],[-69.11279296875,8.00678131718162,73.6323],[-69.074877929687489,7.9931826843691169,73.1645],[-69.069873046874989,7.99054596561912,73.4932],[-69.05859375,7.98187897343162,72.9341],[-69.054443359375,7.9800967468691084,75.8142],[-69.048193359374991,7.98224518436912,80.4717],[-69.038671874999991,7.99103424686912,75.3504],[-69.033935546875,7.9931826843691169,71.9575],[-68.996386718749989,7.9931826843691169,73.49],[-68.991381835937489,7.9956240906191169,70.7613],[-68.980810546874991,7.99945709843162,74.9949],[-68.970385742187489,7.99933502811912,70.6752],[-68.965673828124991,7.9897647156191169,71.5827],[-68.963549804687489,7.98029205936912,77.2375],[-68.958251953125,7.9699893249941169,72.2114],[-68.945166015624991,7.9521670593691169,75.2713],[-68.944433593749991,7.94794342655662,72.8347],[-68.946240234375,7.9356631531191084,74.987799999999993],[-68.945166015624991,7.93170807499412,72.5152],[-68.941015624999991,7.9306826843691169,68.0498],[-68.929248046874989,7.93244049686912,68.9094],[-68.924658203124991,7.93170807499412,68.6427],[-68.886816406249991,7.91120026249412,69.3214],[-68.823583984374991,7.9024600281191084,70.1132],[-68.72998046875,7.9157901062441169,69.3197],[-68.715502929687489,7.9211611999941169,64.7946],[-68.701342773437489,7.93366119999412,64.9728],[-68.650390625,7.9658389343691169,71.8125],[-68.634033203125,7.96930573124412,69.208],[-68.571826171874989,7.9658389343691169,65.5383],[-68.549169921874991,7.96112702030662,62.3417],[-68.510498046875,7.9414248718691169,61.3344],[-68.485205078124991,7.93854401249412,60.6967],[-68.46142578125,7.9472842468691169,62.0001],[-68.426025390625,7.97931549686912,61.0798],[-68.407031249999989,7.9863467468691169,57.7614],[-68.386328124999991,7.99152252811912,59.0021],[-68.374853515624991,7.99127838749412,62.6889],[-68.369799804687489,7.98322174686912,58.3512],[-68.365283203124989,7.98114655155662,65.89],[-68.341845703124989,7.9658389343691169,62.9676],[-68.32177734375,7.9663272156191169,58.4905],[-68.296923828124989,7.97016022343162,57.8359],[-68.275732421874991,7.97089264530662,58.3986],[-68.266772460937489,7.96210358280662,57.8258],[-68.256689453124991,7.9564151062441084,55.6068],[-68.234790039062489,7.96625397343162,54.9472],[-68.205322265625,7.9863467468691169,54.2185],[-68.198779296874989,7.9880557312441169,54.7299],[-68.180029296874991,7.99054596561912,54.7836],[-68.170581054687489,7.9931826843691169,54.2264],[-68.158984374999989,8.00067780155662,55.1568],[-68.149829101562489,8.00995514530662,59.0476],[-68.139990234374991,8.01776764530662,53.3298],[-68.108837890625,8.0246768249941169,52.6957],[-68.073486328125,8.0420108093691169,52.106],[-68.054492187499989,8.04840729374412,53.1192],[-67.95458984375,8.05463287968162,50.2179],[-67.930224609374989,8.04779694218162,49.5185],[-67.9072265625,8.03473541874412,49.177],[-67.8849609375,8.02667877811912,48.9689],[-67.862719726562489,8.03473541874412,55.5548],[-67.816748046874991,8.02167389530662,48.7732],[-67.720703125,8.01752350468162,46.854],[-67.670263671874991,8.00678131718162,46.0217],[-67.649340820312489,7.99860260624412,45.9407],[-67.629321289062489,7.9931826843691169,45.6857]]}}