{"type": "Feature","bbox": [-72.4386,7.4661,-72.2793,7.7635],"geometry": {"type": "MultiPolygon","coordinates": [[[[-72.3572,7.4684,2182.6851],[-72.3344,7.506,1799.9797],[-72.3297,7.5169,1961.1044],[-72.3289,7.5343,1562.3657],[-72.3464,7.5754,1178.9862],[-72.3541,7.6092,1305.9504],[-72.3539,7.6151,1267.3202],[-72.3366,7.6202,955.2799],[-72.2929,7.6175,1021.2715],[-72.2895,7.621,913.3662],[-72.2902,7.6253,983.0377],[-72.3005,7.6402,784.1462],[-72.3013,7.6445,731.5875],[-72.2995,7.6527,851.4927],[-72.2862,7.6659,773.2905],[-72.2793,7.6693,679.6293],[-72.2975,7.6849,795.9092],[-72.319,7.7167,926.9697],[-72.3391,7.7329,1266.9889],[-72.3433,7.7383,1202.7299],[-72.348,7.7531,1127.575],[-72.3484,7.7608,1221.2817],[-72.3652,7.7635,1190.1986],[-72.3725,7.7629,1370.9668],[-72.3849,7.7553,1282.5978],[-72.3937,7.7464,1313.5784],[-72.4153,7.7135,1022.1515],[-72.4188,7.7034,959.4551],[-72.4169,7.6927,987.8181],[-72.4144,7.6873,1024.5851],[-72.4055,7.6802,1128.6587],[-72.4144,7.6749,1135.0933],[-72.4315,7.6692,1154.1809],[-72.4337,7.667,1379.6073],[-72.4386,7.6448,1702.8784],[-72.4332,7.637,1781.5912],[-72.4279,7.6251,1667.4766],[-72.4194,7.5976,2287.1194],[-72.4137,7.5933,2420.8975],[-72.399,7.5762,2779.1106],[-72.3895,7.5577,2316.7471],[-72.3871,7.5468,2630.0569],[-72.3919,7.524,2541.9578],[-72.3895,7.5169,3158.1736],[-72.389,7.506,3264.2224],[-72.3843,7.4955,2790.3857],[-72.3786,7.4894,2560.9275],[-72.3724,7.4747,2547.1628],[-72.3706,7.4661,2394.7529],[-72.3572,7.4684,2182.6851]]]]}
,"properties": {"GID_2": "VEN.21.14_1","GID_0": "VEN","country": "Venezuela","GID_1": "VEN.21_1","province": "Táchira","NL_NAME_1": "NA","county": "Junín","VARNAME_2": "NA","NL_NAME_2": "NA","TYPE_2": "Municipio","ENGTYPE_2": "Municipality","CC_2": "NA","HASC_2": "NA","name": "Junín.county","area_km2": 281.7803,"hist_schema_id": "Elevation0-9000","hist_area_km2": {"675": 0.1471,"700": 0.2732,"725": 0.5884,"750": 1.618,"775": 2.9207,"800": 4.4966,"825": 5.9463,"850": 8.4257,"875": 11.6615,"900": 13.4896,"925": 13.0063,"950": 11.5565,"975": 9.9597,"1000": 9.4133,"1025": 8.867,"1050": 7.3331,"1075": 7.4592,"1100": 6.9759,"1125": 6.9549,"1150": 5.8833,"1175": 5.8414,"1200": 6.1146,"1225": 6.619,"1250": 5.4004,"1275": 4.3707,"1300": 4.0346,"1325": 3.6144,"1350": 3.2363,"1375": 2.6479,"1400": 2.8371,"1425": 2.69,"1450": 2.7951,"1475": 2.5219,"1500": 2.5429,"1525": 2.4588,"1550": 2.3748,"1575": 2.2487,"1600": 2.1646,"1625": 1.9335,"1650": 1.7654,"1675": 1.7024,"1700": 1.8915,"1725": 2.1647,"1750": 1.7234,"1775": 2.2069,"1800": 1.8706,"1825": 1.8286,"1850": 1.9967,"1875": 1.8496,"1900": 1.9126,"1925": 2.0388,"1950": 1.8916,"1975": 1.5974,"2000": 1.8916,"2025": 2.2069,"2050": 1.9757,"2075": 2.1859,"2100": 2.0178,"2125": 1.7446,"2150": 1.7025,"2175": 1.9337,"2200": 1.8287,"2225": 1.6605,"2250": 1.9968,"2275": 2.0389,"2300": 1.7656,"2325": 1.8076,"2350": 1.9968,"2375": 1.2401,"2400": 1.2191,"2425": 1.3873,"2450": 1.1561,"2475": 1.072,"2500": 1.1771,"2525": 1.051,"2550": 0.9249,"2575": 0.6937,"2600": 0.6936,"2625": 0.7147,"2650": 0.8408,"2675": 0.6937,"2700": 0.6726,"2725": 0.7777,"2750": 0.7567,"2775": 0.5885,"2800": 0.7147,"2825": 0.5675,"2850": 0.4414,"2875": 0.4834,"2900": 0.7147,"2925": 0.5675,"2950": 0.2943,"2975": 0.2102,"3000": 0.2733,"3025": 0.2522,"3050": 0.4414,"3075": 0.3153,"3100": 0.2522,"3125": 0.1892,"3150": 0.2733,"3175": 0.3153,"3200": 0.2943,"3225": 0.2312,"3250": 0.1471,"3275": 0.1682,"3300": 0.0631,"3325": 0.0841,"3350": 0.1261,"3375": 0.042,"3400": 0.042}}}