{"type": "Feature","bbox": [-62.4416,8.6533,-60.9669,9.9007],"geometry": {"type": "MultiPolygon","coordinates": [[[[-60.9724,9.5115,10.3658],[-60.986,9.5238,0.0],[-60.9943,9.5279,0.0],[-61.0079,9.5387,7.2694],[-61.0235,9.5435,0.0],[-61.0265,9.5429,0.0],[-61.061,9.5576,0.0],[-61.0718,9.559,0.0],[-61.0732,9.5612,0.0],[-61.0812,9.5612,0.0],[-61.0871,9.564,0.0],[-61.0951,9.5615,0.0],[-61.1015,9.5615,0.0],[-61.1046,9.5629,0.0],[-61.1051,9.5654,0.0],[-61.116,9.5668,0.0],[-61.1329,9.576,0.0],[-61.1546,9.5838,0.0],[-61.1704,9.5921,0.0],[-61.1963,9.601,0.0],[-61.2074,9.6012,0.0],[-61.211,9.5979,0.0],[-61.2093,9.5943,0.0],[-61.2107,9.5929,12.6665],[-61.2154,9.5976,11.7367],[-61.2171,9.6046,0.0],[-61.2415,9.6354,6.6058],[-61.2824,9.6668,0.0],[-61.286,9.6682,6.1108],[-61.3104,9.6882,4.6628],[-61.3376,9.7149,0.0],[-61.3479,9.7229,8.8965],[-61.3737,9.7504,17.0073],[-61.3807,9.7532,20.9338],[-61.3851,9.7604,13.1074],[-61.3963,9.7685,12.1342],[-61.3985,9.7738,11.8917],[-61.4012,9.7729,17.5382],[-61.4015,9.7757,10.0794],[-61.4046,9.7788,3.273],[-61.4076,9.7788,14.5403],[-61.4065,9.7818,16.7585],[-61.409,9.7826,19.0086],[-61.4099,9.7865,4.2289],[-61.4157,9.7915,1.5731],[-61.4165,9.7957,5.1098],[-61.4243,9.8029,0.0],[-61.4307,9.8049,10.3329],[-61.4318,9.8071,3.2252],[-61.4362,9.8076,18.4952],[-61.4318,9.8129,0.0],[-61.4349,9.8124,3.2912],[-61.4343,9.8154,1.8047],[-61.4365,9.8174,0.0],[-61.4418,9.8176,17.9514],[-61.4446,9.8215,13.8658],[-61.4482,9.8218,18.148],[-61.449,9.8249,0.0],[-61.4571,9.8257,0.0],[-61.4618,9.824,18.9625],[-61.471,9.8251,25.4151],[-61.4754,9.8279,9.3231],[-61.4818,9.8276,19.6527],[-61.4896,9.8321,19.8974],[-61.4976,9.8413,2.0973],[-61.5018,9.8426,3.1874],[-61.5046,9.8471,0.0],[-61.5093,9.8468,8.0722],[-61.5088,9.8432,15.8216],[-61.484,9.8196,15.8726],[-61.4701,9.8193,20.7143],[-61.4629,9.8168,22.0311],[-61.4618,9.8143,19.9489],[-61.4576,9.8132,19.8709],[-61.4562,9.8085,19.509],[-61.4512,9.8071,24.8042],[-61.4549,9.8054,23.9973],[-61.4554,9.8026,25.2051],[-61.4518,9.7965,11.5729],[-61.4521,9.7943,10.9554],[-61.4493,9.7924,25.6207],[-61.4512,9.7915,26.188],[-61.451,9.7901,24.1616],[-61.4471,9.7857,19.2924],[-61.4524,9.7879,16.1194],[-61.4521,9.7868,2.2058],[-61.4449,9.7788,16.7886],[-61.426,9.7646,5.4347],[-61.4185,9.7526,0.0],[-61.4176,9.7476,0.0],[-61.424,9.7582,0.0],[-61.4265,9.7585,6.4841],[-61.426,9.7546,13.5818],[-61.4299,9.7624,0.0],[-61.4588,9.784,0.0],[-61.4637,9.7907,0.0],[-61.4815,9.8024,1.9807],[-61.496,9.8154,8.0342],[-61.5051,9.8185,16.1853],[-61.5399,9.8468,14.3435],[-61.5629,9.8604,10.4378],[-61.5701,9.8668,0.0],[-61.5812,9.8724,0.0],[-61.5824,9.8743,0.0],[-61.5871,9.8746,0.0],[-61.6043,9.8815,0.0],[-61.6371,9.8988,0.0],[-61.6521,9.9007,0.0],[-61.6654,9.9004,4.3183],[-61.6724,9.8988,0.0],[-61.671,9.896,2.0425],[-61.6662,9.8979,7.566],[-61.6682,9.8926,6.8097],[-61.6651,9.8874,12.0316],[-61.6615,9.8846,8.3546],[-61.6629,9.884,8.3546],[-61.666,9.8854,5.6665],[-61.666,9.8835,0.0],[-61.6565,9.8737,0.0],[-61.6476,9.8707,9.9016],[-61.6351,9.8696,6.9849],[-61.6271,9.8651,0.0],[-61.6235,9.8657,19.3923],[-61.6296,9.8621,0.0],[-61.6251,9.8585,24.8165],[-61.6287,9.8585,22.8879],[-61.6312,9.8604,12.6222],[-61.6374,9.8599,7.3185],[-61.6387,9.859,0.0],[-61.6374,9.856,0.0],[-61.6071,9.8343,14.1843],[-61.6138,9.8221,0.0],[-61.6176,9.824,1.1274],[-61.6221,9.8226,14.2004],[-61.6221,9.8254,3.6545],[-61.6296,9.8276,6.3448],[-61.6437,9.8271,0.0],[-61.6485,9.8249,23.5373],[-61.6382,9.8207,19.9186],[-61.6321,9.8118,12.5802],[-61.6257,9.8074,25.4761],[-61.6254,9.8054,19.4911],[-61.6282,9.8054,11.0202],[-61.6279,9.804,11.0202],[-61.6168,9.7988,27.3931],[-61.6124,9.7946,5.6973],[-61.6176,9.7971,2.3436],[-61.6268,9.7982,10.1134],[-61.6449,9.7954,30.0934],[-61.6501,9.7963,10.0869],[-61.6521,9.7943,13.8486],[-61.6662,9.7943,10.1637],[-61.681,9.7982,15.0434],[-61.6815,9.7996,0.0],[-61.6865,9.8001,16.8674],[-61.7107,9.8093,0.0],[-61.7179,9.8101,13.1544],[-61.7229,9.8143,0.0],[-61.7271,9.8143,8.2889],[-61.7354,9.8185,9.943],[-61.744,9.8185,19.2422],[-61.7507,9.8221,0.0],[-61.7749,9.8296,0.0],[-61.7924,9.8315,1.9968],[-61.8165,9.8301,21.0373],[-61.8103,9.8222,23.3781],[-61.8075,9.8143,11.8621],[-61.8041,9.7924,14.7887],[-61.8043,9.7806,0.0],[-61.8073,9.7668,0.0],[-61.8139,9.753,29.4191],[-61.8111,9.7465,30.9718],[-61.8111,9.7395,29.1457],[-61.8185,9.7184,28.3231],[-61.8292,9.6998,28.0895],[-61.8327,9.6903,5.4574],[-61.8392,9.6627,19.8986],[-61.8409,9.6252,10.813],[-61.8437,9.6093,8.2268],[-61.8511,9.5883,18.6676],[-61.8576,9.5826,23.8044],[-62.2068,9.4336,2.5839],[-62.2245,9.4272,9.7776],[-62.2238,9.434,1.6841],[-62.2352,9.4304,1.8246],[-62.2516,9.4319,13.1387],[-62.2655,9.4392,8.5504],[-62.2794,9.4425,7.3164],[-62.2954,9.449,5.0683],[-62.3046,9.4503,4.2205],[-62.3055,9.4529,2.1826],[-62.3167,9.4468,4.1096],[-62.3211,9.4422,2.7565],[-62.3523,9.4376,11.2784],[-62.3879,9.4366,1.4658],[-62.4088,9.4336,4.2855],[-62.422,9.4334,10.3931],[-62.4267,9.4353,7.1562],[-62.4275,9.4407,1.3329],[-62.4317,9.4365,3.6663],[-62.4306,9.4366,1.3366],[-62.4335,9.4282,3.3007],[-62.4414,9.4179,7.2644],[-62.4416,9.4139,6.6172],[-62.4358,9.4059,7.3484],[-62.4256,9.3997,2.3263],[-62.4156,9.3795,12.5727],[-62.4039,9.369,2.97],[-62.395,9.3545,1.2094],[-62.3932,9.3533,1.0455],[-62.3794,9.3565,2.3856],[-62.3728,9.3555,0.8926],[-62.3684,9.3431,1.1219],[-62.3556,9.3285,11.2123],[-62.3541,9.3247,1.2307],[-62.355,9.318,0.8914],[-62.3631,9.3061,0.9052],[-62.365,9.2983,0.8567],[-62.3635,9.2937,0.9245],[-62.3545,9.2843,1.7827],[-62.3503,9.2819,1.2461],[-62.3474,9.2761,0.9206],[-62.3479,9.2537,1.4817],[-62.3442,9.2402,1.0959],[-62.3402,9.2332,1.1211],[-62.3287,9.2253,1.6038],[-62.3232,9.2161,1.8152],[-62.3263,9.2071,1.1169],[-62.3395,9.1988,1.1363],[-62.3423,9.195,1.2379],[-62.3449,9.1905,1.4522],[-62.3455,9.1823,3.4891],[-62.3434,9.1342,0.8899],[-62.3326,9.1138,4.7566],[-62.3255,9.1056,1.4586],[-62.3226,9.1035,1.3068],[-62.3082,9.1023,1.0859],[-62.3006,9.105,1.1021],[-62.2918,9.1127,1.071],[-62.2818,9.1125,1.0013],[-62.2762,9.1067,1.0498],[-62.2731,9.0926,1.9389],[-62.2682,9.0867,1.0877],[-62.2496,9.0848,1.137],[-62.2426,9.0819,0.7585],[-62.2376,9.0746,1.1889],[-62.2254,9.0487,1.4669],[-62.2201,9.043,1.3299],[-62.2079,9.0363,0.9148],[-62.1871,9.0332,0.9298],[-62.1798,9.0306,0.5981],[-62.1733,9.0271,1.6185],[-62.1643,9.0151,1.1254],[-62.155,9.0119,5.0746],[-62.1477,9.0112,2.2207],[-62.1409,9.0136,1.0005],[-62.1261,9.0256,0.6109],[-62.1051,9.0344,1.9238],[-62.0907,9.0463,2.1544],[-62.0842,9.0487,1.2373],[-62.0769,9.0464,3.1966],[-62.0614,9.0242,4.419],[-62.0572,9.0148,6.8876],[-62.0589,8.998,15.6411],[-62.0629,8.9896,4.8512],[-62.0671,8.984,5.0138],[-62.0739,8.9788,3.5164],[-62.0833,8.977,4.5601],[-62.0889,8.9733,0.0],[-62.0925,8.9668,5.9797],[-62.094,8.9593,2.6665],[-62.0879,8.9243,6.4101],[-62.0795,8.9043,3.1591],[-62.0733,8.8823,4.7409],[-62.0613,8.8509,3.2597],[-62.056399999999996,8.8448,4.6528],[-62.0469,8.8394,3.3944],[-62.0373,8.8399,6.1232],[-62.0257,8.847,4.9029],[-62.0182,8.8494,6.3731],[-62.0109,8.8496,9.2117],[-62.0035,8.8481,3.0],[-62.003,8.8399,9.0423],[-62.0061,8.8326,3.0],[-62.0251,8.807,7.7331],[-62.0387,8.799,5.3168],[-62.0452,8.7885,5.9007],[-62.0479,8.7682,5.4856],[-62.0465,8.7576,5.4527],[-62.0476,8.7411,7.6986],[-62.0552,8.7214,4.0],[-62.0657,8.7064,15.0329],[-62.0108,8.6872,3.0],[-61.969,8.6758,7.9437],[-61.9044,8.6644,4.8489],[-61.8038,8.6549,8.3673],[-61.7555,8.6533,6.8843],[-61.6592,8.6622,23.2952],[-61.6177,8.6788,8.5456],[-61.5418,8.6996,4.9559],[-61.5136,8.7095,10.5495],[-61.4771,8.7168,6.5469],[-61.4667,8.7221,5.9274],[-61.454,8.74,11.9121],[-61.4517,8.748,3.3529],[-61.4532,8.7674,3.1515],[-61.4521,8.779,11.7803],[-61.4472,8.7868,6.4931],[-61.4347,8.7958,14.437],[-61.4298,8.8016,14.64],[-61.4261,8.8096,15.3196],[-61.4153,8.8468,13.8886],[-61.4013,8.8736,14.368],[-61.3853,8.8987,6.8844],[-61.3705,8.9361,0.9948],[-61.3546,8.9924,1.9266],[-61.3395,9.0831,12.1821],[-61.3341,9.0923,11.821],[-61.3154,9.1034,13.4263],[-61.2735,9.1431,15.018],[-61.2608,9.1465,16.9254],[-61.2375,9.1481,17.3427],[-61.182,9.1434,16.0405],[-61.0999,9.1496,4.5727],[-61.0861,9.1486,12.8797],[-61.0733,9.1455,0.0],[-61.0672,9.1458,6.303],[-61.0597,9.1556,12.304],[-61.056399999999996,9.1647,14.3898],[-61.0426,9.2276,15.9271],[-61.0299,9.2579,17.0889],[-61.0246,9.2635,9.8521],[-61.0706,9.2765,16.6757],[-61.0651,9.2823,18.0109],[-61.0085,9.2858,17.3147],[-60.985,9.3214,16.0122],[-60.9921,9.3568,15.0272],[-60.9932,9.3905,17.027],[-60.9884,9.4143,15.514099999999999],[-60.9669,9.4777,15.6966],[-60.9757,9.4765,24.9667],[-60.9792,9.4877,28.1275],[-60.9774,9.5071,19.4757],[-60.9773,9.5051,13.8976],[-60.9724,9.5115,10.3658]]]]}
,"properties": {"GID_2": "VEN.9.4_1","GID_0": "VEN","country": "Venezuela","GID_1": "VEN.9_1","province": "DeltaAmacuro","NL_NAME_1": "NA","county": "Tucupita","VARNAME_2": "NA","NL_NAME_2": "NA","TYPE_2": "Municipio","ENGTYPE_2": "Municipality","CC_2": "NA","HASC_2": "NA","name": "Tucupita.county","area_km2": 12282.271,"hist_schema_id": "Elevation0-9000","hist_area_km2": {"0": 9567.788,"25": 2714.484}}}