{"type": "Feature","bbox": [-67.3675,9.1196,-66.7682,9.7302],"geometry": {"type": "MultiPolygon","coordinates": [[[[-66.9465,9.7302,457.8254],[-66.9827,9.6782,569.3955],[-66.9901,9.6717,408.8872],[-67.005,9.6664,289.4727],[-67.0277,9.6627,358.5287],[-67.0407,9.6543,354.5184],[-67.0502,9.6433,265.4385],[-67.065,9.6208,332.8245],[-67.0727,9.613,349.3999],[-67.1316,9.5861,232.9875],[-67.1462,9.5838,252.3402],[-67.1681,9.5838,350.6099],[-67.1803,9.5754,417.5019],[-67.1858,9.5695,268.9465],[-67.2008,9.5403,166.7583],[-67.2394,9.4791,145.3732],[-67.2418,9.4672,135.4266],[-67.2418,9.4539,134.6898],[-67.2344,9.4159,125.8901],[-67.2271,9.3923,131.6517],[-67.2293,9.3776,124.0442],[-67.2353,9.3633,119.2381],[-67.2413,9.3505,121.7005],[-67.2542,9.3297,116.2608],[-67.2663,9.3174,120.3664],[-67.293,9.3002,114.9235],[-67.3335,9.2678,111.9858],[-67.3394,9.2576,112.0728],[-67.3406,9.2291,108.5485],[-67.3436,9.2184,112.7659],[-67.3675,9.175,110.9326],[-67.3542,9.1653,102.2411],[-67.3276,9.1383,107.9951],[-67.3201,9.1331,106.6693],[-67.3083,9.1336,110.0867],[-67.2928,9.149,115.479],[-67.2853,9.1509,114.493],[-67.2668,9.1437,121.809],[-67.2579,9.1444,124.1976],[-67.2295,9.1624,125.3471],[-67.2143,9.1689,133.0507],[-67.1819,9.1765,146.325],[-67.177,9.1804,147.7587],[-67.1683,9.1634,147.571],[-67.1631,9.1346,135.5153],[-67.1587,9.1263,127.9703],[-67.1522,9.1199,134.8386],[-67.1429,9.1196,131.6848],[-67.1257,9.128,140.4949],[-67.1146,9.1372,144.4485],[-67.0877,9.17,162.288],[-67.077,9.1792,168.5838],[-67.0616,9.1885,169.5661],[-67.0473,9.1943,189.1302],[-67.0304,9.1962,196.8459],[-67.008,9.1899,175.5602],[-66.9823,9.1872,199.9041],[-66.9581,9.1923,167.0085],[-66.8983,9.2173,140.4255],[-66.7682,9.2593,151.7886],[-66.7965,9.2824,158.417],[-66.8372,9.319,156.1047],[-66.9378,9.437,173.577],[-66.956,9.449,171.7652],[-66.9734,9.4557,159.4316],[-66.9912,9.4594,158.5696],[-67.0022,9.4663,162.7043],[-67.0096,9.4769,194.8592],[-67.0112,9.4894,177.6075],[-67.0095,9.4985,182.6733],[-66.982,9.5482,186.132],[-66.9644,9.5635,177.3424],[-66.93,9.5723,190.7],[-66.9076,9.5802,187.4619],[-66.8898,9.5918,194.8963],[-66.8757,9.6069,198.9448],[-66.8695,9.6243,215.732],[-66.867,9.6399,215.6578],[-66.8673,9.6631,222.1752],[-66.8682,9.6816,218.5439],[-66.871,9.6907,217.2348],[-66.8914,9.7066,221.7409],[-66.9108,9.7172,234.1728],[-66.9465,9.7302,457.8254]]]]}
,"properties": {"GID_2": "VEN.13.6_1","GID_0": "VEN","country": "Venezuela","GID_1": "VEN.13_1","province": "Guárico","NL_NAME_1": "NA","county": "Mellado","VARNAME_2": "NA","NL_NAME_2": "NA","TYPE_2": "Municipio","ENGTYPE_2": "Municipality","CC_2": "NA","HASC_2": "NA","name": "Mellado.county","area_km2": 2087.383,"hist_schema_id": "Elevation0-9000","hist_area_km2": {"100": 40.06,"125": 386.776,"150": 758.285,"175": 469.122,"200": 203.933,"225": 85.482,"250": 34.761,"275": 22.429,"300": 13.901,"325": 11.873,"350": 9.678,"375": 8.612,"400": 7.211,"425": 5.706,"450": 4.18,"475": 4.201,"500": 3.135,"525": 2.341,"550": 2.195,"575": 2.048,"600": 2.153,"625": 2.069,"650": 2.132,"675": 2.236,"700": 1.254,"725": 0.69,"750": 0.564,"775": 0.334,"800": 0.021}}}