{"type": "Feature","bbox": [-72.2011,7.8025,-72.0608,7.9448],"geometry": {"type": "MultiPolygon","coordinates": [[[[-72.0824,7.8663,1918.4172],[-72.0725,7.878,2125.7395],[-72.0653,7.89,2200.2539],[-72.061,7.9085,2405.7393],[-72.0608,7.9179,2817.3906],[-72.0622,7.9214,3100.7122],[-72.0677,7.9274,2875.6355],[-72.1301,7.9448,2178.0818],[-72.1394,7.9311,2148.4419],[-72.1822,7.9023,1634.7592],[-72.1767,7.9004,1549.2281],[-72.1897,7.8888,1527.7928],[-72.2011,7.8749,1548.032],[-72.1957,7.8686,1348.1564],[-72.1778,7.8345,1169.1094],[-72.1664,7.8354,1299.9022],[-72.1469,7.8324,2019.5149],[-72.1332,7.8256,2259.9653],[-72.108,7.8069,1751.127],[-72.1034,7.8068,1550.1107],[-72.0975,7.8025,1421.2377],[-72.0998,7.8184,1940.1168],[-72.0987,7.839,1886.0145],[-72.0921,7.8528,1617.7736],[-72.0824,7.8663,1918.4172]]]]}
,"properties": {"GID_2": "VEN.21.1_1","GID_0": "VEN","country": "Venezuela","GID_1": "VEN.21_1","province": "Táchira","NL_NAME_1": "NA","county": "AndrésBello","VARNAME_2": "NA","NL_NAME_2": "NA","TYPE_2": "Municipio","ENGTYPE_2": "Municipality","CC_2": "NA","HASC_2": "NA","name": "Andrés_Bello.county","area_km2": 138.8019,"hist_schema_id": "Elevation0-9000","hist_area_km2": {"1000": 0.021,"1025": 0.21,"1050": 0.189,"1075": 0.336,"1100": 0.5671,"1125": 0.9661,"1150": 0.9031,"1175": 1.0291,"1200": 1.4492,"1225": 1.6172,"1250": 1.8273,"1275": 1.4492,"1300": 1.5332,"1325": 1.5122,"1350": 1.8062,"1375": 1.5962,"1400": 1.6592,"1425": 2.1002,"1450": 2.2262,"1475": 2.1842,"1500": 2.1842,"1525": 2.3942,"1550": 2.3732,"1575": 2.0792,"1600": 2.0582,"1625": 2.8142,"1650": 2.0162,"1675": 2.6042,"1700": 2.8563,"1725": 2.7093,"1750": 2.6463,"1775": 2.6672,"1800": 2.1212,"1825": 2.3312,"1850": 2.7513,"1875": 2.3942,"1900": 2.6043,"1925": 2.8353,"1950": 2.3312,"1975": 2.5413,"2000": 2.5833,"2025": 2.3733,"2050": 3.1714,"2075": 2.8773,"2100": 2.3102,"2125": 2.0582,"2150": 2.3732,"2175": 2.4362,"2200": 2.3943,"2225": 2.1632,"2250": 1.9322,"2275": 2.2262,"2300": 2.1422,"2325": 1.6592,"2350": 1.9322,"2375": 1.9952,"2400": 1.9322,"2425": 1.8272,"2450": 1.8692,"2475": 1.9742,"2500": 1.7642,"2525": 1.4911,"2550": 1.4281,"2575": 0.9031,"2600": 1.3651,"2625": 1.1341,"2650": 0.945,"2675": 0.588,"2700": 0.714,"2725": 0.525,"2750": 0.693,"2775": 0.735,"2800": 0.504,"2825": 0.483,"2850": 0.441,"2875": 0.399,"2900": 0.504,"2925": 0.294,"2950": 0.252,"2975": 0.399,"3000": 0.357,"3025": 0.462,"3050": 0.315,"3075": 0.336,"3100": 0.294,"3125": 0.273,"3150": 0.609,"3175": 0.252,"3200": 0.399,"3225": 0.42,"3250": 0.294,"3275": 0.189,"3300": 0.189,"3325": 0.063,"3350": 0.063}}}