{"type": "Feature","bbox": [-67.5588,10.1905,-67.4448,10.2201],"geometry": {"type": "MultiPolygon","coordinates": [[[[-67.5587,10.2118,432.7888],[-67.5559,10.2096,434.2778],[-67.5533,10.2039,433.8277],[-67.5551,10.198,431.6025],[-67.5588,10.1947,430.5755],[-67.5352,10.1948,438.5802],[-67.5141,10.1925,445.6615],[-67.5072,10.1933,448.2879],[-67.4914,10.2015,453.6267],[-67.481,10.2029,456.8152],[-67.475,10.201599999999999,458.8246],[-67.4641,10.1938,463.5439],[-67.4559,10.191,466.4524],[-67.4448,10.1905,549.3578],[-67.4453,10.2131,473.6174],[-67.452,10.2148,523.5181],[-67.4918,10.2201,460.5051],[-67.501,10.2173,458.3477],[-67.5403,10.2168,438.0784],[-67.554,10.2143,434.1015],[-67.5587,10.2118,432.7888]]]]}
,"properties": {"GID_2": "VEN.4.3_1","GID_0": "VEN","country": "Venezuela","GID_1": "VEN.4_1","province": "Aragua","NL_NAME_1": "NA","county": "FranciscoLinares","VARNAME_2": "NA","NL_NAME_2": "NA","TYPE_2": "Municipio","ENGTYPE_2": "Municipality","CC_2": "NA","HASC_2": "NA","name": "Francisco_Linares.county","area_km2": 28.42047,"hist_schema_id": "Elevation0-9000","hist_area_km2": {"425": 3.69344,"450": 17.4028,"475": 6.46871,"500": 0.39646,"525": 0.27126,"550": 0.1878}}}