{"type": "Feature","bbox": [-71.3701,10.0059,-70.8144,10.4558],"geometry": {"type": "MultiPolygon","coordinates": [[[[-70.882,10.4558,343.9013],[-70.9517,10.4118,247.5524],[-70.9986,10.3925,233.8985],[-71.1281,10.3912,111.4258],[-71.1469,10.3835,95.7607],[-71.1739,10.3615,80.7997],[-71.1787,10.3554,92.53],[-71.1854,10.3371,86.4024],[-71.194,10.3237,77.4952],[-71.1977,10.3103,62.7466],[-71.2016,10.284,61.3483],[-71.2095,10.2658,60.9341],[-71.2236,10.2456,37.0623],[-71.2303,10.2426,40.0654],[-71.2746,10.243,27.4538],[-71.281,10.2396,24.6007],[-71.2896,10.2393,24.4761],[-71.3289,10.2439,12.5586],[-71.3696,10.2426,-1.1135],[-71.3701,10.2365,0.0],[-71.3688,10.236,0.0793],[-71.3665,10.2263,0.0],[-71.3596,10.2188,0.0],[-71.3585,10.2104,0.0],[-71.354,10.2121,4.3842],[-71.3482,10.2074,1.6224],[-71.349,10.2046,1.9667],[-71.3451,10.2051,0.4162],[-71.3432,10.2037,0.0],[-71.3421,10.201,1.494],[-71.3437,10.1962,0.0],[-71.3426,10.1954,0.0],[-71.3407,10.1954,0.0],[-71.339,10.1987,1.1147],[-71.3351,10.1982,0.3394],[-71.3335,10.1949,0.3142],[-71.3268,10.1907,0.3905],[-71.3196,10.1832,0.0],[-71.3151,10.184,3.9983],[-71.3129,10.1812,0.0],[-71.3032,10.1754,0.0],[-71.2996,10.1749,1.5119],[-71.2918,10.1687,0.0],[-71.2793,10.1535,-0.0565],[-71.2729,10.1415,-1.6103],[-71.2724,10.1362,0.0],[-71.2665,10.1351,-0.4413],[-71.2665,10.1318,-0.0019],[-71.2613,10.1226,-0.6186],[-71.2615,10.119,0.0],[-71.2568,10.1151,0.0],[-71.2538,10.1093,-1.5789],[-71.2401,10.0749,0.0],[-71.2376,10.0546,1.4684],[-71.2404,10.0487,0.0],[-71.2376,10.0374,7.1724],[-71.2282,10.021,0.0],[-71.2296,10.016,2.1509],[-71.2337,10.0118,2.1681],[-71.2315,10.0071,4.8707],[-71.2293,10.0079,1.7692],[-71.2288,10.0118,5.0205],[-71.2265,10.0118,0.0],[-71.2224,10.0101,0.0],[-71.2193,10.0059,1.7491],[-71.189,10.0296,4.377],[-71.1397,10.0755,15.9059],[-71.0396,10.1547,56.2523],[-71.0208,10.1748,67.6147],[-71.015,10.1811,85.1523],[-71.0151,10.2024,105.0511],[-71.0004,10.2594,184.4836],[-70.9883,10.2802,162.6606],[-70.9778,10.3055,136.6554],[-70.9518,10.3417,187.5866],[-70.9461,10.3556,214.5828],[-70.9413,10.3631,202.9598],[-70.9364,10.3673,247.5237],[-70.9261,10.3819,250.0143],[-70.9046,10.3857,311.3733],[-70.8779,10.3938,324.8779],[-70.8607,10.4026,555.3777],[-70.8198,10.4414,1020.812],[-70.8152,10.4477,1158.1158],[-70.8144,10.4532,1213.882],[-70.8499,10.451,813.1504],[-70.882,10.4558,343.9013]]]]}
,"properties": {"GID_2": "VEN.25.11_1","GID_0": "VEN","country": "Venezuela","GID_1": "VEN.25_1","province": "Zulia","NL_NAME_1": "NA","county": "Lagunillas","VARNAME_2": "NA","NL_NAME_2": "NA","TYPE_2": "Municipio","ENGTYPE_2": "Municipality","CC_2": "NA","HASC_2": "NA","name": "Lagunillas.county","area_km2": 1027.9818,"hist_schema_id": "Elevation0-9000","hist_area_km2": {"0": 213.9134,"25": 178.2646,"50": 94.7147,"75": 91.3425,"100": 86.5139,"125": 82.002,"150": 67.5854,"175": 52.2292,"200": 44.1538,"225": 30.3663,"250": 20.1045,"275": 14.7856,"300": 11.6569,"325": 8.3413,"350": 4.4833,"375": 3.2947,"400": 2.0435,"425": 1.5848,"450": 1.7516,"475": 1.3137,"500": 1.4805,"525": 1.5014,"550": 1.6056,"575": 1.2511,"600": 1.5222,"625": 1.3971,"650": 1.3345,"675": 0.8549,"700": 0.8341,"725": 0.8758,"750": 0.6047,"775": 0.7089,"800": 0.5838,"825": 0.4587,"850": 0.563,"875": 0.3753,"900": 0.3336,"925": 0.2711,"950": 0.0834,"975": 0.0209,"1000": 0.1251,"1025": 0.2085,"1050": 0.146,"1075": 0.1251,"1100": 0.0626,"1125": 0.0417,"1150": 0.0417,"1175": 0.1043,"1200": 0.0209}}}