{"type":"Feature","properties":{"GID_2":"VEN.4.4_1","GID_0":"VEN","country":"Venezuela","GID_1":"VEN.4_1","province":"Aragua","NL_NAME_1":"NA","county":"Girardot","VARNAME_2":"NA","NL_NAME_2":"NA","TYPE_2":"Municipio","ENGTYPE_2":"Municipality","CC_2":"NA","HASC_2":"NA","name":"Girardot.county"},
"geometry":{"type": "MultiPolygon","coordinates": [[[[-67.4918,10.2201,460.5051],[-67.4801,10.2313,475.2038],[-67.4782,10.2381,479.2505],[-67.475,10.2585,528.4382],[-67.4679,10.2838,674.6393],[-67.466,10.3,885.8392],[-67.4667,10.3136,746.3748],[-67.4696,10.3281,881.2231],[-67.474,10.3399,1091.823],[-67.4798,10.3503,1459.1277],[-67.5048,10.3834,1230.6045],[-67.5074,10.4002,1470.8573],[-67.5076,10.416,1408.8557],[-67.5014,10.4685,497.5493],[-67.5019,10.4961,180.272],[-67.5148,10.5195,16.5228],[-67.5128,10.5226,29.6477],[-67.5168,10.5224,0.0],[-67.5193,10.524,0.0],[-67.5254,10.5229,76.6172],[-67.5338,10.5254,76.5308],[-67.5357,10.5274,0.0],[-67.5437,10.524,14.9471],[-67.5432,10.521,3.582],[-67.5451,10.5196,2.6931],[-67.5554,10.5226,0.0],[-67.5579,10.5215,6.0585],[-67.5612,10.5162,4.2995],[-67.5671,10.5162,60.8379],[-67.5715,10.5182,0.0],[-67.5724,10.5146,10.1437],[-67.5785,10.5096,39.3426],[-67.5846,10.5079,16.9584],[-67.5865,10.5088,0.0],[-67.589,10.5071,2.9564],[-67.594,10.5082,4.8323],[-67.5956,10.4969,92.6091],[-67.5992,10.4884,230.253],[-67.6124,10.4677,590.566],[-67.6131,10.4595,576.673],[-67.6042,10.4426,624.9286],[-67.5778,10.4227,1202.0671],[-67.5707,10.4144,1439.8323],[-67.5672,10.4049,1537.9496],[-67.5649,10.3934,1468.7939],[-67.5645,10.3598,1526.0604],[-67.5617,10.3376,877.0698],[-67.5615,10.2956,531.4553],[-67.5634,10.2885,510.3023],[-67.5806,10.2677,467.1259],[-67.5863,10.2654,461.007],[-67.5919,10.2655,458.3012],[-67.5985,10.2682,453.3817],[-67.6032,10.2754,459.7887],[-67.608,10.2792,450.3378],[-67.6176,10.2681,447.8776],[-67.6301,10.2571,441.0092],[-67.6231,10.2524,438.8339],[-67.611,10.2386,433.4811],[-67.5843,10.2286,435.3331],[-67.5746,10.2199,428.7712],[-67.5587,10.2118,432.7888],[-67.554,10.2143,434.1015],[-67.5403,10.2168,438.0784],[-67.501,10.2173,458.3477],[-67.4918,10.2201,460.5051]]]]}}