{"type":"Feature","properties":{"GID_1":"VEN.14_1","GID_0":"VEN","country":"Venezuela","province":"Lara","VARNAME_1":"NA","NL_NAME_1":"NA","TYPE_1":"Estado","ENGTYPE_1":"State","CC_1":"NA","HASC_1":"NA","ISO_1":"VE-K","name":"Lara.province"},
"geometry":{"type": "MultiPolygon","coordinates": [[[[-69.329,9.7432,782.1808],[-69.3193,9.7658,912.7898],[-69.3199,9.7789,754.2651],[-69.3251,9.8045,987.4608],[-69.3261,9.8318,1239.4485],[-69.3204,9.8413,1264.819],[-69.3135,9.847,1449.7269],[-69.2825,9.8632,1385.1417],[-69.2728,9.8693,1335.1581],[-69.2659,9.8764,1074.8792],[-69.2546,9.8895,949.3863],[-69.2485,9.901,895.6622],[-69.2418,9.9234,968.8289],[-69.2364,9.9332,791.7607],[-69.2314,9.9363,706.6683],[-69.2185,9.9369,463.3289],[-69.211,9.9304,466.3483],[-69.2128,9.9166,428.8983],[-69.2175,9.9029,526.2842],[-69.2181,9.8875,548.0216],[-69.2165,9.8789,485.0396],[-69.204,9.86,410.834],[-69.2027,9.8475,479.007],[-69.2107,9.8331,439.4714],[-69.2193,9.8216,514.0043],[-69.2232,9.8111,513.7411],[-69.2216,9.8007,658.1218],[-69.2112,9.7857,570.5632],[-69.1973,9.7764,357.2495],[-69.1613,9.7632,251.2379],[-69.1061,9.7582,272.4539],[-69.093,9.754,286.7024],[-69.0655,9.7613,332.1582],[-69.0523,9.7609,404.6801],[-69.032,9.7632,344.7256],[-69.0083,9.7978,271.2173],[-69.0021,9.8017,268.4063],[-68.9871,9.8007,268.843],[-68.9749,9.7913,214.922],[-68.9709,9.7949,211.2804],[-68.9505,9.8041,290.0705],[-68.9437,9.8109,268.8208],[-68.9388,9.8241,278.2922],[-68.9334,9.8506,326.6515],[-68.925,9.8731,375.2193],[-68.922,9.8881,322.8033],[-68.9218,9.8976,310.4773],[-68.9287,9.9027,262.5652],[-68.9301,9.9105,303.7935],[-68.9286,9.9259,321.6853],[-68.9257,9.9358,330.5637],[-68.9193,9.9498,334.8923],[-68.9121,9.9608,377.4386],[-68.9015,9.9707,319.0824],[-68.8714,9.9864,520.4878],[-68.8642,9.9932,411.7224],[-68.862,10.0023,463.9866],[-68.8697,10.0133,297.3448],[-68.889,10.0257,422.1358],[-68.898,10.0343,604.8414],[-68.9173,10.0662,984.0544],[-68.931,10.0706,950.5139],[-68.9414,10.0684,719.783],[-68.9932,10.0389,272.4907],[-69.0065,10.0332,271.9477],[-69.0267,10.0276,283.7718],[-69.0385,10.021,274.7181],[-69.0454,10.0124,276.2397],[-69.0471,10.0033,274.9395],[-69.0498,9.9422,285.3654],[-69.0557,9.9359,313.3267],[-69.0621,9.9389,314.2132],[-69.0716,9.9541,462.3239],[-69.0821,9.9823,282.571],[-69.0877,9.9932,302.1754],[-69.1019,10.0157,433.6628],[-69.104,10.0323,303.5853],[-69.0991,10.0513,321.1596],[-69.0969,10.0689,366.2967],[-69.1,10.0847,427.5704],[-69.1108,10.0955,447.5551],[-69.1429,10.1115,399.8171],[-69.1519,10.1186,439.2821],[-69.1725,10.1583,545.8],[-69.1806,10.1992,664.2965],[-69.181,10.2115,703.7928],[-69.1773,10.2264,688.0524],[-69.1689,10.2363,702.5004],[-69.1504,10.2453,764.5922],[-69.1029,10.2596,1001.7032],[-69.0804,10.2735,1077.8723],[-69.0576,10.3091,836.4263],[-69.0478,10.314,851.0391],[-69.0423,10.3138,889.8472],[-69.0374,10.3119,957.5234],[-69.0279,10.2971,969.1956],[-69.0179,10.2959,1149.7986],[-69.0106,10.2991,936.7789],[-69.0028,10.3091,772.3758],[-68.9784,10.3332,744.7056],[-68.9737,10.3475,1247.9407],[-68.9757,10.3573,1174.6956],[-68.984,10.3716,936.4675],[-68.9886,10.3842,684.9244],[-68.991,10.4089,482.601],[-68.9897,10.4206,320.1618],[-68.983,10.443,273.8029],[-68.981,10.4564,346.42],[-68.9832,10.47,543.4814],[-68.9972,10.471,486.5245],[-69.0231,10.4622,717.5656],[-69.0299,10.4686,804.2368],[-69.0326,10.4772,803.7675],[-69.0327,10.4906,695.0764],[-69.0287,10.513,458.6487],[-69.0262,10.5235,618.5549],[-69.016,10.5361,821.4046],[-69.0078,10.5408,835.6483],[-68.9982,10.5534,809.4437],[-68.9846,10.5784,395.6483],[-68.9721,10.5874,411.5321],[-68.9569,10.594,318.4845],[-68.9429,10.6059,286.3326],[-68.9352,10.62,195.9164],[-68.9271,10.6405,181.3748],[-68.9179,10.6564,121.0843],[-68.9009,10.6694,116.0189],[-68.8831,10.6794,126.7983],[-68.8703,10.6902,113.018],[-68.8672,10.6998,108.6051],[-68.8675,10.7086,113.8403],[-68.8807,10.7248,128.5861],[-68.8883,10.7299,198.1673],[-68.9198,10.728,62.2965],[-68.9545,10.7289,105.9443],[-68.988,10.7222,141.5793],[-69.0348,10.7076,117.143],[-69.0537,10.7044,134.7852],[-69.0732,10.7141,189.712],[-69.0897,10.7176,193.0511],[-69.1302,10.723,150.6404],[-69.1974,10.735,289.8202],[-69.2322,10.7373,424.1042],[-69.2535,10.7339,637.3029],[-69.2842,10.7334,707.6619],[-69.3436,10.7419,579.5046],[-69.3718,10.7423,524.1331],[-69.4489,10.7277,612.5584],[-69.4666,10.7267,640.0258],[-69.4897,10.7302,845.0643],[-69.5017,10.7365,854.0366],[-69.5094,10.743,700.4404],[-69.5276,10.7692,903.8777],[-69.5386,10.7754,731.6738],[-69.605,10.7827,734.2834],[-69.6354,10.7802,821.4578],[-69.6773,10.7664,836.0626],[-69.705,10.7607,767.066],[-69.7352,10.7491,954.4588],[-69.7535,10.739,1051.6619],[-69.7714,10.735,971.5624],[-69.791,10.7388,835.0144],[-69.8173,10.7487,862.8624],[-69.8316,10.747,826.225],[-69.8528,10.7386,964.4716],[-69.9034,10.7097,833.2362],[-69.9282,10.6984,779.7076],[-69.955,10.691,677.0756],[-69.9827,10.6863,911.974],[-70.0412,10.6632,907.2144],[-70.0711,10.666,806.0144],[-70.0944,10.6713,608.1665],[-70.1182,10.6715,669.6045],[-70.1319,10.6653,783.1706],[-70.1722,10.6257,842.0311],[-70.2118,10.6031,979.5641],[-70.2425,10.5881,925.1479],[-70.2661,10.5798,724.1594],[-70.287,10.5765,710.8575],[-70.3083,10.5688,800.5175],[-70.3541,10.5453,915.6099],[-70.3611,10.5388,904.2327],[-70.3785,10.4936,962.8588],[-70.391,10.481,1047.8594],[-70.4055,10.4754,1076.1317],[-70.4597,10.4677,1031.6853],[-70.4742,10.4598,934.1133],[-70.4855,10.4484,926.2021],[-70.516,10.4007,713.4095],[-70.5293,10.3668,1009.7828],[-70.5395,10.354,1012.8468],[-70.5594,10.3503,1113.7965],[-70.5726,10.3504,907.6199],[-70.5908,10.3459,1137.183],[-70.6149,10.3358,1753.1809],[-70.6313,10.3262,1998.4895],[-70.649,10.3106,1522.9012],[-70.6599,10.2986,1714.1699],[-70.6686,10.2847,1597.7574],[-70.6863,10.2532,1156.6685],[-70.7032,10.1989,1281.0929],[-70.7159,10.1828,1046.0007],[-70.7329,10.1698,1258.8795],[-70.7744,10.1474,558.6105],[-70.838,10.108,596.3786],[-70.8544,10.092,430.321],[-70.8608,10.0779,244.4401],[-70.8611,10.0566,215.1186],[-70.855,10.038,296.9418],[-70.843,10.0207,346.0982],[-70.8082,9.9809,228.7979],[-70.7899,9.9647,329.2535],[-70.7699,9.9549,545.4628],[-70.7331,9.9427,497.45],[-70.7217,9.9345,626.5038],[-70.712,9.9237,643.8486],[-70.6957,9.9098,825.4392],[-70.6805,9.9016,875.3075],[-70.662,9.9007,622.0124],[-70.6622,9.9364,657.3073],[-70.6577,9.9563,644.6635],[-70.6475,9.9804,679.9208],[-70.6303,10.0148,975.9438],[-70.6173,10.0317,911.0927],[-70.6098,10.0364,762.4523],[-70.6002,10.0362,724.7252],[-70.587,10.0323,666.9778],[-70.5747,10.0261,737.9922],[-70.5642,10.0176,735.0226],[-70.563,10.0095,830.6788],[-70.5635,9.9902,814.991],[-70.5579,9.9776,858.5743],[-70.5397,9.9579,1032.0162],[-70.5299,9.9356,1201.4476],[-70.5217,9.9273,960.0598],[-70.4924,9.9177,1088.1987],[-70.4583,9.8914,893.1656],[-70.4497,9.8912,835.8896],[-70.4356,9.8977,772.8566],[-70.4258,9.906,1015.931],[-70.4106,9.9155,819.8458],[-70.3635,9.923,913.2793],[-70.3528,9.9229,831.3176],[-70.3327,9.8844,972.8935],[-70.3258,9.8751,932.1946],[-70.3204,9.8748,842.4757],[-70.297,9.879,774.938],[-70.2827,9.8746,918.8146],[-70.2778,9.8681,873.5964],[-70.2625,9.8356,679.9144],[-70.2512,9.8232,574.998],[-70.2458,9.8211,522.4526],[-70.238,9.8214,513.0015],[-70.2337,9.826,505.4347],[-70.2276,9.8523,487.1939],[-70.2228,9.8642,479.5138],[-70.2148,9.8688,499.8202],[-70.2041,9.8664,481.7022],[-70.1777,9.8439,503.8991],[-70.1544,9.8185,820.7366],[-70.1392,9.811,1167.4829],[-70.1085,9.8094,1330.9879],[-70.0919,9.8027,1460.9218],[-70.0668,9.7803,1885.8987],[-70.0336,9.7694,1948.6387],[-70.0187,9.7627,1945.7849],[-70.0022,9.748,2270.1833],[-69.9928,9.7357,2277.865],[-69.9878,9.7212,2094.2134],[-69.988,9.7121,2070.1702],[-69.9934,9.7043,1809.2583],[-70.0028,9.7013,1455.0271],[-70.0552,9.6991,2337.2256],[-70.0786,9.6927,2443.3687],[-70.0949,9.6801,2522.7227],[-70.1028,9.6649,2604.4644],[-70.1117,9.6103,2859.6682],[-70.112,9.5891,2871.4927],[-70.1079,9.5705,3053.5754],[-70.0954,9.5543,2652.9014],[-70.0663,9.526,2046.3289],[-70.044,9.4981,2074.0186],[-70.0311,9.4851,2149.9277],[-70.0193,9.4758,2005.4871],[-69.9992,9.5033,1955.9901],[-69.9887,9.5244,1958.3579],[-69.9757,9.5598,1366.948],[-69.9659,9.577,1491.5531],[-69.9566,9.5836,1892.1985],[-69.948,9.5869,1931.2856],[-69.935,9.5851,2032.3552],[-69.9198,9.5752,1932.9084],[-69.9081,9.5729,1482.568],[-69.8904,9.5736,1337.5759],[-69.851,9.5836,1471.0217],[-69.837,9.5835,1557.537],[-69.8297,9.5818,1550.3091],[-69.8256,9.5755,1588.1222],[-69.8261,9.5678,1691.0116],[-69.8423,9.5447,1350.8286],[-69.8582,9.5259,1228.8027],[-69.876,9.5105,1177.9229],[-69.8872,9.4975,1039.29],[-69.8939,9.4876,855.0616],[-69.8952,9.4802,817.7233],[-69.8932,9.4763,893.4768],[-69.8769,9.4726,1184.9395],[-69.8578,9.4711,1470.868],[-69.8136,9.4739,986.1395],[-69.7971,9.4792,1030.9674],[-69.7567,9.4971,1066.6565],[-69.7438,9.4996,1009.7294],[-69.7217,9.4935,1026.6219],[-69.7109,9.486,858.3764],[-69.6989,9.4739,884.744],[-69.6881,9.4685,928.6733],[-69.6481,9.4749,1005.0933],[-69.629,9.4807,1433.4152],[-69.6166,9.4858,1575.9692],[-69.6087,9.4959,1363.0974],[-69.6106,9.5155,1388.516],[-69.6281,9.5379,1519.9421],[-69.6292,9.5456,1475.0532],[-69.6256,9.5538,1640.473],[-69.6026,9.5656,1792.1099],[-69.5979,9.6033,1358.811],[-69.5944,9.6112,1168.907],[-69.5803,9.6201,956.8499],[-69.5622,9.6232,1226.1732],[-69.4384,9.6246,1409.4783],[-69.4211,9.6274,1259.0959],[-69.4013,9.633,925.4827],[-69.3834,9.6491,467.4831],[-69.3718,9.655,387.0055],[-69.3597,9.6589,622.358],[-69.3463,9.6666,672.9262],[-69.3346,9.6916,924.95],[-69.3306,9.7056,878.5198],[-69.329,9.7432,782.1808]]]]}}