{"type":"Feature","properties":{"featurecla":"River","scalerank":9,"rivernum":1018,"dissolve":"1018River","name":"Cojedes","name_alt":null,"note":null,"min_zoom":7.1,"strokeweig":0.15,"name_en":"Cojedes","min_label":8.1},
"geometry":{"type": "LineString","coordinates": [[-69.260498046875,10.24750397343162,627.7894],[-69.251953125,10.23688385624412,640.845],[-69.240527343749989,10.22687409061912,624.6564],[-69.230639648437489,10.216083074994117,638.8293],[-69.226367187499989,10.20307037968162,613.8534],[-69.225195312499991,10.18134186405662,611.4099],[-69.221777343749991,10.15949127811912,550.8353],[-69.2158203125,10.138299871869108,492.3242],[-69.207080078124989,10.118280340619108,444.8514],[-69.195068359375,10.100116278119117,396.5574],[-69.18330078125,10.092303778119117,362.521],[-69.147143554687489,10.08905670780662,372.7676],[-69.1328125,10.086200262494117,385.3595],[-69.12451171875,10.080438543744108,380.0353],[-69.120214843749991,10.07111237186912,361.7159],[-69.116455078125,10.044061590619108,319.3305],[-69.112841796874989,10.03522369999412,308.2811],[-69.098681640624989,10.01850006718162,391.9311],[-69.089453124999991,9.9992861999941169,293.29],[-69.0849609375,9.9524111999941169,423.9874],[-69.077319335937489,9.9307803406191084,331.8723]]}}