{"type":"Feature","properties":{"ISO3166-1-Alpha-3":"VEN","country":"Venezuela","fill":"#FF0","id":"34","name":"Lara"},
"geometry":{"type": "Polygon","coordinates": [[[-69.49859,10.69514,203.8603],[-69.50617,10.69718,321.2559],[-69.50841,10.70183,456.1369],[-69.50999,10.7071,541.8456],[-69.51107,10.71276,529.9712],[-69.51415,10.72322,435.1415],[-69.51764,10.7286,408.5405],[-69.52074,10.73247,584.4962],[-69.5372,10.74201,622.1766],[-69.5905,10.7479,955.1104],[-69.64218,10.76273,695.8639],[-69.65489,10.76482,909.2012],[-69.66393,10.76467,874.2383],[-69.70925,10.73387,775.3461],[-69.74708,10.71617,655.2335],[-69.78987,10.70144,993.9949],[-69.80098,10.69966,1166.6594],[-69.81015,10.69909,1247.7507],[-69.81643,10.69989,1256.9028],[-69.82124,10.70175,1308.3973],[-69.82294,10.70508,1341.1193],[-69.82137,10.70857,1250.5724],[-69.81752,10.71183,1188.819],[-69.81387,10.714,1163.0035],[-69.80607,10.72035,1093.7815],[-69.81147,10.72953,1038.9512],[-69.81604,10.73061,1095.7081],[-69.82379,10.7303,1080.7352],[-69.82899,10.72782,921.4014],[-69.83361,10.72488,934.3387],[-69.83715,10.72152,943.6695],[-69.84041,10.71787,1065.874],[-69.85273,10.70718,910.1481],[-69.86658,10.698,708.173],[-69.87547,10.69467,702.7869],[-69.88439,10.69397,811.4291],[-69.89196,10.69514,863.4197],[-69.9034,10.69594,916.1557],[-69.91128,10.6939,897.1495],[-69.9204,10.6894,980.5807],[-69.92699,10.68831,815.0555],[-69.93304,10.6887,888.6079],[-69.94009,10.69048,924.286],[-69.94841,10.6918,749.0549],[-69.96203,10.69235,735.5103],[-69.96932,10.69048,800.4899],[-69.98722,10.67715,993.4695],[-70.01823,10.66209,897.3647],[-70.032,10.65294,787.6625],[-70.04722,10.64527,893.9824],[-70.0566,10.64317,992.6967],[-70.06432,10.64292,990.192],[-70.11285,10.65348,850.7361],[-70.14075,10.6548,717.2003],[-70.15021,10.65356,725.1801],[-70.1575,10.6517,712.5482],[-70.16176,10.64899,789.733],[-70.16556,10.64581,785.1658],[-70.16894,10.6423,729.1097],[-70.17473,10.63423,752.1235],[-70.18651,10.61111,1028.6954],[-70.20095,10.60096,1001.209],[-70.21809,10.59204,1040.526],[-70.22496,10.5855,854.8782],[-70.22982,10.5783,767.1422],[-70.23108,10.57302,679.0299],[-70.24718,10.55837,664.607],[-70.28322,10.56613,962.8599],[-70.30648,10.56566,760.7333],[-70.32307,10.5624,884.7687],[-70.33028,10.55806,851.763],[-70.33898,10.54703,924.8411],[-70.34622,10.54083,878.2084],[-70.37376,10.52866,915.6637],[-70.38746,10.52003,929.9877],[-70.39469,10.51029,986.3551],[-70.40296,10.49541,907.1824],[-70.41453,10.4838,933.1448],[-70.43608,10.47554,772.225],[-70.45097,10.47223,878.4175],[-70.47084,10.46394,1026.1013],[-70.49231,10.44742,824.1726],[-70.50063,10.43414,746.2957],[-70.51218,10.40769,710.9759],[-70.51716,10.39608,729.3937],[-70.52546,10.3812,857.0579],[-70.53042,10.3696,1016.2296],[-70.53538,10.36301,916.6241],[-70.55029,10.35968,1180.0734],[-70.57013,10.35637,834.5208],[-70.59163,10.35141,1107.9871],[-70.61318,10.34146,1603.1396],[-70.63798,10.32658,1931.856],[-70.65121,10.31335,1697.9984],[-70.65808,10.30477,1748.3868],[-70.66449,10.29679,1683.3158],[-70.67604,10.2786,1461.104],[-70.68434,10.26201,1037.5278],[-70.69428,10.23886,1282.9976],[-70.69924,10.21899,1041.6575],[-70.70421,10.20573,1324.239],[-70.71079,10.19416,1217.6222],[-70.7257,10.1809,1313.324],[-70.825,10.12132,395.1519],[-70.8482,10.09982,535.8977],[-70.85815,10.07003,312.3079],[-70.85482,10.04355,234.518],[-70.83828,10.01872,311.9639],[-70.80681,9.98394,225.493],[-70.77374,9.96079,444.3556],[-70.74557,9.94919,492.6687],[-70.69591,9.91611,761.3579],[-70.681,9.90779,778.6482],[-70.66116,9.90451,601.8784],[-70.66201,9.95583,656.0117],[-70.63842,10.00301,853.6224],[-70.62351,10.02285,1221.4968],[-70.60863,10.03156,833.1253],[-70.59248,10.03652,692.9096],[-70.58008,10.03652,682.1533],[-70.56641,10.03032,857.9844],[-70.56269,10.01913,731.0497],[-70.56145,9.99929,929.8568],[-70.56145,9.98934,789.8416],[-70.54781,9.97322,891.4348],[-70.53042,9.9397,1353.2173],[-70.51675,9.92852,1133.9509],[-70.49815,9.9248,811.2472],[-70.47704,9.90989,690.3148],[-70.45469,9.89624,899.3256],[-70.44476,9.89624,774.0153],[-70.42988,9.90617,896.2662],[-70.41249,9.91611,898.0853],[-70.40254,9.92107,890.3986],[-70.36531,9.92728,786.8492],[-70.35164,9.92604,892.2178],[-70.3442,9.91859,930.6654],[-70.33428,9.895,882.6559],[-70.32932,9.88632,889.5626],[-70.31441,9.88134,752.5752],[-70.27966,9.87389,877.2404],[-70.26478,9.84658,702.7453],[-70.25731,9.83418,697.6975],[-70.24739,9.82674,533.3767],[-70.23051,9.8355,499.0278],[-70.2271,9.83984,494.6875],[-70.22307,9.84333,492.4783],[-70.2177,9.84666,493.1546],[-70.21333,9.84581,484.5601],[-70.2094,9.8434,490.744],[-70.19757,9.83209,510.6779],[-70.19512,9.82906,517.4973],[-70.19214,9.82602,526.9108],[-70.16757,9.79204,682.7626],[-70.16075,9.78529,699.515],[-70.15432,9.78235,881.1614],[-70.14742,9.78103,959.8327],[-70.11062,9.77971,1641.3584],[-70.10132,9.77801,1655.1552],[-70.09414,9.77584,1725.8301],[-70.08988,9.77305,1840.0851],[-70.086,9.77,1887.5864],[-70.08256,9.76643,2058.4856],[-70.07716,9.75853,2355.4431],[-70.07215,9.74953,2619.0942],[-70.03401,9.72153,1794.3885],[-70.02172,9.70972,1697.4851],[-70.01869,9.70468,1510.2645],[-70.01585,9.69894,1474.7177],[-70.01306,9.69049,1493.1665],[-70.01443,9.68535,1568.6458],[-70.01735,9.68132,1475.5486],[-70.03283,9.66845,1629.6716],[-70.03724,9.66582,1826.3489],[-70.04213,9.66419,1916.1727],[-70.04771,9.66388,2163.894],[-70.06386,9.66783,2728.1465],[-70.06939,9.66807,2892.9194],[-70.07471,9.66605,2891.7827],[-70.08045,9.66179,2490.9841],[-70.08468,9.65789,2452.064],[-70.11894,9.63517,2549.0913],[-70.12406,9.63104,2422.6831],[-70.1308,9.62414,2465.0762],[-70.13352,9.61763,2750.8516],[-70.13481,9.61073,2681.6396],[-70.13468,9.60422,2628.6206],[-70.13398,9.59815,2843.1533],[-70.11716,9.54035,3178.6675],[-70.10928,9.51715,3229.7971],[-70.09993,9.50939,2920.3149],[-70.06737,9.49668,2145.4939],[-70.06215,9.49265,2186.6069],[-70.05861,9.48797,2188.1113],[-70.03298,9.43033,1109.376],[-70.02345,9.43857,1137.1213],[-70.01892,9.45175,1264.517],[-70.01296,9.48216,2081.1528],[-70.0097,9.49157,2066.5674],[-70.00675,9.49761,1969.7964],[-69.94332,9.56456,1967.0005],[-69.93405,9.57161,2117.4961],[-69.92653,9.57402,2087.0972],[-69.92221,9.57192,1869.4255],[-69.914,9.56611,1597.7297],[-69.90686,9.55975,1351.0111],[-69.9041,9.55665,1276.9543],[-69.89898,9.55239,1225.5903],[-69.89211,9.55192,1316.3049],[-69.88227,9.55285,1482.4138],[-69.84994,9.56526,1776.9766],[-69.84108,9.56774,1695.0948],[-69.83529,9.56727,1702.0208],[-69.82449,9.56433,1655.0234],[-69.81798,9.56316,1483.9871],[-69.81054,9.56262,1508.9789],[-69.79987,9.56332,1381.223],[-69.79292,9.56223,1485.6854],[-69.78868,9.5589,1316.1062],[-69.78726,9.55402,1192.1051],[-69.7871,9.54856,1171.3147],[-69.78865,9.5436,1112.1487],[-69.7909,9.53903,1127.2224],[-69.82571,9.50474,1132.9128],[-69.84372,9.48092,1468.1261],[-69.8503,9.47371,1534.7184],[-69.85912,9.46167,1429.5833],[-69.87219,9.43312,1541.172],[-69.87322,9.42731,1416.8145],[-69.87224,9.42157,1402.4358],[-69.86733,9.41506,1047.6245],[-69.8587,9.41297,1188.7357],[-69.85134,9.41235,1139.8046],[-69.76341,9.41746,1380.7213],[-69.7491,9.42374,1469.803],[-69.73943,9.42963,1682.9158],[-69.73323,9.43242,1837.0676],[-69.72806,9.4318,1775.3831],[-69.72507,9.42824,1580.8805],[-69.72357,9.42304,1585.8066],[-69.72344,9.417,1412.7747],[-69.72114,9.40581,1069.4303],[-69.70688,9.39565,1000.8296],[-69.64375,9.41475,565.3511],[-69.62794,9.42653,974.9069],[-69.62686,9.43258,1042.5994],[-69.62626,9.43919,1048.7521],[-69.62665,9.44539,1117.5935],[-69.62797,9.4509,1200.7484],[-69.63006,9.45555,1271.4117],[-69.63091,9.46247,1212.749],[-69.62998,9.47146,1316.5532],[-69.61657,9.5056,1454.8435],[-69.61564,9.51056,1577.3715],[-69.61572,9.52275,1497.3043],[-69.61675,9.52833,1511.1549],[-69.62166,9.54353,1689.2911],[-69.62355,9.55564,1675.061],[-69.62523,9.56812,1445.311],[-69.61427,9.59334,1395.8174],[-69.60435,9.60577,1276.9231],[-69.59195,9.61817,1092.5457],[-69.56213,9.62065,1268.7708],[-69.53237,9.62313,1457.4255],[-69.4827,9.62809,1789.532],[-69.43056,9.63058,1326.5028],[-69.40325,9.64052,974.2367],[-69.37842,9.65789,579.8248],[-69.36602,9.67776,416.1004],[-69.36049,9.69623,434.3146],[-69.33718,9.7686,740.7133],[-69.31109,9.79281,819.546],[-69.29114,9.83162,937.4182],[-69.28465,9.83968,1034.3896],[-69.27856,9.84426,1158.8983],[-69.27238,9.84426,1183.6628],[-69.26975,9.84054,1243.8319],[-69.26685,9.80392,1167.6371],[-69.26166,9.78204,813.9226],[-69.26052,9.77072,644.3098],[-69.26158,9.76535,608.0876],[-69.26509,9.75519,639.6828],[-69.26747,9.74354,535.0364],[-69.26758,9.73734,526.5532],[-69.26398,9.72912,625.8445],[-69.25688,9.71998,488.8163],[-69.24034,9.70352,300.1055],[-69.23109,9.69646,283.1861],[-69.22321,9.69204,262.048],[-69.21218,9.68923,258.2875],[-69.17399,9.6867,216.2291],[-69.12513,9.69305,581.6259],[-69.06679,9.70995,508.8045],[-69.06206,9.71212,587.7603],[-69.05798,9.71501,505.1779],[-69.05493,9.71881,632.854],[-69.05252,9.72339,551.5264],[-69.05128,9.72897,570.1028],[-69.04852,9.73486,535.2532],[-69.04364,9.73951,615.0568],[-69.01798,9.7469,352.6715],[-69.01379,9.74953,346.5823],[-68.98118,9.78204,206.3708],[-68.9808,9.78227,213.9168],[-68.98082,9.7833,213.9168],[-68.98129,9.79297,229.7022],[-68.98121,9.80441,292.9726],[-68.97772,9.85728,231.5077],[-68.96258,9.88911,235.3762],[-68.95266,9.90345,237.277],[-68.92488,9.93076,339.3416],[-68.92447,9.93503,365.8648],[-68.92643,9.93877,320.0981],[-68.93331,9.94567,331.0304],[-68.95209,9.9826,265.4246],[-68.95881,10.00022,261.2581],[-68.97912,10.00983,262.6378],[-69.05376,9.97337,272.6745],[-69.07195,9.95815,384.5544],[-69.07307,9.95242,484.2421],[-69.07353,9.94234,355.2461],[-69.07056,9.91658,330.7025],[-69.07118,9.9088,316.8015],[-69.07343,9.89996,337.2904],[-69.07947,9.88601,348.4764],[-69.08472,9.8794,364.4804],[-69.09066,9.87575,365.9811],[-69.09782,9.87668,358.1919],[-69.10237,9.87909,356.4861],[-69.10531,9.88203,354.3937],[-69.1066,9.88493,383.3265],[-69.10901,9.89446,383.1824],[-69.11141,9.89896,378.3417],[-69.11428,9.90307,357.8132],[-69.12859,9.9165,367.9612],[-69.13472,9.92417,361.1922],[-69.13727,9.92852,361.3957],[-69.13921,9.9334,358.4977],[-69.14043,9.93883,359.4535],[-69.14092,9.94497,417.4514],[-69.13701,9.9888,317.3863],[-69.13756,9.9943,344.2794],[-69.13911,10.00029,348.0897],[-69.14151,10.00533,388.6018],[-69.14647,10.01355,374.4123],[-69.17084,10.04419,381.0536],[-69.20288,10.07445,372.3782],[-69.20851,10.08261,378.4188],[-69.21094,10.08703,378.1924],[-69.22747,10.11013,426.3211],[-69.23466,10.1252,496.209],[-69.23623,10.12977,493.425],[-69.23771,10.14243,507.8998],[-69.23755,10.14708,514.2349],[-69.23709,10.15034,521.3896],[-69.23561,10.15468,530.1],[-69.23342,10.15879,555.6001],[-69.22732,10.16615,559.6183],[-69.21957,10.17183,578.1901],[-69.19985,10.15964,583.7424],[-69.1819,10.13303,507.3583],[-69.1751,10.12791,564.9153],[-69.16681,10.12636,528.1777],[-69.16208,10.12806,546.2635],[-69.15916,10.13062,564.0087],[-69.15458,10.13669,579.6472],[-69.14443,10.147,586.2549],[-69.13828,10.15468,590.3925],[-69.13337,10.16377,690.1471],[-69.13136,10.16873,779.9164],[-69.12831,10.17966,938.9912],[-69.1264,10.19178,890.8182],[-69.12327,10.19759,1036.5258],[-69.118,10.20271,1024.0687],[-69.07622,10.22894,1313.1288],[-69.06655,10.2318,1350.6108],[-69.05503,10.23227,1329.2073],[-69.048,10.23157,1327.3877],[-69.04201,10.22909,1307.3887],[-69.03767,10.23111,1227.584],[-69.03513,10.23367,1167.2729],[-69.02914,10.24204,1301.9294],[-69.01498,10.24842,1490.8206],[-69.01325,10.2609,1331.2092],[-69.0134,10.29457,1070.7556],[-69.0287,10.34399,696.9611],[-69.03157,10.35717,544.2974],[-69.03273,10.36735,501.4942],[-69.0257,10.41683,472.9964],[-69.02718,10.42306,508.3451],[-69.02979,10.426,590.7086],[-69.03405,10.42492,650.8553],[-69.04749,10.41823,729.3915],[-69.05363,10.41776,737.2542],[-69.06056,10.41926,909.4304],[-69.06841,10.42461,667.9645],[-69.07146,10.43042,800.016],[-69.07208,10.43794,829.8462],[-69.07022,10.46145,818.5629],[-69.06686,10.46882,733.251],[-69.05291,10.47347,659.7767],[-69.04857,10.47768,712.699],[-69.04614,10.48318,726.3412],[-69.04361,10.49993,545.8911],[-69.03172,10.53796,718.7161],[-69.02591,10.5485,769.8751],[-69.0201,10.55478,704.671],[-69.01005,10.55827,739.3493],[-69.00519,10.55938,736.3074],[-69.00082,10.5593,720.7953],[-68.9972,10.55874,748.3245],[-68.97638,10.553,742.8497],[-68.96439,10.55688,675.2202],[-68.94827,10.56504,546.4524],[-68.90114,10.59801,305.4007],[-68.89246,10.60615,173.7443],[-68.88817,10.61571,187.9283],[-68.88656,10.62121,194.4992],[-68.88463,10.64643,137.7808],[-68.88551,10.65953,133.9503],[-68.89928,10.68273,91.7377],[-68.9046,10.68669,93.6653],[-68.90972,10.69141,87.5879],[-68.92411,10.69733,79.6936],[-68.9585,10.69764,73.28],[-68.98142,10.69343,94.7616],[-69.01736,10.69374,78.4853],[-69.02842,10.69614,85.7947],[-69.03457,10.6956,81.5024],[-69.05829,10.68614,77.4932],[-69.08425,10.68049,88.1435],[-69.12627,10.68126,100.5021],[-69.2343,10.69857,129.4994],[-69.24249,10.69826,129.3849],[-69.26029,10.69459,135.579],[-69.26716,10.69498,164.3908],[-69.2729,10.69661,147.1871],[-69.27791,10.69857,140.2159],[-69.28357,10.70004,126.9011],[-69.42609,10.7119,331.186],[-69.43206,10.71082,346.5569],[-69.44364,10.70671,259.1083],[-69.48875,10.69514,301.6821],[-69.49859,10.69514,203.8603]]]}}