{"type": "Feature","bbox": [-62.1529,5.8015,-60.1462,7.9901],"geometry": {"type": "MultiPolygon","coordinates": [[[[-60.1462,7.989,31.9634],[-60.1614,7.9901,47.1173],[-60.1891,7.988,55.6624],[-60.2122,7.9806,65.4155],[-60.2343,7.9664,58.1215],[-60.25,7.9591,76.7631],[-60.3157,7.9477,112.8142],[-60.3501,7.9483,114.2716],[-60.3647,7.9465,117.6692],[-60.4373,7.9149,81.8277],[-60.4692,7.9184,82.9274],[-60.5063,7.9187,101.7017],[-60.5356,7.924,142.0904],[-60.5789,7.8891,87.9488],[-60.6092,7.8543,155.9993],[-60.6275,7.8402,104.2085],[-60.6528,7.8256,104.8462],[-60.6654,7.811,109.197],[-60.6834,7.7838,110.9038],[-60.6906,7.7706,97.7998],[-60.703,7.7357,152.0642],[-60.7103,7.7256,245.6682],[-60.7355,7.703,155.6829],[-60.7454,7.6914,146.0175],[-60.7578,7.6718,144.4342],[-60.7654,7.6665,131.4572],[-60.7743,7.6637,128.7832],[-60.7827,7.6626,145.1815],[-60.7889,7.6638,145.9335],[-60.7942,7.6674,146.6457],[-60.7966,7.6721,143.8899],[-60.8297,7.6539,142.0641],[-60.8431,7.6515,148.9659],[-60.8549,7.6549,163.9426],[-60.8766,7.6656,156.8984],[-60.8885,7.6735,191.5249],[-60.9049,7.6858,169.2599],[-60.9324,7.713,149.325],[-60.9562,7.7275,136.1977],[-60.9707,7.7405,146.3158],[-61.0336,7.7833,145.124],[-61.0552,7.7952,152.4472],[-61.0784,7.8007,152.5815],[-61.1133,7.7987,154.1273],[-61.138,7.7953,187.1513],[-61.1561,7.7911,165.3041],[-61.1901,7.7768,169.2227],[-61.2413,7.7516,214.7224],[-61.2623,7.7376,197.8],[-61.2829,7.7161,175.0081],[-61.3093,7.6759,179.8392],[-61.3157,7.6613,183.2304],[-61.3192,7.6361,189.9112],[-61.3242,7.6213,203.0367],[-61.3321,7.6119,236.1461],[-61.3418,7.6083,214.3088],[-61.3424,7.615,214.1821],[-61.3514,7.6015,226.5288],[-61.3785,7.5736,227.475],[-61.3883,7.56,203.0458],[-61.4075,7.5406,203.1785],[-61.4301,7.5144,195.0807],[-61.4467,7.4879,217.1853],[-61.4516,7.4765,190.4626],[-61.455,7.4613,189.7132],[-61.4558,7.4394,170.6409],[-61.46,7.4184,170.8141],[-61.4596,7.4023,168.293],[-61.4513,7.3391,151.1068],[-61.4454,7.3134,151.3101],[-61.4426,7.2276,157.8717],[-61.4437,7.2186,163.9235],[-61.4474,7.207,174.6561],[-61.4597,7.1868,172.9982],[-61.4904,7.146,177.6398],[-61.4918,7.1351,179.1237],[-61.4896,7.1227,187.7083],[-61.4781,7.0913,191.5168],[-61.4688,7.0532,180.5925],[-61.4564,7.0356,168.227],[-61.4401,7.0061,152.7037],[-61.4369,6.9923,192.0357],[-61.436,6.9763,175.6631],[-61.434,6.9283,163.3436],[-61.4411,6.8945,156.0638],[-61.4389,6.8626,158.3446],[-61.438,6.8114,122.1149],[-61.4413,6.7979,128.9974],[-61.447,6.7862,146.2721],[-61.4671,6.7568,129.7129],[-61.4719,6.7412,141.9698],[-61.476,6.7348,145.5169],[-61.4799,6.7238,134.9715],[-61.4799,6.7159,156.7451],[-61.4758,6.7093,143.3017],[-61.4728,6.6908,149.4891],[-61.4751,6.6823,151.7119],[-61.4813,6.6729,140.6718],[-61.4824,6.6604,160.5742],[-61.4696,6.6452,153.8916],[-61.466,6.6374,155.33],[-61.4639,6.6235,169.6975],[-61.4645,6.6146,176.8727],[-61.4671,6.6069,159.1958],[-61.4969,6.5708,168.8929],[-61.51,6.5607,171.2968],[-61.5254,6.5435,162.9004],[-61.5323,6.5424,177.1604],[-61.5379,6.5469,162.5998],[-61.5398,6.5523,147.6847],[-61.5434,6.5806,160.4553],[-61.5472,6.5908,159.8849],[-61.5517,6.5944,156.429],[-61.5734,6.597,150.4254],[-61.5814,6.6017,159.9203],[-61.5842,6.6073,177.7983],[-61.5807,6.6291,160.8393],[-61.5829,6.6336,151.5622],[-61.5928,6.6371,142.8866],[-61.5992,6.6365,152.348],[-61.611,6.6304,152.2863],[-61.6147,6.6248,178.8686],[-61.6216,6.6054,145.6703],[-61.6309,6.5887,147.7079],[-61.6497,6.5663,142.7821],[-61.6797,6.5373,142.5963],[-61.7177,6.5046,118.4363],[-61.7325,6.4942,142.936],[-61.7463,6.4868,135.6108],[-61.7783,6.4623,147.5188],[-61.8154,6.4222,141.3414],[-61.8333,6.4055,169.0335],[-61.8419,6.4015,333.8838],[-61.8779,6.3914,172.3182],[-61.8866,6.3859,168.9769],[-61.8962,6.3772,182.1833],[-61.9473,6.3128,549.2894],[-61.973,6.2924,211.3819],[-61.9811,6.281,156.0149],[-61.9967,6.2486,144.7015],[-62.0034,6.2391,146.6858],[-62.0192,6.2256,145.3355],[-62.0264,6.2165,151.3932],[-62.0326,6.2009,143.3651],[-62.0336,6.1938,150.9559],[-62.0311,6.1792,160.3215],[-62.0314,6.1721,148.7311],[-62.035,6.1627,158.3049],[-62.0565,6.141,154.1951],[-62.0665,6.1344,188.3008],[-62.0876,6.1249,802.2361],[-62.1229,6.1005,821.1427],[-62.1388,6.086,503.9739],[-62.1529,6.0666,514.2913],[-62.1187,6.0599,500.4891],[-62.0854,6.0449,506.8605],[-62.0776,6.0435,534.1504],[-62.0392,6.0441,702.0642],[-62.0223,6.0365,695.1451],[-62.0108,6.0287,556.7474],[-62.0015,6.0216,827.1394],[-61.9867,6.004,931.92],[-61.9641,5.9898,889.9563],[-61.9609,5.9851,866.5269],[-61.961,5.9781,940.8947],[-61.9771,5.9547,1082.9958],[-61.986,5.9355,1005.7593],[-61.9994,5.9205,954.4238],[-62.0032,5.9101,1131.6226],[-62.007,5.8848,2024.2795],[-62.0104,5.8733,2144.3994],[-62.0148,5.8673,2053.5579],[-62.0318,5.8516,1263.4106],[-62.0266,5.8528,1336.4464],[-61.9988,5.852,1600.144],[-61.968,5.8604,1125.2573],[-61.9456,5.8587,994.9178],[-61.9172,5.8669,865.882],[-61.9085,5.8679,909.3516],[-61.9011,5.8674,885.5138],[-61.8764,5.8598,900.9608],[-61.8684,5.8598,881.8014],[-61.8497,5.8648,874.3249],[-61.8266,5.8651,943.4856],[-61.8212,5.8632,939.1974],[-61.8089,5.8504,1005.4142],[-61.7999,5.8456,1186.9214],[-61.7802,5.8436,933.1258],[-61.7532,5.8463,905.048],[-61.7404,5.8436,962.5975],[-61.7335,5.8407,976.9863],[-61.7175,5.8278,927.1049],[-61.7098,5.8247,936.3386],[-61.6869,5.8231,1021.3013],[-61.6783,5.8209,1061.8918],[-61.6508,5.8057,1504.7263],[-61.6324,5.8048,1464.5051],[-61.6268,5.8015,1481.4177],[-61.6112,5.8043,1462.0095],[-61.6049,5.8068,1472.699],[-61.5664,5.837,1411.283],[-61.548,5.8537,1385.339],[-61.5398,5.8584,1383.1636],[-61.5095,5.865,1398.465],[-61.4593,5.8821,1399.4922],[-61.4533,5.8829,1400.8473],[-61.4409,5.8806,1408.2529],[-61.429,5.8707,1358.5374],[-61.4264,5.8565,1359.1292],[-61.4144,5.8915,1382.8917],[-61.4199,5.8916,1363.9219],[-61.3928,5.9497,1468.2719],[-61.3869,5.9485,1318.6874],[-61.3781,5.97,1051.5039],[-61.3621,5.9756,892.045],[-61.3507,5.9755,790.1787],[-61.347,5.978,807.7827],[-61.3456,5.9862,725.8422],[-61.3439,5.9884,713.9143],[-61.3397,5.9892,685.5483],[-61.3247,5.999,709.0992],[-61.3293,6.0058,665.65],[-61.3274,6.0147,514.3389],[-61.3209,6.0218,463.9994],[-61.3194,6.0265,442.0345],[-61.3125,6.0285,431.432],[-61.3087,6.0426,401.3035],[-61.3061,6.0432,387.0774],[-61.304,6.0467,401.1273],[-61.3058,6.0488,372.6435],[-61.3048,6.0526,311.7962],[-61.2958,6.0536,346.1124],[-61.2943,6.0551,349.5775],[-61.2966,6.0578,342.0605],[-61.2964,6.0606,338.7126],[-61.2917,6.0634,359.7791],[-61.2901,6.0678,349.4009],[-61.2837,6.07,358.45119999999997],[-61.2869,6.0734,337.1601],[-61.2853,6.0727,314.9846],[-61.2802,6.0771,326.4181],[-61.2776,6.0775,352.5217],[-61.2789,6.0798,325.6671],[-61.2721,6.0833,370.8428],[-61.2709,6.0883,354.207],[-61.272,6.094,337.8695],[-61.2684,6.0923,348.037],[-61.2664,6.0942,336.2977],[-61.2666,6.1033,307.4596],[-61.2654,6.1057,309.059],[-61.2625,6.1063,311.5037],[-61.262,6.1096,309.8876],[-61.2577,6.1093,307.4479],[-61.2578,6.1109,306.126],[-61.2546,6.1102,306.2606],[-61.2514,6.1124,307.1418],[-61.2451,6.1075,329.6835],[-61.244,6.1082,329.6835],[-61.2432,6.1062,331.8511],[-61.2375,6.1063,334.6913],[-61.2369,6.1096,328.4827],[-61.2358,6.1084,331.1311],[-61.2355,6.1108,323.7353],[-61.2308,6.1163,357.8265],[-61.2308,6.1206,317.1682],[-61.2291,6.1229,311.0726],[-61.2263,6.1234,322.4933],[-61.2273,6.125,305.5035],[-61.2255,6.1239,309.5574],[-61.2257,6.1226,322.4933],[-61.2226,6.1217,303.2776],[-61.2213,6.1238,346.9574],[-61.2177,6.1232,352.519],[-61.2154,6.1165,314.184],[-61.2095,6.11,325.2365],[-61.2096,6.1138,321.5348],[-61.2037,6.1115,314.4751],[-61.2011,6.1151,321.1853],[-61.2031,6.117,307.5768],[-61.1976,6.1261,368.3526],[-61.1986,6.1322,310.6091],[-61.1954,6.1301,365.3535],[-61.1925,6.1319,311.9247],[-61.1909,6.1308,313.1836],[-61.1846,6.132,329.1077],[-61.1881,6.1392,306.4182],[-61.186,6.14,303.676],[-61.1861,6.1417,307.7213],[-61.182,6.1429,317.6207],[-61.1795,6.1478,380.7314],[-61.181,6.1493,331.0791],[-61.1803,6.1529,326.6698],[-61.1786,6.1542,381.7068],[-61.1793,6.1588,325.4291],[-61.182,6.1595,294.8905],[-61.1815,6.1617,307.3935],[-61.1833,6.161,306.0214],[-61.1857,6.1657,306.6925],[-61.1844,6.1697,299.7369],[-61.1856,6.1705,298.8387],[-61.1834,6.1734,300.8214],[-61.1835,6.1782,303.2361],[-61.1801,6.1782,305.4431],[-61.1763,6.1867,294.7438],[-61.1721,6.1866,281.0536],[-61.1687,6.181,337.4998],[-61.1663,6.1849,282.9269],[-61.1639,6.1839,282.5269],[-61.1626,6.185,302.0272],[-61.1593,6.1819,300.2094],[-61.1545,6.183,296.7261],[-61.1501,6.1811,288.2569],[-61.1412,6.1805,301.5903],[-61.1346,6.1772,278.4738],[-61.13,6.1813,293.774],[-61.1318,6.1853,302.668],[-61.1306,6.1899,302.2952],[-61.1254,6.1888,309.1158],[-61.122,6.1935,303.2802],[-61.1213,6.1962,293.6938],[-61.1265,6.1961,275.7563],[-61.1295,6.2016,279.1614],[-61.1243,6.2083,302.0003],[-61.1271,6.2092,286.4446],[-61.1275,6.2062,273.3904],[-61.1313,6.2056,272.4796],[-61.1318,6.2101,294.7273],[-61.137,6.2116,271.7245],[-61.1402,6.2168,301.2708],[-61.139,6.2215,258.9822],[-61.1361,6.2229,297.9772],[-61.1354,6.2291,264.5051],[-61.131,6.2322,309.1817],[-61.1339,6.2401,295.642],[-61.1311,6.2534,291.7838],[-61.1324,6.2549,260.7698],[-61.1308,6.2584,291.3797],[-61.1275,6.2582,274.1738],[-61.1251,6.2615,279.1622],[-61.1248,6.2658,306.9285],[-61.1199,6.2662,287.2941],[-61.1124,6.2743,315.9176],[-61.1196,6.2787,294.0976],[-61.121,6.2758,253.7977],[-61.122,6.2769,253.7977],[-61.1284,6.2748,280.7018],[-61.1356,6.2747,254.524],[-61.1366,6.2791,269.7294],[-61.1383,6.2777,257.0766],[-61.1408,6.2796,257.4157],[-61.1414,6.2872,222.9567],[-61.1391,6.2908,350.4095],[-61.1413,6.2904,310.3961],[-61.1465,6.2953,212.5342],[-61.1549,6.2917,226.7276],[-61.1597,6.2975,180.0372],[-61.1599,6.3018,232.5002],[-61.1635,6.302,163.5584],[-61.1631,6.3073,245.3787],[-61.1658,6.3115,173.006],[-61.1656,6.3144,169.6677],[-61.1638,6.3153,208.5333],[-61.1666,6.3202,227.5489],[-61.1737,6.33,138.5058],[-61.1828,6.3334,119.5495],[-61.1818,6.3361,130.6252],[-61.1745,6.3365,122.0424],[-61.1773,6.3428,121.0283],[-61.1765,6.3443,125.5109],[-61.1741,6.3437,121.1452],[-61.1709,6.3387,124.8736],[-61.1704,6.3412,140.2474],[-61.1726,6.3454,131.6805],[-61.1677,6.3507,131.762],[-61.1676,6.3555,150.9969],[-61.1631,6.3577,137.8822],[-61.1628,6.3637,131.0006],[-61.1575,6.3699,145.445],[-61.1646,6.3771,128.8714],[-61.167,6.3828,147.6912],[-61.164,6.3852,145.636],[-61.1616,6.381,133.8976],[-61.1597,6.3805,130.5545],[-61.1591,6.3824,129.3471],[-61.161,6.3863,123.6665],[-61.1565,6.3888,119.8211],[-61.1594,6.3913,115.455],[-61.1644,6.3887,128.5396],[-61.1668,6.3921,126.6252],[-61.1669,6.3953,116.4437],[-61.165,6.3982,130.0193],[-61.1586,6.3953,118.4072],[-61.1593,6.3922,122.8251],[-61.1567,6.3936,125.4084],[-61.1577,6.3967,121.9172],[-61.1556,6.402,123.5416],[-61.1573,6.4107,126.1684],[-61.1538,6.4144,121.5132],[-61.1574,6.4181,142.6999],[-61.1533,6.4192,139.8625],[-61.1489,6.4149,113.2293],[-61.1452,6.421,136.9069],[-61.1484,6.4229,130.6692],[-61.1491,6.4268,119.6358],[-61.1424,6.4326,139.5186],[-61.1506,6.4331,128.0903],[-61.1547,6.4408,122.9965],[-61.1526,6.4448,129.7171],[-61.1534,6.4499,122.9448],[-61.148,6.4488,141.9684],[-61.1472,6.4512,142.5917],[-61.1482,6.4525,137.66],[-61.1532,6.4518,128.4092],[-61.1563,6.4556,132.7675],[-61.1565,6.457,132.7675],[-61.151,6.4613,128.6656],[-61.1521,6.4679,142.4321],[-61.1558,6.4672,132.74],[-61.1584,6.461,121.7645],[-61.1643,6.4605,119.8565],[-61.1689,6.4652,129.0739],[-61.1758,6.4683,135.8153],[-61.1774,6.4742,140.5718],[-61.182,6.4754,124.93],[-61.1809,6.4796,133.4423],[-61.1749,6.4841,155.5155],[-61.1815,6.4843,112.413],[-61.1851,6.4861,115.2536],[-61.1818,6.4931,146.1084],[-61.1736,6.4962,131.7853],[-61.1681,6.5049,138.3483],[-61.1683,6.5077,141.2251],[-61.1729,6.5102,134.7661],[-61.1692,6.5212,143.7375],[-61.1792,6.5253,136.9767],[-61.177,6.5314,173.9473],[-61.1787,6.5333,177.0914],[-61.1868,6.5286,134.9122],[-61.1942,6.53,136.0133],[-61.1921,6.5362,142.5424],[-61.1931,6.5401,142.5194],[-61.2009,6.5391,134.2927],[-61.204,6.536,124.3788],[-61.2018,6.5244,144.0379],[-61.2085,6.5331,137.4583],[-61.2111,6.5331,139.936],[-61.2119,6.529,115.5592],[-61.2188,6.5293,126.2395],[-61.217,6.5413,136.8991],[-61.2055,6.5403,145.7146],[-61.2057,6.5441,152.0958],[-61.2094,6.5446,138.0914],[-61.2057,6.5508,202.172],[-61.2113,6.5566,143.9924],[-61.22,6.5563,138.0921],[-61.2161,6.562,149.1449],[-61.2157,6.5691,142.5493],[-61.2178,6.5713,137.7968],[-61.2229,6.5711,133.3876],[-61.228,6.5731,136.1709],[-61.2248,6.5784,148.0315],[-61.2208,6.5748,137.1547],[-61.2162,6.5775,143.1083],[-61.2189,6.5865,135.5811],[-61.2176,6.5906,135.5326],[-61.219,6.5941,137.023],[-61.2122,6.5954,136.1371],[-61.2083,6.5924,117.8419],[-61.2083,6.5904,160.631],[-61.2025,6.5961,147.785],[-61.2033,6.6001,128.6956],[-61.1973,6.6102,133.394],[-61.1989,6.6131,126.4033],[-61.1957,6.6153,179.1498],[-61.196,6.6275,133.2765],[-61.1913,6.6295,136.2828],[-61.1873,6.6281,127.861],[-61.1838,6.6323,125.3516],[-61.177,6.633,133.8728],[-61.1763,6.6359,135.5556],[-61.1788,6.6375,121.9788],[-61.1773,6.6426,130.5491],[-61.184,6.6485,127.099],[-61.1849,6.6553,116.0993],[-61.179,6.6591,147.3227],[-61.1797,6.6655,141.892],[-61.1775,6.6734,119.2186],[-61.1728,6.6789,131.6266],[-61.1691,6.677,115.4676],[-61.1667,6.6776,107.5625],[-61.1629,6.6832,135.8122],[-61.1569,6.6811,127.2895],[-61.1543,6.686,129.7878],[-61.1593,6.6912,118.4222],[-61.1596,6.6936,119.9788],[-61.1553,6.6916,129.5657],[-61.146,6.6907,114.8408],[-61.1426,6.6956,130.4617],[-61.1461,6.6989,140.4561],[-61.1456,6.7075,123.482],[-61.1432,6.7129,115.7164],[-61.1389,6.7174,119.3441],[-61.1321,6.7238,114.6579],[-61.1293,6.7246,116.9327],[-61.1049,6.7165,98.0593],[-61.0992,6.7182,103.6857],[-61.0889,6.7052,99.2568],[-61.0841,6.704,94.9575],[-61.0789,6.706,117.223],[-61.0759,6.7121,118.8709],[-61.0737,6.7261,117.5543],[-61.0702,6.73,126.9961],[-61.0546,6.7209,93.0],[-61.0472,6.7189,93.0],[-61.0415,6.7197,116.1215],[-61.035,6.7164,106.2051],[-61.0164,6.7181,124.615],[-61.0112,6.7209,124.7768],[-61.0058,6.7273,122.3961],[-61.0005,6.7299,93.0],[-60.9952,6.7291,114.768],[-60.9868,6.72,94.9065],[-60.9795,6.7172,121.8401],[-60.9631,6.7167,105.7537],[-60.9337,6.7215,269.2752],[-60.9289,6.7272,324.2106],[-60.9272,6.738,118.8872],[-60.9246,6.743,102.827],[-60.9197,6.7482,121.7309],[-60.8966,6.7559,119.8129],[-60.8915,6.761,131.8597],[-60.8931,6.7669,127.6739],[-60.8983,6.7705,125.0534],[-60.9164,6.7965,124.5259],[-60.914,6.8107,119.9025],[-60.9088,6.8178,117.0789],[-60.9018,6.822,124.6458],[-60.8921,6.8195,120.4108],[-60.8849,6.8211,124.4778],[-60.8725,6.816,123.094],[-60.8634,6.8055,115.214],[-60.8482,6.7963,120.9487],[-60.8471,6.7946,117.9453],[-60.8494,6.7839,115.2663],[-60.8476,6.7832,114.314],[-60.8424,6.7826,114.0131],[-60.8321,6.7869,95.4035],[-60.8193,6.7973,122.5439],[-60.8116,6.7973,117.3461],[-60.7888,6.7831,117.9505],[-60.7737,6.7769,109.0689],[-60.7662,6.7706,90.0],[-60.75,6.7621,90.0],[-60.7355,6.7584,90.0],[-60.7206,6.7479,120.4717],[-60.7111,6.7491,123.6685],[-60.6938,6.7565,124.7003],[-60.6816,6.767,119.5607],[-60.678,6.777,126.3141],[-60.6764,6.7894,122.9555],[-60.6729,6.7972,122.1331],[-60.6662,6.8054,128.0098],[-60.6518,6.818,117.699],[-60.6437,6.8215,122.5494],[-60.6239,6.8359,100.0301],[-60.6092,6.8441,99.2192],[-60.5809,6.8467,92.0049],[-60.5717,6.8504,91.2231],[-60.5537,6.853,92.3389],[-60.5458,6.8566,106.5175],[-60.5386,6.8673,88.0],[-60.5338,6.8786,88.0],[-60.5273,6.8802,88.0],[-60.5087,6.8796,88.0],[-60.4997,6.8822,88.0],[-60.4895,6.8909,88.0],[-60.4729,6.9128,100.6987],[-60.4685,6.9138,99.4083],[-60.4649,6.9169,94.1476],[-60.4594,6.9228,145.3794],[-60.4569,6.9282,88.1322],[-60.446,6.932,96.2346],[-60.4435,6.9369,88.7786],[-60.4371,6.939,113.9925],[-60.4315,6.9383,85.0],[-60.4271,6.941,100.8237],[-60.4207,6.9408,85.0],[-60.4176,6.9433,95.7204],[-60.3979,6.9476,95.3054],[-60.3945,6.9455,112.6021],[-60.3846,6.9334,84.5],[-60.3743,6.9337,118.7585],[-60.374,6.9441,117.6511],[-60.3704,6.9506,117.7535],[-60.3709,6.9611,126.5447],[-60.3673,6.9639,124.598],[-60.3668,6.9672,122.9155],[-60.3638,6.9709,122.4915],[-60.3634,6.9755,123.5369],[-60.3656,6.9826,123.5453],[-60.3628,6.9875,129.9026],[-60.3653,6.9903,124.2598],[-60.3655,6.9944,122.3195],[-60.3631,6.9955,123.698],[-60.3627,6.9977,129.4131],[-60.3637,7.0023,132.8599],[-60.3598,7.0067,126.4714],[-60.3502,7.0127,127.6024],[-60.3508,7.0147,124.6027],[-60.3538,7.016,124.5327],[-60.3523,7.0182,126.8102],[-60.3471,7.0197,127.4754],[-60.3444,7.0265,131.3352],[-60.3455,7.0315,127.3245],[-60.3433,7.0329,127.4581],[-60.3428,7.0356,123.4995],[-60.3475,7.051,129.7479],[-60.347,7.0577,126.6279],[-60.3507,7.059,131.3451],[-60.3501,7.0669,129.1599],[-60.3423,7.0834,133.8612],[-60.3449,7.0898,131.3948],[-60.3535,7.0915,139.7312],[-60.3596,7.0972,138.6781],[-60.3542,7.1384,215.1534],[-60.3583,7.1577,165.3947],[-60.3652,7.1712,225.5115],[-60.3827,7.1833,201.7339],[-60.4087,7.1814,166.2602],[-60.4193,7.1833,177.8952],[-60.4228,7.1856,175.2032],[-60.4286,7.2017,155.5139],[-60.4337,7.2043,150.2517],[-60.4424,7.2042,159.1534],[-60.461,7.198,145.5693],[-60.4766,7.1992,143.4931],[-60.4862,7.194,146.3262],[-60.4992,7.1913,176.925],[-60.5166,7.1793,153.0914],[-60.5219,7.1726,158.1812],[-60.5345,7.1405,156.7021],[-60.5379,7.139,175.8652],[-60.548,7.1407,232.1684],[-60.5516,7.1493,203.5053],[-60.5582,7.1584,290.492],[-60.5688,7.1647,199.9285],[-60.5713,7.1679,208.1478],[-60.5733,7.1719,265.287],[-60.574,7.183,180.9233],[-60.5762,7.1874,178.2411],[-60.5819,7.1914,176.6754],[-60.5928,7.1922,222.0662],[-60.5965,7.1946,235.4201],[-60.6047,7.2085,304.9019],[-60.6111,7.2109,335.632],[-60.6155,7.2206,243.0308],[-60.618,7.2232,248.2788],[-60.6238,7.2244,332.5415],[-60.6286,7.2292,378.51],[-60.6317,7.2414,290.5104],[-60.637,7.2524,316.5302],[-60.6327,7.27,300.4901],[-60.6302,7.2754,290.5002],[-60.6268,7.278,261.2412],[-60.6164,7.2804,402.1058],[-60.6143,7.2822,370.2684],[-60.6128,7.2864,348.2294],[-60.614,7.302,295.6582],[-60.6125,7.3046,315.1879],[-60.5944,7.3159,283.5609],[-60.5886,7.3234,306.933],[-60.594,7.3498,228.1382],[-60.598,7.3577,206.8507],[-60.6039,7.363,239.6907],[-60.6053,7.3663,262.3505],[-60.6062,7.3781,283.2069],[-60.6087,7.3848,191.8394],[-60.6119,7.3896,228.4552],[-60.6205,7.3936,187.088],[-60.6227,7.3963,227.9939],[-60.6237,7.4018,332.8405],[-60.6219,7.4048,253.7813],[-60.6239,7.4091,256.0559],[-60.6305,7.4125,248.0485],[-60.6421,7.422,356.5607],[-60.6414,7.4299,388.3813],[-60.6361,7.4366,347.4356],[-60.6393,7.4474,409.8958],[-60.6379,7.4683,163.9744],[-60.6424,7.4795,149.4606],[-60.6438,7.493,134.3343],[-60.6421,7.4978,126.0736],[-60.6394,7.497,121.7273],[-60.638,7.5,117.4481],[-60.6406,7.5016,131.2635],[-60.6394,7.5065,131.793],[-60.6331,7.5106,153.7834],[-60.6265,7.5227,142.4606],[-60.629,7.5293,130.4662],[-60.6274,7.5335,128.0827],[-60.6307,7.5371,131.8459],[-60.626,7.5446,144.3122],[-60.6299,7.5528,166.4949],[-60.63,7.5634,204.6378],[-60.6281,7.5671,178.9344],[-60.6376,7.5814,217.1355],[-60.6391,7.5876,216.7043],[-60.6381,7.6014,183.0065],[-60.636,7.6046,157.3106],[-60.6248,7.6099,157.9233],[-60.6243,7.6143,140.2254],[-60.62,7.6208,139.4084],[-60.6251,7.6269,165.22],[-60.6246,7.6345,167.3451],[-60.6173,7.6457,133.9503],[-60.6133,7.6469,141.2225],[-60.602,7.6456,130.3253],[-60.5933,7.637,131.1658],[-60.5885,7.6375,136.9435],[-60.5906,7.6457,132.7385],[-60.589,7.6687,113.7824],[-60.5921,7.6749,122.952],[-60.5918,7.6778,113.1829],[-60.5891,7.681,113.0209],[-60.5828,7.6825,125.6516],[-60.5784,7.6989,114.2883],[-60.5687,7.7063,126.8961],[-60.5715,7.7181,121.6726],[-60.5775,7.7303,116.1363],[-60.5756,7.7441,113.4818],[-60.5663,7.7469,130.929],[-60.566,7.7517,125.3599],[-60.5629,7.7565,119.5991],[-60.5654,7.7615,119.6415],[-60.5647,7.7662,112.9132],[-60.5492,7.7807,120.4238],[-60.5475,7.7856,125.6701],[-60.5324,7.7975,127.8998],[-60.5317,7.8011,111.3869],[-60.5337,7.807,108.6894],[-60.5277,7.8174,124.2481],[-60.5304,7.8214,142.9588],[-60.5285,7.825,117.9014],[-60.5195,7.8261,122.7296],[-60.5154,7.8325,112.277],[-60.5072,7.8344,105.2594],[-60.5026,7.8411,104.7429],[-60.4949,7.836,105.5477],[-60.4852,7.8332,137.6448],[-60.4721,7.842,115.1233],[-60.4655,7.8421,124.0609],[-60.4566,7.8387,119.1433],[-60.4492,7.8401,155.5238],[-60.4451,7.8444,113.1813],[-60.4367,7.8396,154.8373],[-60.4328,7.8323,168.4478],[-60.4224,7.8329,124.2152],[-60.4193,7.8286,124.1505],[-60.4156,7.8301,132.7558],[-60.4032,7.8269,122.7003],[-60.3952,7.8318,186.3886],[-60.3877,7.8324,135.1444],[-60.3809,7.8353,149.742],[-60.3774,7.8423,142.8099],[-60.3725,7.8434,167.5933],[-60.3675,7.8407,131.5749],[-60.3688,7.8368,120.0342],[-60.3671,7.8318,116.7252],[-60.3624,7.831,116.34],[-60.3603,7.8285,115.9494],[-60.3577,7.8289,101.8487],[-60.3555,7.8316,111.92],[-60.3468,7.8348,103.0342],[-60.3464,7.8369,96.7006],[-60.342,7.8407,109.5693],[-60.3323,7.8453,90.5664],[-60.329,7.8539,92.7113],[-60.3198,7.8582,92.8175],[-60.3104,7.874,87.6549],[-60.2996,7.8756,83.427],[-60.2923,7.88,75.3705],[-60.2921,7.8827,82.6765],[-60.2872,7.8828,73.2838],[-60.285,7.887,78.2747],[-60.2821,7.8858,66.3056],[-60.2769,7.8886,78.1399],[-60.2727,7.8965,80.2691],[-60.2686,7.9001,76.6825],[-60.2624,7.9016,70.0758],[-60.2618,7.9068,73.5571],[-60.2586,7.9061,66.0548],[-60.2518,7.9189,77.2915],[-60.248,7.9176,67.7075],[-60.2467,7.9152,57.033],[-60.2447,7.916,54.1252],[-60.2429,7.919,69.7731],[-60.24,7.934,68.088],[-60.238,7.936,71.4776],[-60.2315,7.9367,65.3791],[-60.2272,7.9392,63.9318],[-60.2275,7.9413,60.0879],[-60.2322,7.9436,60.1426],[-60.233,7.9465,53.636],[-60.2169,7.9605,63.1982],[-60.2134,7.962,47.0198],[-60.2041,7.9609,79.0986],[-60.1976,7.9626,51.3124],[-60.1916,7.9688,53.9576],[-60.1871,7.9653,30.4326],[-60.1703,7.976,52.2687],[-60.1633,7.9765,44.3905],[-60.1605,7.9828,34.259],[-60.1462,7.989,31.9634]]]]}
,"properties": {"GID_2": "VEN.6.10_1","GID_0": "VEN","country": "Venezuela","GID_1": "VEN.6_1","province": "Bolívar","NL_NAME_1": "NA","county": "Sifontes","VARNAME_2": "NA","NL_NAME_2": "NA","TYPE_2": "Municipio","ENGTYPE_2": "Municipality","CC_2": "NA","HASC_2": "NA","name": "Sifontes.county","area_km2": 18189.98,"hist_schema_id": "Elevation0-9000","hist_area_km2": {"25": 1.26,"50": 14.72,"75": 62.39,"100": 319.58,"125": 2492.08,"150": 5624.94,"175": 4537.84,"200": 1680.16,"225": 419.07,"250": 176.56,"275": 128.2,"300": 134.09,"325": 175.03,"350": 148.25,"375": 108.17,"400": 91.99,"425": 75.31,"450": 72.17,"475": 52.55,"500": 50.25,"525": 45.57,"550": 37.54,"575": 36.62,"600": 35.1,"625": 26.25,"650": 28.57,"675": 25.64,"700": 21.15,"725": 22.07,"750": 30.64,"775": 35.65,"800": 41.24,"825": 41.83,"850": 94.07,"875": 119.1,"900": 132.95,"925": 133.96,"950": 128.27,"975": 74.33,"1000": 58.86,"1025": 47.28,"1050": 42.64,"1075": 37.3,"1100": 32.18,"1125": 29.1,"1150": 22.94,"1175": 18.64,"1200": 16.49,"1225": 15.35,"1250": 15.29,"1275": 14.47,"1300": 12.65,"1325": 12.25,"1350": 13.35,"1375": 21.45,"1400": 50.83,"1425": 59.73,"1450": 61.16,"1475": 46.21,"1500": 20.96,"1525": 14.15,"1550": 10.29,"1575": 6.52,"1600": 5.25,"1625": 4.09,"1650": 3.99,"1675": 2.76,"1700": 3.14,"1725": 2.09,"1750": 2.26,"1775": 1.52,"1800": 0.51,"1825": 0.36,"1850": 0.32,"1875": 0.49,"1900": 0.46,"1925": 0.46,"1950": 0.42,"1975": 0.4,"2000": 0.38,"2025": 0.61,"2050": 0.65,"2075": 0.46,"2100": 0.55,"2125": 0.61,"2150": 0.74,"2175": 0.57,"2200": 0.65,"2225": 0.82,"2250": 0.15}}}