{"type":"Feature","properties":{"GID_2":"VEN.20.7_1","GID_0":"VEN","country":"Venezuela","GID_1":"VEN.20_1","province":"Sucre","NL_NAME_1":"NA","county":"Cajigal","VARNAME_2":"NA","NL_NAME_2":"NA","TYPE_2":"Municipio","ENGTYPE_2":"Municipality","CC_2":"NA","HASC_2":"NA","name":"Cajigal.county"},
"geometry":{"type": "MultiPolygon","coordinates": [[[[-62.9127,10.5868,27.9566],[-62.913,10.5712,10.8189],[-62.9092,10.5643,5.7352],[-62.9012,10.5585,1.7029],[-62.8723,10.5492,1.6869],[-62.8649,10.5443,19.8569],[-62.8575,10.5423,25.7512],[-62.8344,10.5449,25.0468],[-62.8088,10.5446,0.0],[-62.7974,10.5507,0.0],[-62.7924,10.556,0.0],[-62.7826,10.5593,4.3512],[-62.7771,10.5593,0.0],[-62.7696,10.5621,1.834],[-62.7593,10.5618,0.0],[-62.7562,10.5599,0.0],[-62.7554,10.5612,0.0],[-62.7571,10.5654,0.0],[-62.7535,10.5704,4.1366],[-62.7415,10.5765,6.6344],[-62.736,10.5771,16.2855],[-62.7282,10.5818,5.25],[-62.7321,10.5779,5.0458],[-62.7432,10.5749,10.1669],[-62.7549,10.5676,5.1105],[-62.754,10.5615,0.0],[-62.7493,10.5571,4.8933],[-62.7459,10.5576,10.4203],[-62.6971,10.5817,22.6575],[-62.6648,10.6053,4.5851],[-62.6604,10.6114,29.9668],[-62.6641,10.6359,80.8621],[-62.6659,10.6829,400.2979],[-62.6776,10.6882,340.6592],[-62.7032,10.6941,258.1708],[-62.7095,10.6924,305.8679],[-62.7382,10.6756,715.1705],[-62.7583,10.6677,721.0775],[-62.7634,10.6676,599.6012],[-62.7696,10.6641,557.9633],[-62.7792,10.6834,695.6435],[-62.7855,10.6889,339.4497],[-62.7895,10.6902,326.6396],[-62.7966,10.6907,328.6108],[-62.808,10.6841,447.4043],[-62.8232,10.6796,545.3901],[-62.8318,10.6787,427.7781],[-62.8798,10.6783,393.0617],[-62.8924,10.6798,339.7244],[-62.8979,10.6684,254.8355],[-62.9087,10.6167,69.4956],[-62.9127,10.5868,27.9566]]]]}}