{"type":"Feature","properties":{"GID_2":"VEN.12.13_1","GID_0":"VEN","country":"Venezuela","GID_1":"VEN.12_1","province":"Falcón","NL_NAME_1":"NA","county":"Mauroa","VARNAME_2":"NA","NL_NAME_2":"NA","TYPE_2":"Municipio","ENGTYPE_2":"Municipality","CC_2":"NA","HASC_2":"NA","name":"Mauroa.county"},
"geometry":{"type": "MultiPolygon","coordinates": [[[[-70.9611,11.088,13.2585],[-70.9885,11.1125,0.9225],[-70.9901,11.1121,0.0],[-71.026,11.0921,1.2339],[-71.0437,11.0779,4.143],[-71.0529,11.0726,0.2068],[-71.0604,11.0718,0.0],[-71.0663,11.0682,0.2986],[-71.0774,11.0646,0.0],[-71.0979,11.0529,0.0792],[-71.1026,11.0482,0.3713],[-71.1387,11.0368,0.0],[-71.1474,11.031,0.5638],[-71.1546,11.0288,0.0],[-71.1588,11.0251,0.1678],[-71.1596,11.0224,0.7143],[-71.1457,11.0307,0.5638],[-71.1446,11.029,0.7519],[-71.1418,11.0324,0.1585],[-71.1376,11.034,0.6207],[-71.1443,11.0257,1.0734],[-71.1565,11.021,0.0839],[-71.161,11.0171,0.0],[-71.1743,11.0143,0.0],[-71.1988,11.0024,0.3312],[-71.224,10.996,0.0],[-71.2288,10.9926,0.3841],[-71.2404,10.9893,0.0],[-71.2462,10.9846,2.066],[-71.2549,10.9826,0.0],[-71.2356,10.9523,8.9683],[-71.1934,10.8945,16.9231],[-71.1831,10.8768,20.1241],[-71.1709,10.8604,22.444],[-71.1153,10.8035,33.1427],[-71.0987,10.7832,36.6988],[-71.0817,10.7562,39.7001],[-71.0735,10.732,47.4793],[-71.0664,10.6723,85.0462],[-71.062,10.6592,125.7671],[-71.0356,10.619,125.8346],[-71.0267,10.6005,133.276],[-71.0145,10.5683,119.1028],[-71.003,10.5225,165.632],[-70.9973,10.5099,157.4862],[-70.9865,10.5015,156.5437],[-70.9499,10.4872,229.8742],[-70.9257,10.4642,254.3514],[-70.9125,10.4594,273.7325],[-70.8499,10.451,813.1504],[-70.8144,10.4532,1213.882],[-70.8113,10.4838,938.5441],[-70.811,10.5111,598.2199],[-70.8142,10.6134,255.8523],[-70.8143,10.683,536.2562],[-70.815,10.7017,338.4421],[-70.8174,10.714,606.8744],[-70.8255,10.7293,677.1622],[-70.8453,10.7585,215.6423],[-70.8637,10.8515,90.2457],[-70.8799,10.9588,49.8767],[-70.8893,10.9956,42.997],[-70.8975,11.0147,38.0077],[-70.909,11.0363,29.54],[-70.9142,11.043,27.4569],[-70.9611,11.088,13.2585]]],
[[[-71.036,11.0865,0.5978],[-71.0432,11.0851,0.0],[-71.0479,11.0815,0.0],[-71.046,11.0812,0.0],[-71.036,11.0865,0.5978]]]]}}