{"type":"Feature","properties":{"GID_2":"VEN.20.8_1","GID_0":"VEN","country":"Venezuela","GID_1":"VEN.20_1","province":"Sucre","NL_NAME_1":"NA","county":"CruzSalmerónAcosta","VARNAME_2":"NA","NL_NAME_2":"NA","TYPE_2":"Municipio","ENGTYPE_2":"Municipality","CC_2":"NA","HASC_2":"NA","name":"Cruz_Salmerón_Acosta.county"},
"geometry":{"type": "MultiPolygon","coordinates": [[[[-63.7005,10.6453,22.4092],[-63.7007,10.6496,0.9162],[-63.7121,10.6571,0.0],[-63.7229,10.6535,21.0412],[-63.7346,10.6532,14.4191],[-63.7426,10.6563,0.0],[-63.7451,10.6554,7.6591],[-63.7537,10.6596,0.0],[-63.7632,10.6593,0.0],[-63.7874,10.6815,0.4255],[-63.8101,10.7065,8.9367],[-63.8104,10.7085,8.9514],[-63.8132,10.7085,5.6267],[-63.8162,10.7065,0.0],[-63.8135,10.7049,0.4091],[-63.8143,10.7004,0.0],[-63.8132,10.6999,1.516],[-63.8151,10.696,1.9567],[-63.8146,10.6888,1.7497],[-63.8213,10.6818,2.055],[-63.8221,10.6796,0.0],[-63.821,10.6782,0.6865],[-63.8237,10.6779,0.0],[-63.8246,10.6763,0.0],[-63.8226,10.6729,0.0254],[-63.8229,10.6679,-0.0138],[-63.8251,10.6637,0.0],[-63.824,10.6624,0.0],[-63.8271,10.6604,1.419],[-63.8276,10.6554,0.0],[-63.8335,10.6468,1.7631],[-63.8404,10.6426,2.2739],[-63.851,10.6396,2.7963],[-63.8596,10.6396,0.5102],[-63.8693,10.6354,1.5881],[-63.8835,10.6343,0.596],[-63.8838,10.6318,3.7301],[-63.8874,10.631,1.9396],[-63.8976,10.6304,0.4716],[-63.9032,10.6324,0.0],[-63.9026,10.6301,0.2481],[-63.9046,10.6282,0.2145],[-63.9135,10.6274,0.0],[-63.9162,10.6251,1.5929],[-63.9279,10.6257,0.0],[-63.9362,10.6321,0.0],[-63.941,10.6318,6.5796],[-63.9443,10.6346,0.4519],[-63.9468,10.6332,9.3247],[-63.9549,10.6343,0.0],[-63.9565,10.6321,0.0],[-63.9657,10.6285,2.0908],[-63.9704,10.6301,12.184],[-63.9824,10.6304,10.418],[-63.9887,10.6354,10.6798],[-63.9943,10.6324,0.0],[-64.0001,10.634,7.5188],[-64.006,10.6332,4.3558],[-64.0113,10.6288,0.3466],[-64.0149,10.6293,1.3637],[-64.0226,10.634,0.0],[-64.0265,10.6315,21.7878],[-64.0312,10.634,0.0],[-64.0332,10.6329,4.9576],[-64.0371,10.6349,2.3868],[-64.0413,10.6338,3.9042],[-64.0454,10.6354,4.2396],[-64.0465,10.6388,-1.5],[-64.0479,10.6374,1.3548],[-64.0532,10.6385,3.0263],[-64.0496,10.6412,4.341],[-64.0529,10.6465,4.5643],[-64.046,10.6471,0.4519],[-64.046,10.6504,0.283],[-64.0515,10.6507,0.0],[-64.0532,10.6493,18.3814],[-64.0563,10.6504,4.8684],[-64.0554,10.6479,7.6045],[-64.0607,10.6499,5.7006],[-64.0629,10.6474,3.4192],[-64.061,10.6437,12.1148],[-64.0649,10.6449,0.0855],[-64.0635,10.6424,9.8387],[-64.0657,10.6426,-0.7817],[-64.0651,10.639,6.8129],[-64.0665,10.641,-1.0],[-64.0707,10.6418,15.573],[-64.0724,10.6393,6.4465],[-64.0771,10.6388,0.0],[-64.0804,10.6365,1.6349],[-64.0832,10.6374,0.0],[-64.0832,10.6351,13.6456],[-64.0849,10.6346,4.7105],[-64.091,10.6362,0.0],[-64.0937,10.6343,0.0],[-64.1054,10.6346,0.0],[-64.111,10.6301,8.459],[-64.1143,10.6301,0.0],[-64.114,10.626,10.951],[-64.1168,10.6246,0.0],[-64.1168,10.6221,0.0],[-64.1207,10.619,0.5181],[-64.1232,10.6207,0.0],[-64.1276,10.6188,0.0],[-64.1326,10.621,0.0],[-64.1335,10.6179,2.785],[-64.1379,10.616,0.3561],[-64.1449,10.6193,1.4599],[-64.1454,10.6213,0.2678],[-64.1493,10.6215,1.1967],[-64.1521,10.6182,2.1508],[-64.1549,10.619,0.3847],[-64.1632,10.6279,0.0],[-64.1704,10.6296,0.6009],[-64.1846,10.6232,0.0],[-64.1901,10.6168,1.9049],[-64.191,10.6138,0.0],[-64.1896,10.6118,2.3993],[-64.1932,10.6118,0.7596],[-64.1932,10.6154,0.0],[-64.1982,10.6185,0.0],[-64.1946,10.6235,0.0],[-64.1913,10.6235,0.0],[-64.1904,10.6249,0.6495],[-64.1918,10.6307,0.5821],[-64.1885,10.6362,1.6665],[-64.1907,10.6401,3.9438],[-64.1971,10.6412,5.0549],[-64.1982,10.6429,0.0],[-64.206,10.6429,0.0],[-64.2101,10.641,1.1094],[-64.2162,10.6412,0.0],[-64.2174,10.639,0.0],[-64.2254,10.6407,0.0],[-64.2288,10.6393,2.3182],[-64.229,10.6407,0.0],[-64.2337,10.641,0.0],[-64.2396,10.6382,2.2365],[-64.2457,10.6432,0.0],[-64.2607,10.6654,1.3671],[-64.2693,10.6607,0.0],[-64.2696,10.6593,0.0],[-64.2668,10.6582,0.0],[-64.2685,10.6518,0.7683],[-64.2715,10.6493,1.1],[-64.2804,10.6468,1.4162],[-64.281,10.644,0.0],[-64.2838,10.6443,0.0],[-64.2876,10.6385,0.2848],[-64.2951,10.6368,0.3406],[-64.2968,10.6313,0.0531],[-64.2929,10.6276,0.5683],[-64.2857,10.6121,0.3284],[-64.2832,10.5993,0.0],[-64.2799,10.5946,0.312],[-64.2765,10.5929,0.7583],[-64.2729,10.5829,0.0],[-64.2671,10.5771,0.2274],[-64.2604,10.5754,0.0],[-64.2585,10.5721,0.2359],[-64.259,10.5685,1.9446],[-64.2618,10.5665,0.9355],[-64.2604,10.5651,0.0],[-64.2601,10.5596,3.2517],[-64.2632,10.5446,6.2692],[-64.2613,10.5404,0.0],[-64.2576,10.5349,0.0],[-64.2538,10.534,17.203],[-64.2501,10.5257,0.0],[-64.2482,10.5243,2.7955],[-64.2471,10.5254,20.3128],[-64.2476,10.5238,20.3128],[-64.2457,10.5224,39.7546],[-64.2468,10.5193,6.0088],[-64.2446,10.5151,0.0],[-64.241,10.5121,10.241],[-64.2354,10.5104,2.6881],[-64.2337,10.5071,0.0],[-64.2293,10.5065,0.0],[-64.2185,10.5165,0.2107],[-64.2187,10.5201,5.0283],[-64.2162,10.5207,3.1894],[-64.2171,10.5221,9.5994],[-64.2146,10.526,0.8166],[-64.2176,10.5299,6.7693],[-64.2138,10.5351,2.9502],[-64.2157,10.5362,4.0981],[-64.2146,10.5401,1.3239],[-64.2115,10.5438,5.6184],[-64.2071,10.5446,3.116],[-64.206,10.5504,1.5892],[-64.2071,10.5524,5.5166],[-64.2035,10.5543,1.1451],[-64.1971,10.5568,3.9765],[-64.1915,10.5557,1.6671],[-64.1888,10.5579,10.3856],[-64.1807,10.5582,2.0354],[-64.1746,10.5621,5.0999],[-64.1738,10.5649,0.0],[-64.1685,10.5668,0.0],[-64.1699,10.5693,23.7268],[-64.166,10.5713,0.9877],[-64.1513,10.5726,5.7288],[-64.1446,10.5763,6.6411],[-64.1393,10.5757,21.3581],[-64.1376,10.5774,22.1304],[-64.1276,10.5793,11.7582],[-64.1218,10.5785,20.3257],[-64.1254,10.5746,0.0],[-64.1257,10.5715,0.0],[-64.1235,10.5693,2.834],[-64.121,10.5715,4.2399],[-64.1199,10.5685,0.0],[-64.1143,10.5715,4.3265],[-64.1126,10.571,1.0281],[-64.114,10.5679,32.1726],[-64.119,10.5657,0.0],[-64.1176,10.5649,0.0],[-64.0999,10.5676,9.8112],[-64.0915,10.571,24.8549],[-64.0846,10.571,2.2317],[-64.0829,10.5729,3.8369],[-64.0799,10.5721,3.244],[-64.0788,10.5729,0.0],[-64.0796,10.5757,5.6179],[-64.0774,10.5757,1.3735],[-64.0757,10.5782,2.4977],[-64.0743,10.5738,5.2165],[-64.071,10.5721,5.5981],[-64.0685,10.5738,16.9077],[-64.0663,10.5726,0.0],[-64.066,10.574,12.5262],[-64.0624,10.5751,0.0],[-64.0537,10.5757,0.0],[-64.0521,10.5768,0.0],[-64.0529,10.5801,0.0],[-64.0568,10.5804,12.7428],[-64.0604,10.5832,0.0],[-64.056,10.5863,2.2952],[-64.0554,10.5843,0.0],[-64.0535,10.5843,5.3791],[-64.0488,10.5868,7.7252],[-64.051,10.5904,4.6867],[-64.0501,10.5957,2.1867],[-64.0474,10.5946,1.0994],[-64.046,10.5885,0.0],[-64.0429,10.5935,0.0],[-64.041,10.5929,3.8592],[-64.0426,10.5915,1.1758],[-64.0413,10.5904,0.0],[-64.0371,10.5938,11.5628],[-64.0335,10.5943,13.548],[-64.0315,10.5899,0.0],[-64.0299,10.5943,11.6031],[-64.0279,10.5946,3.3552],[-64.0285,10.591,1.4064],[-64.0243,10.5949,1.7783],[-64.0218,10.5938,2.8259],[-64.0293,10.5868,34.3948],[-64.0404,10.586,0.0],[-64.0454,10.5824,1.6823],[-64.0482,10.5774,10.8932],[-64.0446,10.5751,0.0],[-64.0387,10.5746,0.0],[-64.0315,10.5776,11.8413],[-64.0265,10.5757,19.9558],[-64.0204,10.5757,9.8108],[-64.0099,10.5788,36.5284],[-64.0015,10.5768,0.0],[-64.0001,10.5796,42.3258],[-63.999,10.5774,0.0],[-63.9951,10.5763,0.0],[-63.9912,10.5776,8.9254],[-63.9857,10.576,4.0021],[-63.9813,10.5776,12.1217],[-63.9785,10.5768,0.0],[-63.9771,10.5799,37.3407],[-63.9749,10.5785,0.0],[-63.9721,10.5804,4.8989],[-63.9701,10.5793,4.8989],[-63.969,10.581,13.0371],[-63.9685,10.5793,0.0],[-63.9657,10.5788,0.0],[-63.9601,10.581,15.5216],[-63.9568,10.5779,0.0],[-63.956,10.5804,3.6286],[-63.954,10.5807,19.439],[-63.9521,10.5771,0.0],[-63.9474,10.579,17.5324],[-63.9479,10.5751,0.0],[-63.9385,10.5732,8.512],[-63.9357,10.5715,0.0],[-63.934,10.5676,0.0],[-63.9313,10.5682,2.6613],[-63.9251,10.5649,0.0],[-63.9207,10.559,8.8126],[-63.9129,10.5546,2.451],[-63.9065,10.5538,34.7204],[-63.9046,10.5554,0.3641],[-63.9012,10.5529,0.0],[-63.8949,10.5521,29.5194],[-63.8887,10.5535,2.7863],[-63.884,10.5504,0.0],[-63.8807,10.5513,4.9383],[-63.879,10.5543,12.9069],[-63.8774,10.5526,10.2635],[-63.8699,10.5535,1.7521],[-63.8685,10.5521,13.8083],[-63.8649,10.5546,5.1864],[-63.8607,10.5546,13.2611],[-63.8571,10.5518,0.0],[-63.8468,10.5543,5.0303],[-63.8443,10.5518,0.0],[-63.8396,10.5529,9.2143],[-63.8343,10.5501,0.0],[-63.8293,10.5513,0.5001],[-63.8251,10.5501,0.0],[-63.8232,10.5515,0.7552],[-63.8182,10.5501,0.0],[-63.8112,10.5435,0.0],[-63.8063,10.5429,0.1469],[-63.8035,10.5374,0.0],[-63.7932,10.5315,0.0],[-63.791,10.5279,1.1373],[-63.7788,10.5274,2.9943],[-63.7654,10.5243,0.7206],[-63.7564,10.5382,26.3681],[-63.7438,10.553,85.5967],[-63.7275,10.5835,184.8073],[-63.7044,10.6203,257.9184],[-63.7007,10.631,116.0228],[-63.7005,10.6453,22.4092]]],
[[[-63.8501,10.6929,0.0],[-63.8543,10.6926,0.0],[-63.8549,10.6907,0.0],[-63.8515,10.6885,0.0],[-63.8462,10.6885,0.0],[-63.8429,10.6907,0.0],[-63.8443,10.691,0.0],[-63.8457,10.6904,12.1397],[-63.8474,10.6924,0.0],[-63.8496,10.6915,4.4055],[-63.8501,10.6929,0.0]]],
[[[-63.8751,10.6921,0.0],[-63.8771,10.6926,6.4433],[-63.8771,10.6907,10.6024],[-63.874,10.6901,0.0],[-63.8751,10.6921,0.0]]]]}}