{"type":"Feature","properties":{"GID_2":"VEN.21.18_1","GID_0":"VEN","country":"Venezuela","GID_1":"VEN.21_1","province":"Táchira","NL_NAME_1":"NA","county":"Michelena","VARNAME_2":"NA","NL_NAME_2":"NA","TYPE_2":"Municipio","ENGTYPE_2":"Municipality","CC_2":"NA","HASC_2":"NA","name":"Michelena.county"},
"geometry":{"type": "MultiPolygon","coordinates": [[[[-72.2639,7.98,935.4272],[-72.2649,7.9613,1021.549],[-72.2636,7.9492,1058.2714],[-72.2545,7.9424,1008.2277],[-72.2442,7.9403,1068.0171],[-72.216,7.9406,1361.6682],[-72.1742,7.9503,1764.2756],[-72.1468,7.9485,2262.6228],[-72.1301,7.9448,2178.0818],[-72.1205,7.9747,2708.6206],[-72.1189,7.9918,2222.5215],[-72.1232,7.9989,2394.29],[-72.1347,8.0055,2509.6274],[-72.1388,8.0104,2509.6211],[-72.1413,8.0186,2376.6887],[-72.1438,8.0537,1800.7677],[-72.1478,8.0617,1532.9415],[-72.1536,8.0669,1472.7454],[-72.161,8.048,1585.1348],[-72.1765,8.0239,2166.5791],[-72.1852,8.0181,2086.3291],[-72.2148,8.0074,1293.2659],[-72.2277,8.0052,1324.0067],[-72.2378,8.0054,1198.1185],[-72.2443,8.0073,1139.3438],[-72.2545,8.018,925.5256],[-72.2608,8.0029,767.5174],[-72.2639,7.98,935.4272]]]]}}