{"type":"Feature","properties":{"GID_2":"VEN.18.7_1","GID_0":"VEN","country":"Venezuela","GID_1":"VEN.18_1","province":"NuevaEsparta","NL_NAME_1":"NA","county":"Maneiro","VARNAME_2":"NA","NL_NAME_2":"NA","TYPE_2":"Municipio","ENGTYPE_2":"Municipality","CC_2":"NA","HASC_2":"NA","name":"Maneiro.county"},
"geometry":{"type": "MultiPolygon","coordinates": [[[[-63.8337,11.0198,30.9989],[-63.8368,10.9969,65.194],[-63.804,10.9817,2.6599],[-63.8032,10.9888,1.6044],[-63.801,10.9904,0.0],[-63.8021,10.9915,4.5167],[-63.799,10.9968,0.0],[-63.7962,10.9965,0.0],[-63.796,10.9987,0.523],[-63.7921,10.9985,0.0],[-63.7896,10.9937,0.0],[-63.786,10.996,6.7634],[-63.781,10.994,4.1855],[-63.7768,10.9971,24.5261],[-63.7776,11.0004,0.0],[-63.7851,11.0015,2.6221],[-63.7868,11.0049,0.2672],[-63.7921,11.0063,2.7901],[-63.7929,11.009,4.1379],[-63.7874,11.011,1.4665],[-63.7793,11.0007,0.0315],[-63.7843,11.0093,0.0286],[-63.8021,11.0343,0.0046],[-63.8153,11.0298,7.0172],[-63.8245,11.0321,13.7267],[-63.8296,11.0283,9.5013],[-63.8337,11.0198,30.9989]]]]}}