{"type":"Feature","properties":{"GID_1":"VEN.7_1","GID_0":"VEN","country":"Venezuela","province":"Carabobo","VARNAME_1":"NA","NL_NAME_1":"NA","TYPE_1":"Estado","ENGTYPE_1":"State","CC_1":"NA","HASC_1":"NA","ISO_1":"VE-G","name":"Carabobo.province"},
"geometry":{"type": "MultiPolygon","coordinates": [[[[-67.644,10.0937,569.0461],[-67.6394,10.1036,435.8236],[-67.6365,10.1167,411.5],[-67.637,10.1492,411.5],[-67.6274,10.151,411.5],[-67.6066,10.1615,411.5],[-67.6039,10.1615,411.5],[-67.6016,10.1561,415.1448],[-67.6031,10.1362,414.1686],[-67.6005,10.1254,414.458],[-67.5949,10.1224,422.1814],[-67.5904,10.1235,422.0415],[-67.586,10.1375,421.7844],[-67.5825,10.1369,421.7374],[-67.5769,10.1306,423.9307],[-67.5715,10.1282,423.4],[-67.567,10.1293,424.221],[-67.5633,10.1412,426.0863],[-67.5619,10.1546,429.0876],[-67.5654,10.1871,425.5288],[-67.5551,10.198,431.6025],[-67.5533,10.2039,433.8277],[-67.5559,10.2096,434.2778],[-67.56,10.2129,431.4035],[-67.5746,10.2199,428.7712],[-67.5843,10.2286,435.3331],[-67.611,10.2386,433.4811],[-67.6231,10.2524,438.8339],[-67.6301,10.2571,441.0092],[-67.6176,10.2681,447.8776],[-67.6079,10.2793,450.3378],[-67.6113,10.3039,778.236],[-67.6108,10.322,1049.6985],[-67.6131,10.3312,948.2361],[-67.6229,10.3387,884.9489],[-67.6549,10.3616,1735.3265],[-67.6934,10.3683,809.0125],[-67.7134,10.378,458.9189],[-67.7341,10.3718,480.7046],[-67.7536,10.3598,1026.0625],[-67.7725,10.3559,1232.3115],[-67.7878,10.362,967.128],[-67.8172,10.3799,810.2262],[-67.8276,10.3931,1163.9872],[-67.8308,10.4094,668.1802],[-67.8315,10.4687,265.8914],[-67.8301,10.4804,27.3372],[-67.8326,10.4832,0.0],[-67.8354,10.4832,0.0],[-67.8374,10.4799,0.0],[-67.8407,10.4615,15.7561],[-67.8449,10.4532,0.0],[-67.8426,10.4451,2.5493],[-67.8365,10.4438,7.8091],[-67.8368,10.4399,0.0],[-67.8412,10.439,0.0],[-67.8418,10.444,2.5493],[-67.856,10.446,0.0],[-67.8554,10.4535,0.1341],[-67.8574,10.4493,5.9538],[-67.8579,10.4524,-0.5],[-67.8604,10.4526,-0.5],[-67.8585,10.4574,3.537],[-67.856,10.4546,0.2537],[-67.8557,10.459,-0.5],[-67.8576,10.4576,3.537],[-67.8579,10.4604,4.0606],[-67.8549,10.4643,-0.5],[-67.8546,10.4674,8.6778],[-67.8538,10.4615,-0.1413],[-67.8551,10.4596,0.4644],[-67.8543,10.4596,0.4644],[-67.8529,10.4626,0.0],[-67.8529,10.4693,0.0],[-67.8576,10.479,0.0],[-67.864,10.4787,0.0],[-67.8665,10.4749,4.7835],[-67.8685,10.4746,3.7442],[-67.8707,10.4749,18.922],[-67.8724,10.4779,0.0],[-67.8763,10.4776,0.0],[-67.8771,10.474,5.3679],[-67.8818,10.4715,1.4945],[-67.8854,10.4718,5.3631],[-67.8854,10.4749,0.0],[-67.8874,10.4754,3.9979],[-67.889,10.4715,0.0],[-67.894,10.4674,0.3731],[-67.8957,10.4704,0.0],[-67.9001,10.4718,0.0],[-67.8965,10.469,0.3703],[-67.8976,10.4643,1.1835],[-67.9021,10.4665,0.0],[-67.8996,10.4735,0.0],[-67.9035,10.4738,0.0],[-67.9085,10.4699,0.0],[-67.9126,10.4621,4.3287],[-67.9171,10.4599,0.0],[-67.9201,10.4546,4.8454],[-67.9224,10.454,0.0],[-67.9265,10.4549,2.2248],[-67.9301,10.4629,0.0],[-67.9304,10.4624,0.0],[-67.9301,10.4601,1.2433],[-67.9315,10.4596,2.1815],[-67.9332,10.4629,4.4907],[-67.931,10.4674,0.0],[-67.9321,10.4724,0.0],[-67.9468,10.4615,3.9465],[-67.951,10.4621,0.0],[-67.9604,10.4743,0.2323],[-67.9668,10.4776,3.0098],[-67.9685,10.4807,0.0],[-67.9729,10.4835,0.657],[-67.9737,10.4868,0.017],[-67.9835,10.4907,0.0],[-67.9851,10.489,0.0],[-67.9815,10.4857,0.6856],[-67.9837,10.4854,1.3857],[-67.9874,10.4888,0.0],[-67.9965,10.4924,0.0],[-68.0029,10.4896,1.0388],[-68.0054,10.4915,0.0],[-68.0093,10.4912,0.0],[-68.0115,10.4843,0.0],[-68.009,10.4832,0.0],[-68.0057,10.4846,0.9947],[-68.0068,10.4879,0.438],[-68.0043,10.4849,0.0],[-67.9996,10.4854,0.0],[-67.999,10.4885,0.0],[-67.9932,10.4874,0.7405],[-67.9929,10.4849,2.0979],[-67.9962,10.4849,0.0],[-67.9943,10.4787,0.0],[-67.9912,10.4776,2.193],[-67.9896,10.4743,0.0],[-67.9865,10.4738,5.3079],[-67.9835,10.4651,3.7557],[-67.9863,10.4651,0.9248],[-67.9882,10.4707,0.0],[-67.991,10.4718,4.6339],[-67.9921,10.4751,0.0],[-67.9943,10.4749,0.0],[-67.9985,10.4685,4.3684],[-68.0024,10.469,1.781],[-68.0026,10.4704,1.781],[-67.9971,10.4732,0.9448],[-67.9987,10.4768,0.0],[-68.001,10.4765,0.0],[-68.0004,10.4812,0.0],[-68.0088,10.4821,0.0],[-68.0129,10.4771,0.0],[-68.0118,10.4746,0.7507],[-68.0232,10.4743,0.8914],[-68.0385,10.4824,2.8217],[-68.0385,10.4854,0.0],[-68.0351,10.4885,0.0],[-68.0415,10.4846,0.9978],[-68.046,10.4896,0.0],[-68.0485,10.4896,1.1902],[-68.0604,10.4982,0.2569],[-68.0676,10.4957,0.6037],[-68.0738,10.4985,0.391],[-68.0804,10.4924,0.8961],[-68.0876,10.4954,0.9574],[-68.094,10.4899,0.4237],[-68.0957,10.4907,0.0],[-68.0954,10.4888,0.4237],[-68.099,10.4851,1.0182],[-68.106,10.4807,0.7516],[-68.1085,10.4824,0.0],[-68.111,10.4815,1.0579],[-68.1149,10.4871,0.0],[-68.1182,10.486,0.0],[-68.1229,10.4901,0.0],[-68.1249,10.4885,0.0],[-68.1235,10.486,2.1735],[-68.1268,10.484,0.0],[-68.1432,10.4915,4.6683],[-68.1499,10.4976,0.0],[-68.1493,10.4999,0.0],[-68.154,10.4999,1.6611],[-68.1546,10.5037,0.5535],[-68.1565,10.5035,0.0],[-68.1588,10.499,0.0],[-68.1643,10.5004,4.31],[-68.1754,10.5118,0.0],[-68.1768,10.5112,0.9257],[-68.184,10.5168,0.8586],[-68.221,10.5585,0.0],[-68.2401,10.5835,3.117],[-68.2536,10.584,6.0107],[-68.2669,10.5816,11.0425],[-68.3076,10.5789,4.6912],[-68.3159,10.5759,6.4601],[-68.3326,10.545,4.9883],[-68.329,10.4794,23.0137],[-68.3345,10.452,87.5243],[-68.3405,10.4385,260.7791],[-68.3452,10.3876,229.7155],[-68.3406,10.3668,667.8157],[-68.3139,10.3224,483.256],[-68.3122,10.3114,723.8124],[-68.3155,10.2978,916.7534],[-68.3224,10.2841,1276.8763],[-68.3417,10.2565,1464.422],[-68.3592,10.2227,1244.392],[-68.3603,10.1977,715.0308],[-68.3587,10.176,687.5712],[-68.3544,10.1566,767.155],[-68.3415,10.1081,772.8137],[-68.3228,10.0517,662.2486],[-68.3201,10.0307,806.6216],[-68.3163,10.0313,708.3904],[-68.2985,10.0428,693.7239],[-68.2887,10.0561,705.9954],[-68.2814,10.0738,800.875],[-68.2705,10.1088,939.6066],[-68.2606,10.1137,851.3208],[-68.2421,10.1136,1007.9902],[-68.2244,10.1167,863.8253],[-68.1898,10.1339,738.5643],[-68.1689,10.1353,803.4472],[-68.1595,10.1328,781.6343],[-68.1533,10.1243,702.6069],[-68.152,10.111,595.5037],[-68.1583,10.0929,567.8262],[-68.1671,10.0824,574.7361],[-68.1915,10.0589,623.6802],[-68.1978,10.0506,652.543],[-68.1998,10.0401,686.6845],[-68.1947,10.0251,605.8997],[-68.178,10.0082,478.8391],[-68.1451,9.988,482.5391],[-68.1333,9.9791,485.7436],[-68.1029,9.9645,485.1466],[-68.0932,9.9419,505.3248],[-68.0824,9.9306,461.8518],[-68.0681,9.9215,436.5491],[-68.0563,9.909,456.5992],[-68.0519,9.9016,505.1935],[-68.0405,9.8917,545.9821],[-68.0268,9.8915,522.6031],[-67.9982,9.9064,577.1982],[-67.9857,9.9164,622.6743],[-67.9701,9.9238,639.0861],[-67.9549,9.9246,550.0929],[-67.9469,9.9206,543.4229],[-67.9471,9.9098,541.9272],[-67.9519,9.9002,535.5988],[-67.9548,9.8888,651.8094],[-67.9514,9.877,534.3954],[-67.9313,9.8626,636.2545],[-67.9048,9.8573,634.5396],[-67.8847,9.8554,627.6421],[-67.8664,9.8562,813.4183],[-67.8464,9.8593,678.3695],[-67.8139,9.8584,758.6835],[-67.8025,9.855,834.5732],[-67.8084,9.8916,886.9211],[-67.8091,9.9016,1031.9039],[-67.8074,9.9143,881.966],[-67.799,9.9239,1021.3145],[-67.7834,9.9281,709.6861],[-67.7697,9.9235,694.0685],[-67.7317,9.8905,1167.8999],[-67.717,9.8729,903.3744],[-67.6996,9.8454,612.317],[-67.6901,9.8409,509.3829],[-67.6727,9.8418,522.752],[-67.6524,9.8545,604.4462],[-67.6426,9.8647,784.2838],[-67.6257,9.8768,656.356],[-67.579,9.8806,929.9122],[-67.5716,9.8890999999999991,1037.9717],[-67.5645,9.9032,1357.8962],[-67.5562,9.914,1085.4033],[-67.5439,9.9206,883.231],[-67.535,9.9193,795.1643],[-67.5242,9.9076,1073.7729],[-67.5168,9.9031,1266.197],[-67.5037,9.9045,979.1535],[-67.5006,9.9081,894.1558],[-67.5009,9.9244,945.5087],[-67.5075,9.9406,944.2784],[-67.5105,9.9553,594.724],[-67.5078,9.9879,897.5096],[-67.5117,10.0056,957.6722],[-67.5233,10.0251,613.7812],[-67.5324,10.0326,553.4731],[-67.5449,10.0351,597.9806],[-67.6102,10.0394,659.2654],[-67.6449,10.0548,694.4219],[-67.6525,10.0635,645.7012],[-67.653,10.0713,644.302],[-67.6498,10.0839,631.9659],[-67.644,10.0937,569.0461]]],
[[[-67.9479,10.4924,0.0],[-67.9521,10.4932,0.0],[-67.9532,10.4915,0.3345],[-67.9521,10.4899,0.0],[-67.944,10.4876,0.0],[-67.9451,10.484,0.7564],[-67.944,10.4818,0.0],[-67.9407,10.4846,0.0],[-67.9418,10.489,0.0],[-67.9479,10.4924,0.0]]],
[[[-68.0399,10.4938,0.0],[-68.0424,10.4946,0.0],[-68.0415,10.4915,0.6603],[-68.0404,10.4918,0.6603],[-68.0399,10.4938,0.0]]],
[[[-67.9607,10.4963,2.3138],[-67.9624,10.4974,0.0],[-67.9651,10.4954,0.1688],[-67.9607,10.4929,0.1391],[-67.9607,10.4963,2.3138]]],
[[[-67.991,10.4965,0.6017],[-67.9912,10.4971,0.0],[-67.994,10.4971,0.0],[-67.9901,10.4946,0.0],[-67.991,10.4965,0.6017]]],
[[[-67.9732,10.509,0.0],[-67.976,10.5099,0.0],[-67.9768,10.5088,0.0],[-67.9746,10.5082,0.0],[-67.9771,10.5074,0.0],[-67.974,10.5043,0.6247],[-67.9701,10.5049,0.0],[-67.9696,10.5065,0.0],[-67.9732,10.509,0.0]]]]}}