{"type":"Feature","properties":{"ISO3166-1-Alpha-3":"VEN","country":"Venezuela","fill":"#FF0","id":"33","name":"Carabobo"},
"geometry":{"type": "Polygon","coordinates": [[[-67.86921,10.46128,213.5027],[-67.86986,10.46918,190.1055],[-67.87328,10.47647,65.161],[-67.8806,10.47997,0.0],[-67.89281,10.48086,0.0],[-67.90998,10.47687,0.0],[-67.92443,10.46971,0.0],[-67.94123,10.46646,0.0],[-67.96516,10.47407,1.2668],[-67.98876,10.48469,1.7871],[-68.00646,10.48847,0.438],[-68.12955,10.48774,0.0],[-68.17113,10.50373,2.5602],[-68.20958,10.53726,6.871],[-68.24234,10.57844,2.3207],[-68.25174,10.59512,5.3169],[-68.25523,10.59398,4.3815],[-68.28169,10.55858,1.8279],[-68.29182,10.54912,3.9817],[-68.3096,10.54036,12.0492],[-68.31435,10.53943,12.9918],[-68.319,10.54067,10.9206],[-68.33608,10.55106,3.9783],[-68.34125,10.55284,6.0018],[-68.3473,10.55331,3.9761],[-68.35324,10.55277,5.7751],[-68.35835,10.55106,6.6637],[-68.36267,10.54858,5.3408],[-68.36642,10.54548,5.5384],[-68.36985,10.54199,6.2289],[-68.37729,10.5299,6.9578],[-68.38528,10.5098,9.2338],[-68.38954,10.49349,12.9978],[-68.39411,10.35818,367.1848],[-68.36161,10.2609,1508.9749],[-68.36988,10.24925,1585.4254],[-68.38365,10.23467,1325.6257],[-68.41988,10.18757,655.8796],[-68.42251,10.18315,640.7216],[-68.42318,10.17292,627.5538],[-68.41311,10.09835,723.3901],[-68.41577,10.08006,720.4506],[-68.41515,10.07391,715.0751],[-68.41313,10.06825,725.7626],[-68.40747,10.06182,778.3812],[-68.40318,10.05453,614.502],[-68.39972,10.04102,638.0812],[-68.3968,10.01843,729.1252],[-68.39055,10.00681,718.137],[-68.3705,9.99004,516.0633],[-68.33892,10.00316,585.8251],[-68.32833,10.01308,588.078],[-68.31776,10.04164,803.9337],[-68.30272,10.0698,672.0298],[-68.28448,10.08292,866.5724],[-68.25813,10.11682,917.115],[-68.2502,10.12458,1099.8533],[-68.24167,10.12868,1232.4456],[-68.23733,10.12667,1085.4666],[-68.23389,10.1231,924.3953],[-68.23182,10.11845,847.8044],[-68.22428,10.09199,657.1346],[-68.21963,10.08292,711.4019],[-68.20521,10.0629,623.4613],[-68.24407,10.03621,632.8975],[-68.2535,10.02146,547.6034],[-68.25343,10.01463,562.0656],[-68.25213,10.00758,472.4679],[-68.24908,9.99952,453.406],[-68.24167,9.98701,545.2755],[-68.22883,9.97306,460.8078],[-68.21658,9.96296,460.2113],[-68.14428,9.91619,353.5],[-68.14,9.91278,353.5],[-68.13087,9.90345,389.1337],[-68.12196,9.89663,395.8313],[-68.11253,9.89206,360.2917],[-68.09685,9.87916,383.7495],[-68.08119,9.8625,494.8275],[-68.07209,9.85676,604.4214],[-68.06535,9.85537,473.0664],[-68.0447,9.86924,576.2025],[-68.02429,9.87622,659.2301],[-68.00313,9.88818,749.4996],[-67.99933,9.88927,717.7614],[-67.99533,9.88934,678.9174],[-67.98936,9.88733,558.4616],[-67.9869,9.88322,559.559],[-67.98657,9.8787,512.0079],[-67.98897,9.87459,550.0024],[-68.00083,9.86389,577.124],[-68.00246,9.85948,538.0998],[-68.00285,9.85395,550.8798],[-67.99778,9.84271,538.9545],[-67.99323,9.8386,541.3163],[-67.98789,9.83519,519.9225],[-67.97758,9.83193,667.1169],[-67.93605,9.82299,462.1978],[-67.8798,9.81912,588.6326],[-67.86725,9.81966,502.3191],[-67.83169,9.82493,512.0424],[-67.78883,9.82705,876.5814],[-67.80113,9.85201,826.8694],[-67.80715,9.87165,832.6596],[-67.81407,9.91759,803.29],[-67.80748,9.92542,1075.3679],[-67.79919,9.93045,1004.227],[-67.79307,9.93185,837.4434],[-67.78534,9.93208,692.8458],[-67.77273,9.9289,694.3182],[-67.76537,9.92627,633.1038],[-67.75979,9.9234,751.8336],[-67.75681,9.92038,714.6534],[-67.7464,9.90376,947.9958],[-67.74007,9.89632,1113.6396],[-67.73658,9.89299,1221.9889],[-67.73235,9.8902,1099.2584],[-67.72751,9.88795,975.3271],[-67.70904,9.88508,699.2576],[-67.70441,9.88296,864.9305],[-67.70142,9.87971,744.5331],[-67.70049,9.87575,785.9019],[-67.70188,9.87157,703.5381],[-67.70625,9.86227,722.8824],[-67.70798,9.85728,754.6074],[-67.7086,9.85224,785.36],[-67.70733,9.84767,687.5869],[-67.70392,9.84441,598.2462],[-67.69907,9.84232,549.6531],[-67.69077,9.84286,512.155],[-67.68103,9.84534,446.4238],[-67.64925,9.85948,641.4496],[-67.63184,9.86963,766.2133],[-67.62734,9.87157,680.7054],[-67.62222,9.87234,637.4134],[-67.61721,9.87126,654.0331],[-67.61287,9.86886,686.2711],[-67.60251,9.85886,814.2748],[-67.59726,9.86017,765.7325],[-67.59142,9.86637,836.9232],[-67.58285,9.88374,951.1776],[-67.576,9.9019,1353.0903],[-67.57473,9.90741,1128.2594],[-67.57155,9.91252,1163.8496],[-67.5667,9.91689,1173.8291],[-67.5575,9.92014,1221.6145],[-67.55083,9.91999,1037.5952],[-67.54608,9.91751,862.0601],[-67.54001,9.90973,993.841],[-67.5368,9.90648,951.6419],[-67.53285,9.90524,887.3942],[-67.52903,9.90679,912.1302],[-67.52577,9.91875,1082.3335],[-67.53412,9.95149,708.1727],[-67.55324,9.99399,1014.7527],[-67.56584,10.00184,772.9197],[-67.57378,10.00068,702.0958],[-67.57838,10.00045,774.952],[-67.58331,10.00107,892.6481],[-67.58778,10.00208,730.0581],[-67.66217,10.03288,724.8273],[-67.68111,10.02091,730.0347],[-67.68731,10.02138,872.4592],[-67.69018,10.02435,788.036],[-67.69002,10.02954,742.5767],[-67.68886,10.03528,695.3125],[-67.68816,10.04179,687.8374],[-67.68855,10.05716,833.2602],[-67.68736,10.06329,779.7605],[-67.68421,10.06747,950.1076],[-67.66827,10.07902,907.8514],[-67.66411,10.08323,812.7335],[-67.66023,10.08843,740.1287],[-67.65568,10.09688,578.2651],[-67.6545,10.10393,452.8546],[-67.6545,10.11039,550.8679],[-67.66995,10.23467,411.5],[-67.67005,10.24444,411.5],[-67.66902,10.24935,411.5],[-67.66284,10.25896,438.392],[-67.65969,10.26563,456.7259],[-67.65687,10.27454,508.3661],[-67.65349,10.29116,571.1237],[-67.65411,10.29984,589.9359],[-67.65628,10.30614,710.2797],[-67.66793,10.32033,648.2211],[-67.67196,10.32436,697.5055],[-67.67638,10.32746,646.6237],[-67.68119,10.32971,611.201],[-67.68648,10.3311,856.6755],[-67.69212,10.33157,894.756],[-67.70943,10.32947,1317.0271],[-67.71558,10.33009,1226.3535],[-67.72144,10.3311,1198.5453],[-67.74573,10.34198,1540.0533],[-67.75147,10.3433,1380.8865],[-67.75764,10.34361,1449.5464],[-67.76366,10.34314,1381.0913],[-67.76917,10.34175,1249.4994],[-67.77395,10.33965,1318.4137],[-67.7826,10.33446,1111.7681],[-67.79438,10.3256,1602.6243],[-67.79872,10.32296,1367.3932],[-67.80361,10.3211,1063.8486],[-67.80896,10.32017,945.9519],[-67.81407,10.32056,850.7665],[-67.81875,10.32242,853.3306],[-67.85994,10.35725,1159.4067],[-67.87422,10.37944,1108.1865],[-67.87588,10.39652,1143.3763],[-67.875,10.43608,353.7924],[-67.87301,10.4496,213.1956],[-67.86921,10.46128,213.5027]]]}}