{"type":"Feature","properties":{"GID_2":"VEN.16.12_1","GID_0":"VEN","country":"Venezuela","GID_1":"VEN.16_1","province":"Miranda","NL_NAME_1":"NA","county":"Lander","VARNAME_2":"NA","NL_NAME_2":"NA","TYPE_2":"Municipio","ENGTYPE_2":"Municipality","CC_2":"NA","HASC_2":"NA","name":"Lander.county"},
"geometry":{"type": "MultiPolygon","coordinates": [[[[-66.6914,9.9991,617.1495],[-66.6851,9.9899,745.6223],[-66.6761,9.9874,694.6506],[-66.6629,9.9882,827.2014],[-66.6524,9.9913,693.1686],[-66.6356,9.9905,574.3062],[-66.6291,9.9847,715.6202],[-66.6258,9.9792,748.471],[-66.5993,9.9777,985.2593],[-66.5697,9.9794,869.3901],[-66.5485,9.983,543.6869],[-66.5037,10.0,760.7949],[-66.4788,10.0158,1139.4803],[-66.4514,10.0371,462.1643],[-66.4699,10.0448,521.701],[-66.4937,10.0488,631.9829],[-66.5293,10.0625,927.3998],[-66.5343,10.067,714.7609],[-66.5386,10.0847,544.4698],[-66.5463,10.0857,733.701],[-66.5731,10.0947,653.6691],[-66.5903,10.1117,524.1456],[-66.5968,10.1142,592.7834],[-66.6049,10.1146,455.073],[-66.6175,10.1116,528.2881],[-66.6337,10.1046,490.6204],[-66.6376,10.1066,491.1537],[-66.6378,10.1126,488.3918],[-66.652,10.1087,420.5262],[-66.6694,10.1089,297.0137],[-66.6751,10.1122,350.2543],[-66.6786,10.1168,279.2205],[-66.6833,10.1409,252.3452],[-66.6889,10.1494,219.2928],[-66.7044,10.1616,332.3103],[-66.7369,10.1818,145.2475],[-66.8005,10.2324,321.699],[-66.8119,10.2056,253.8215],[-66.8121,10.1837,244.4381],[-66.8224,10.1603,249.5753],[-66.8292,10.1322,193.6253],[-66.8294,10.1147,514.4688],[-66.8221,10.0835,299.3041],[-66.8222,10.0687,338.6765],[-66.8268,10.0564,455.6073],[-66.8414,10.0389,556.4004],[-66.8125,10.0429,629.2463],[-66.7866,10.0434,596.8281],[-66.7651,10.0396,1012.1938],[-66.7537,10.0353,873.9058],[-66.7168,10.0162,920.2092],[-66.703,10.0114,638.4606],[-66.6914,9.9991,617.1495]]]]}}