{"type":"Feature","properties":{"GID_2":"VEN.25.21_1","GID_0":"VEN","country":"Venezuela","GID_1":"VEN.25_1","province":"Zulia","NL_NAME_1":"NA","county":"ValmoreRodríguez","VARNAME_2":"NA","NL_NAME_2":"NA","TYPE_2":"Municipio","ENGTYPE_2":"Municipality","CC_2":"NA","HASC_2":"NA","name":"Valmore_Rodríguez.county"},
"geometry":{"type": "MultiPolygon","coordinates": [[[[-70.8144,10.4532,1213.882],[-70.8152,10.4477,1158.1158],[-70.8198,10.4414,1020.812],[-70.8607,10.4026,555.3777],[-70.8779,10.3938,324.8779],[-70.9046,10.3857,311.3733],[-70.9261,10.3819,250.0143],[-70.9364,10.3673,247.5237],[-70.9413,10.3631,202.9598],[-70.9461,10.3556,214.5828],[-70.9518,10.3417,187.5866],[-70.9778,10.3055,136.6554],[-70.9883,10.2802,162.6606],[-71.0004,10.2594,184.4836],[-71.0151,10.2024,105.0511],[-71.015,10.1811,85.1523],[-71.0396,10.1547,56.2523],[-71.1397,10.0755,15.9059],[-71.189,10.0296,4.377],[-71.2193,10.0059,1.7491],[-71.2171,10.0013,2.3151],[-71.2113,9.974,0.0],[-71.1999,9.9679,0.0],[-71.1963,9.9701,0.0],[-71.1907,9.9699,0.0],[-71.1893,9.9685,0.0],[-71.1862,9.9704,0.0],[-71.179,9.9693,0.0287],[-71.1654,9.9626,-2.4479],[-71.1568,9.9563,-1.386],[-71.1526,9.9521,-0.3854],[-71.1521,9.9493,0.0],[-71.1582,9.9424,0.0],[-71.1532,9.9474,0.0],[-71.1501,9.9479,0.0],[-71.1476,9.9463,0.0],[-71.1488,9.9437,0.5278],[-71.1468,9.9432,0.0],[-71.1454,9.9401,0.0],[-71.1432,9.9412,0.9856],[-71.139,9.9371,0.2715],[-71.1043,9.8921,1.3906],[-71.0879,9.8639,0.0],[-71.0194,9.903,9.1107],[-70.9993,9.9181,9.6996],[-70.9919,9.9286,10.3314],[-70.9883,9.9616,17.8356],[-70.9766,10.0045,64.2618],[-70.9719,10.0152,81.6833],[-70.9588,10.0268,112.7898],[-70.9557,10.0363,78.4754],[-70.9548,10.0697,94.5068],[-70.9525,10.0872,122.147],[-70.9494,10.0956,97.6322],[-70.926,10.1194,114.3235],[-70.9166,10.1339,166.5154],[-70.9043,10.1639,166.2135],[-70.8983,10.1726,163.1804],[-70.8919,10.1795,159.3345],[-70.8635,10.1946,228.0022],[-70.8433,10.2086,286.4751],[-70.8152,10.2467,447.4733],[-70.805,10.2567,412.9897],[-70.7832,10.2732,846.8327],[-70.7611,10.2742,647.8389],[-70.7491,10.2772,866.1686],[-70.7402,10.2819,1106.8093],[-70.7337,10.288,1416.0991],[-70.7313,10.3006,1438.3025],[-70.7336,10.3358,951.8131],[-70.739,10.3447,970.9732],[-70.7425,10.3922,1491.7773],[-70.7487,10.4121,1442.709],[-70.7583,10.4267,1144.5032],[-70.7762,10.4426,926.8951],[-70.7889,10.4493,944.5718],[-70.8144,10.4532,1213.882]]]]}}