{"type":"Feature","properties":{"GID_2":"VEN.22.11_1","GID_0":"VEN","country":"Venezuela","GID_1":"VEN.22_1","province":"Trujillo","NL_NAME_1":"NA","county":"MonteCarmelo","VARNAME_2":"NA","NL_NAME_2":"NA","TYPE_2":"Municipio","ENGTYPE_2":"Municipality","CC_2":"NA","HASC_2":"NA","name":"Monte_Carmelo.county"},
"geometry":{"type": "MultiPolygon","coordinates": [[[[-70.8042,9.1125,3067.7883],[-70.7974,9.124,2571.3271],[-70.7769,9.1491,2650.3064],[-70.7545,9.1903,2171.8091],[-70.7324,9.2198,2224.6643],[-70.727,9.2292,2365.9727],[-70.7249,9.2378,2011.2715],[-70.725,9.247,1666.9553],[-70.7312,9.2499,1378.9138],[-70.7564,9.247,1009.1938],[-70.769,9.2513,993.0737],[-70.7837,9.2617,787.7523],[-70.8182,9.2969,167.1413],[-70.8244,9.3011,103.3209],[-70.8292,9.3177,70.885],[-70.8366,9.3335,78.5873],[-70.8407,9.3542,56.9207],[-70.8459,9.3573,56.8405],[-70.8643,9.359,44.3807],[-70.9157,9.3708,26.9193],[-70.9311,9.3727,21.4477],[-70.9585,9.3833,13.7386],[-70.9686,9.3886,12.983],[-70.9774,9.4079,9.268],[-70.9809,9.412,8.389],[-70.9905,9.4132,7.8011],[-71.0098,9.4121,5.9122],[-71.0263,9.4037,4.1605],[-71.0418,9.3919,1.4934],[-71.0525,9.386,-0.1047],[-71.0704,9.3818,1.2895],[-71.0682,9.3682,0.6197],[-71.0671,9.3676,0.0],[-71.0649,9.3701,0.0],[-71.0618,9.3693,0.2699],[-71.0574,9.3626,1.744],[-71.0576,9.3562,2.6701],[-71.0615,9.3582,0.0],[-71.0629,9.3551,0.0],[-71.0604,9.349,0.8428],[-71.0532,9.3474,0.3308],[-71.0521,9.3391,2.0917],[-71.0227,9.3509,6.9376],[-71.0133,9.352,4.5359],[-70.9941,9.3475,8.9816],[-70.9815,9.3499,12.1968],[-70.9739,9.3492,12.7215],[-70.952,9.3264,23.7756],[-70.9279,9.3133,30.0658],[-70.9198,9.3023,39.085],[-70.8899,9.1916,545.9291],[-70.887,9.1774,657.8624],[-70.8842,9.1415,1085.0121],[-70.882,9.1305,1646.4141],[-70.879,9.1249,1682.9475],[-70.872,9.1201,1696.5012],[-70.8458,9.1223,2321.0364],[-70.8305,9.1126,2599.3208],[-70.8173,9.1144,2666.4561],[-70.8042,9.1125,3067.7883]]]]}}