{"type":"Feature","properties":{"GID_2":"VEN.2.2_1","GID_0":"VEN","country":"Venezuela","GID_1":"VEN.2_1","province":"Anzoátegui","NL_NAME_1":"NA","county":"Aragua","VARNAME_2":"NA","NL_NAME_2":"NA","TYPE_2":"Municipio","ENGTYPE_2":"Municipality","CC_2":"NA","HASC_2":"NA","name":"Aragua.county"},
"geometry":{"type": "MultiPolygon","coordinates": [[[[-64.5607,9.4864,169.2371],[-64.5723,9.4889,175.1249],[-64.6021,9.515,171.5794],[-64.6211,9.5285,186.7021],[-64.6358,9.5363,180.3432],[-64.6777,9.5663,164.8608],[-64.7113,9.5738,166.2879],[-64.7278,9.5822,165.6227],[-64.7369,9.591,176.0586],[-64.7408,9.6009,158.119],[-64.7529,9.6579,135.102],[-64.7577,9.6672,121.6784],[-64.7715,9.6802,100.9547],[-64.7857,9.6885,88.734],[-64.8537,9.7175,71.2427],[-64.8696,9.7274,70.9814],[-64.8792,9.7354,63.2856],[-64.8896,9.7473,62.698],[-64.9068,9.7321,73.7933],[-64.9749,9.7381,51.808],[-65.0454,9.5952,88.3554],[-65.0583,9.563,93.3227],[-65.0594,9.3762,63.7868],[-65.0603,9.3614,70.2865],[-65.0637,9.3572,71.0369],[-64.9997,9.3015,121.2579],[-64.9399,9.2386,127.9608],[-64.9261,9.2074,117.2069],[-64.919,9.1792,96.5002],[-64.9084,9.1777,106.2243],[-64.8991,9.201,101.3016],[-64.8936,9.2013,106.2156],[-64.8876,9.1968,110.2317],[-64.8734,9.1519,120.9907],[-64.8543,9.1445,131.9372],[-64.8505,9.1651,130.7919],[-64.8399,9.1658,135.5959],[-64.8032,9.1406,133.2104],[-64.7998,9.1343,133.6556],[-64.8,9.1167,131.6473],[-64.8084,9.0798,158.5337],[-64.8112,9.0274,171.5352],[-64.7927,8.9836,183.8198],[-64.7746,8.9523,203.8569],[-64.7662,8.9201,205.2423],[-64.7535,8.8885,195.008],[-64.7541,8.8718,202.5813],[-64.7278,8.8288,238.9604],[-64.5978,8.8448,245.1734],[-64.335,8.7606,249.4898],[-64.3328,8.7634,247.8604],[-64.4153,8.9512,299.6456],[-64.4486,8.9609,306.5135],[-64.4744,8.9767,296.6332],[-64.5265,8.9962,323.89],[-64.5627,8.9991,281.4273],[-64.5808,9.0028,259.8193],[-64.5953,9.0158,242.9279],[-64.6176,9.032,223.2102],[-64.662,9.0541,211.7615],[-64.6944,9.1087,179.764],[-64.7069,9.1415,164.2554],[-64.6992,9.1947,156.1549],[-64.7098,9.2013,147.9701],[-64.7172,9.21,137.511],[-64.6966,9.2474,146.2901],[-64.6925,9.2582,147.0882],[-64.6966,9.313,179.5266],[-64.704,9.3213,174.7673],[-64.6965,9.3274,170.4058],[-64.6856,9.3635,146.4505],[-64.6774,9.369,137.9899],[-64.6303,9.3702,152.6124],[-64.6224,9.3684,153.1709],[-64.5674,9.3976,174.893],[-64.5607,9.4864,169.2371]]]]}}