{"type":"Feature","properties":{"GID_2":"VEN.21.15_1","GID_0":"VEN","country":"Venezuela","GID_1":"VEN.21_1","province":"Táchira","NL_NAME_1":"NA","county":"Libertad","VARNAME_2":"NA","NL_NAME_2":"NA","TYPE_2":"Municipio","ENGTYPE_2":"Municipality","CC_2":"NA","HASC_2":"NA","name":"Libertad.county"},
"geometry":{"type": "MultiPolygon","coordinates": [[[[-72.3484,7.7608,1221.2817],[-72.348,7.7531,1127.575],[-72.3433,7.7383,1202.7299],[-72.3391,7.7329,1266.9889],[-72.319,7.7167,926.9697],[-72.2975,7.6849,795.9092],[-72.2793,7.6693,679.6293],[-72.2712,7.6781,661.8231],[-72.2702,7.6839,619.5314],[-72.2722,7.689,658.4561],[-72.2973,7.717,820.8029],[-72.3097,7.7386,1194.7903],[-72.3307,7.7857,1719.0999],[-72.3357,7.8038,1573.2317],[-72.336,7.833,1270.0427],[-72.3316,7.8554,1389.6122],[-72.332,7.8597,1578.6614],[-72.3378,7.8679,1505.637],[-72.3639,7.8823,1171.9886],[-72.3756,7.8845,1136.3549],[-72.389,7.8798,1116.7253],[-72.4001,7.878,996.7766],[-72.3972,7.8534,1140.2054],[-72.4005,7.8522,1162.9952],[-72.4067,7.8531,1180.9551],[-72.3911,7.8253,916.8729],[-72.3556,7.784,1300.324],[-72.3493,7.7686,1219.3577],[-72.3484,7.7608,1221.2817]]]]}}