{"type":"Feature","properties":{"GID_2":"VEN.21.22_1","GID_0":"VEN","country":"Venezuela","GID_1":"VEN.21_1","province":"Táchira","NL_NAME_1":"NA","county":"SamuelDarioMaldonado","VARNAME_2":"NA","NL_NAME_2":"NA","TYPE_2":"Municipio","ENGTYPE_2":"Municipality","CC_2":"NA","HASC_2":"NA","name":"Samuel_Dario_Maldonado.county"},
"geometry":{"type": "MultiPolygon","coordinates": [[[[-71.9705,8.6356,13.221],[-71.9827,8.6591,10.5058],[-71.9909,8.665,9.641],[-71.9966,8.6654,10.7567],[-72.0016,8.6638,12.1938],[-72.0038,8.6567,10.4898],[-71.9961,8.6285,10.3972],[-71.9978,8.5861,13.6976],[-71.9904,8.5843,14.6085],[-71.9495,8.5565,22.6026],[-71.9472,8.5474,25.0413],[-71.9474,8.5307,30.3271],[-71.9545,8.5124,34.9021],[-71.9535,8.5058,37.4193],[-71.929,8.4821,53.4449],[-71.9256,8.4681,74.2474],[-71.9271,8.4421,134.5228],[-71.9244,8.4297,196.0549],[-71.9116,8.4156,403.3921],[-71.8929,8.4,698.8857],[-71.8816,8.3931,1165.3184],[-71.8711,8.3764,1092.9998],[-71.8579,8.4116,458.295],[-71.8531,8.4173,469.0798],[-71.8475,8.4164,598.4995],[-71.8304,8.4221,616.551],[-71.7956,8.4211,529.7657],[-71.792,8.4342,415.6555],[-71.7726,8.4565,401.8283],[-71.7644,8.4756,346.3602],[-71.7628,8.492,310.1043],[-71.768,8.5114,248.7393],[-71.783,8.5454,126.1846],[-71.8011,8.5764,59.7662],[-71.8174,8.5961,46.2742],[-71.8277,8.6053,41.2047],[-71.8497,8.6122,32.9101],[-71.9244,8.617,15.4721],[-71.9549,8.6268,13.3062],[-71.9705,8.6356,13.221]]]]}}