{"type":"Feature","properties":{"GID_2":"VEN.12.14_1","GID_0":"VEN","country":"Venezuela","GID_1":"VEN.12_1","province":"Falcón","NL_NAME_1":"NA","county":"Miranda","VARNAME_2":"NA","NL_NAME_2":"NA","TYPE_2":"Municipio","ENGTYPE_2":"Municipality","CC_2":"NA","HASC_2":"NA","name":"Miranda.county"},
"geometry":{"type": "MultiPolygon","coordinates": [[[[-69.5917,11.4553,2.467],[-69.6074,11.4587,3.4516],[-69.6143,11.4624,0.0],[-69.6382,11.4796,0.2484],[-69.6654,11.5096,0.2445],[-69.6815,11.5341,0.0],[-69.6913,11.5299,0.2018],[-69.6865,11.521,0.0],[-69.6849,11.5204,0.0],[-69.6857,11.5176,0.1086],[-69.6829,11.5174,2.008],[-69.6771,11.509,0.314],[-69.6774,11.504,0.7974],[-69.6751,11.5035,1.9121],[-69.6746,11.5012,0.3137],[-69.6635,11.4896,0.4286],[-69.6607,11.4888,1.6819],[-69.6632,11.4824,0.1606],[-69.6604,11.484,0.5377],[-69.6593,11.4824,-0.5],[-69.6579,11.4849,0.2471],[-69.6565,11.4843,1.1991],[-69.6562,11.4804,-0.1681],[-69.659,11.4762,0.0744],[-69.6565,11.4762,-0.5],[-69.654,11.4815,0.1662],[-69.6543,11.4788,-0.5],[-69.6485,11.476,3.9495],[-69.6618,11.4721,1.7762],[-69.6637,11.4685,1.6543],[-69.6671,11.4679,1.3054],[-69.6624,11.4649,0.1234],[-69.661,11.4579,0.7536],[-69.6629,11.4554,2.2293],[-69.6671,11.4529,3.6711],[-69.6718,11.4524,2.0985],[-69.6707,11.4557,0.6111],[-69.6718,11.4574,0.4675],[-69.6701,11.4579,0.4675],[-69.6699,11.4601,0.0],[-69.6738,11.4635,0.0],[-69.6771,11.4635,0.0],[-69.6799,11.4621,0.0764],[-69.6815,11.4574,0.0],[-69.6879,11.4535,0.2564],[-69.6893,11.4507,1.5009],[-69.6926,11.4501,4.3216],[-69.6943,11.4543,0.2889],[-69.6907,11.4546,0.0],[-69.6865,11.4585,0.0],[-69.6843,11.4585,0.0],[-69.6849,11.4615,0.0],[-69.6882,11.4624,0.0],[-69.6871,11.4651,0.0],[-69.6901,11.4654,1.3309],[-69.6924,11.4632,1.333],[-69.6893,11.4601,0.0],[-69.6904,11.4582,0.0],[-69.694,11.4574,0.0],[-69.6974,11.4621,0.0],[-69.7024,11.4618,0.0],[-69.7021,11.4582,0.4843],[-69.7057,11.454,0.0],[-69.7082,11.4546,0.0],[-69.7126,11.4526,0.0],[-69.7199,11.446,0.0],[-69.7262,11.4454,0.0521],[-69.7271,11.4493,0.0],[-69.7296,11.4485,0.0],[-69.7232,11.4538,0.0],[-69.7237,11.456,0.0],[-69.7285,11.4563,0.0],[-69.7307,11.4524,0.0],[-69.7368,11.4554,0.0],[-69.7432,11.4515,0.0],[-69.7435,11.4535,0.0],[-69.746,11.4546,0.0],[-69.7504,11.4521,0.0],[-69.7507,11.4507,0.0],[-69.7471,11.4496,0.0],[-69.7496,11.4474,0.0],[-69.7526,11.446,0.0],[-69.7574,11.4468,0.0],[-69.7613,11.4446,0.0],[-69.7615,11.4421,0.0],[-69.7651,11.4407,0.0],[-69.7682,11.444,0.0],[-69.7715,11.4449,0.0],[-69.7721,11.4429,0.0],[-69.7771,11.4415,0.0],[-69.776,11.4385,0.0],[-69.7846,11.4329,0.0],[-69.7851,11.4299,0.8714],[-69.7974,11.4265,0.9897],[-69.799,11.4229,4.7504],[-69.8012,11.4282,0.7303],[-69.8104,11.4196,3.2395],[-69.8218,11.4207,0.0],[-69.8265,11.4235,3.2245],[-69.8443,11.4221,0.0],[-69.8543,11.4279,0.8603],[-69.8587,11.4274,1.2615],[-69.859,11.431,0.5511],[-69.871,11.436,0.937],[-69.8763,11.4429,0.8367],[-69.869,11.4465,0.5426],[-69.8676,11.4524,0.5544],[-69.8729,11.4476,0.8643],[-69.8785,11.4476,1.2155],[-69.8788,11.4496,1.1893],[-69.8757,11.4518,0.9291],[-69.8699,11.4524,0.6568],[-69.8685,11.4546,0.4861],[-69.8729,11.4532,0.7649],[-69.8707,11.4571,0.2807],[-69.8765,11.4554,0.6411],[-69.8721,11.459,0.2933],[-69.8749,11.4615,0.2748],[-69.8832,11.4576,1.2475],[-69.8793,11.4615,0.9271],[-69.8704,11.4651,0.1612],[-69.8724,11.4663,0.3626],[-69.871,11.4693,0.4913],[-69.8838,11.4638,0.8154],[-69.8907,11.4665,0.5362],[-69.8949,11.4776,0.6554],[-69.8971,11.4785,0.8614],[-69.8938,11.4865,0.2516],[-69.9001,11.4868,0.3914],[-69.8996,11.4896,0.2745],[-69.9046,11.4882,0.3389],[-69.9024,11.4915,0.1663],[-69.8954,11.4929,0.0],[-69.8962,11.4957,0.0],[-69.9021,11.494,0.0725],[-69.9062,11.4882,0.304],[-69.909,11.4876,0.3151],[-69.904,11.4963,-0.1204],[-69.9001,11.4971,-0.0369],[-69.9001,11.499,0.0],[-69.8982,11.4974,0.0],[-69.8996,11.5007,0.0],[-69.9062,11.4949,-0.0536],[-69.9151,11.4901,0.1775],[-69.919,11.4921,-0.0228],[-69.921,11.4999,0.0],[-69.9232,11.501,0.0],[-69.9274,11.4993,-0.1272],[-69.9315,11.5104,-0.1632],[-69.9307,11.5151,0.0],[-69.9238,11.5188,0.0],[-69.9235,11.5204,0.0],[-69.9204,11.5207,0.0],[-69.9201,11.5232,0.0],[-69.9321,11.5171,0.0],[-69.9407,11.5176,0.0],[-69.9421,11.5154,0.0147],[-69.9451,11.5182,0.0],[-69.9471,11.5232,0.0],[-69.9499,11.5226,0.0],[-69.9501,11.5196,0.0],[-69.9526,11.5185,0.0],[-69.9587,11.5068,-0.1557],[-69.9629,11.5043,-0.0452],[-69.9696,11.5037,0.0],[-69.9762,11.499,-0.0384],[-69.9815,11.5026,0.0],[-69.9854,11.5018,-0.0006],[-69.9879,11.5093,0.0],[-69.9924,11.5143,0.0],[-69.9965,11.5101,-0.3356],[-69.9987,11.5107,-0.0582],[-69.9999,11.5093,-0.5436],[-70.0046,11.5188,0.0],[-70.0118,11.5168,0.0],[-70.0137,11.5138,-0.0555],[-70.0182,11.5132,-0.26],[-70.0204,11.5149,0.0065],[-70.0207,11.5118,-0.4117],[-70.0293,11.5096,-0.2099],[-70.0312,11.511,-0.0145],[-70.0335,11.5079,-0.1028],[-70.0349,11.5104,-0.0972],[-70.0418,11.509,0.0619],[-70.049,11.5118,0.09],[-70.0446,11.5071,0.0758],[-70.0476,11.5012,0.0],[-70.0504,11.4893,-1.8455],[-70.0393,11.4907,1.3245],[-70.0365,11.489,0.0775],[-70.0349,11.4851,-0.1024],[-70.0301,11.4829,-0.2273],[-70.0307,11.4771,0.0548],[-70.0321,11.4782,0.0548],[-70.0329,11.4768,-0.041],[-70.0357,11.4771,0.0],[-70.0376,11.4749,0.0004],[-70.0399,11.4674,-0.1743],[-70.0401,11.4474,-0.1927],[-70.0482,11.4363,0.0017],[-70.0568,11.4421,0.0],[-70.0635,11.4515,0.0],[-70.0665,11.4524,0.0],[-70.0685,11.4501,-0.171],[-70.0721,11.4493,0.0],[-70.0754,11.4507,0.0],[-70.0868,11.4468,0.2643],[-70.0874,11.4451,0.493],[-70.0837,11.4421,0.3069],[-70.084,11.4382,-0.0092],[-70.0926,11.4268,3.6839],[-70.0987,11.4243,0.7692],[-70.1285,11.4543,0.0],[-70.1338,11.4629,0.0],[-70.1479,11.4679,0.0],[-70.1585,11.4665,0.0],[-70.1621,11.4624,0.0],[-70.166,11.4607,0.0],[-70.1621,11.4615,0.0],[-70.1574,11.466,0.0],[-70.1529,11.4651,0.0],[-70.1504,11.4665,0.4533],[-70.1479,11.4638,0.7956],[-70.1413,11.4638,0.3239],[-70.1435,11.456,0.0],[-70.1385,11.4518,0.6265],[-70.1429,11.4501,0.9079],[-70.1446,11.4468,0.6976],[-70.1471,11.4354,-0.039],[-70.1465,11.434,-0.039],[-70.1429,11.4346,0.2028],[-70.1457,11.4315,0.0],[-70.1471,11.4268,0.1879],[-70.1446,11.426,-0.0567],[-70.1462,11.4226,0.1149],[-70.1401,11.4254,-0.1994],[-70.141,11.4235,-0.0074],[-70.1471,11.4171,0.0849],[-70.1493,11.4121,0.1078],[-70.1549,11.411,0.0301],[-70.1588,11.4137,0.1412],[-70.1632,11.399,0.0],[-70.1696,11.3899,0.0],[-70.1721,11.3776,1.6521],[-70.1796,11.3735,0.2328],[-70.1857,11.3624,0.1029],[-70.1935,11.3576,0.6652],[-70.2068,11.3554,1.4715],[-70.2185,11.3476,0.843],[-70.2365,11.3426,0.4063],[-70.2191,11.3229,19.9394],[-70.2116,11.311,30.5768],[-70.1979,11.2814,49.233],[-70.1615,11.2481,84.3176],[-70.1542,11.2337,103.8859],[-70.1476,11.2267,137.3813],[-70.1399,11.2232,150.0744],[-70.1312,11.2148,166.2715],[-70.1286,11.1991,128.7556],[-70.1229,11.1198,500.9882],[-70.1215,11.1153,534.5776],[-70.1165,11.1125,570.3557],[-70.1077,11.113,396.6404],[-70.085,11.1274,350.1641],[-70.055,11.156,253.8402],[-70.0321,11.1739,425.8105],[-70.008,11.1903,187.9004],[-69.9621,11.2145,304.8989],[-69.943,11.2272,502.7612],[-69.9342,11.229,617.8163],[-69.9221,11.2279,469.5579],[-69.9063,11.2198,385.5558],[-69.8899,11.1912,435.9071],[-69.8839,11.1863,422.7746],[-69.8039,11.1934,521.855],[-69.7935,11.1914,560.3314],[-69.7785,11.192,384.5407],[-69.7529,11.2225,393.6506],[-69.7483,11.2269,389.952],[-69.7438,11.2284,432.087],[-69.7383,11.2284,476.8012],[-69.7347,11.2267,518.5121],[-69.7274,11.2053,855.1211],[-69.7025,11.1984,1060.2494],[-69.6893,11.201,1287.2101],[-69.6249,11.2218,1302.6367],[-69.5798,11.2309,1197.2427],[-69.5536,11.2531,913.175],[-69.523,11.2835,1012.3529],[-69.4488,11.3656,138.4726],[-69.4507,11.3725,152.6475],[-69.4607,11.3866,157.405],[-69.4733,11.3996,318.2334],[-69.488,11.3905,311.8254],[-69.4962,11.3873,286.5788],[-69.5286,11.3786,324.7274],[-69.6062,11.3731,245.5414],[-69.6086,11.3942,40.7713],[-69.6026,11.4332,6.901],[-69.5995,11.4423,6.3042],[-69.5917,11.4553,2.467]]],
[[[-70.0762,11.509,0.0316],[-70.076,11.5107,-0.0354],[-70.0788,11.5104,0.249],[-70.0799,11.5074,0.0],[-70.0774,11.5076,0.0],[-70.0762,11.509,0.0316]]],
[[[-70.0532,11.514,-0.0641],[-70.0557,11.5146,-0.0887],[-70.0565,11.5138,-0.0887],[-70.0532,11.5129,0.0054],[-70.0532,11.514,-0.0641]]],
[[[-70.1051,11.5307,0.0],[-70.1165,11.5307,0.0],[-70.1174,11.5299,0.0],[-70.1062,11.5301,0.0777],[-70.1057,11.529,0.0777],[-70.1207,11.5276,0.0],[-70.1182,11.5224,0.229],[-70.119,11.5201,0.0],[-70.1137,11.5193,-0.0521],[-70.1126,11.5221,0.0268],[-70.1099,11.5215,0.8034],[-70.1113,11.5232,-0.1038],[-70.1096,11.5263,0.0517],[-70.1076,11.5257,-0.1012],[-70.0965,11.5296,-0.0051],[-70.0993,11.5301,-0.0284],[-70.1035,11.5288,0.0],[-70.1051,11.5307,0.0]]],
[[[-70.1363,11.5649,0.0],[-70.139,11.5654,0.0],[-70.1387,11.5621,0.0],[-70.1293,11.5529,0.0599],[-70.1293,11.5493,0.072],[-70.1265,11.5465,0.0434],[-70.1249,11.5468,0.0434],[-70.1249,11.5493,-0.1344],[-70.1232,11.5501,0.2712],[-70.1199,11.5488,-0.0877],[-70.1199,11.5465,0.1037],[-70.1129,11.5407,0.0393],[-70.1043,11.5415,-0.0895],[-70.0901,11.531,0.0407],[-70.0826,11.5326,-0.0116],[-70.089,11.529,0.0484],[-70.0957,11.5301,-0.0037],[-70.0987,11.5274,-0.0168],[-70.0968,11.5201,-0.0061],[-70.079,11.521,-0.0467],[-70.0804,11.5182,-0.1136],[-70.0837,11.5179,-0.0941],[-70.0832,11.5149,-0.6975],[-70.0865,11.5132,0.027],[-70.0854,11.5118,0.0],[-70.0818,11.5118,0.0],[-70.0768,11.5176,-0.0718],[-70.0701,11.5201,-0.2387],[-70.0682,11.5201,-0.2423],[-70.0682,11.5182,-0.1515],[-70.0743,11.5165,-0.0275],[-70.0746,11.5143,0.0934],[-70.0701,11.5154,-0.7227],[-70.0668,11.5129,0.0],[-70.0635,11.5151,0.0197],[-70.0574,11.5146,-0.0631],[-70.0571,11.5176,0.0123],[-70.0663,11.5235,-0.1235],[-70.0735,11.5304,0.1332],[-70.0857,11.5368,0.0],[-70.0963,11.539,-0.0952],[-70.1157,11.5521,-0.0572],[-70.1246,11.5604,-0.0057],[-70.1363,11.5649,0.0]]],
[[[-70.136,11.5551,0.277],[-70.1343,11.5549,0.0],[-70.1338,11.556,0.2971],[-70.1368,11.556,0.4365],[-70.136,11.5551,0.277]]]]}}