{"type":"Feature","properties":{"GID_2":"VEN.25.2_1","GID_0":"VEN","country":"Venezuela","GID_1":"VEN.25_1","province":"Zulia","NL_NAME_1":"NA","county":"Baralt","VARNAME_2":"NA","NL_NAME_2":"NA","TYPE_2":"Municipio","ENGTYPE_2":"Municipality","CC_2":"NA","HASC_2":"NA","name":"Baralt.county"},
"geometry":{"type": "MultiPolygon","coordinates": [[[[-70.7336,10.3358,951.8131],[-70.7313,10.3006,1438.3025],[-70.7337,10.288,1416.0991],[-70.7402,10.2819,1106.8093],[-70.7491,10.2772,866.1686],[-70.7611,10.2742,647.8389],[-70.7832,10.2732,846.8327],[-70.805,10.2567,412.9897],[-70.8152,10.2467,447.4733],[-70.8433,10.2086,286.4751],[-70.8635,10.1946,228.0022],[-70.8919,10.1795,159.3345],[-70.9043,10.1639,166.2135],[-70.9166,10.1339,166.5154],[-70.926,10.1194,114.3235],[-70.9494,10.0956,97.6322],[-70.9525,10.0872,122.147],[-70.9548,10.0697,94.5068],[-70.9557,10.0363,78.4754],[-70.9588,10.0268,112.7898],[-70.9719,10.0152,81.6833],[-70.9766,10.0045,64.2618],[-70.9883,9.9616,17.8356],[-70.9919,9.9286,10.3314],[-70.9993,9.9181,9.6996],[-71.0194,9.903,9.1107],[-71.0879,9.8639,0.0],[-71.079,9.8451,2.0736],[-71.0771,9.8329,5.4236],[-71.0785,9.8301,0.9637],[-71.0779,9.8235,2.3184],[-71.0815,9.8215,4.45],[-71.0832,9.8232,3.6844],[-71.0804,9.8296,7.382],[-71.0813,9.8321,0.0],[-71.084,9.831,0.0],[-71.0865,9.8263,0.0],[-71.0885,9.8204,0.0],[-71.0868,9.8099,1.7103],[-71.0885,9.8068,0.4133],[-71.0915,9.806,0.0],[-71.0896,9.8015,0.0],[-71.0915,9.7988,0.0],[-71.0857,9.7996,1.9546],[-71.079,9.7949,1.0018],[-71.0751,9.7868,0.0],[-71.0685,9.7804,0.5176],[-71.069,9.7776,0.0],[-71.066,9.7771,0.6226],[-71.0657,9.7735,0.0],[-71.0638,9.7738,0.0],[-71.0574,9.7657,0.5135],[-71.051,9.7526,0.0],[-71.0382,9.7415,0.4697],[-71.031,9.7279,0.0],[-71.0265,9.7104,1.3367],[-71.0312,9.7093,0.8912],[-71.036,9.7115,1.6657],[-71.0393,9.7043,0.0],[-71.0424,9.7018,3.2036],[-71.0449,9.7018,0.0],[-71.0485,9.6946,3.1124],[-71.0501,9.6838,0.6683],[-71.046,9.6701,0.8679],[-71.0499,9.6587,8.1212],[-71.0515,9.6385,0.7807],[-71.0551,9.6304,0.0],[-71.061,9.6232,1.9825],[-71.0607,9.6131,1.2959],[-70.9991,9.601,7.2978],[-70.9764,9.5991,7.9686],[-70.9454,9.599,12.5731],[-70.9027,9.5928,18.0469],[-70.8761,9.5963,24.3882],[-70.858,9.6015,26.8671],[-70.8401,9.6136,26.7542],[-70.7867,9.6679,28.5474],[-70.765,9.6908,29.7277],[-70.736,9.7258,249.466],[-70.7163,9.7457,371.9001],[-70.6973,9.7619,701.1609],[-70.646,9.783,441.9602],[-70.6349,9.7959,484.1496],[-70.6329,9.8099,515.5142],[-70.64,9.8321,605.6891],[-70.6552,9.8688,705.1681],[-70.662,9.9007,622.0124],[-70.6805,9.9016,875.3075],[-70.6957,9.9098,825.4392],[-70.712,9.9237,643.8486],[-70.7217,9.9345,626.5038],[-70.7331,9.9427,497.45],[-70.7699,9.9549,545.4628],[-70.7899,9.9647,329.2535],[-70.8082,9.9809,228.7979],[-70.843,10.0207,346.0982],[-70.855,10.038,296.9418],[-70.8611,10.0566,215.1186],[-70.8608,10.0779,244.4401],[-70.8544,10.092,430.321],[-70.838,10.108,596.3786],[-70.7744,10.1474,558.6105],[-70.7329,10.1698,1258.8795],[-70.7159,10.1828,1046.0007],[-70.7032,10.1989,1281.0929],[-70.6863,10.2532,1156.6685],[-70.6686,10.2847,1597.7574],[-70.657,10.3018,1773.7505],[-70.6577,10.3051,1857.4917],[-70.6914,10.3073,1326.8416],[-70.7078,10.313,1389.859],[-70.7161,10.3171,1260.1561],[-70.7281,10.327,1106.6196],[-70.7336,10.3358,951.8131]]]]}}