{"type": "Feature","bbox": [-72.4879,7.8522,-72.3564,8.0349],"geometry": {"type": "MultiPolygon","coordinates": [[[[-72.4604,7.9026,303.6823],[-72.46,7.8983,307.4231],[-72.458,7.8967,311.5854],[-72.46,7.8948,310.5637],[-72.4584,7.8935,314.3525],[-72.4593,7.8915,318.8246],[-72.4572,7.8903,317.2942],[-72.4593,7.8866,324.4573],[-72.4563,7.8856,322.4168],[-72.4582,7.8816,330.0223],[-72.4551,7.8806,329.8832],[-72.4548,7.8784,332.6335],[-72.4524,7.8774,331.7867],[-72.452,7.8733,339.2172],[-72.4482,7.8705,341.8414],[-72.4506,7.867,352.0798],[-72.445,7.8595,355.1064],[-72.4331,7.8563,444.2683],[-72.4005,7.8522,1162.9952],[-72.3972,7.8534,1140.2054],[-72.4001,7.878,996.7766],[-72.389,7.8798,1116.7253],[-72.3756,7.8845,1136.3549],[-72.3817,7.9039,1143.8024],[-72.387,7.9325,1105.2153],[-72.3952,7.9361,1162.7916],[-72.3899,7.9503,1144.592],[-72.3766,7.9722,769.5966],[-72.3711,7.9781,971.7667],[-72.3641,7.9958,1566.7188],[-72.3564,8.0069,1282.4711],[-72.363,8.0104,1046.4696],[-72.366,8.0176,847.75],[-72.3682,8.0196,800.2994],[-72.3715,8.0197,816.8707],[-72.3775,8.0249,635.4714],[-72.3785,8.0298,577.3265],[-72.3832,8.0337,492.6787],[-72.3903,8.0349,423.4523],[-72.3945,8.032,357.9169],[-72.3975,8.0328,316.9493],[-72.3983,8.0316,333.0138],[-72.4034,8.0346,271.1385],[-72.4158,8.0335,199.2973],[-72.4173,8.0314,240.0788],[-72.4141,8.021,208.6461],[-72.4166,8.021,210.1722],[-72.4176,8.0182,233.7389],[-72.4201,8.0171,262.8964],[-72.4191,8.0118,218.3815],[-72.4231,8.0087,254.7428],[-72.4222,8.0029,238.896],[-72.4193,8.0014,225.0841],[-72.4204,7.9957,228.0225],[-72.4229,7.9951,232.8248],[-72.4276,7.9894,236.8167],[-72.4307,7.9898,243.3271],[-72.4329,7.9925,246.0844],[-72.4389,7.9919,270.299],[-72.4411,7.9862,277.5901],[-72.4443,7.9842,322.9332],[-72.4413,7.9801,259.8788],[-72.4418,7.976,256.5369],[-72.4492,7.9715,292.9358],[-72.4474,7.9686,254.5209],[-72.4602,7.9667,271.6912],[-72.4619,7.964,261.3548],[-72.4756,7.9601,286.2826],[-72.476,7.9557,264.4421],[-72.4839,7.9509,306.0813],[-72.4833,7.9481,273.7949],[-72.4879,7.9443,274.0081],[-72.4864,7.9407,266.1226],[-72.4878,7.9374,269.1448],[-72.484,7.9343,268.0626],[-72.4849,7.9311,269.3257],[-72.4811,7.9295,272.6339],[-72.4799,7.9265,273.7889],[-72.4765,7.9306,277.0258],[-72.4748,7.9281,278.3817],[-72.4776,7.9236,282.0821],[-72.4745,7.9234,283.8038],[-72.4738,7.9249,279.2062],[-72.4669,7.9225,285.2769],[-72.4678,7.9187,288.8087],[-72.4648,7.919,285.2956],[-72.4619,7.9137,293.3178],[-72.4583,7.9117,295.6887],[-72.4587,7.9089,299.8995],[-72.463,7.9085,303.9786],[-72.4604,7.9026,303.6823]]]]}
,"properties": {"GID_2": "VEN.21.20_1","GID_0": "VEN","country": "Venezuela","GID_1": "VEN.21_1","province": "Táchira","NL_NAME_1": "NA","county": "PedroMaríaUreña","VARNAME_2": "NA","NL_NAME_2": "NA","TYPE_2": "Municipio","ENGTYPE_2": "Municipality","CC_2": "NA","HASC_2": "NA","name": "Pedro_María_Ureña.county","area_km2": 154.8036,"hist_schema_id": "Elevation0-9000","hist_area_km2": {"200": 0.7348,"225": 2.0995,"250": 5.0182,"275": 16.1478,"300": 11.9693,"325": 11.2346,"350": 8.3579,"375": 4.9769,"400": 4.6828,"425": 3.8429,"450": 3.9058,"475": 4.1158,"500": 4.1578,"525": 3.6538,"550": 4.2418,"575": 3.7378999999999998,"600": 3.5278,"625": 3.7588,"650": 3.4648,"675": 3.4229,"700": 2.8349,"725": 2.9189,"750": 3.2759,"775": 2.3938,"800": 2.3939,"825": 1.9529,"850": 2.0789,"875": 1.9739,"900": 1.9949,"925": 1.7219,"950": 1.7009,"975": 1.6589,"1000": 1.554,"1025": 1.4279,"1050": 1.6589,"1075": 1.3019,"1100": 1.7849,"1125": 1.806,"1150": 1.68,"1175": 1.6169,"1200": 1.4279,"1225": 1.1129,"1250": 1.3019,"1275": 1.008,"1300": 0.735,"1325": 0.378,"1350": 0.315,"1375": 0.294,"1400": 0.273,"1425": 0.2729,"1450": 0.21,"1475": 0.168,"1500": 0.168,"1525": 0.063,"1550": 0.042,"1575": 0.084,"1600": 0.126,"1625": 0.042}}}