{"type": "Feature","bbox": [-65.1053,9.7911,-64.9607,10.0653],"geometry": {"type": "MultiPolygon","coordinates": [[[[-64.9982,9.7911,32.5016],[-64.9833,9.8144,36.7955],[-64.9795,9.8243,47.0628],[-64.9801,9.8314,44.4302],[-64.9831,9.8386,50.8561],[-65.0028,9.863,45.3385],[-65.0277,9.8819,42.0786],[-65.0321,9.8890999999999991,39.7146],[-65.0333,9.8971,62.1618],[-65.0301,9.9064,58.4915],[-65.0038,9.9205,77.2708],[-64.9932,9.9281,95.616],[-64.9786,9.9443,126.1957],[-64.9698,9.9623,188.1677],[-64.9665,9.973,204.0902],[-64.9607,10.0146,358.0596],[-64.9687,10.0208,383.3721],[-64.9828,10.0234,442.9201],[-64.9891,10.0286,376.2719],[-64.9933,10.0426,226.1613],[-64.9934,10.0588,83.5827],[-65.0008,10.0653,45.3764],[-65.0073,10.064,43.0396],[-65.0254,10.0502,74.6114],[-65.0379,10.043,120.9188],[-65.0561,10.0246,86.678],[-65.0645,10.0102,97.5461],[-65.0687,9.9985,87.2416],[-65.0694,9.9883,98.1591],[-65.068,9.9414,67.5931],[-65.0625,9.902,68.3057],[-65.063,9.8878,42.1342],[-65.0724,9.8616,21.5728],[-65.076,9.8446,18.5088],[-65.0848,9.8263,19.6383],[-65.0945,9.8189,30.5758],[-65.1013,9.8174,25.8917],[-65.1053,9.8219,23.1196],[-65.1022,9.792,17.5341],[-64.9982,9.7911,32.5016]]]]}
,"properties": {"GID_2": "VEN.2.18_1","GID_0": "VEN","country": "Venezuela","GID_1": "VEN.2_1","province": "Anzoátegui","NL_NAME_1": "NA","county": "Píritu","VARNAME_2": "NA","NL_NAME_2": "NA","TYPE_2": "Municipio","ENGTYPE_2": "Municipality","CC_2": "NA","HASC_2": "NA","name": "Píritu.county","area_km2": 256.6799,"hist_schema_id": "Elevation0-9000","hist_area_km2": {"0": 0.2716,"25": 68.9608,"50": 40.7137,"75": 29.0078,"100": 29.1099,"125": 18.5635,"150": 15.0968,"175": 11.2545,"200": 8.8116,"225": 7.5795,"250": 5.2617,"275": 4.2594,"300": 3.8001,"325": 3.5495,"350": 3.3198,"375": 2.5682,"400": 2.1714,"425": 1.4824,"450": 0.8143,"475": 0.0835}}}