{"type":"Feature","properties":{"GID_2":"VEN.24.12_1","GID_0":"VEN","country":"Venezuela","GID_1":"VEN.24_1","province":"Yaracuy","NL_NAME_1":"NA","county":"Sucre","VARNAME_2":"NA","NL_NAME_2":"NA","TYPE_2":"Municipio","ENGTYPE_2":"Municipality","CC_2":"NA","HASC_2":"NA","name":"Sucre.county"},
"geometry":{"type": "MultiPolygon","coordinates": [[[[-68.777,10.2542,231.3916],[-68.7582,10.2549,197.8357],[-68.746,10.258,180.3144],[-68.7443,10.2533,174.6185],[-68.7362,10.2444,156.2863],[-68.6887,10.2063,546.4225],[-68.6837,10.2092,618.9474],[-68.6608,10.2348,693.2521],[-68.6431,10.248,889.2055],[-68.6737,10.2701,331.8937],[-68.72,10.2936,164.008],[-68.715,10.3181,161.7878],[-68.726,10.3263,203.3598],[-68.7448,10.3523,330.1278],[-68.7504,10.3543,392.6625],[-68.761,10.3688,683.3445],[-68.7663,10.3804,836.7153],[-68.7706,10.4012,1584.3323],[-68.7753,10.4047,1629.0043],[-68.7873,10.3997,1621.8912],[-68.8085,10.3954,1531.9568],[-68.8194,10.3899,1410.9626],[-68.8268,10.3837,1542.7695],[-68.8184,10.3635,1684.2211],[-68.8134,10.3578,1363.5021],[-68.8084,10.3578,1143.5012],[-68.8027,10.3492,961.5281],[-68.7935,10.3179,461.2065],[-68.7849,10.3015,366.5343],[-68.7799,10.2794,278.3101],[-68.7799,10.2623,250.9928],[-68.777,10.2542,231.3916]]]]}}