{"type": "Feature","bbox": [-72.3026,7.6331,-72.0484,7.7784],"geometry": {"type": "MultiPolygon","coordinates": [[[[-72.2871,7.7644,1126.4146],[-72.295,7.7619,1180.4353],[-72.3002,7.7577,1146.8853],[-72.3026,7.7537,1047.1029],[-72.3025,7.7475,1168.2397],[-72.2978,7.7336,1082.2932],[-72.2856,7.7089,750.4688],[-72.2702,7.6839,619.5314],[-72.2712,7.6781,661.8231],[-72.2793,7.6693,679.6293],[-72.251,7.6439,645.3008],[-72.2425,7.6331,740.6094],[-72.23,7.6484,533.5164],[-72.2243,7.6598,550.6039],[-72.2215,7.6693,667.7805],[-72.2215,7.675,729.3807],[-72.2262,7.6816,856.7333],[-72.2215,7.6902,1088.1887],[-72.212,7.6902,1097.3341],[-72.1996,7.6759,768.1383],[-72.1845,7.6683,530.6926],[-72.1038,7.6617,1054.7018],[-72.1028,7.6522,865.6542],[-72.1009,7.6493,743.7839],[-72.0905,7.6512,786.8056],[-72.0857,7.655,951.1287],[-72.0762,7.6579,583.735],[-72.061,7.6617,468.8746],[-72.0499,7.6621,593.5112],[-72.0484,7.6634,637.2698],[-72.0552,7.677,993.7849],[-72.0602,7.6916,827.9468],[-72.0634,7.7065,802.1147],[-72.064,7.7326,915.8105],[-72.0682,7.741,567.3652],[-72.0775,7.7491,969.8849],[-72.1111,7.7638,1198.7748],[-72.1267,7.7754,1865.6019],[-72.134,7.778,2051.9343],[-72.145,7.7784,2211.1125],[-72.1939,7.7705,1250.787],[-72.2246,7.7727,892.9012],[-72.2371,7.7719,781.1449],[-72.254,7.7675,870.0455],[-72.2611,7.7615,781.9401],[-72.2692,7.7513,764.106],[-72.2739,7.7507,816.8601],[-72.2871,7.7644,1126.4146]]]]}
,"properties": {"GID_2": "VEN.21.23_1","GID_0": "VEN","country": "Venezuela","GID_1": "VEN.21_1","province": "Táchira","NL_NAME_1": "NA","county": "SanCristóbal","VARNAME_2": "NA","NL_NAME_2": "NA","TYPE_2": "Municipio","ENGTYPE_2": "Municipality","CC_2": "NA","HASC_2": "NA","name": "San_Cristóbal.county","area_km2": 289.1437,"hist_schema_id": "Elevation0-9000","hist_area_km2": {"425": 0.3782,"450": 0.4413,"475": 0.9455,"500": 1.2607,"525": 2.1432,"550": 4.2445,"575": 4.7907,"600": 5.4211,"625": 7.7954,"650": 9.1821,"675": 10.0645,"700": 10.5686,"725": 11.1358,"750": 11.745,"775": 11.7659,"800": 12.4592,"825": 13.6147,"850": 11.3876,"875": 12.1649,"900": 10.7362,"925": 10.2529,"950": 9.8958,"975": 9.9588,"1000": 8.0679,"1025": 8.152,"1050": 7.2695,"1075": 6.366,"1100": 5.5887,"1125": 4.7693,"1150": 3.5717,"1175": 4.181,"1200": 3.7398,"1225": 3.6768,"1250": 3.4876,"1275": 3.0464,"1300": 3.1514,"1325": 2.4791,"1350": 1.9328,"1375": 1.7648,"1400": 2.0379,"1425": 1.6387,"1450": 1.5126,"1475": 1.7647,"1500": 1.3866,"1525": 1.3656,"1550": 1.3025,"1575": 1.5546,"1600": 1.4286,"1625": 1.2185,"1650": 1.4916,"1675": 1.6387,"1700": 1.5336,"1725": 1.5336,"1750": 1.1345,"1775": 1.3445,"1800": 1.0924,"1825": 1.2605,"1850": 0.8613,"1875": 1.3025,"1900": 1.0294,"1925": 0.7563,"1950": 0.7563,"1975": 0.7143,"2000": 0.5882,"2025": 0.6933,"2050": 0.5252,"2075": 0.3781,"2100": 0.4832,"2125": 0.3361,"2150": 0.3781,"2175": 0.2521,"2200": 0.126,"2225": 0.084,"2250": 0.021,"2275": 0.021}}}