{"type":"Feature","properties":{"GID_2":"VEN.2.15_1","GID_0":"VEN","country":"Venezuela","GID_1":"VEN.2_1","province":"Anzoátegui","NL_NAME_1":"NA","county":"Lic.DiegoBautistaUrban","VARNAME_2":"NA","NL_NAME_2":"NA","TYPE_2":"Municipio","ENGTYPE_2":"Municipality","CC_2":"NA","HASC_2":"NA","name":"Lic.Diego_Bautista_Urban.county"},
"geometry":{"type": "MultiPolygon","coordinates": [[[[-64.6628,10.1982,3.7021],[-64.6609,10.1988,8.0619],[-64.6687,10.2054,3.3841],[-64.6738,10.2032,6.0057],[-64.6768,10.204,0.0],[-64.6835,10.2021,0.0],[-64.7024,10.2043,0.4545],[-64.6974,10.2001,0.0],[-64.6965,10.1949,0.0],[-64.6628,10.1982,3.7021]]],
[[[-64.7029,10.2043,1.4229],[-64.7063,10.2071,1.5985],[-64.7043,10.2146,0.0],[-64.7049,10.2196,14.4089],[-64.7065,10.2204,14.4089],[-64.7057,10.2246,4.9064],[-64.7071,10.2249,3.096],[-64.7107,10.2193,42.3208],[-64.7107,10.2118,113.8811],[-64.7129,10.2118,70.6149],[-64.7138,10.209,0.0],[-64.711,10.2076,13.014099999999999],[-64.7112,10.2054,0.0],[-64.7093,10.2043,1.2217],[-64.7029,10.2043,1.4229]]]]}}