{"type": "Feature","bbox": [-69.5041,7.8492,-68.6392,8.6392],"geometry": {"type": "MultiPolygon","coordinates": [[[[-68.6392,7.9491,64.9911],[-68.6987,8.1127,69.4762],[-68.7112,8.1077,68.8487],[-68.7254,8.0984,68.7057],[-68.7371,8.0876,64.7906],[-68.7528,8.0773,74.0012],[-68.7768,8.0674,68.3662],[-68.7865,8.0664,73.2579],[-68.7991,8.0714,67.0748],[-68.8059,8.0669,66.3383],[-68.8196,8.0677,75.6686],[-68.8437,8.0797,67.4323],[-68.8617,8.0913,67.6775],[-68.9213,8.138,69.2478],[-68.9603,8.1652,71.2831],[-68.9684,8.1759,70.3997],[-68.9696,8.1875,70.0709],[-68.9686,8.2047,70.0786],[-68.9718,8.2122,82.2099],[-68.9871,8.2267,70.7924],[-69.0064,8.2385,81.6346],[-69.0479,8.2576,73.7421],[-69.0681,8.2691,79.9892],[-69.0807,8.2799,75.0375],[-69.0839,8.2886,75.628],[-69.0854,8.3071,76.4031],[-69.0896,8.3264,76.73],[-69.1089,8.354,77.7473],[-69.1117,8.3777,79.7553],[-69.1114,8.3914,79.1169],[-69.1242,8.4382,82.7126],[-69.1354,8.4573,83.79],[-69.1521,8.4792,82.4746],[-69.2298,8.5441,92.8781],[-69.3098,8.5602,90.3102],[-69.3897,8.5941,93.4199],[-69.4492,8.6143,98.0729],[-69.4767,8.6321,99.3912],[-69.4831,8.6392,111.9586],[-69.4913,8.3338,93.361],[-69.4961,8.2949,92.1184],[-69.5041,8.257,93.134],[-69.4975,8.1938,92.7859],[-69.4925,8.1811,93.949],[-69.4767,8.153,89.7414],[-69.4508,8.1164,84.9963],[-69.441,8.0995,89.9715],[-69.4337,8.0992,83.9451],[-69.4189,8.0932,82.9865],[-69.4129,8.0884,87.5075],[-69.4075,8.0803,81.0447],[-69.388,8.074,88.0526],[-69.3762,8.0679,81.3876],[-69.3681,8.0617,79.5035],[-69.3594,8.0595,79.1136],[-69.3454,8.0642,76.0],[-69.3328,8.082,80.5615],[-69.3239,8.0855,78.7744],[-69.3005,8.0875,79.251],[-69.2863,8.087,77.4278],[-69.2432,8.0816,76.1814],[-69.229,8.078,77.797],[-69.1882,8.0787,79.7465],[-69.1785,8.0754,76.0035],[-69.1535,8.0607,75.5909],[-69.1459,8.0575,76.3066],[-69.1389,8.0568,75.7951],[-69.1314,8.0524,84.8198],[-69.1281,8.0471,75.5672],[-69.1252,8.0387,77.9572],[-69.125,8.0181,75.3836],[-69.1275,8.0104,84.506],[-69.1337,8.0029,75.1202],[-69.135,7.999,75.9916],[-69.1348,7.9932,73.2316],[-69.1318,7.9885,72.7725],[-69.1258,7.9836,76.0969],[-69.117,7.981,74.9132],[-69.0955,7.9797,74.1983],[-69.0858,7.9768,81.2557],[-69.0662,7.9662,73.1311],[-69.0562,7.9632,73.5872],[-69.0437,7.9631,74.5584],[-69.0411,7.9736,73.6919],[-69.0316,7.979,77.3968],[-69.0123,7.9734,71.9338],[-68.9797,7.973,69.8011],[-68.9706,7.9706,69.6717],[-68.9652,7.9655,69.456],[-68.9584,7.9249,68.8288],[-68.9552,7.9168,68.7867],[-68.9442,7.9023,66.9734],[-68.9386,7.8962,68.7176],[-68.9058,7.8771,67.9898],[-68.898,7.8709,68.2088],[-68.8625,7.8547,68.1164],[-68.8395,7.8571,66.6084],[-68.8276,7.8564,66.4025],[-68.7954,7.8492,67.3384],[-68.7371,7.8584,64.7001],[-68.722,7.8697,65.2246],[-68.7127,7.88,66.4095],[-68.7004,7.9041,65.093],[-68.6635,7.9209,64.1238],[-68.6482,7.9337,65.7725],[-68.6392,7.9491,64.9911]]]]}
,"properties": {"GID_2": "VEN.5.12_1","GID_0": "VEN","country": "Venezuela","GID_1": "VEN.5_1","province": "Barinas","NL_NAME_1": "NA","county": "Sosa","VARNAME_2": "NA","NL_NAME_2": "NA","TYPE_2": "Municipio","ENGTYPE_2": "Municipality","CC_2": "NA","HASC_2": "NA","name": "Sosa.county","area_km2": 3548.164,"hist_schema_id": "Elevation0-9000","hist_area_km2": {"50": 4.641,"75": 2635.821,"100": 907.471,"125": 0.231}}}