{"type":"Feature","properties":{"GID_2":"VEN.25.1_1","GID_0":"VEN","country":"Venezuela","GID_1":"VEN.25_1","province":"Zulia","NL_NAME_1":"NA","county":"AlmirantePadilla","VARNAME_2":"NA","NL_NAME_2":"NA","TYPE_2":"Municipio","ENGTYPE_2":"Municipality","CC_2":"NA","HASC_2":"NA","name":"Almirante_Padilla.county"},
"geometry":{"type": "MultiPolygon","coordinates": [[[[-71.5304,10.9304,1.078],[-71.5301,10.9332,0.0],[-71.5346,10.9332,3.9017],[-71.5368,10.9315,0.0],[-71.5343,10.929,3.5244],[-71.5304,10.9304,1.078]]],
[[[-71.5963,10.9435,0.2197],[-71.5985,10.944,0.0],[-71.601,10.9421,0.0],[-71.6021,10.9354,2.3925],[-71.5999,10.9307,3.1194],[-71.5996,10.9185,0.0],[-71.5968,10.9199,0.7134],[-71.5957,10.9276,0.6139],[-71.5935,10.9285,0.0],[-71.5912,10.9351,0.0],[-71.5926,10.9404,0.9035],[-71.5963,10.9435,0.2197]]],
[[[-71.586,10.999,0.3917],[-71.5896,10.9793,0.2853],[-71.584,10.9796,0.3854],[-71.5813,10.9826,0.694],[-71.5788,10.9829,0.9043],[-71.5732,10.9765,1.2063],[-71.5765,10.9726,0.1655],[-71.566,10.9704,0.4855],[-71.5651,10.9682,0.0],[-71.5604,10.9688,0.7977],[-71.5576,10.966,0.991],[-71.5576,10.9635,0.0],[-71.5557,10.964,1.1167],[-71.554,10.9624,0.3608],[-71.5457,10.9654,2.6905],[-71.546,10.9626,1.2222],[-71.5432,10.961,6.7064],[-71.5449,10.9563,0.0],[-71.5418,10.9526,7.2377],[-71.5407,10.9482,1.2758],[-71.5349,10.9476,7.3862],[-71.5354,10.9457,9.3159],[-71.5338,10.9446,10.2581],[-71.5379,10.9443,3.5868],[-71.5376,10.9393,1.7602],[-71.5293,10.9371,8.3102],[-71.5271,10.9301,0.0],[-71.5224,10.9301,3.1904],[-71.5282,10.9385,8.3102],[-71.5304,10.9454,6.3841],[-71.529,10.9543,0.0],[-71.5354,10.9629,0.0],[-71.5632,10.9849,2.0417],[-71.586,10.999,0.3917]]],
[[[-71.6193,10.9907,4.1184],[-71.6224,10.991,3.7885],[-71.6243,10.9882,0.0],[-71.629,10.9682,8.7578],[-71.6249,10.9599,0.0],[-71.621,10.956,0.0],[-71.6193,10.9546,0.0],[-71.6137,10.9546,0.0],[-71.6068,10.9582,0.4808],[-71.6065,10.9665,2.9426],[-71.6043,10.9696,0.0],[-71.6076,10.9765,0.5004],[-71.616,10.9835,2.9553],[-71.6168,10.9888,6.7468],[-71.6193,10.9907,4.1184]]],
[[[-71.661,10.9651,3.4004],[-71.6674,10.9649,10.9059],[-71.6699,10.9599,20.6783],[-71.6718,10.9599,12.8786],[-71.6732,10.9624,0.0],[-71.6813,10.9613,2.2403],[-71.681,10.9582,0.0],[-71.6749,10.9546,4.1302],[-71.6762,10.9521,2.107],[-71.6726,10.9538,6.478],[-71.6693,10.9515,0.0],[-71.6637,10.9515,1.8644],[-71.6624,10.9496,0.0],[-71.6588,10.9493,0.0],[-71.6501,10.9496,0.0],[-71.6465,10.9535,0.0],[-71.639,10.9538,9.7716],[-71.6349,10.9515,0.0],[-71.631,10.9518,0.0],[-71.6249,10.9554,5.2438],[-71.6407,10.9601,0.0],[-71.6449,10.9596,0.322],[-71.6462,10.9613,0.0],[-71.661,10.9651,3.4004]]],
[[[-71.6304,10.9726,0.0],[-71.6335,10.9729,0.0],[-71.6346,10.9707,0.0],[-71.6338,10.9671,0.0],[-71.6299,10.9688,4.6752],[-71.6304,10.9726,0.0]]],
[[[-71.6849,10.9912,6.6154],[-71.6874,10.9915,0.0],[-71.6876,10.9901,0.0],[-71.6846,10.9857,0.0],[-71.6826,10.9888,5.7802],[-71.6849,10.9912,6.6154]]],
[[[-71.7701,11.0246,15.3701],[-71.7675,11.0135,9.2943],[-71.7646,11.0114,4.4362],[-71.7637,11.0135,11.5644],[-71.7582,11.0115,0.0],[-71.7538,11.0146,3.2324],[-71.7396,11.0187,0.0],[-71.7115,11.0051,0.0],[-71.7074,11.0051,0.2276],[-71.7024,10.9999,2.7565],[-71.6957,10.9965,0.0],[-71.6835,10.9976,10.551],[-71.6735,10.9954,0.0],[-71.6687,10.996,8.599],[-71.6674,10.9937,15.3453],[-71.6676,10.9888,15.2151],[-71.6735,10.9815,7.4541],[-71.6743,10.9774,2.0967],[-71.6665,10.979,15.7374],[-71.6612,10.976,1.6746],[-71.6518,10.9812,12.7275],[-71.6515,10.9857,5.2645],[-71.649,10.9882,4.8999],[-71.6471,10.9874,5.4097],[-71.6468,10.9824,6.113],[-71.6432,10.9743,2.2673],[-71.6326,10.9743,0.0],[-71.6293,10.9768,2.0344],[-71.6276,10.9824,2.1936],[-71.6296,10.9824,0.0],[-71.6326,10.9793,6.4461],[-71.6338,10.9804,19.8252],[-71.6318,10.981,12.4073],[-71.6293,10.986,14.9388],[-71.6224,10.9932,1.414],[-71.619,10.9929,0.444],[-71.6151,10.9901,0.0],[-71.6135,10.9843,0.6874],[-71.6082,10.9843,0.3177],[-71.6068,10.9863,1.462],[-71.6093,10.9862,1.3172],[-71.6118,10.9893,0.0],[-71.6121,10.9943,0.0],[-71.6065,10.9982,0.9572],[-71.6029,10.9976,0.0],[-71.6032,10.9999,0.2832],[-71.6096,10.9982,1.4154],[-71.624,11.0026,0.2683],[-71.6518,11.0196,0.0],[-71.6979,11.0415,2.1639],[-71.7321,11.0621,1.8414],[-71.7574,11.0807,2.4033],[-71.8032,11.124,0.7552],[-71.8065,11.1252,4.1261],[-71.8134,11.1186,3.581],[-71.8101,11.1103,3.5803],[-71.8052,11.1034,3.5598],[-71.7777,11.0914,2.2943],[-71.7725,11.0883,3.1509],[-71.7711,11.0848,4.2398],[-71.773,11.0785,-0.5],[-71.7873,11.0668,0.4857],[-71.7886,11.0605,0.7309],[-71.7884,11.0544,1.7729],[-71.7787,11.0264,7.5293],[-71.7701,11.0246,15.3701]]]]}}