{"type": "Feature","bbox": [-71.9651,7.7923,-71.7654,8.0347],"geometry": {"type": "MultiPolygon","coordinates": [[[[-71.9616,8.0134,2804.4019],[-71.9422,7.9975,3383.6797],[-71.9397,7.9925,3429.209],[-71.9383,7.975,2852.5544],[-71.941,7.9408,2460.2827],[-71.9464,7.9277,2242.989],[-71.9495,7.9017,1445.7661],[-71.9556,7.8828,1975.4559],[-71.9651,7.8616,2420.5396],[-71.8974,7.8538,1876.2056],[-71.8899,7.85,1426.1099],[-71.8827,7.8424,1266.5391],[-71.8673,7.8212,1612.2805],[-71.8429,7.8083,854.0688],[-71.8205,7.7923,911.4468],[-71.8023,7.805,904.8911],[-71.7916,7.8209,1107.5212],[-71.7654,7.8438,1133.1676],[-71.7725,7.885,998.5598],[-71.7774,7.8994,1261.8014],[-71.7829,7.9035,1264.7964],[-71.7931,7.9074,1531.5217],[-71.8165,7.9126,1719.5004],[-71.8232,7.9161,1490.1459],[-71.8344,7.9261,1822.1241],[-71.857,7.9517,2312.4595],[-71.8758,7.9664,2307.8767],[-71.881,7.9729,2567.1411],[-71.8859,7.9863,2658.7151],[-71.8905,8.0164,3217.0078],[-71.8948,8.0298,2906.0874],[-71.9163,8.0347,3545.4375],[-71.941,8.0338,3655.1538],[-71.9561,8.0243,3503.4951],[-71.9616,8.0134,2804.4019]]]]}
,"properties": {"GID_2": "VEN.21.8_1","GID_0": "VEN","country": "Venezuela","GID_1": "VEN.21_1","province": "Táchira","NL_NAME_1": "NA","county": "FranciscodeMiranda","VARNAME_2": "NA","NL_NAME_2": "NA","TYPE_2": "Municipio","ENGTYPE_2": "Municipality","CC_2": "NA","HASC_2": "NA","name": "Franciscode_Miranda.county","area_km2": 294.3888,"hist_schema_id": "Elevation0-9000","hist_area_km2": {"650": 0.147,"675": 0.2521,"700": 0.3361,"725": 0.5251,"750": 0.6092,"775": 0.5882,"800": 1.0083,"825": 0.9242,"850": 0.8402,"875": 1.5334,"900": 1.7854,"925": 2.7936,"950": 2.6465,"975": 3.0035,"1000": 3.2346,"1025": 3.6126,"1050": 4.3057,"1075": 4.5157,"1100": 4.4737,"1125": 5.1038,"1150": 4.7048,"1175": 4.2637,"1200": 4.3477,"1225": 3.9906,"1250": 3.5075,"1275": 3.3185,"1300": 3.1715,"1325": 3.3185,"1350": 3.2134,"1375": 3.3604,"1400": 3.1924,"1425": 3.2344,"1450": 2.8983,"1475": 2.5203,"1500": 2.8353,"1525": 3.0453,"1550": 2.7513,"1575": 2.4362,"1600": 2.8773,"1625": 2.6462,"1650": 2.6882,"1675": 2.7303,"1700": 2.6672,"1725": 3.0872,"1750": 2.4992,"1775": 2.1002,"1800": 2.7512,"1825": 2.3102,"1850": 2.2682,"1875": 2.4571,"1900": 2.5832,"1925": 2.0161,"1950": 2.4571,"1975": 2.6041,"2000": 2.1211,"2025": 2.1631,"2050": 2.3521,"2075": 2.2891,"2100": 2.3521,"2125": 2.3731,"2150": 2.6251,"2175": 2.5621,"2200": 2.4781,"2225": 2.6461,"2250": 2.7511,"2275": 3.1501,"2300": 3.3391,"2325": 2.8141,"2350": 2.8561,"2375": 2.7721,"2400": 3.1081,"2425": 2.9191,"2450": 2.6671,"2475": 2.688,"2500": 2.961,"2525": 2.898,"2550": 2.73,"2575": 3.0871,"2600": 2.5621,"2625": 2.898,"2650": 2.856,"2675": 2.415,"2700": 2.457,"2725": 2.751,"2750": 2.31,"2775": 2.205,"2800": 1.9949,"2825": 1.9529,"2850": 2.0159,"2875": 1.5329,"2900": 1.3229,"2925": 1.2809,"2950": 1.3649,"2975": 1.1129,"3000": 1.2598,"3025": 1.1759,"3050": 1.3018,"3075": 1.2388,"3100": 1.3228,"3125": 1.4488,"3150": 1.1128,"3175": 1.2808,"3200": 1.2388,"3225": 1.5537,"3250": 1.7427,"3275": 1.5747,"3300": 1.8477,"3325": 1.9107,"3350": 2.2256,"3375": 2.0157,"3400": 2.4565,"3425": 2.3726,"3450": 2.0156,"3475": 2.6035,"3500": 2.7294,"3525": 2.3515,"3550": 2.2046,"3575": 2.1626,"3600": 2.3095,"3625": 1.8266,"3650": 1.4487,"3675": 1.4697,"3700": 1.1548,"3725": 0.9028,"3750": 0.7348,"3775": 0.3779,"3800": 0.168,"3825": 0.021}}}