{"type":"Feature","properties":{"GID_2":"VEN.22.13_1","GID_0":"VEN","country":"Venezuela","GID_1":"VEN.22_1","province":"Trujillo","NL_NAME_1":"NA","county":"Pampán","VARNAME_2":"NA","NL_NAME_2":"NA","TYPE_2":"Municipio","ENGTYPE_2":"Municipality","CC_2":"NA","HASC_2":"NA","name":"Pampán.county"},
"geometry":{"type": "MultiPolygon","coordinates": [[[[-70.2731,9.5173,1852.9333],[-70.2701,9.5216,1588.0564],[-70.2691,9.5266,1699.6425],[-70.2698,9.5358,1289.6444],[-70.2787,9.5532,1147.6888],[-70.2808,9.5662,1367.8115],[-70.2812,9.5851,1416.306],[-70.2852,9.591,1261.3176],[-70.2921,9.5904,943.6469],[-70.2949,9.5866,969.4076],[-70.3034,9.5681,1026.8888],[-70.3127,9.5525,1287.1289],[-70.3219,9.5546,1467.8479],[-70.3238,9.5652,1480.0137],[-70.3306,9.5673,1764.5747],[-70.3482,9.5653,1585.3993],[-70.3651,9.5562,1417.6653],[-70.3729,9.5542,1389.5488],[-70.3926,9.5521,945.9506],[-70.4242,9.5579,342.2834],[-70.4289,9.5618,293.0988],[-70.432,9.5674,275.4192],[-70.4344,9.5821,251.3153],[-70.4342,9.6168,244.6416],[-70.4358,9.6362,230.931],[-70.4402,9.65,223.9715],[-70.4419,9.6531,221.0165],[-70.4467,9.6515,220.0929],[-70.457,9.6573,205.798],[-70.4658,9.6596,200.8972],[-70.4955,9.6603,178.7523],[-70.5091,9.6591,169.0498],[-70.5238,9.6525,159.0282],[-70.5321,9.6513,155.5844],[-70.5413,9.654,157.0195],[-70.56,9.6484,195.7327],[-70.5684,9.6436,202.7563],[-70.5747,9.6365,211.8214],[-70.5861,9.6175,272.5453],[-70.6035,9.6,269.1959],[-70.5867,9.5748,134.0],[-70.5736,9.5476,166.7357],[-70.5678,9.5464,179.1734],[-70.5558,9.5401,206.374],[-70.5366,9.5243,246.0144],[-70.5284,9.5102,287.2084],[-70.5262,9.5017,312.8026],[-70.5224,9.4952,350.621],[-70.5152,9.4885,327.8617],[-70.4964,9.4827,369.3412],[-70.4756,9.4731,508.9097],[-70.462,9.4714,432.8275],[-70.4294,9.4715,661.9816],[-70.4136,9.4742,862.7067],[-70.4028,9.479,675.88],[-70.396,9.4745,768.5451],[-70.3597,9.4748,1399.2894],[-70.3559,9.4733,1596.5339],[-70.3496,9.4638,1343.8009],[-70.3449,9.4611,1455.2983],[-70.3404,9.4617,1715.7554],[-70.3048,9.4796,1854.2098],[-70.2797,9.5072,1922.0516],[-70.2731,9.5173,1852.9333]]]]}}