{"type": "Feature","bbox": [-72.035,8.0101,-71.8282,8.423],"geometry": {"type": "MultiPolygon","coordinates": [[[[-71.8282,8.3018,2316.5056],[-71.8423,8.3059,2392.1616],[-71.8544,8.3125,1972.1494],[-71.8602,8.3256,1578.5271],[-71.8603,8.3548,1420.8497],[-71.8624,8.3624,1692.2251],[-71.8816,8.3931,1165.3184],[-71.8929,8.4,698.8857],[-71.9149,8.4188,284.8969],[-71.9529,8.423,145.9154],[-71.965,8.4171,200.8358],[-71.9751,8.4096,236.1877],[-71.998,8.3793,339.0988],[-72.02,8.3568,422.609],[-71.9858,8.3511,592.3934],[-71.9799,8.3468,731.2156],[-71.9719,8.3392,695.5397],[-71.9586,8.3219,1327.4504],[-71.9334,8.2847,2214.1165],[-71.9335,8.2735,2021.4583],[-71.9555,8.2495,2802.3799],[-71.9725,8.2172,2828.1467],[-71.9821,8.212,2562.1055],[-71.9932,8.2102,2525.105],[-72.0146,8.2092,1446.8845],[-72.0263,8.2105,1403.009],[-72.0305,8.1842,1980.3232],[-72.0258,8.1677,1390.5543],[-72.025,8.1593,1257.1653],[-72.0264,8.1516,1144.2026],[-72.035,8.1324,1791.3671],[-71.9979,8.1221,1656.5193],[-71.9917,8.1164,1593.2451],[-71.9932,8.0737,2468.752],[-71.9984,8.0433,3282.8022],[-72.0036,8.029,2967.897],[-72.0198,8.0101,2943.0784],[-72.0139,8.0167,3010.7422],[-72.0049,8.0225,3226.0601],[-71.9941,8.0245,3453.4106],[-71.9801,8.024,2864.1006],[-71.9698,8.0196,3172.1721],[-71.9616,8.0134,2804.4019],[-71.9561,8.0243,3503.4951],[-71.941,8.0338,3655.1538],[-71.9163,8.0347,3545.4375],[-71.8948,8.0298,2906.0874],[-71.8992,8.0574,3388.429],[-71.898,8.0842,3353.1833],[-71.8939,8.1103,2929.668],[-71.8869,8.1326,2908.1863],[-71.881,8.1587,2822.4529],[-71.8904,8.1653,3152.2078],[-71.8985,8.1774,2995.1648],[-71.9015,8.1924,3140.8882],[-71.9,8.2073,3173.8779],[-71.8927,8.2204,3223.8901],[-71.8472,8.2681,2442.0264],[-71.8354,8.2862,2476.7727],[-71.8282,8.3018,2316.5056]]]]}
,"properties": {"GID_2": "VEN.21.12_1","GID_0": "VEN","country": "Venezuela","GID_1": "VEN.21_1","province": "Táchira","NL_NAME_1": "NA","county": "Jauregui","VARNAME_2": "NA","NL_NAME_2": "NA","TYPE_2": "Municipio","ENGTYPE_2": "Municipality","CC_2": "NA","HASC_2": "NA","name": "Jauregui.county","area_km2": 521.0169,"hist_schema_id": "Elevation0-9000","hist_area_km2": {"125": 0.2307,"150": 0.3985,"175": 1.1326,"200": 2.0974,"225": 2.3072,"250": 3.0832,"275": 2.475,"300": 3.1462,"325": 3.2721,"350": 2.7897,"375": 3.1463,"400": 3.2302,"425": 3.0415,"450": 3.7337,"475": 3.0625,"500": 3.6708,"525": 2.9157,"550": 2.9786,"575": 3.524,"600": 2.8737,"625": 2.9576,"650": 2.6011,"675": 2.6011,"700": 2.5172,"725": 2.0767,"750": 1.6152,"775": 1.5523,"800": 1.5313,"825": 1.3845,"850": 1.4054,"875": 1.2166,"900": 1.3215,"925": 1.2167,"950": 1.2796,"975": 1.2167,"1000": 1.4264,"1025": 1.1957,"1050": 1.2377,"1075": 1.7831,"1100": 1.4685,"1125": 1.7203,"1150": 1.8253,"1175": 2.203,"1200": 2.119,"1225": 2.6016,"1250": 2.0562,"1275": 2.308,"1300": 2.7276,"1325": 3.42,"1350": 3.0843,"1375": 3.2523,"1400": 3.7349,"1425": 4.0498,"1450": 3.8398,"1475": 4.1547,"1500": 4.3226,"1525": 4.8052,"1550": 4.7633,"1575": 4.8262,"1600": 4.3017,"1625": 4.994,"1650": 4.3855,"1675": 4.9731,"1700": 4.9941,"1725": 5.183,"1750": 4.3855,"1775": 5.0151,"1800": 4.7213,"1825": 4.6795,"1850": 4.9522,"1875": 5.0361,"1900": 4.4696,"1925": 5.0574,"1950": 4.2599,"1975": 4.155,"2000": 4.4278,"2025": 4.8685,"2050": 5.0575,"2075": 4.9524,"2100": 5.8547,"2125": 5.9806,"2150": 5.7499,"2175": 5.3091,"2200": 5.666,"2225": 5.1204,"2250": 5.477,"2275": 6.0856,"2300": 5.561,"2325": 6.1276,"2350": 5.7498,"2375": 4.4908,"2400": 4.9734,"2425": 4.9315,"2450": 4.7636,"2475": 4.8058,"2500": 5.0155,"2525": 4.0712,"2550": 4.6169,"2575": 4.533,"2600": 4.0084,"2625": 3.9454,"2650": 3.9245,"2675": 3.9663,"2700": 3.7775,"2725": 3.5468,"2750": 3.4627,"2775": 3.7566,"2800": 4.2183,"2825": 4.0084,"2850": 4.2184,"2875": 4.7011,"2900": 4.575,"2925": 4.4282,"2950": 4.0296,"2975": 4.4073,"3000": 4.6801,"3025": 4.6802,"3050": 4.3233,"3075": 3.9456,"3100": 4.3026,"3125": 3.9458,"3150": 4.5125,"3175": 3.6312,"3200": 3.6731,"3225": 3.3163,"3250": 4.1559,"3275": 4.2819,"3300": 4.7018,"3325": 3.9881,"3350": 4.3448,"3375": 3.5893,"3400": 4.0301,"3425": 3.6733,"3450": 3.5264,"3475": 3.4846,"3500": 3.5896,"3525": 3.1907,"3550": 3.0856,"3575": 3.1278,"3600": 2.4981,"3625": 2.3302,"3650": 1.7634,"3675": 1.7844,"3700": 1.4905,"3725": 1.3855,"3750": 1.2596,"3775": 0.6088,"3800": 0.3149,"3825": 0.3779,"3850": 0.126,"3875": 0.042}}}