{"type": "Feature","bbox": [-71.519,7.6213,-71.3618,7.8798],"geometry": {"type": "MultiPolygon","coordinates": [[[[-71.3618,7.8512,302.0],[-71.3737,7.8575,380.3893],[-71.381,7.8597,518.6318],[-71.3858,7.859,585.6218],[-71.3971,7.8498,653.0319],[-71.4064,7.837,451.078],[-71.4117,7.8362,487.4251],[-71.4171,7.8403,472.5031],[-71.4186,7.845,433.0329],[-71.4204,7.8664,498.4044],[-71.429,7.8798,717.0394],[-71.431,7.8793,699.8476],[-71.4452,7.8705,769.01],[-71.4486,7.8641,797.7219],[-71.4528,7.844,352.2684],[-71.4651,7.826,600.6161],[-71.4707,7.8074,845.2995],[-71.4796,7.7976,690.3004],[-71.4834,7.7949,612.9633],[-71.4885,7.7941,466.7237],[-71.4942,7.7976,386.0653],[-71.4959,7.801,401.4797],[-71.4957,7.8078,309.4626],[-71.491,7.8237,405.6103],[-71.481,7.8442,398.9385],[-71.4798,7.8641,536.331],[-71.4844,7.8676,678.7863],[-71.5075,7.8698,1392.9264],[-71.5178,7.8731,1664.3489],[-71.519,7.7706,716.6582],[-71.5181,7.7014,312.0593],[-71.5141,7.6711,184.2374],[-71.5073,7.6502,181.4258],[-71.4976,7.6319,177.5603],[-71.5003,7.6213,175.8835],[-71.4886,7.6218,187.7594],[-71.4739,7.6267,233.8636],[-71.4648,7.6388,246.8708],[-71.4603,7.6611,189.4305],[-71.4619,7.7163,201.3849],[-71.4586,7.7366,240.668],[-71.4538,7.7487,384.4208],[-71.4379,7.7672,544.9264],[-71.4034,7.7972,332.5176],[-71.39,7.8133,348.9884],[-71.3754,7.8376,302.0],[-71.3618,7.8512,302.0]]]]}
,"properties": {"GID_2": "VEN.15.15_1","GID_0": "VEN","country": "Venezuela","GID_1": "VEN.15_1","province": "Mérida","NL_NAME_1": "NA","county": "PadreNoguera","VARNAME_2": "NA","NL_NAME_2": "NA","TYPE_2": "Municipio","ENGTYPE_2": "Municipality","CC_2": "NA","HASC_2": "NA","name": "Padre_Noguera.county","area_km2": 218.122,"hist_schema_id": "Elevation0-9000","hist_area_km2": {"175": 24.6903,"200": 13.6367,"225": 6.9968,"250": 6.8706,"275": 5.862,"300": 48.8406,"325": 7.3107,"350": 8.6969,"375": 8.2557,"400": 7.9196,"425": 7.5624,"450": 7.8353,"475": 6.5749,"500": 4.8943,"525": 4.7052,"550": 4.054,"575": 4.075,"600": 3.7599,"625": 3.6338,"650": 3.4657,"675": 3.4867,"700": 3.1087,"725": 2.9826,"750": 2.3735,"775": 2.4155,"800": 1.9324,"825": 1.5753,"850": 1.2182,"875": 0.8822,"900": 0.4621,"925": 0.3991,"950": 0.4411,"975": 0.5041,"1000": 0.252,"1025": 0.5671,"1050": 0.315,"1075": 0.5041,"1100": 0.3991,"1125": 0.252,"1150": 0.3781,"1175": 0.21,"1200": 0.3781,"1225": 0.168,"1250": 0.3361,"1275": 0.084,"1300": 0.147,"1325": 0.147,"1350": 0.147,"1375": 0.168,"1400": 0.315,"1425": 0.231,"1450": 0.105,"1475": 0.252,"1500": 0.189,"1525": 0.147,"1550": 0.042,"1575": 0.21,"1600": 0.147,"1625": 0.168,"1650": 0.189,"1675": 0.105,"1700": 0.063,"1750": 0.042,"1775": 0.042}}}