{"type":"Feature","properties":{"GID_2":"VEN.22.10_1","GID_0":"VEN","country":"Venezuela","GID_1":"VEN.22_1","province":"Trujillo","NL_NAME_1":"NA","county":"Miranda","VARNAME_2":"NA","NL_NAME_2":"NA","TYPE_2":"Municipio","ENGTYPE_2":"Municipality","CC_2":"NA","HASC_2":"NA","name":"Miranda.county"},
"geometry":{"type": "MultiPolygon","coordinates": [[[[-70.8072,9.6159,31.8744],[-70.8002,9.5964,36.1182],[-70.8024,9.5746,37.1225],[-70.8076,9.5606,37.9429],[-70.8077,9.5532,38.5627],[-70.8058,9.55,38.2864],[-70.7874,9.546,44.7932],[-70.779,9.5361,47.9141],[-70.7697,9.5189,49.8607],[-70.7579,9.5053,49.3695],[-70.734,9.4948,93.9983],[-70.7033,9.4691,276.3629],[-70.691,9.4678,372.0014],[-70.6668,9.4741,459.4949],[-70.6588,9.4733,533.1141],[-70.6548,9.4698,568.7698],[-70.6512,9.4599,546.2363],[-70.6362,9.473,343.5904],[-70.6159,9.4866,535.0391],[-70.6129,9.4893,586.189],[-70.6116,9.4949,503.7311],[-70.6141,9.5017,465.4575],[-70.6276,9.5233,224.0904],[-70.6306,9.5336,175.2717],[-70.6271,9.5617,205.1399],[-70.6283,9.589,275.95119999999997],[-70.6096,9.5955,328.4226],[-70.6012,9.6018,244.9228],[-70.5861,9.6175,272.5453],[-70.5747,9.6365,211.8214],[-70.5684,9.6436,202.7563],[-70.56,9.6484,195.7327],[-70.5413,9.654,157.0195],[-70.545,9.6565,162.3884],[-70.5498,9.6667,185.1126],[-70.5499,9.6884,198.0705],[-70.5468,9.692,185.7569],[-70.5359,9.6921,186.0873],[-70.5305,9.6951,194.4177],[-70.5252,9.7048,213.6314],[-70.5251,9.7206,233.5709],[-70.5268,9.737,249.017],[-70.5291,9.7429,258.5283],[-70.5387,9.7496,282.0096],[-70.5479,9.7594,374.71],[-70.5565,9.766,542.9161],[-70.631,9.7322,389.4808],[-70.6612,9.6033,235.8907],[-70.8072,9.6159,31.8744]]]]}}