{"type":"Feature","properties":{"GID_2":"VEN.20.5_1","GID_0":"VEN","country":"Venezuela","GID_1":"VEN.20_1","province":"Sucre","NL_NAME_1":"NA","county":"Bermúdez","VARNAME_2":"NA","NL_NAME_2":"NA","TYPE_2":"Municipio","ENGTYPE_2":"Municipality","CC_2":"NA","HASC_2":"NA","name":"Bermúdez.county"},
"geometry":{"type": "MultiPolygon","coordinates": [[[[-63.4054,10.638,172.1483],[-63.387,10.6405,191.9626],[-63.3656,10.6495,81.8345],[-63.3185,10.6522,76.9962],[-63.3089,10.6446,127.1763],[-63.3037,10.6367,145.1693],[-63.2929,10.633,83.86],[-63.2433,10.6376,72.2922],[-63.2414,10.6223,231.2414],[-63.245,10.557,456.893],[-63.2103,10.5561,180.121],[-63.2065,10.5571,158.3475],[-63.1984,10.5635,58.0298],[-63.1908,10.5767,238.5291],[-63.1888,10.5897,385.0293],[-63.1934,10.6041,307.2622],[-63.1825,10.6098,623.0101],[-63.1434,10.621,577.1742],[-63.1403,10.6248,731.1479],[-63.1386,10.6422,239.2633],[-63.1458,10.6865,134.8954],[-63.1647,10.7007,68.1202],[-63.1824,10.7071,0.0],[-63.1868,10.7063,0.0],[-63.1929,10.7015,21.6741],[-63.2001,10.7004,13.0259],[-63.2021,10.6976,33.1858],[-63.2093,10.6951,38.7987],[-63.2143,10.6951,10.2619],[-63.2168,10.6915,25.7543],[-63.2221,10.6912,0.0],[-63.224,10.6885,16.4786],[-63.2287,10.6888,0.0],[-63.2315,10.6857,0.0],[-63.2285,10.6846,8.3619],[-63.2287,10.6821,17.9407],[-63.234,10.6751,32.0198],[-63.2401,10.6746,4.9722],[-63.2451,10.6774,0.0],[-63.2451,10.6718,7.1053],[-63.2518,10.6726,0.0],[-63.2515,10.671,3.2366],[-63.2551,10.6701,5.6418],[-63.2615,10.6729,0.0],[-63.2649,10.6724,1.2363],[-63.2687,10.6768,14.773],[-63.2724,10.6771,0.0],[-63.2726,10.6737,18.7686],[-63.2751,10.6724,0.0],[-63.2732,10.6676,5.7392],[-63.2782,10.6637,10.1426],[-63.2876,10.664,1.3915],[-63.2971,10.6671,0.0],[-63.3029,10.6699,2.665],[-63.3035,10.6715,0.0],[-63.3079,10.6715,23.8108],[-63.309,10.674,0.0],[-63.3124,10.6732,2.5116],[-63.316,10.676,4.3673],[-63.3151,10.6788,0.0],[-63.324,10.6804,29.6157],[-63.3257,10.6838,0.0],[-63.3276,10.6829,8.4768],[-63.3254,10.6774,26.7293],[-63.3288,10.6757,0.0],[-63.3285,10.6699,0.3632],[-63.3396,10.6685,4.1651],[-63.3554,10.676,5.3545],[-63.3576,10.6785,10.4175],[-63.3574,10.6812,1.8882],[-63.3613,10.6846,0.0],[-63.3618,10.6901,0.0],[-63.364,10.689,0.0],[-63.3626,10.6835,4.43],[-63.3713,10.6793,20.296],[-63.3799,10.6821,1.9033],[-63.3854,10.686,0.2866],[-63.3868,10.6888,0.8933],[-63.3851,10.691,0.0],[-63.386,10.6924,0.0],[-63.3896,10.691,2.0498],[-63.3904,10.6857,0.0],[-63.3926,10.6843,0.0],[-63.3943,10.6799,34.5891],[-63.3965,10.6799,4.3041],[-63.3965,10.6771,0.2893],[-63.4001,10.6776,36.7886],[-63.3985,10.6851,2.2573],[-63.3996,10.6863,0.0],[-63.4024,10.6832,0.0],[-63.4021,10.6788,28.3041],[-63.4074,10.6754,0.0],[-63.404,10.6715,1.3363],[-63.4049,10.669,0.0],[-63.4079,10.6679,0.0],[-63.4054,10.638,172.1483]]]]}}