{"type": "Feature","bbox": [-68.8859,9.0787,-68.3629,9.6064],"geometry": {"type": "MultiPolygon","coordinates": [[[[-68.8859,9.4825,114.1404],[-68.876,9.4526,109.9902],[-68.8665,9.4374,106.1781],[-68.8566,9.4309,104.75],[-68.8305,9.4206,106.424],[-68.8006,9.4035,107.4462],[-68.7079,9.3187,97.5115],[-68.6635,9.2935,84.4754],[-68.6319,9.2692,81.683],[-68.6164,9.2549,83.359],[-68.6047,9.2353,79.2976],[-68.5853,9.238,81.8489],[-68.5822,9.2293,78.8064],[-68.5532,9.2049,75.5858],[-68.5162,9.1669,73.6364],[-68.4961,9.1529,72.2114],[-68.474,9.1213,71.4497],[-68.4643,9.1149,69.9634],[-68.4506,9.1105,69.3068],[-68.4419,9.1002,67.2466],[-68.4307,9.0938,76.6574],[-68.3964,9.0841,65.8612],[-68.3629,9.0787,73.9373],[-68.368,9.0912,76.8678],[-68.3878,9.1165,67.2861],[-68.3927,9.1254,68.8488],[-68.3968,9.1395,68.589],[-68.3971,9.151,68.8415],[-68.3948,9.1733,81.5306],[-68.3959,9.1888,81.0362],[-68.4003,9.2022,79.5824],[-68.4166,9.2299,78.2521],[-68.4257,9.251,85.5799],[-68.4361,9.2643,77.1344],[-68.4587,9.2843,76.0938],[-68.4639,9.2926,76.4513],[-68.466,9.3069,77.4423],[-68.4623,9.3358,87.0429],[-68.4648,9.3434,81.0008],[-68.4696,9.346,82.8913],[-68.4881,9.3508,79.7046],[-68.5258,9.3856,84.235],[-68.5322,9.3949,86.1299],[-68.5391,9.4093,86.8308],[-68.5585,9.4612,92.2206],[-68.5812,9.5006,105.1325],[-68.5964,9.549,115.7764],[-68.6011,9.5504,118.3209],[-68.6017,9.604,133.2288],[-68.6363,9.6064,128.4405],[-68.6715,9.6057,128.8488],[-68.6818,9.5912,120.9211],[-68.6893,9.5849,118.6675],[-68.6978,9.5813,115.231],[-68.7259,9.5772,121.9052],[-68.7284,9.5731,116.5164],[-68.7286,9.5647,110.8716],[-68.7237,9.5531,109.2525],[-68.6976,9.5354,113.6476],[-68.6831,9.5032,108.1245],[-68.6835,9.497,105.8643],[-68.6921,9.4788,104.0285],[-68.8859,9.4825,114.1404]]]]}
,"properties": {"GID_2": "VEN.8.7_1","GID_0": "VEN","country": "Venezuela","GID_1": "VEN.8_1","province": "Cojedes","NL_NAME_1": "NA","county": "Ricaurte","VARNAME_2": "NA","NL_NAME_2": "NA","TYPE_2": "Municipio","ENGTYPE_2": "Municipality","CC_2": "NA","HASC_2": "NA","name": "Ricaurte.county","area_km2": 1125.3471,"hist_schema_id": "Elevation0-9000","hist_area_km2": {"75": 501.1896,"100": 518.1319,"125": 102.3452,"150": 2.5512,"175": 0.7946,"200": 0.2927,"225": 0.0418}}}