{"type": "Feature","bbox": [-65.2626,8.8208,-64.7278,9.433],"geometry": {"type": "MultiPolygon","coordinates": [[[[-65.0637,9.3572,71.0369],[-65.0658,9.3565,76.8624],[-65.0731,9.3605,69.2026],[-65.0798,9.3685,62.3484],[-65.0928,9.3895,57.1982],[-65.1101,9.4073,47.4952],[-65.12,9.4141,45.1772],[-65.1349,9.4214,39.9072],[-65.1515,9.4268,40.4038],[-65.1827,9.4327,32.8623],[-65.1866,9.433,32.2611],[-65.2193,9.4071,33.3558],[-65.2464,9.3935,30.1095],[-65.2573,9.3818,29.3189],[-65.2625,9.3705,33.6455],[-65.2626,9.3601,49.3599],[-65.2496,9.3304,52.1613],[-65.2391,9.3128,49.0117],[-65.2289,9.274,48.2097],[-65.2036,9.2053,67.241],[-65.1987,9.1887,55.379],[-65.184,9.1017,83.7096],[-65.1762,9.0814,90.7464],[-65.1653,9.074,78.8484],[-65.1361,9.0655,74.2761],[-65.0909,9.0679,98.7209],[-65.0815,9.0646,89.3295],[-65.0545,9.0462,97.4839],[-65.044,9.0431,97.0868],[-65.0199,9.0256,109.572],[-64.9794,9.0055,109.7281],[-64.9756,8.9978,117.897],[-64.9689,8.9749,133.6763],[-64.9634,8.9649,137.2547],[-64.9527,8.9537,141.4372],[-64.9194,8.9316,138.0976],[-64.8819,8.8817,165.213],[-64.8444,8.8571,204.033],[-64.7978,8.8208,223.4327],[-64.7278,8.8288,238.9604],[-64.7541,8.8718,202.5813],[-64.7535,8.8885,195.008],[-64.7662,8.9201,205.2423],[-64.7746,8.9523,203.8569],[-64.7927,8.9836,183.8198],[-64.8112,9.0274,171.5352],[-64.8084,9.0798,158.5337],[-64.8,9.1167,131.6473],[-64.7998,9.1343,133.6556],[-64.8032,9.1406,133.2104],[-64.8399,9.1658,135.5959],[-64.8505,9.1651,130.7919],[-64.8543,9.1445,131.9372],[-64.8734,9.1519,120.9907],[-64.8876,9.1968,110.2317],[-64.8936,9.2013,106.2156],[-64.8991,9.201,101.3016],[-64.9084,9.1777,106.2243],[-64.919,9.1792,96.5002],[-64.9261,9.2074,117.2069],[-64.9399,9.2386,127.9608],[-64.9997,9.3015,121.2579],[-65.0637,9.3572,71.0369]]]]}
,"properties": {"GID_2": "VEN.2.9_1","GID_0": "VEN","country": "Venezuela","GID_1": "VEN.2_1","province": "Anzoátegui","NL_NAME_1": "NA","county": "GeneralSirArthurMcGregor","VARNAME_2": "NA","NL_NAME_2": "NA","TYPE_2": "Municipio","ENGTYPE_2": "Municipality","CC_2": "NA","HASC_2": "NA","name": "General_Sir_Arthur_Mc_Gregor.county","area_km2": 1650.592,"hist_schema_id": "Elevation0-9000","hist_area_km2": {"25": 18.303,"50": 176.713,"75": 484.643,"100": 415.521,"125": 227.201,"150": 155.109,"175": 77.035,"200": 69.376,"225": 25.873,"250": 0.817}}}