{"type": "Feature","bbox": [-69.6649,9.7481,-69.1381,10.5692],"geometry": {"type": "MultiPolygon","coordinates": [[[[-69.3271,9.7481,982.0732],[-69.3193,9.7658,912.7898],[-69.3199,9.7789,754.2651],[-69.3251,9.8045,987.4608],[-69.3261,9.8318,1239.4485],[-69.3204,9.8413,1264.819],[-69.3135,9.847,1449.7269],[-69.2825,9.8632,1385.1417],[-69.2728,9.8693,1335.1581],[-69.2659,9.8764,1074.8792],[-69.2546,9.8895,949.3863],[-69.2485,9.901,895.6622],[-69.2386,9.9298,949.6073],[-69.2364,9.9332,791.7607],[-69.2302,9.9363,706.6683],[-69.2459,9.9612,594.514],[-69.2662,9.9883,648.9017],[-69.2761,10.0111,571.9622],[-69.2822,10.0355,470.6435],[-69.2852,10.0559,521.8983],[-69.2849,10.0676,522.5118],[-69.2803,10.0798,518.7613],[-69.2703,10.092,555.7351],[-69.2427,10.11,508.7493],[-69.2229,10.1207,408.8956],[-69.1763,10.1414,607.8796],[-69.168,10.149,582.7728],[-69.1725,10.1583,545.8],[-69.1806,10.1992,664.2965],[-69.181,10.2115,703.7928],[-69.1773,10.2264,688.0524],[-69.1689,10.2363,702.5004],[-69.1504,10.2453,764.5922],[-69.1381,10.2487,815.4731],[-69.1491,10.271,777.1927],[-69.1539,10.2923,717.8175],[-69.1539,10.3026,679.0571],[-69.1735,10.2995,790.536],[-69.1902,10.2881,793.7192],[-69.1979,10.2863,813.9991],[-69.2036,10.2877,769.8002],[-69.2169,10.2952,770.5759],[-69.2548,10.3027,722.2201],[-69.2778,10.3103,736.5654],[-69.2878,10.317,776.6869],[-69.3054,10.3477,891.6874],[-69.3077,10.3557,866.8795],[-69.3075,10.3641,769.7577],[-69.3043,10.369,710.8696],[-69.275,10.3875,585.6532],[-69.2664,10.396,457.295],[-69.2635,10.4044,453.4986],[-69.2594,10.427,354.2626],[-69.2591,10.4407,338.0549],[-69.2613,10.453,545.4676],[-69.2645,10.4607,521.1168],[-69.2677,10.4654,423.9304],[-69.2739,10.4693,370.416],[-69.2671,10.4794,242.7142],[-69.2585,10.5171,180.0362],[-69.2522,10.5375,194.9607],[-69.3095,10.5449,170.0958],[-69.3949,10.566,378.9964],[-69.4171,10.5692,457.2278],[-69.4303,10.5691,437.3595],[-69.4418,10.5634,388.5625],[-69.4576,10.5406,539.4355],[-69.4794,10.5225,679.3887],[-69.4954,10.5142,863.0536],[-69.5102,10.5106,860.6525],[-69.5383,10.4973,729.1295],[-69.5799,10.4584,468.4211],[-69.6059,10.4452,597.6262],[-69.5987,10.4205,572.7689],[-69.599,10.4034,568.3123],[-69.6194,10.3643,651.4495],[-69.6263,10.3575,654.7324],[-69.6316,10.3491,658.0365],[-69.6336,10.3411,748.5637],[-69.6626,10.2952,739.4053],[-69.6646,10.2846,814.2554],[-69.6649,10.2628,876.624],[-69.6626,10.2566,1023.5369],[-69.6579,10.2513,882.645],[-69.649,10.2455,797.659],[-69.6398,10.2362,779.931],[-69.6376,10.2289,776.8362],[-69.6381,10.2103,816.8612],[-69.6305,10.1942,884.6849],[-69.624,10.1886,867.4718],[-69.5808,10.1628,867.2786],[-69.5659,10.1503,765.6854],[-69.5648,10.1462,754.8958],[-69.567,10.0856,734.6279],[-69.5651,10.0782,709.9514],[-69.5353,10.0491,653.3442],[-69.5164,10.0338,672.0103],[-69.5075,10.025,668.2271],[-69.5037,10.0189,673.6736],[-69.4918,9.946,914.8631],[-69.4864,9.9397,999.1876],[-69.4686,9.931,1003.8135],[-69.4681,9.9257,998.3546],[-69.47,9.9211,1076.124],[-69.477,9.914,1131.5344],[-69.4811,9.906,1072.4258],[-69.4814,9.8969,885.0908],[-69.476,9.879,1172.201],[-69.4651,9.8629,1572.9957],[-69.4467,9.8504,1750.4392],[-69.4444,9.8459,1653.5709],[-69.4448,9.8403,1523.332],[-69.4477,9.8334,1395.1372],[-69.4486,9.8107,1446.8406],[-69.443,9.8034,1266.2585],[-69.394,9.7998,775.8953],[-69.3793,9.7974,1038.9426],[-69.3748,9.7942,1110.4165],[-69.3627,9.7712,838.7285],[-69.3271,9.7481,982.0732]]]]}
,"properties": {"GID_2": "VEN.14.3_1","GID_0": "VEN","country": "Venezuela","GID_1": "VEN.14_1","province": "Lara","NL_NAME_1": "NA","county": "Iribarren","VARNAME_2": "NA","NL_NAME_2": "NA","TYPE_2": "Municipio","ENGTYPE_2": "Municipality","CC_2": "NA","HASC_2": "NA","name": "Iribarren.county","area_km2": 2837.479,"hist_schema_id": "Elevation0-9000","hist_area_km2": {"150": 0.167,"175": 32.018,"200": 24.431,"225": 22.076,"250": 18.845,"275": 22.223,"300": 25.559,"325": 23.225,"350": 23.288,"375": 25.227,"400": 29.439,"425": 37.199,"450": 41.6,"475": 46.507,"500": 47.181,"525": 61.461,"550": 65.887,"575": 114.718,"600": 131.249,"625": 120.748,"650": 137.543,"675": 184.59,"700": 197.931,"725": 172.066,"750": 154.207,"775": 131.232,"800": 117.171,"825": 104.151,"850": 87.125,"875": 72.562,"900": 58.375,"925": 50.383,"950": 44.271,"975": 38.7,"1000": 34.632,"1025": 31.105,"1050": 26.744,"1075": 23.466,"1100": 21.296,"1125": 20.838,"1150": 18.104,"1175": 16.497,"1200": 15.662,"1225": 15.203,"1250": 11.988,"1275": 12.301,"1300": 10.861,"1325": 10.276,"1350": 9.149,"1375": 9.044,"1400": 8.752,"1425": 8.418,"1450": 8.334,"1475": 7.708,"1500": 7.29,"1525": 7.645,"1550": 6.768,"1575": 5.911,"1600": 4.449,"1625": 3.718,"1650": 2.799,"1675": 2.277,"1700": 1.964,"1725": 1.984,"1750": 1.796,"1775": 1.504,"1800": 1.65,"1825": 1.755,"1850": 1.212,"1875": 0.815,"1900": 0.167,"1925": 0.042}}}