{"type": "Feature","bbox": [-69.181,9.9359,-68.9582,10.3198],"geometry": {"type": "MultiPolygon","coordinates": [[[[-69.1381,10.2487,815.4731],[-69.1504,10.2453,764.5922],[-69.1689,10.2363,702.5004],[-69.1773,10.2264,688.0524],[-69.181,10.2115,703.7928],[-69.1806,10.1992,664.2965],[-69.1725,10.1583,545.8],[-69.1519,10.1186,439.2821],[-69.1429,10.1115,399.8171],[-69.1108,10.0955,447.5551],[-69.1,10.0847,427.5704],[-69.0969,10.0689,366.2967],[-69.0991,10.0513,321.1596],[-69.104,10.0323,303.5853],[-69.1019,10.0157,433.6628],[-69.0821,9.9823,282.571],[-69.0675,9.9456,403.6913],[-69.0621,9.9389,314.2132],[-69.0557,9.9359,313.3267],[-69.0498,9.9422,285.3654],[-69.0471,10.0033,274.9395],[-69.0454,10.0124,276.2397],[-69.0385,10.021,274.7181],[-69.0267,10.0276,283.7718],[-69.0065,10.0332,271.9477],[-68.9932,10.0389,272.4907],[-68.9589,10.0582,380.9864],[-68.9582,10.1211,311.7296],[-68.9609,10.1443,349.2035],[-68.9646,10.1598,402.665],[-68.9955,10.2102,1163.5774],[-69.0008,10.2234,1102.2858],[-69.0009,10.2555,1299.3811],[-68.9967,10.2668,1217.9481],[-68.9864,10.2856,1228.4601],[-68.9835,10.2952,1284.0667],[-68.9834,10.3025,1182.1223],[-68.9872,10.3156,1027.5291],[-68.9917,10.3198,795.7341],[-69.0028,10.3091,772.3758],[-69.0106,10.2991,936.7789],[-69.0179,10.2959,1149.7986],[-69.0279,10.2971,969.1956],[-69.0374,10.3119,957.5234],[-69.0478,10.314,851.0391],[-69.0576,10.3091,836.4263],[-69.0804,10.2735,1077.8723],[-69.1029,10.2596,1001.7032],[-69.1381,10.2487,815.4731]]]]}
,"properties": {"GID_2": "VEN.24.10_1","GID_0": "VEN","country": "Venezuela","GID_1": "VEN.24_1","province": "Yaracuy","NL_NAME_1": "NA","county": "Peña","VARNAME_2": "NA","NL_NAME_2": "NA","TYPE_2": "Municipio","ENGTYPE_2": "Municipality","CC_2": "NA","HASC_2": "NA","name": "Peña.county","area_km2": 565.4197,"hist_schema_id": "Elevation0-9000","hist_area_km2": {"275": 51.09,"300": 54.2382,"325": 29.9557,"350": 21.542,"375": 16.8238,"400": 14.3187,"425": 14.7985,"450": 13.9843,"475": 11.1664,"500": 9.8096,"525": 9.3294,"550": 8.8701,"575": 8.8074,"600": 9.7256,"625": 9.5376,"650": 9.4123,"675": 11.3112,"700": 12.1665,"725": 12.1455,"750": 10.2463,"775": 10.9347,"800": 11.0807,"825": 11.4771,"850": 11.7065,"875": 10.6211,"900": 11.0173,"925": 11.9353,"950": 11.4971,"975": 10.4537,"1000": 9.4103,"1025": 9.8692,"1050": 9.7857,"1075": 9.556,"1100": 8.1788,"1125": 8.2831,"1150": 8.8465,"1175": 8.012,"1200": 7.7406,"1225": 7.1774,"1250": 6.1758,"1275": 6.4888,"1300": 6.1551,"1325": 4.7154,"1350": 3.9434,"1375": 2.2325,"1400": 2.3576,"1425": 2.003,"1450": 1.5231,"1475": 1.2519,"1500": 0.9389,"1525": 0.5425,"1550": 0.0835,"1575": 0.1461}}}