{"type":"Feature","properties":{"GID_2":"VEN.18.9_1","GID_0":"VEN","country":"Venezuela","GID_1":"VEN.18_1","province":"NuevaEsparta","NL_NAME_1":"NA","county":"Mariño","VARNAME_2":"NA","NL_NAME_2":"NA","TYPE_2":"Municipio","ENGTYPE_2":"Municipality","CC_2":"NA","HASC_2":"NA","name":"Mariño.county"},
"geometry":{"type": "MultiPolygon","coordinates": [[[[-63.8913,10.8862,0.8714],[-63.8874,10.8904,0.0],[-63.8893,10.9085,0.5544],[-63.8846,10.9335,0.9903],[-63.8826,10.9365,1.9859],[-63.8763,10.9399,0.2122],[-63.8726,10.9446,2.7529],[-63.8607,10.9446,0.0],[-63.8574,10.9487,0.915],[-63.8532,10.951,3.7512],[-63.8512,10.951,2.834],[-63.8507,10.9487,0.0],[-63.8474,10.9499,0.4393],[-63.8457,10.9535,3.184],[-63.8357,10.9587,0.0],[-63.8307,10.9585,0.3401],[-63.8282,10.9551,0.0],[-63.829,10.9521,0.0],[-63.8249,10.9513,0.8993],[-63.8232,10.9457,7.2895],[-63.8179,10.9474,22.8528],[-63.8168,10.9438,0.0],[-63.8154,10.944,0.0],[-63.8193,10.9693,2.2679],[-63.8171,10.9718,0.0],[-63.8176,10.9754,0.0],[-63.8157,10.9724,0.0],[-63.8174,10.9796,0.0],[-63.8115,10.9815,0.6779],[-63.8076,10.9796,5.1738],[-63.804,10.9817,2.6599],[-63.8368,10.9969,65.194],[-63.8385,10.994,31.6112],[-63.8448,10.9899,41.5939],[-63.8461,10.9853,77.1784],[-63.8442,10.9659,17.5747],[-63.8461,10.965,15.5021],[-63.8515,10.9676,14.0737],[-63.8638,10.9657,20.465699999999998],[-63.8786,10.9583,33.7654],[-63.8844,10.9522,28.2919],[-63.8885,10.936,4.7601],[-63.8932,10.9028,-1.059],[-63.8913,10.8862,0.8714]]]]}}