{"type": "Feature","bbox": [-67.3743,10.0914,-67.1609,10.3579],"geometry": {"type": "MultiPolygon","coordinates": [[[[-67.3743,10.1987,528.3141],[-67.3743,10.1951,533.0008],[-67.3668,10.1829,593.5669],[-67.3631,10.1725,826.643],[-67.3587,10.168,957.2436],[-67.3526,10.1641,949.9421],[-67.3387,10.1589,798.6178],[-67.3291,10.1484,896.7722],[-67.3203,10.1454,922.2005],[-67.3162,10.1418,1016.9791],[-67.2951,10.1394,859.0083],[-67.2869,10.1361,691.0521],[-67.2849,10.1307,612.6629],[-67.2874,10.1195,799.944],[-67.2869,10.1139,977.9384],[-67.284,10.1079,1032.9255],[-67.2784,10.1018,700.2495],[-67.2561,10.1043,551.5464],[-67.2444,10.1024,533.387],[-67.2389,10.0991,553.962],[-67.1745,10.0915,809.5115],[-67.1673,10.0914,742.9312],[-67.1639,10.0976,839.486],[-67.1614,10.1102,779.7529],[-67.1609,10.1288,697.0677],[-67.1611,10.2025,924.0004],[-67.1738,10.2041,1106.6616],[-67.1852,10.2098,793.0612],[-67.1966,10.2098,668.8202],[-67.2042,10.2136,663.3969],[-67.2118,10.2146,813.3168],[-67.2194,10.2184,806.7216],[-67.2242,10.225,872.013],[-67.2308,10.262,945.6713],[-67.228,10.3038,871.7772],[-67.2232,10.3228,847.6673],[-67.2223,10.3455,851.1002],[-67.2322,10.3555,1064.4475],[-67.2371,10.3579,1066.3827],[-67.2516,10.352,1307.9828],[-67.2829,10.3349,1451.9108],[-67.3193,10.3191,787.6094],[-67.347,10.304,1331.1033],[-67.344,10.2924,942.2476],[-67.3307,10.2648,877.6768],[-67.3271,10.2483,961.4768],[-67.3275,10.2362,617.3561],[-67.3336,10.2203,567.8114],[-67.3408,10.211,609.5696],[-67.3639,10.2024,524.4503],[-67.3725,10.2007,525.8574],[-67.3743,10.1987,528.3141]]]]}
,"properties": {"GID_2": "VEN.4.6_1","GID_0": "VEN","country": "Venezuela","GID_1": "VEN.4_1","province": "Aragua","NL_NAME_1": "NA","county": "JoséFélixRibas","VARNAME_2": "NA","NL_NAME_2": "NA","TYPE_2": "Municipio","ENGTYPE_2": "Municipality","CC_2": "NA","HASC_2": "NA","name": "José_Félix_Ribas.county","area_km2": 393.5008,"hist_schema_id": "Elevation0-9000","hist_area_km2": {"525": 3.6099,"550": 12.875,"575": 18.9681,"600": 15.9845,"625": 14.2945,"650": 16.3816,"675": 15.192,"700": 16.0893,"725": 16.6528,"750": 16.611,"775": 16.1727,"800": 15.4422,"825": 15.2961,"850": 15.1287,"875": 13.7514,"900": 13.6884,"925": 12.165,"950": 10.9546,"975": 10.6831,"1000": 9.8485,"1025": 9.1807,"1050": 8.2417,"1075": 7.72,"1100": 7.3027,"1125": 7.7617,"1150": 5.9047,"1175": 6.7392,"1200": 5.8421,"1225": 5.9256,"1250": 5.696,"1275": 5.6335,"1300": 5.3206,"1325": 5.1326,"1350": 4.6737,"1375": 3.8808,"1400": 3.234,"1425": 3.0878,"1450": 2.8583,"1475": 2.3785,"1500": 2.1697,"1525": 1.4813,"1550": 1.2309,"1575": 1.0222,"1600": 0.5841,"1625": 0.292,"1650": 0.2086,"1675": 0.2086}}}