{"type":"Feature","properties":{"GID_2":"VEN.15.20_1","GID_0":"VEN","country":"Venezuela","GID_1":"VEN.15_1","province":"Mérida","NL_NAME_1":"NA","county":"Sucre","VARNAME_2":"NA","NL_NAME_2":"NA","TYPE_2":"Municipio","ENGTYPE_2":"Municipality","CC_2":"NA","HASC_2":"NA","name":"Sucre.county"},
"geometry":{"type": "MultiPolygon","coordinates": [[[[-71.5612,8.4903,1096.1443],[-71.5583,8.4822,994.9587],[-71.5584,8.4687,605.3294],[-71.5645,8.4422,571.3206],[-71.5645,8.4329,848.416],[-71.5619,8.4247,1067.2803],[-71.5433,8.4,2174.6736],[-71.5387,8.389,2305.4873],[-71.537,8.3766,1913.4922],[-71.5393,8.3635,2422.1682],[-71.5448,8.3535,2001.5513],[-71.5515,8.3426,1720.2552],[-71.5666,8.3239,2231.5662],[-71.5717,8.3197,2556.8376],[-71.5724,8.3137,2678.8906],[-71.5705,8.299,2297.4878],[-71.5581,8.2374,2119.5913],[-71.5414,8.2375,2359.8384],[-71.5044,8.2192,2608.3521],[-71.4914,8.2156,2993.4282],[-71.4833,8.2184,2716.676],[-71.4741,8.2262,2298.999],[-71.4495,8.241,2273.0073],[-71.4343,8.263,2305.0959],[-71.4327,8.2673,2227.7202],[-71.4246,8.274,2255.937],[-71.4139,8.2747,2228.175],[-71.4005,8.272,2348.106],[-71.3935,8.2683,2593.8413],[-71.3855,8.2543,2981.9709],[-71.3802,8.2526,3085.4158],[-71.3708,8.2537,2949.3823],[-71.3531,8.2666,2632.9019],[-71.3489,8.2746,2804.1748],[-71.3493,8.288,3474.4106],[-71.3571,8.3021,3115.7288],[-71.3606,8.3135,3016.8511],[-71.3611,8.3251,3402.4124],[-71.3545,8.3573,3072.6284],[-71.3599,8.3806,2159.1118],[-71.3782,8.4116,1966.9558],[-71.3802,8.4201,1859.6096],[-71.3756,8.4371,2122.127],[-71.3753,8.4534,1643.2151],[-71.3816,8.4751,647.851],[-71.3843,8.4984,1023.3658],[-71.3845,8.5163,1151.7262],[-71.3834,8.5258,1409.3396],[-71.379,8.5352,1750.2936],[-71.3697,8.5483,1823.1853],[-71.3712,8.5543,1877.0327],[-71.3858,8.5692,2340.4622],[-71.3948,8.5822,2469.1323],[-71.3979,8.5918,2771.7139],[-71.4159,8.5987,2537.3413],[-71.4234,8.5985,2397.1313],[-71.4444,8.5921,2155.0496],[-71.4573,8.5898,2052.2332],[-71.4993,8.5856,1231.2679],[-71.5483,8.5891,689.9866],[-71.5685,8.5887,300.1276],[-71.5581,8.5635,839.0982],[-71.5418,8.5427,590.4672],[-71.5377,8.5301,783.1434],[-71.5427,8.5298,689.533],[-71.5574,8.5347,518.8976],[-71.5744,8.5444,636.1746],[-71.5727,8.5204,497.5168],[-71.5612,8.4903,1096.1443]]]]}}