{"type": "Feature","bbox": [-69.1954,10.7282,-68.5918,11.2591],"geometry": {"type": "MultiPolygon","coordinates": [[[[-68.6257,11.0299,68.1952],[-68.6277,11.0278,60.8737],[-68.6348,11.0259,84.3717],[-68.6438,11.0255,80.2976],[-68.6668,11.026,99.4269],[-68.6809,11.0283,109.2422],[-68.696,11.056,75.4714],[-68.7245,11.0948,73.0593],[-68.7687,11.1646,92.9791],[-68.8235,11.2591,83.3398],[-68.912,11.2273,58.3908],[-68.9215,11.2225,39.3418],[-68.9278,11.2173,40.1938],[-68.9404,11.1987,49.86],[-68.9464,11.195,56.0495],[-68.9849,11.1975,30.7161],[-68.9994,11.196,23.6203],[-69.0607,11.1755,33.062],[-69.1058,11.1627,34.0494],[-69.1514,11.1428,44.3103],[-69.1768,11.1335,48.8743],[-69.194,11.1294,51.4726],[-69.1928,11.1243,52.9715],[-69.1954,11.121,54.0231],[-69.1857,11.1059,56.3083],[-69.1541,11.0319,80.165],[-69.1192,10.9437,223.0971],[-69.099,10.8828,596.9435],[-69.0915,10.8751,648.9637],[-69.0518,10.8708,1068.1819],[-69.0332,10.8626,977.5487],[-69.0071,10.8545,367.2133],[-68.9696,10.8505,583.4139],[-68.9504,10.8431,900.9308],[-68.9402,10.8312,569.8291],[-68.9375,10.822,357.9672],[-68.938,10.7979,142.3866],[-68.9347,10.7841,170.383],[-68.9354,10.7635,210.0596],[-68.9339,10.757,148.0567],[-68.9175,10.7282,62.093],[-68.901,10.73,100.2247],[-68.9058,10.7395,79.8985],[-68.9058,10.7445,86.6235],[-68.9016,10.7567,61.2286],[-68.8893,10.772,61.3906],[-68.8797,10.7889,56.8142],[-68.8722,10.7964,72.2621],[-68.8572,10.8019,61.4325],[-68.8243,10.8273,81.6559],[-68.8107,10.8454,72.5883],[-68.7985,10.8569,136.5623],[-68.7734,10.8744,105.9728],[-68.7555,10.8844,86.2489],[-68.7406,10.8901,105.5473],[-68.7149,10.8967,44.0644],[-68.7,10.9096,40.1761],[-68.6923,10.913,45.3561],[-68.6311,10.9261,29.6693],[-68.5995,10.9264,28.8265],[-68.5918,10.9278,27.2973],[-68.6257,11.0299,68.1952]]]]}
,"properties": {"GID_2": "VEN.12.11_1","GID_0": "VEN","country": "Venezuela","GID_1": "VEN.12_1","province": "Falcón","NL_NAME_1": "NA","county": "Jacura","VARNAME_2": "NA","NL_NAME_2": "NA","TYPE_2": "Municipio","ENGTYPE_2": "Municipality","CC_2": "NA","HASC_2": "NA","name": "Jacura.county","area_km2": 1972.565,"hist_schema_id": "Elevation0-9000","hist_area_km2": {"25": 117.999,"50": 381.632,"75": 343.754,"100": 262.777,"125": 177.43,"150": 122.884,"175": 79.407,"200": 57.45,"225": 43.004,"250": 35.615,"275": 31.452,"300": 29.496,"325": 25.396,"350": 23.252,"375": 21.462,"400": 21.317,"425": 19.069,"450": 17.175,"475": 15.759,"500": 15.26,"525": 14.823,"550": 15.384,"575": 12.491,"600": 11.367,"625": 9.556,"650": 7.953,"675": 5.621,"700": 6.85,"725": 5.434,"750": 5.288,"775": 4.456,"800": 4.123,"825": 3.769,"850": 2.644,"875": 3.123,"900": 3.456,"925": 2.728,"950": 3.311,"975": 2.873,"1000": 2.832,"1025": 1.541,"1050": 0.645,"1075": 0.437,"1100": 0.146,"1125": 0.062,"1150": 0.062}}}