{"type":"Feature","properties":{"featurecla":"Lake Centerline","scalerank":8,"rivernum":644,"dissolve":"644Lake Centerline","name":"Guárico","name_alt":null,"note":null,"min_zoom":7.0,"strokeweig":0.2,"name_en":"Guárico","min_label":8.0},
"geometry":{"type": "LineString","coordinates": [[-66.946142578124991,9.80841705936912,268.8992],[-66.956347656249989,9.81000397343162,298.0],[-66.971533203124991,9.81049225468162,298.0],[-66.986376953124989,9.8118838562441084,298.0],[-67.001318359374991,9.82172272343162,298.0],[-67.018359374999989,9.83087799686912,298.0],[-67.037280273437489,9.8353213562441084,319.6851],[-67.052832031249991,9.8420596374941169,301.6256],[-67.07578125,9.8477725281191084,356.8373],[-67.091601562499989,9.84992096561912,305.5215],[-67.09814453125,9.85394928593162,302.5419],[-67.102636718749991,9.8632998718691169,319.4562],[-67.1005859375,9.87262604374412,309.1961],[-67.10009765625,9.88068268436912,336.8435],[-67.1005859375,9.8860049499941169,324.2643]]}}