{"type":"Feature","properties":{"featurecla":"River","scalerank":8,"rivernum":644,"dissolve":"644River","name":"Guárico5","name_alt":null,"note":null,"min_zoom":7.0,"strokeweig":0.2,"name_en":"Guárico","min_label":8.0},
"geometry":{"type": "LineString","coordinates": [[-66.945898437499991,9.80841705936912,268.8992],[-66.924072265625,9.80316803593162,247.0014],[-66.920947265624989,9.7995791687441169,236.221],[-66.91845703125,9.79389069218162,234.7036],[-66.917407226562489,9.7855166687441084,234.1367],[-66.914721679687489,9.7754092468691169,238.7876],[-66.905029296875,9.7570986999941169,238.9005],[-66.896728515625,9.74738190311912,220.9916],[-66.873876953124991,9.72943756718162,234.2161],[-66.868896484375,9.72260162968162,220.5603],[-66.867431640625,9.71674225468162,225.07],[-66.867919921875,9.7093447937441084,220.5595],[-66.867041015624991,9.6993350281191084,206.3586],[-66.857714843749989,9.66840241093162,197.9376],[-66.856542968749991,9.66022369999412,196.8053],[-66.857958984374989,9.63959381718162,191.3073],[-66.855224609375,9.61029694218162,196.2214],[-66.856005859374989,9.6045108093691169,184.8723],[-66.857348632812489,9.5989932312441084,184.1523],[-66.876513671874989,9.56171295780662,179.312],[-66.887255859374989,9.54596588749412,179.0717],[-66.894824218749989,9.53900787968162,176.4201],[-66.89912109375,9.5364932312441084,186.6172],[-66.904052734375,9.5345401062441084,177.0377],[-66.93359375,9.53009674686912,170.4977],[-66.954443359374991,9.5235537781191084,181.5291],[-66.980639648437489,9.5092959656191169,163.4061],[-66.983984374999991,9.50556061405662,162.6291],[-66.986376953124989,9.5008486999941084,162.6244],[-66.992529296874991,9.4829287781191169,159.6947],[-66.998144531249991,9.47162506718162,162.8757],[-67.004199218749989,9.45184967655662,160.746],[-67.020361328124991,9.4153018249941169,152.8789],[-67.025732421874991,9.40668366093162,160.4045],[-67.031005859375,9.4009951843691084,157.6537],[-67.045751953124991,9.39520905155662,148.8747],[-67.049853515624989,9.39288971561912,149.8009],[-67.053149414062489,9.39020416874412,150.8921],[-67.057177734374989,9.38532135624412,160.0134],[-67.072021484375,9.3604678406191084,138.056],[-67.077441406249989,9.3537783874941169,138.9949],[-67.082690429687489,9.34894440311912,138.0643],[-67.102099609374989,9.34076569218162,133.6901],[-67.113037109375,9.33856842655662,134.3661],[-67.118994140624991,9.3389834656191084,133.289],[-67.1240234375,9.3406924499941084,135.4754],[-67.132910156249991,9.34577057499412,134.6843],[-67.137866210937489,9.3477725281191084,130.646],[-67.14306640625,9.3487490906191084,132.0632],[-67.148535156249991,9.3482608093691084,128.0232],[-67.157885742187489,9.3442569031191169,127.6387],[-67.163330078125,9.34296295780662,126.209],[-67.175585937499989,9.34162018436912,127.5543],[-67.185546875,9.33783600468162,132.1343],[-67.190966796874989,9.3364444031191169,126.4424],[-67.196826171874989,9.3355654968691084,123.3476],[-67.209277343749989,9.3364444031191169,121.2525],[-67.2203125,9.3396182312441169,122.2265],[-67.229663085937489,9.34393952030662,121.2342],[-67.234545898437489,9.34564850468162,118.5378],[-67.240478515625,9.3457217468691169,123.0971],[-67.247363281249989,9.34369537968162,125.5629],[-67.255126953125,9.3403506531191169,117.1997],[-67.272314453124991,9.32660553593162,124.8575],[-67.278369140624989,9.3243350281191084,117.2546],[-67.288427734374991,9.32428619999412,115.0401],[-67.340136718749989,9.29266998905662,113.0009],[-67.351660156249991,9.2815127624941169,112.2844],[-67.356738281249989,9.2777041687441084,110.9219],[-67.369311523437489,9.2722354187441169,111.4463],[-67.372900390624991,9.26813385624412,108.8689],[-67.374609374999991,9.2628115906191084,109.7313],[-67.372851562499989,9.25189850468162,114.7298],[-67.373046875,9.24457428593162,111.9663],[-67.375097656249991,9.2356143249941169,112.3476],[-67.394580078124989,9.1992373718691169,99.7104],[-67.397802734374991,9.18829987186912,101.5521],[-67.399511718749991,9.17621491093162,98.0],[-67.399658203125,9.1715029968691084,98.0],[-67.392822265625,9.1580752624941084,105.983]]}}