{"type":"Feature","properties":{"featurecla":"River","scalerank":8,"rivernum":644,"dissolve":"644River","name":"Guárico2","name_alt":null,"note":null,"min_zoom":7.0,"strokeweig":0.2,"name_en":"Guárico","min_label":8.0},
"geometry":{"type": "LineString","coordinates": [[-67.335864257812489,10.06000397343162,1112.4971],[-67.333837890624991,10.076190496869117,722.9717],[-67.338549804687489,10.083270574994117,727.0997],[-67.34375,10.08746979374412,717.6628],[-67.351171874999991,10.08930084843162,691.7411],[-67.358740234374991,10.08954498905662,649.5159],[-67.36962890625,10.091180731244108,613.423],[-67.376953125,10.09076569218162,607.851],[-67.383154296874991,10.089471746869108,599.3943],[-67.393652343749991,10.08576080936912,590.7399],[-67.415869140624991,10.08454010624412,572.5061],[-67.422290039062489,10.08344147343162,569.2863],[-67.427783203124989,10.081659246869108,563.1731],[-67.45947265625,10.06525299686912,544.2416],[-67.467211914062489,10.059100653119117,534.8821],[-67.476660156249991,10.04779694218162,567.5541],[-67.479248046875,10.043475653119117,618.4912],[-67.481127929687489,10.03864166874412,523.7552],[-67.481640625,10.033319403119108,529.7742],[-67.480322265624991,10.02850983280662,580.223],[-67.477832031249989,10.02435944218162,663.3042],[-67.474853515625,10.021112371869108,580.4026],[-67.471533203124991,10.019061590619117,532.5263],[-67.455322265625,10.011737371869117,538.1571],[-67.448876953125,10.00556061405662,530.8301],[-67.44482421875,10.00006744999412,568.0237],[-67.434008789062489,9.9917178406191169,497.4536],[-67.361181640624991,9.93659088749412,435.3281],[-67.340747070312489,9.92633698124412,406.6082],[-67.312670898437489,9.93121979374412,402.3654],[-67.285693359374989,9.93134186405662,406.0615],[-67.281176757812489,9.92890045780662,455.9567],[-67.27734375,9.92438385624412,446.4904],[-67.274218749999989,9.91876862186912,377.4247],[-67.268847656249989,9.9121279968691169,365.4534],[-67.263964843749989,9.91107819218162,357.3465],[-67.259448242187489,9.91193268436912,353.8697],[-67.255175781249989,9.9140811218691169,352.5681],[-67.239013671875,9.9179873718691169,412.7636],[-67.225537109375,9.92365143436912,420.9846],[-67.211962890624989,9.92426178593162,374.5104],[-67.171972656249991,9.9183291687441084,402.2734]]}}