{"type":"Feature","properties":{"featurecla":"River","scalerank":8,"rivernum":644,"dissolve":"644River","name":"Guárico4","name_alt":null,"note":null,"min_zoom":7.0,"strokeweig":0.2,"name_en":"Guárico","min_label":8.0},
"geometry":{"type": "LineString","coordinates": [[-67.171972656249991,9.9183291687441084,402.2734],[-67.129003906249991,9.9110049499941084,359.5259],[-67.114013671875,9.90521881718162,347.7155],[-67.110107421875,9.9009951843691084,383.4773],[-67.1005859375,9.8860049499941169,324.2643]]}}