{"type":"Feature","properties":{"GID_2":"VEN.3.2_1","GID_0":"VEN","country":"Venezuela","GID_1":"VEN.3_1","province":"Apure","NL_NAME_1":"NA","county":"Biruaca","VARNAME_2":"NA","NL_NAME_2":"NA","TYPE_2":"Municipio","ENGTYPE_2":"Municipality","CC_2":"NA","HASC_2":"NA","name":"Biruaca.county"},
"geometry":{"type": "MultiPolygon","coordinates": [[[[-67.8492,7.594,52.2338],[-67.8118,7.5795,47.451],[-67.7862,7.5752,46.67],[-67.7031,7.5795,44.6243],[-67.5207,7.7287,45.1108],[-67.518,7.8394,44.7723],[-67.5301,7.8403,45.0802],[-67.5359,7.839,43.798],[-67.5376,7.8367,46.9207],[-67.5385,7.8255,42.2749],[-67.5692,7.8116,45.3519],[-67.5948,7.8115,43.9941],[-67.6028,7.8131,45.43],[-67.6066,7.8176,44.7478],[-67.6094,7.8248,45.4513],[-67.6098,7.8309,45.125],[-67.6151,7.8347,49.1544],[-67.6224,7.8276,45.6503],[-67.6309,7.8102,45.1473],[-67.6364,7.8068,45.8034],[-67.664,7.815,45.5998],[-67.7042,7.8185,47.8588],[-67.7169,7.8168,47.5415],[-67.731,7.8114,47.583],[-67.7716,7.8044,48.6755],[-67.825,7.7702,47.9133],[-67.846,7.7614,48.5098],[-67.8451,7.7047,49.9023],[-67.8492,7.594,52.2338]]]]}}