{"type": "Feature","bbox": [-64.6687,10.0881,-64.4385,10.2468],"geometry": {"type": "MultiPolygon","coordinates": [[[[-64.4392,10.1907,829.5554],[-64.4403,10.196,920.5364],[-64.452,10.2119,761.7947],[-64.4801,10.244,0.4345],[-64.4832,10.2424,0.0],[-64.488,10.2426,0.0],[-64.4855,10.2396,64.4585],[-64.4883,10.2222,530.9604],[-64.4883,10.2074,495.0771],[-64.4908,10.1954,434.7469],[-64.495,10.1891,521.1673],[-64.5089,10.1815,584.5296],[-64.5336,10.1745,553.4644],[-64.5577,10.172,693.6075],[-64.5736,10.1763,468.054],[-64.5961,10.1895,415.5548],[-64.6013,10.2001,166.1005],[-64.6115,10.2317,108.228],[-64.6171,10.2421,0.0],[-64.6207,10.2415,7.3215],[-64.6212,10.2446,0.0],[-64.6365,10.2415,0.0],[-64.6374,10.2385,0.0],[-64.6329,10.2351,6.6026],[-64.6332,10.2296,4.8158],[-64.634,10.2279,7.6475],[-64.6365,10.2285,0.0],[-64.6363,10.2251,3.5904],[-64.639,10.2218,2.4876],[-64.6429,10.2207,0.3809],[-64.6443,10.2154,1.3579],[-64.6474,10.2149,0.464],[-64.6488,10.2168,0.0],[-64.6515,10.2146,0.0],[-64.6521,10.2115,0.7383],[-64.6596,10.2079,1.9442],[-64.6643,10.209,0.0],[-64.666,10.2063,0.5776],[-64.6687,10.2054,3.3841],[-64.6597,10.198,16.192],[-64.6441,10.1916,89.1082],[-64.6278,10.1782,184.1064],[-64.6193,10.1584,262.4624],[-64.6118,10.1459,124.0127],[-64.6013,10.1337,93.7517],[-64.5967,10.1234,81.2159],[-64.5893,10.1145,111.1078],[-64.5622,10.0995,42.789],[-64.5259,10.0898,339.801],[-64.5133,10.0881,542.0882],[-64.5033,10.0893,584.8718],[-64.4836,10.0951,651.4777],[-64.4683,10.0934,468.8316],[-64.4614,10.0967,570.3637],[-64.4571,10.1133,683.4953],[-64.4455,10.1317,644.0362],[-64.4385,10.1874,737.9062],[-64.4392,10.1907,829.5554]]],
[[[-64.6315,10.2468,0.0],[-64.6335,10.2468,4.6262],[-64.6346,10.2451,0.1929],[-64.6307,10.2457,0.0],[-64.6315,10.2468,0.0]]]]}
,"properties": {"GID_2": "VEN.2.22_1","GID_0": "VEN","country": "Venezuela","GID_1": "VEN.2_1","province": "Anzoátegui","NL_NAME_1": "NA","county": "Sotillo","VARNAME_2": "NA","NL_NAME_2": "NA","TYPE_2": "Municipio","ENGTYPE_2": "Municipality","CC_2": "NA","HASC_2": "NA","name": "Sotillo.county","area_km2": 218.0694,"hist_schema_id": "Elevation0-9000","hist_area_km2": {"0": 8.3047,"25": 10.4127,"50": 7.4296,"75": 9.2874,"100": 8.5569,"125": 8.6822,"150": 9.0369,"175": 8.0768,"200": 8.4943,"225": 7.5342,"250": 8.4316,"275": 7.5759,"300": 8.2437,"325": 8.0559,"350": 7.1168,"375": 7.4506,"400": 7.4088,"425": 7.1584,"450": 7.1584,"475": 6.5949,"500": 5.6141,"525": 5.155,"550": 5.2175,"575": 6.1147,"600": 5.5094,"625": 4.0487,"650": 3.7357,"675": 3.6105,"700": 3.2557,"725": 2.5671,"750": 2.0662,"775": 2.0871,"800": 1.8784,"825": 1.4818,"850": 1.2523,"875": 0.9392,"900": 0.8557,"925": 0.7096,"950": 0.3339,"975": 0.3548,"1000": 0.2087,"1025": 0.0626}}}