{"type":"Feature","properties":{"GID_2":"VEN.15.19_1","GID_0":"VEN","country":"Venezuela","GID_1":"VEN.15_1","province":"Mérida","NL_NAME_1":"NA","county":"SantosMarquina","VARNAME_2":"NA","NL_NAME_2":"NA","TYPE_2":"Municipio","ENGTYPE_2":"Municipality","CC_2":"NA","HASC_2":"NA","name":"Santos_Marquina.county"},
"geometry":{"type": "MultiPolygon","coordinates": [[[[-70.8564,8.5539,2147.8093],[-70.872,8.5539,2938.1853],[-70.8823,8.5568,3177.0374],[-70.888,8.5602,3453.0803],[-70.8943,8.5698,3501.3818],[-70.8942,8.5751,3483.3635],[-70.8897,8.5862,3409.3174],[-70.8893,8.5933,3502.0405],[-70.8934,8.6026,3750.3896],[-70.9037,8.6091,4072.9351],[-70.9168,8.6041,4072.4333],[-70.9562,8.5954,4202.6382],[-70.9696,8.5945,4281.2437],[-70.9822,8.5989,4001.7117],[-70.992,8.6115,3995.2483],[-70.9946,8.6249,3884.7021],[-70.9943,8.6436,3154.0977],[-70.9969,8.6805,2301.7112],[-71.0018,8.682,2153.031],[-71.023,8.6869,2491.3445],[-71.0426,8.6549,1998.6367],[-71.0524,8.6425,1891.8918],[-71.0696,8.6062,2284.4719],[-71.0707,8.5958,2786.6475],[-71.0692,8.5816,3223.8313],[-71.0642,8.5736,3431.7031],[-71.0544,8.5673,3588.4387],[-71.0436,8.5613,4093.9785],[-70.9997,8.5487,4705.3052],[-70.9736,8.5447,3766.6682],[-70.9595,8.5383,3140.0352],[-70.9459,8.5209,2698.395],[-70.9316,8.4969,2015.0132],[-70.9185,8.4839,1889.105],[-70.9103,8.4641,1344.1641],[-70.9044,8.4392,1999.6584],[-70.8899,8.4242,1467.0023],[-70.8765,8.4046,1495.7452],[-70.8668,8.3939,1069.4091],[-70.8577,8.3897,1346.3535],[-70.8543,8.4168,871.1616],[-70.8548,8.4583,1422.9062],[-70.8517,8.4918,1416.9927],[-70.8531,8.5124,1940.9642],[-70.8566,8.5308,1973.2432],[-70.8564,8.5539,2147.8093]]]]}}