{"type": "Feature","bbox": [-67.1717,9.9649,-65.3885,10.6501],"geometry": {"type": "MultiPolygon","coordinates": [[[[-66.9118,10.043,691.1406],[-66.8963,10.0336,808.2933],[-66.877,10.0321,1173.4578],[-66.8548,10.0372,643.7948],[-66.8125,10.0429,629.2463],[-66.7866,10.0434,596.8281],[-66.7651,10.0396,1012.1938],[-66.7537,10.0353,873.9058],[-66.7168,10.0162,920.2092],[-66.703,10.0114,638.4606],[-66.694,10.0029,625.8822],[-66.6851,9.9899,745.6223],[-66.6761,9.9874,694.6506],[-66.6629,9.9882,827.2014],[-66.6524,9.9913,693.1686],[-66.6356,9.9905,574.3062],[-66.6291,9.9847,715.6202],[-66.6258,9.9792,748.471],[-66.5993,9.9777,985.2593],[-66.5697,9.9794,869.3901],[-66.5485,9.983,543.6869],[-66.5243,9.9913,655.9048],[-66.5037,10.0,760.7949],[-66.4788,10.0158,1139.4803],[-66.4534,10.036,502.2319],[-66.4313,10.0489,656.2465],[-66.4017,10.0594,810.9246],[-66.3821,10.0589,1034.2725],[-66.359,10.0529,620.685],[-66.3385,10.0412,1052.5938],[-66.3092,10.0077,759.4006],[-66.2988,10.0001,863.2501],[-66.2812,9.994,684.0983],[-66.2286,9.9853,703.7244],[-66.135,9.9652,621.7773],[-66.1167,9.9649,648.2081],[-66.0844,9.9707,771.9612],[-66.0633,9.9798,515.5731],[-66.0437,9.9858,454.7796],[-66.0206,9.9854,711.7497],[-65.9588,9.9749,497.2975],[-65.7732,9.9729,446.9786],[-65.7266,9.9679,506.5558],[-65.6951,9.9697,518.6611],[-65.672,9.9712,592.7399],[-65.6465,9.9753,580.6379],[-65.6099,9.9854,458.6148],[-65.565,10.0083,175.8232],[-65.516,10.0276,263.745],[-65.5071,10.0324,262.8872],[-65.4693,10.0638,258.5032],[-65.4274,10.0895,125.8548],[-65.414,10.0998,79.6941],[-65.401,10.1127,46.5239],[-65.3885,10.1301,4.8864],[-65.4407,10.1432,0.8311],[-65.4437,10.1415,3.2533],[-65.4449,10.1435,2.095],[-65.4943,10.1574,0.0],[-65.496,10.1557,2.3281],[-65.5001,10.159,0.0],[-65.5735,10.1804,3.8177],[-65.6524,10.2071,0.2905],[-65.6546,10.209,0.0],[-65.7351,10.239,0.4508],[-65.8054,10.2693,1.0719],[-65.8468,10.2899,2.2259],[-65.8913,10.3151,2.3013],[-65.8921,10.3171,0.0],[-65.9171,10.3329,0.7871],[-65.9404,10.3518,0.3664],[-65.9437,10.3529,1.793],[-65.9507,10.3599,0.7206],[-65.9582,10.364,4.8164],[-65.9882,10.3954,3.5279],[-66.0188,10.4124,1.2876],[-66.0507,10.4349,4.3035],[-66.0529,10.4343,4.7143],[-66.0563,10.4362,2.3399],[-66.056,10.4382,1.249],[-66.0585,10.441,0.4044],[-66.071,10.4507,0.0],[-66.0851,10.4649,2.7914],[-66.0965,10.4801,1.0274],[-66.0976,10.4874,1.803],[-66.1043,10.4907,0.8847],[-66.1076,10.4954,0.0],[-66.114,10.5087,0.0],[-66.116,10.5238,0.0],[-66.1149,10.5285,0.5039],[-66.1124,10.531,2.0561],[-66.1085,10.5307,1.0661],[-66.1082,10.5318,1.0661],[-66.1099,10.5354,0.0],[-66.114,10.5382,0.6199],[-66.1193,10.5343,2.0997],[-66.1204,10.5363,0.0],[-66.1249,10.5374,10.0973],[-66.1249,10.539,9.8777],[-66.1215,10.5413,3.2797],[-66.1165,10.539,3.2588],[-66.1137,10.541,0.0],[-66.1143,10.5443,3.2693],[-66.111,10.5437,1.0256],[-66.1126,10.5407,0.0],[-66.1087,10.5399,0.0],[-66.1057,10.5357,0.0],[-66.1024,10.5396,0.9068],[-66.1029,10.5335,0.5714],[-66.0996,10.5307,0.6451],[-66.094,10.5362,2.3424],[-66.0974,10.5404,0.9588],[-66.0954,10.5401,0.0],[-66.0937,10.5426,2.1646],[-66.0912,10.5346,0.0],[-66.0885,10.5351,0.0],[-66.0801,10.5454,0.0],[-66.0768,10.5443,2.5281],[-66.0707,10.5451,0.0],[-66.064,10.5482,1.1071],[-66.0635,10.551,10.6484],[-66.0604,10.5532,0.0],[-66.0601,10.5562,2.3982],[-66.0585,10.5554,0.0],[-66.0557,10.5579,8.9497],[-66.0563,10.5635,8.163],[-66.0515,10.5674,15.3176],[-66.0462,10.5676,0.0],[-66.0457,10.5732,0.0],[-66.0488,10.579,6.2207],[-66.0518,10.5788,0.0],[-66.0543,10.5837,0.0],[-66.0568,10.5837,100.0673],[-66.0582,10.5863,2.849],[-66.0646,10.5885,0.0],[-66.061,10.5793,3.3235],[-66.0679,10.5746,5.6656],[-66.0768,10.576,4.2085],[-66.0985,10.5882,18.7258],[-66.1015,10.5924,-0.4839],[-66.1082,10.5918,34.7016],[-66.1168,10.594,10.3739],[-66.124,10.6004,0.0],[-66.1285,10.6015,10.75],[-66.1343,10.599,8.9968],[-66.1396,10.6018,26.483],[-66.1457,10.6021,3.4647],[-66.1496,10.6051,10.6143],[-66.1518,10.6043,21.5432],[-66.1565,10.6076,0.0],[-66.1651,10.6082,10.0691],[-66.1687,10.6107,0.0],[-66.1715,10.6085,19.0062],[-66.174,10.609,7.6787],[-66.1963,10.6226,1.2021],[-66.2171,10.6396,0.0],[-66.2349,10.649,0.0],[-66.2501,10.6499,0.0],[-66.2538,10.6488,0.0],[-66.2579,10.6501,14.6681],[-66.274,10.646,16.7123],[-66.2768,10.6471,0.0],[-66.2787,10.6451,28.1347],[-66.2824,10.6462,0.0],[-66.2943,10.6407,0.0],[-66.2996,10.6404,0.0],[-66.3032,10.6379,2.9803],[-66.3051,10.6313,5.5044],[-66.3135,10.6226,2.6477],[-66.3154,10.6174,0.9619],[-66.3179,10.6157,16.1292],[-66.3293,10.614,0.0],[-66.3365,10.6099,12.5685],[-66.3418,10.6096,0.0],[-66.3381,10.6038,119.2925],[-66.356,10.5757,432.1155],[-66.359,10.5674,572.5801],[-66.3488,10.563,446.8648],[-66.3489,10.5346,877.1588],[-66.3813,10.5352,973.6453],[-66.4102,10.5422,1069.5044],[-66.4677,10.5457,1053.624],[-66.5288,10.5633,1424.2964],[-66.5512,10.5663,1023.838],[-66.5964,10.5686,837.0955],[-66.6629,10.5634,1120.4078],[-66.6803,10.5604,1443.5935],[-66.6987,10.5545,1575.2089],[-66.7163,10.5547,1512.4918],[-66.7761,10.5605,1690.2012],[-66.8144,10.5579,1694.8011],[-66.8298,10.554,1641.4141],[-66.8423,10.5467,1904.428],[-66.8484,10.5388,2223.4561],[-66.8517,10.529,1860.1714],[-66.8525,10.4826,849.2902],[-66.8578,10.4688,903.6951],[-66.8667,10.4559,913.8679],[-66.8863,10.4332,1054.4691],[-66.9246,10.4241,914.9559],[-66.9703,10.4068,1538.5647],[-66.9863,10.404,1463.1787],[-67.0034,10.4043,1271.8246],[-67.0228,10.4074,1210.7085],[-67.0597,10.4175,1189.8485],[-67.1076,10.4363,1776.2333],[-67.1166,10.4429,1665.1963],[-67.1263,10.4475,1866.0885],[-67.1388,10.4457,1881.3674],[-67.1717,10.4187,1859.4548],[-67.157,10.4006,2038.4036],[-67.1444,10.3784,1795.9364],[-67.1392,10.3625,1845.3589],[-67.1337,10.3273,1501.8357],[-67.1269,10.3125,1407.106],[-67.0901,10.2858,819.4588],[-67.0797,10.2765,882.6273],[-67.0732,10.2635,584.3152],[-67.073,10.2509,663.3738],[-67.0832,10.2241,893.9546],[-67.0942,10.1808,799.9743],[-67.0821,10.1539,917.5704],[-67.0675,10.113,551.591],[-67.0626,10.1074,604.9961],[-67.0508,10.1019,608.0711],[-66.9714,10.0948,554.7395],[-66.9573,10.0893,661.9186],[-66.9427,10.079,711.647],[-66.9118,10.043,691.1406]]]]}
,"properties": {"GID_1": "VEN.16_1","GID_0": "VEN","country": "Venezuela","province": "Miranda","VARNAME_1": "NA","NL_NAME_1": "NA","TYPE_1": "Estado","ENGTYPE_1": "State","CC_1": "NA","HASC_1": "NA","ISO_1": "VE-M","name": "Miranda.province","area_km2": 8603.562,"hist_schema_id": "Elevation0-9000","hist_area_km2": {"0": 557.476,"25": 689.463,"50": 467.599,"75": 297.026,"100": 186.325,"125": 160.674,"150": 193.452,"175": 224.662,"200": 242.764,"225": 248.176,"250": 252.79,"275": 256.526,"300": 253.663,"325": 251.821,"350": 235.527,"375": 224.408,"400": 221.239,"425": 212.769,"450": 209.953,"475": 203.587,"500": 198.08,"525": 196.598,"550": 188.186,"575": 175.642,"600": 165.708,"625": 151.641,"650": 137.033,"675": 121.588,"700": 108.669,"725": 97.796,"750": 90.949,"775": 82.391,"800": 75.461,"825": 72.746,"850": 73.72,"875": 67.105,"900": 64.6,"925": 58.299,"950": 54.064,"975": 51.037,"1000": 48.764,"1025": 43.444,"1050": 40.024,"1075": 36.623,"1100": 33.202,"1125": 29.844,"1150": 29.614,"1175": 30.198,"1200": 31.303,"1225": 30.907,"1250": 31.553,"1275": 29.551,"1300": 27.444,"1325": 24.482,"1350": 21.958,"1375": 20.561,"1400": 20.414,"1425": 19.684,"1450": 18.704,"1475": 17.411,"1500": 15.221,"1525": 13.427,"1550": 11.301,"1575": 11.968,"1600": 11.488,"1625": 10.904,"1650": 10.633,"1675": 9.194,"1700": 8.485,"1725": 8.089,"1750": 6.484,"1775": 6.755,"1800": 5.9,"1825": 5.212,"1850": 5.274,"1875": 4.711,"1900": 4.649,"1925": 4.128,"1950": 3.877,"1975": 3.961,"2000": 3.794,"2025": 3.627,"2050": 2.96,"2075": 2.626,"2100": 2.376,"2125": 1.959,"2150": 1.834,"2175": 1.959,"2200": 1.813,"2225": 1.834,"2250": 1.417,"2275": 1.355,"2300": 1.126,"2325": 0.875,"2350": 0.917,"2375": 0.667,"2400": 0.292,"2425": 0.667,"2450": 0.521,"2475": 0.5,"2500": 0.396,"2525": 0.292,"2550": 0.271,"2575": 0.25,"2600": 0.229,"2625": 0.083,"2650": 0.125,"2675": 0.083,"2700": 0.083}}}