{"type":"Feature","properties":{"ISO3166-1-Alpha-3":"VEN","country":"Venezuela","fill":"#FF0","id":"47","name":"Miranda"},
"geometry":{"type": "Polygon","coordinates": [[[-65.42575,10.14342,0.0],[-65.42577,10.14342,0.0],[-65.4591,10.14936,0.0],[-65.58043,10.18545,0.0],[-65.86848,10.30956,0.0],[-65.84732,10.2814,0.0],[-65.7473,10.23924,0.0],[-65.71764,10.22016,4.5817],[-65.77501,10.2215,0.0],[-65.80211,10.22565,0.0],[-65.8275,10.23444,15.0065],[-65.87133,10.27294,0.0],[-65.89696,10.28799,17.3448],[-65.923,10.28221,5.1636],[-65.94416,10.30956,13.5073],[-65.93761,10.31696,12.0811],[-65.92992,10.32319,6.995],[-65.92186,10.31656,2.3376],[-65.91015,10.31167,9.3012],[-65.89635,10.30907,4.9697],[-65.88207,10.30956,2.8466],[-65.95287,10.35163,5.3439],[-65.97094,10.37885,0.0],[-66.00426,10.39899,7.5222],[-66.01183,10.4086,5.6221],[-66.08751,10.46662,3.0223],[-66.11828,10.49795,1.133],[-66.12222,10.50703,5.4251],[-66.12084,10.53132,3.095],[-66.12169,10.54295,8.8997],[-66.10241,10.54076,3.9002],[-66.07616,10.5489,5.783],[-66.05382,10.5624,0.0],[-66.04654,10.57648,79.8687],[-66.05797,10.57905,107.9838],[-66.1044,10.58442,46.2509],[-66.12458,10.60196,0.0],[-66.19058,10.61742,10.5106],[-66.25178,10.64859,41.9739],[-66.27587,10.65217,0.0],[-66.29516,10.64671,0.0],[-66.30948,10.63418,0.0],[-66.31361,10.62949,0.0],[-66.3136,10.62943,0.0],[-66.31194,10.62369,2.6477],[-66.30956,10.59987,109.9347],[-66.30962,10.59739,107.8313],[-66.30905,10.59522,49.3108],[-66.30894,10.59452,49.3108],[-66.30889,10.59437,49.3108],[-66.30838,10.59398,49.3108],[-66.30812,10.59351,54.2076],[-66.30799,10.59282,54.2076],[-66.30799,10.59142,64.1263],[-66.3138,10.5468,553.8885],[-66.31326,10.54517,543.2465],[-66.31303,10.54416,543.2465],[-66.31217,10.54168,414.7557],[-66.31189,10.54106,414.7557],[-66.31163,10.54029,485.8154],[-66.3138,10.53773,397.807],[-66.32507,10.53068,705.293],[-66.35432,10.54533,940.7305],[-66.36742,10.54409,808.7881],[-66.43684,10.5385,1405.1246],[-66.43974,10.53711,1455.2474],[-66.44113,10.53734,1455.2474],[-66.44284,10.53819,1610.3173],[-66.44989,10.54509,1346.1007],[-66.45214,10.54517,1461.8228],[-66.45537,10.54455,1484.177],[-66.46217,10.54176,1296.8033],[-66.46733,10.53905,1277.5562],[-66.47056,10.53951,1317.9917],[-66.48772,10.54471,1375.9675],[-66.4925,10.54688,1450.6715],[-66.49519,10.54843,1658.072],[-66.49575,10.5492,1570.4664],[-66.49643,10.5499,1570.4664],[-66.49842,10.55106,1493.8253],[-66.50351,10.55315,1632.3484],[-66.50839,10.55408,1537.4956],[-66.51009,10.55455,1442.1149],[-66.51139,10.55517,1442.1149],[-66.51234,10.55579,1306.3351],[-66.51389,10.55626,1398.0608],[-66.52149,10.55698,1485.8102],[-66.52593,10.55806,1722.718],[-66.5764,10.55992,1134.5261],[-66.57795,10.56047,1059.8149],[-66.58133,10.55938,1215.7357],[-66.5857,10.55667,1380.7585],[-66.59521,10.54889,1510.0142],[-66.60254,10.54416,1768.4384],[-66.60929,10.54633,1663.2322],[-66.70628,10.54556,1839.9459],[-66.71662,10.55036,1816.4635],[-66.72148,10.55184,1829.4424],[-66.72308,10.55199,1829.4424],[-66.79638,10.55067,1730.1626],[-66.83914,10.54409,2173.3965],[-66.84323,10.54509,1924.5641],[-66.85532,10.55067,1920.4015],[-66.85909,10.553,1967.9576],[-66.8632,10.55284,2091.9902],[-66.87377,10.54703,1912.2104],[-66.86134,10.52724,1482.0706],[-66.85364,10.5146,1040.2485],[-66.85429,10.5115,973.1029],[-66.8563,10.50569,934.1865],[-66.86896,10.4921,875.2849],[-66.88103,10.4814,927.8828],[-66.88775,10.46541,1068.3566],[-66.89744,10.41621,1304.1692],[-66.92725,10.42174,971.4211],[-66.94369,10.42143,1098.5652],[-66.95619,10.41823,1302.6941],[-66.96379,10.41554,1218.8688],[-66.9826,10.40474,1601.4991],[-67.00766,10.39521,1263.7738],[-67.01748,10.3935,1110.9375],[-67.02973,10.39304,1299.2473],[-67.05148,10.39451,1611.2777],[-67.07453,10.4011,1499.3601],[-67.12024,10.42104,1267.3818],[-67.14447,10.42818,1662.814],[-67.14755,10.42872,1714.823],[-67.15112,10.4305,1745.0667],[-67.15181,10.43143,1851.3137],[-67.15318,10.44073,1994.7018],[-67.22015,10.41668,2294.2288],[-67.19057,10.36952,1970.4862],[-67.18346,10.36472,1847.4589],[-67.17626,10.35779,1495.6697],[-67.17432,10.35485,1394.0422],[-67.17765,10.35058,1324.46],[-67.18548,10.34353,1406.7242],[-67.1875,10.33849,1134.5703],[-67.18897,10.33296,972.4347],[-67.1899,10.32699,844.139],[-67.18912,10.32017,1110.6013],[-67.18646,10.31304,1360.4866],[-67.17887,10.30418,1153.8767],[-67.173,10.29953,898.6208],[-67.16729,10.29627,748.2429],[-67.13623,10.28472,894.0828],[-67.12781,10.28046,915.3108],[-67.1145,10.2709,872.6169],[-67.10874,10.26485,624.9202],[-67.10794,10.26028,638.2538],[-67.1076,10.25222,655.881],[-67.11753,10.19511,955.2913],[-67.11962,10.19013,767.1328],[-67.1282,10.17742,896.3236],[-67.13264,10.16765,1140.0718],[-67.13411,10.16212,1202.4431],[-67.13417,10.15452,1159.9907],[-67.13264,10.14522,923.7426],[-67.1191,10.11148,979.6513],[-67.11073,10.10106,970.1119],[-67.08828,10.08285,921.4341],[-67.04161,10.05313,1118.5054],[-67.02823,10.05949,983.9648],[-67.01926,10.06507,1060.7424],[-67.01143,10.07104,730.8335],[-67.00727,10.07336,749.0645],[-67.00293,10.07492,857.675],[-66.99872,10.07561,1047.7751],[-66.99345,10.07577,1155.995],[-66.9843,10.07375,950.0739],[-66.97865,10.07158,1100.2242],[-66.96412,10.0598,1056.1062],[-66.95826,10.05143,809.3784],[-66.9565,10.04729,720.0432],[-66.94777,10.03481,656.9304],[-66.93756,10.0258,858.3584],[-66.9341,10.01867,1303.7827],[-66.92989,10.01308,1468.2126],[-66.92371,10.00998,1410.615],[-66.90958,10.01107,1368.7682],[-66.88953,10.00611,1374.3326],[-66.88498,10.00301,1357.1997],[-66.88139,10.00099,1352.6831],[-66.87852,9.99983,1335.4683],[-66.86501,10.00053,1220.5393],[-66.83522,10.01231,901.091],[-66.8215,10.01541,673.3438],[-66.79142,10.01277,864.9756],[-66.7731,10.00921,891.8441],[-66.76292,10.00068,1027.6947],[-66.76101,9.99758,1165.5492],[-66.75626,9.9943,932.4584],[-66.74817,9.99112,987.0838],[-66.71812,9.99027,1080.4143],[-66.70949,9.99112,1081.7329],[-66.7029,9.99073,941.9347],[-66.69579,9.98856,799.5959],[-66.68574,9.98205,865.4739],[-66.66593,9.97322,805.5093],[-66.61275,9.96645,933.5356],[-66.52782,9.96838,659.3737],[-66.48604,9.97593,822.0435],[-66.45012,9.98198,942.8376],[-66.43868,9.98988,755.4921],[-66.42677,10.00603,589.8557],[-66.42377,10.00882,727.5963],[-66.42062,10.01107,819.5011],[-66.41809,10.01246,818.7108],[-66.39845,10.01859,814.843],[-66.39248,10.01944,810.8657],[-66.38341,10.01859,1119.0166],[-66.37168,10.01556,983.7538],[-66.35109,10.00712,971.0055],[-66.3377,10.00006,1298.4169],[-66.33654,9.99898,1298.4169],[-66.33416,9.99701,1195.245],[-66.30582,9.98229,931.8452],[-66.29835,9.98011,837.1801],[-66.28817,9.97864,1063.7546],[-66.26797,9.97934,635.6063],[-66.24484,9.97787,711.3232],[-66.23365,9.97267,853.3752],[-66.20936,9.95676,887.5914],[-66.19048,9.9487,614.8889],[-66.18365,9.94901,762.4885],[-66.17477,9.95133,769.3679],[-66.14534,9.96366,659.8442],[-66.13702,9.96614,625.2181],[-66.13268,9.9666,757.5062],[-66.1219,9.959,666.1592],[-66.11958,9.95288,659.0208],[-66.11717,9.95001,541.6841],[-66.1117,9.94777,600.6063],[-66.1041,9.9473,645.2096],[-66.08389,9.95265,517.3834],[-66.07764,9.95536,499.2848],[-66.07066,9.95645,619.6749],[-66.06183,9.95645,671.6988],[-66.04594,9.95311,681.0229],[-65.97103,9.9289,533.8806],[-65.95951,9.92914,533.0737],[-65.91199,9.93805,606.4246],[-65.88848,9.94652,574.8767],[-65.8846,9.94947,574.6754],[-65.88026,9.95203,551.5323],[-65.87055,9.95606,552.2662],[-65.86179,9.95683,474.9806],[-65.8499,9.95614,529.9141],[-65.82675,9.95172,432.8238],[-65.816,9.948,387.5062],[-65.80825,9.94443,363.0656],[-65.80391,9.94172,360.3377],[-65.79913,9.93955,336.0486],[-65.79296,9.93859,308.1213],[-65.76603,9.93673,449.9557],[-65.74541,9.93924,722.0842],[-65.6966,9.95342,384.5],[-65.66945,9.97709,542.8289],[-65.66454,9.97942,530.0368],[-65.65893,9.98058,524.8114],[-65.6509,9.97903,590.1606],[-65.64622,9.97577,562.147],[-65.64227,9.97229,588.6355],[-65.63829,9.97074,633.5316],[-65.6333,9.97221,605.4679],[-65.62185,9.98446,461.0548],[-65.61312,9.99042,365.7349],[-65.60366,9.99479,263.3585],[-65.57612,10.00332,210.6087],[-65.56219,10.00626,168.8607],[-65.55524,10.00998,175.5178],[-65.54703,10.0158,151.691],[-65.52137,10.04148,244.062],[-65.51122,10.0483,250.2059],[-65.48744,10.05561,102.9874],[-65.47455,10.06445,245.4183],[-65.46956,10.06887,233.1475],[-65.46378,10.07259,188.8638],[-65.45871,10.07507,211.8255],[-65.45375,10.07685,131.7682],[-65.44895,10.07964,211.1812],[-65.43856,10.09533,280.8651],[-65.42665,10.1401,0.7471],[-65.42575,10.14342,0.0]]]}}