{"type": "Feature","bbox": [-63.6342,10.0704,-63.1931,10.3123],"geometry": {"type": "MultiPolygon","coordinates": [[[[-63.5949,10.1259,958.944],[-63.5877,10.1282,945.8258],[-63.5807,10.1271,919.4886],[-63.554,10.1095,967.967],[-63.5432,10.1072,916.662],[-63.5329,10.1103,1189.1367],[-63.5191,10.1183,1163.3726],[-63.4911,10.1288,1333.1276],[-63.482,10.1337,1163.2543],[-63.471,10.1356,1213.7909],[-63.4652,10.132,1092.1978],[-63.4616,10.126,923.3925],[-63.46,10.1164,831.4435],[-63.4634,10.1007,1184.5405],[-63.4576,10.0917,953.1274],[-63.4501,10.0896,889.4225],[-63.4425,10.0899,869.1296],[-63.4168,10.0973,902.7148],[-63.4095,10.097,847.1885],[-63.3704,10.0755,873.0304],[-63.3623,10.0758,890.4592],[-63.3479,10.0798,843.6044],[-63.3269,10.0704,1201.4556],[-63.2897,10.0721,901.2725],[-63.271,10.0775,905.0654],[-63.2574,10.0845,607.0788],[-63.2547,10.0958,682.1591],[-63.2574,10.1126,373.3453],[-63.254,10.119,424.1036],[-63.2425,10.1306,356.549],[-63.2339,10.1489,313.7203],[-63.2305,10.1498,519.351],[-63.2153,10.1699,634.8574],[-63.2006,10.1845,490.2276],[-63.1966,10.1906,363.0376],[-63.1931,10.1991,197.7829],[-63.1954,10.2245,43.3434],[-63.2104,10.2175,205.3127],[-63.2315,10.2173,429.2935],[-63.2454,10.2201,576.307],[-63.2726,10.2308,947.1743],[-63.299,10.2486,500.1855],[-63.3129,10.2562,658.0251],[-63.3392,10.2645,507.433],[-63.3577,10.2722,432.3205],[-63.4059,10.3007,655.9304],[-63.4297,10.3078,208.229],[-63.4494,10.3117,276.9879],[-63.4658,10.3123,237.7034],[-63.4832,10.3101,183.0311],[-63.4963,10.305,505.3511],[-63.5156,10.2944,280.6691],[-63.549,10.2716,431.722],[-63.5581,10.263,787.3065],[-63.5747,10.2515,612.616],[-63.6074,10.2321,1095.4912],[-63.6057,10.2197,1611.8724],[-63.603,10.2132,1689.5759],[-63.5994,10.2076,1684.342],[-63.5875,10.197,2046.208],[-63.5999,10.1744,1455.0453],[-63.6122,10.1634,1098.4709],[-63.6287,10.1384,820.9443],[-63.6328,10.1299,959.1985],[-63.6342,10.1227,785.6376],[-63.6321,10.1162,759.0398],[-63.6248,10.1163,921.8479],[-63.6033,10.1322,994.8415],[-63.5943,10.129,1053.8424],[-63.5949,10.1259,958.944]]]]}
,"properties": {"GID_2": "VEN.17.4_1","GID_0": "VEN","country": "Venezuela","GID_1": "VEN.17_1","province": "Monagas","NL_NAME_1": "NA","county": "Caripe","VARNAME_2": "NA","NL_NAME_2": "NA","TYPE_2": "Municipio","ENGTYPE_2": "Municipality","CC_2": "NA","HASC_2": "NA","name": "Caripe.county","area_km2": 808.9879,"hist_schema_id": "Elevation0-9000","hist_area_km2": {"50": 0.0209,"75": 0.0417,"100": 0.0209,"125": 0.1043,"150": 1.1476,"175": 2.1075,"200": 2.9422,"225": 3.5891,"250": 3.9646,"275": 4.4861,"300": 4.7367,"325": 5.3835,"350": 6.0095,"375": 5.9677,"400": 7.0528,"425": 8.2841,"450": 10.0161,"475": 9.8074,"500": 10.705,"525": 12.2283,"550": 12.0199,"575": 12.458,"600": 13.3973,"625": 13.8564,"650": 14.3988,"675": 14.2945,"700": 15.2754,"725": 15.6718,"750": 15.0042,"775": 17.0911,"800": 17.4455,"825": 19.4698,"850": 23.1845,"875": 23.2891,"900": 23.957,"925": 23.8737,"950": 25.898,"975": 26.5867,"1000": 26.7117,"1025": 25.8144,"1050": 27.7338,"1075": 26.4191,"1100": 25.7511,"1125": 29.4862,"1150": 26.1476,"1175": 24.0606,"1200": 22.0364,"1225": 20.2838,"1250": 18.9272,"1275": 15.7761,"1300": 15.338,"1325": 13.6686,"1350": 10.7262,"1375": 8.9316,"1400": 7.3665,"1425": 5.8849,"1450": 4.6746,"1475": 3.965,"1500": 2.7546,"1525": 2.7128,"1550": 2.2746,"1575": 2.1076,"1600": 1.9824,"1625": 1.5233,"1650": 1.419,"1675": 1.2312,"1700": 1.0642,"1725": 0.7095,"1750": 0.5008,"1775": 0.4591,"1800": 0.5634,"1825": 0.2921,"1850": 0.4382,"1875": 0.3756,"1900": 0.2504,"1925": 0.4382,"1950": 0.2087,"1975": 0.2713,"2000": 0.2087,"2025": 0.3756,"2050": 0.2087,"2075": 0.2713,"2100": 0.1461,"2125": 0.313,"2150": 0.1878,"2175": 0.1461,"2200": 0.0209,"2225": 0.0417}}}