{"type":"Feature","properties":{"GID_1":"VEN.3_1","GID_0":"VEN","country":"Venezuela","province":"Apure","VARNAME_1":"NA","NL_NAME_1":"NA","TYPE_1":"Estado","ENGTYPE_1":"State","CC_1":"NA","HASC_1":"NA","ISO_1":"VE-C","name":"Apure.province"},
"geometry":{"type": "MultiPolygon","coordinates": [[[[-69.529,6.2322,91.974],[-69.4269,6.1022,83.2019],[-69.4032,6.1154,86.6593],[-69.3765,6.1272,76.5],[-69.3624,6.1374,76.5],[-69.3567,6.1393,76.5],[-69.346,6.1392,78.6529],[-69.3363,6.1349,78.8],[-69.3255,6.124,76.0],[-69.3213,6.1157,75.5],[-69.3138,6.0928,75.0],[-69.2995,6.074,75.0],[-69.2946,6.069,74.5],[-69.2806,6.0614,75.7905],[-69.2706,6.0611,74.375],[-69.257,6.0634,74.0],[-69.2314,6.0821,75.6182],[-69.217,6.0851,77.8531],[-69.2149,6.0868,80.0095],[-69.2101,6.0957,75.8452],[-69.2008,6.1287,72.5],[-69.1859,6.1389,72.0],[-69.1728,6.14,72.0],[-69.1641,6.1456,72.0],[-69.149,6.1502,74.3744],[-69.1368,6.1776,71.0],[-69.131,6.1988,75.5126],[-69.1279,6.2039,79.6889],[-69.1103,6.2142,80.4],[-69.0834,6.2135,70.0],[-69.0689,6.2084,69.5],[-69.0515,6.213,73.7715],[-69.0363,6.2124,76.6033],[-69.0283,6.2101,75.7215],[-69.0197,6.2028,69.8336],[-69.0123,6.1987,68.5],[-69.0073,6.1978,69.743],[-68.9996,6.2046,76.8381],[-68.9886,6.2057,77.1566],[-68.9595,6.1877,68.0],[-68.9472,6.1822,67.5],[-68.9412,6.1757,67.5],[-68.9387,6.1692,73.3479],[-68.9295,6.1658,71.8344],[-68.9265,6.1667,74.6143],[-68.9207,6.1746,67.0],[-68.9166,6.1758,67.0],[-68.8903,6.1727,66.5],[-68.8819,6.1756,66.5],[-68.8362,6.1819,66.0],[-68.8133,6.1748,65.5],[-68.7968,6.1569,65.0],[-68.7917,6.1547,65.0],[-68.7846,6.1556,65.0],[-68.7636,6.1655,73.019],[-68.7506,6.1675,70.5736],[-68.7422,6.1664,68.9777],[-68.7259,6.1588,63.5],[-68.7089,6.156,63.5],[-68.6978,6.1521,63.0],[-68.6947,6.148,63.0],[-68.6921,6.1398,63.0],[-68.6887,6.1366,63.0],[-68.6438,6.1282,62.0],[-68.639,6.1308,65.689],[-68.6354,6.1372,62.0],[-68.625,6.1425,64.1924],[-68.613,6.1548,61.0],[-68.6024,6.1617,61.0],[-68.5925,6.1633,60.625],[-68.5894,6.1654,60.5],[-68.5769,6.1653,62.5745],[-68.5505,6.1467,61.9807],[-68.5446,6.1457,59.5],[-68.5209,6.1588,59.0],[-68.5038,6.1624,59.0],[-68.4995,6.1675,59.0],[-68.488,6.1705,63.1724],[-68.4836,6.1758,62.9834],[-68.4704,6.1817,59.867],[-68.4502,6.1858,58.0],[-68.4383,6.1862,58.0],[-68.428,6.1807,57.5],[-68.4099,6.1841,57.5],[-68.3927,6.1768,57.0],[-68.3565,6.168,63.2132],[-68.3417,6.166,56.5],[-68.3294,6.1689,59.4866],[-68.3202,6.1629,56.0],[-68.3002,6.1722,57.9531],[-68.2877,6.1683,60.1959],[-68.2757,6.1688,63.9842],[-68.2626,6.1755,55.5],[-68.2601,6.1866,62.4984],[-68.2515,6.1902,55.0],[-68.249,6.1978,58.1436],[-68.2461,6.2,55.975],[-68.231,6.2039,54.5],[-68.2204,6.2088,54.5],[-68.2033,6.2119,54.5],[-68.1895,6.2109,54.0],[-68.1779,6.2129,54.0],[-68.1683,6.2117,54.0],[-68.1435,6.2218,61.0209],[-68.1362,6.2328,55.1588],[-68.125,6.237,53.0],[-68.1185,6.236,53.0],[-68.0897,6.2255,52.5],[-68.0785,6.2163,56.6028],[-68.0601,6.2099,56.2108],[-68.0498,6.2103,52.5],[-68.0326,6.214,54.1623],[-68.0111,6.2096,52.0],[-68.0081,6.2081,52.0],[-67.9987,6.1974,55.125],[-67.9885,6.1934,54.9903],[-67.9815,6.1932,55.2804],[-67.975,6.1962,55.1305],[-67.9686,6.2046,54.0277],[-67.9582,6.2071,54.9857],[-67.9313,6.2219,56.5984],[-67.9106,6.2276,56.9242],[-67.902,6.2318,54.97],[-67.8923,6.2411,59.9657],[-67.8894,6.2472,61.4822],[-67.8887,6.2581,61.6654],[-67.884,6.2649,55.2649],[-67.8763,6.2695,54.7086],[-67.8627,6.2728,62.9176],[-67.8449,6.2799,59.5846],[-67.8397,6.2857,56.7831],[-67.8363,6.2927,54.1271],[-67.8235,6.3066,52.5893],[-67.8149,6.309,52.621],[-67.8045,6.3086,52.6166],[-67.7813,6.32,50.0],[-67.7763,6.3183,52.3265],[-67.7706,6.2983,49.5],[-67.7612,6.2911,49.0],[-67.7556,6.291,49.0],[-67.7451,6.2946,49.0],[-67.7165,6.288,49.0],[-67.7054,6.293,50.0331],[-67.6961,6.2924,48.5],[-67.6654,6.302,50.0573],[-67.6469,6.2969,47.5],[-67.6364,6.291,47.0],[-67.6231,6.2907,46.5],[-67.6152,6.283,47.248],[-67.6099,6.2799,46.0],[-67.6049,6.2799,46.0],[-67.5972,6.2849,46.0],[-67.5938,6.2853,46.0],[-67.5864,6.2774,46.0],[-67.5802,6.2739,45.5],[-67.5664,6.2786,48.5208],[-67.553,6.2804,47.855],[-67.5475,6.2791,48.1377],[-67.5431,6.2676,44.0],[-67.5372,6.2629,43.625],[-67.5353,6.2535,48.242],[-67.4991,6.2236,44.0439],[-67.4843,6.219,41.0],[-67.4762,6.2035,44.8273],[-67.4629,6.1917,40.5],[-67.4639,6.1869,40.5],[-67.4789,6.172,40.625],[-67.4894,6.1561,41.0],[-67.4909,6.1493,41.5],[-67.4535,6.1799,55.3132],[-67.4122,6.2075,51.5333],[-67.3987,6.2189,60.1369],[-67.3786,6.2304,40.0],[-67.3314,6.2508,44.3251],[-67.3185,6.2653,39.5],[-67.288,6.3077,52.5787],[-67.2797,6.3143,58.5214],[-67.277,6.3125,60.5774],[-67.2635,6.3129,63.8518],[-67.2466,6.3213,69.0821],[-67.2304,6.3352,64.2283],[-67.2214,6.3503,57.2551],[-67.2069,6.3699,47.1078],[-67.1874,6.3846,58.7461],[-67.1708,6.4013,54.2496],[-67.1562,6.4131,57.977],[-67.1342,6.4283,132.7433],[-67.1273,6.4406,49.8112],[-67.1252,6.4514,50.4949],[-67.126,6.4861,57.9371],[-67.1239,6.5225,54.7296],[-67.1163,6.5587,56.2453],[-67.1078,6.5821,62.6099],[-67.0995,6.5991,56.8504],[-67.0871,6.6498,37.5],[-67.0628,6.6932,37.5],[-67.0463,6.7381,37.5],[-67.0421,6.7551,37.5],[-67.0331,6.8209,37.0],[-67.0256,6.8578,36.5],[-67.0273,6.8709,36.0],[-67.0347,6.8824,36.0],[-67.0573,6.903,41.347],[-67.0668,6.9162,41.7066],[-67.0795,6.9445,38.3279],[-67.084,6.9645,38.2128],[-67.0859,6.9917,39.6326],[-67.0828,7.0272,33.0],[-67.0779,7.0443,38.8273],[-67.0689,7.0585,32.5],[-67.0519,7.0758,40.4412],[-67.0378,7.0815,43.2195],[-67.0066,7.0836,39.5511],[-66.9878,7.0872,36.6687],[-66.9396,7.0896,37.8542],[-66.9258,7.0928,144.6814],[-66.9144,7.1011,44.8558],[-66.8866,7.1306,37.6876],[-66.8788,7.1373,38.356],[-66.8674,7.1436,36.5515],[-66.8183,7.1639,41.2145],[-66.763,7.1766,56.7609],[-66.6811,7.2113,36.4863],[-66.6503,7.2264,35.3366],[-66.6354,7.232,34.2965],[-66.6138,7.2374,38.0155],[-66.602,7.2425,35.0743],[-66.5935,7.2482,35.751],[-66.585,7.2554,41.6008],[-66.5253,7.335,44.1817],[-66.4889,7.373,31.7514],[-66.475,7.3899,37.246],[-66.4586,7.4219,146.2014],[-66.4258,7.4544,214.4412],[-66.4018,7.4884,104.8206],[-66.3893,7.5033,62.1071],[-66.3789,7.5126,43.1127],[-66.341,7.5358,34.9328],[-66.3251,7.5506,37.0668],[-66.3153,7.5543,32.4926],[-66.3033,7.555,33.3547],[-66.3192,7.5963,33.6798],[-66.3145,7.5977,33.0979],[-66.3326,7.6087,31.0046],[-66.3438,7.6261,27.0],[-66.356,7.6524,27.0],[-66.3633,7.6614,33.0075],[-66.3836,7.6726,32.6239],[-66.404,7.6763,33.3204],[-66.4411,7.6787,31.6864],[-66.472,7.7035,32.666],[-66.4994,7.7571,32.1579],[-66.5093,7.7693,34.8765],[-66.5353,7.7926,33.5225],[-66.5551,7.8026,32.7525],[-66.5699,7.8024,32.9032],[-66.6053,7.7794,32.8384],[-66.6258,7.7728,33.0678],[-66.6493,7.7686,32.3302],[-66.6683,7.7679,34.2396],[-66.6848,7.7643,34.3651],[-66.7014,7.7568,38.9375],[-66.7056,7.7444,34.8896],[-66.7043,7.7345,34.6078],[-66.6951,7.7154,34.1936],[-66.6935,7.7038,33.6381],[-66.6967,7.6947,34.5589],[-66.7082,7.69,33.8824],[-66.7358,7.6865,33.829],[-66.7756,7.6877,34.7717],[-66.792,7.6906,35.1639],[-66.8134,7.679,33.7747],[-66.8382,7.6913,35.6461],[-66.8547,7.7109,34.7105],[-66.861,7.7217,36.7939],[-66.8717,7.7344,35.7594],[-66.8879,7.743,36.1931],[-66.9357,7.7581,36.9637],[-66.9557,7.7664,36.633],[-66.9854,7.7708,36.921],[-67.0154,7.7829,37.4948],[-67.0445,7.7902,38.1236],[-67.1386,7.7925,38.836],[-67.1565,7.7943,37.7088],[-67.1929,7.8168,38.8507],[-67.2073,7.8202,39.5857],[-67.2422,7.8241,40.8906],[-67.2754,7.8303,43.3076],[-67.3156,7.8342,40.4309],[-67.3343,7.8407,40.6506],[-67.3532,7.853,42.9962],[-67.378,7.8624,43.4753],[-67.4094,7.8787,43.3844],[-67.4218,7.8815,43.9609],[-67.4377,7.8803,43.3538],[-67.4568,7.8536,42.2169],[-67.4889,7.8455,43.9078],[-67.5004,7.8483,42.6363],[-67.5185,7.8488,46.1836],[-67.5185,7.8395,44.7723],[-67.5301,7.8403,45.0802],[-67.5359,7.839,43.798],[-67.5376,7.8367,46.9207],[-67.5385,7.8255,42.2749],[-67.5692,7.8116,45.3519],[-67.5948,7.8115,43.9941],[-67.6028,7.8131,45.43],[-67.6066,7.8176,44.7478],[-67.6094,7.8248,45.4513],[-67.6098,7.8309,45.125],[-67.6151,7.8347,49.1544],[-67.6224,7.8276,45.6503],[-67.6309,7.8102,45.1473],[-67.6364,7.8068,45.8034],[-67.664,7.815,45.5998],[-67.7042,7.8185,47.8588],[-67.7169,7.8168,47.5415],[-67.731,7.8114,47.583],[-67.7716,7.8044,48.6755],[-67.825,7.7702,47.9133],[-67.8464,7.7612,48.5098],[-67.8464,7.7831,49.622],[-67.8763,7.7718,49.1211],[-67.9075,7.7724,50.8083],[-67.959,7.7911,54.5623],[-68.0183,7.8398,55.3702],[-68.067,7.8729,53.0993],[-68.128,7.9076,53.931399999999996],[-68.1498,7.912,54.7247],[-68.1676,7.9124,55.9299],[-68.1864,7.9237,56.8018],[-68.2029,7.93,60.336],[-68.2347,7.9414,55.8262],[-68.2601,7.9474,65.8246],[-68.2789,7.9486,56.0055],[-68.2989,7.9438,59.297],[-68.3183,7.9341,57.5238],[-68.334,7.9289,57.0962],[-68.3574,7.9326,62.7706],[-68.3702,7.9387,58.8254],[-68.4046,7.96,58.711],[-68.4164,7.9631,67.1684],[-68.4154,7.9647,66.7635],[-68.4341,7.9664,60.3591],[-68.4345,7.9645,64.6813],[-68.444,7.964,60.234],[-68.4569,7.9594,65.5718],[-68.4801,7.9376,61.7266],[-68.516,7.9352,60.0],[-68.5454,7.9542,61.932],[-68.5844,7.9554,61.015],[-68.5948,7.95,63.7665],[-68.6211,7.9574,63.0176],[-68.6317,7.9559,64.3137],[-68.6387,7.9499,69.3969],[-68.6482,7.9337,65.7725],[-68.6635,7.9209,64.1238],[-68.7004,7.9041,65.093],[-68.7127,7.88,66.4095],[-68.722,7.8697,65.2246],[-68.7371,7.8584,64.7001],[-68.7954,7.8492,67.3384],[-68.8276,7.8564,66.4025],[-68.8395,7.8571,66.6084],[-68.8625,7.8547,68.1164],[-68.898,7.8709,68.2088],[-68.9058,7.8771,67.9898],[-68.9386,7.8962,68.7176],[-68.9442,7.9023,66.9734],[-68.9552,7.9168,68.7867],[-68.9584,7.9249,68.8288],[-68.9652,7.9655,69.456],[-68.9706,7.9706,69.6717],[-68.9797,7.973,69.8011],[-69.0123,7.9734,71.9338],[-69.0316,7.979,77.3968],[-69.0411,7.9736,73.6919],[-69.0437,7.9631,74.5584],[-69.0562,7.9632,73.5872],[-69.0662,7.9662,73.1311],[-69.0858,7.9768,81.2557],[-69.0955,7.9797,74.1983],[-69.117,7.981,74.9132],[-69.1258,7.9836,76.0969],[-69.1318,7.9885,72.7725],[-69.1348,7.9932,73.2316],[-69.135,7.999,75.9916],[-69.1337,8.0029,75.1202],[-69.1275,8.0104,84.506],[-69.125,8.0181,75.3836],[-69.1252,8.0387,77.9572],[-69.1281,8.0471,75.5672],[-69.1314,8.0524,84.8198],[-69.1389,8.0568,75.7951],[-69.1459,8.0575,76.3066],[-69.1535,8.0607,75.5909],[-69.1785,8.0754,76.0035],[-69.1882,8.0787,79.7465],[-69.229,8.078,77.797],[-69.2432,8.0816,76.1814],[-69.2863,8.087,77.4278],[-69.3005,8.0875,79.251],[-69.3239,8.0855,78.7744],[-69.3328,8.082,80.5615],[-69.3454,8.0642,76.0],[-69.3594,8.0595,79.1136],[-69.3681,8.0617,79.5035],[-69.3762,8.0679,81.3876],[-69.388,8.074,88.0526],[-69.4075,8.0803,81.0447],[-69.4129,8.0884,87.5075],[-69.4189,8.0932,82.9865],[-69.4337,8.0992,83.9451],[-69.4515,8.1001,91.1772],[-69.4637,8.0931,89.5635],[-69.4784,8.0664,82.0456],[-69.4908,8.0497,82.1318],[-69.512,8.0407,82.7306],[-69.5291,8.04,83.7306],[-69.5487,8.0351,89.6543],[-69.5658,8.0243,92.1599],[-69.5755,8.0098,85.9679],[-69.5887,7.9668,85.4945],[-69.5923,7.9611,87.1416],[-69.6007,7.9548,86.0848],[-69.6237,7.9471,86.0265],[-69.6389,7.9398,86.3799],[-69.6659,7.9131,87.3715],[-69.7079,7.8807,87.6757],[-69.7374,7.8684,89.1136],[-69.7481,7.8557,88.5719],[-69.7583,7.8369,89.5465],[-69.7723,7.8176,91.2706],[-69.7882,7.8073,94.0973],[-69.851,7.7924,97.7831],[-69.8736,7.7805,93.9107],[-69.9186,7.7503,95.4889],[-69.9271,7.7395,95.99],[-69.9362,7.7174,96.1083],[-69.9444,7.7082,99.0196],[-70.0077,7.7101,98.1864],[-70.0315,7.7064,98.1605],[-70.0487,7.7017,99.3878],[-70.0839,7.6902,101.1326],[-70.0954,7.6849,101.5855],[-70.1252,7.6605,102.3033],[-70.1558,7.6387,108.1439],[-70.1593,7.6339,104.2876],[-70.1584,7.6232,104.7804],[-70.155,7.6149,103.9537],[-70.1544,7.605,103.6115],[-70.16,7.5962,104.6003],[-70.1698,7.5888,104.2956],[-70.2052,7.5679,106.0309],[-70.2245,7.5634,106.6123],[-70.2427,7.5658,106.5145],[-70.2611,7.571,105.9537],[-70.2765,7.5729,107.0191],[-70.2927,7.5725,108.1329],[-70.3121,7.5676,111.5033],[-70.3208,7.5631,112.8816],[-70.3295,7.5537,110.2314],[-70.3658,7.4815,116.7092],[-70.3835,7.4543,112.5],[-70.3936,7.4446,112.5],[-70.4216,7.4258,117.3092],[-70.4404,7.4194,114.0],[-70.4601,7.4156,119.1869],[-70.5076,7.4128,118.5391],[-70.5115,7.4083,122.6469],[-70.5135,7.3851,118.0093],[-70.5223,7.3887,117.1286],[-70.5227,7.3804,118.5908],[-70.5352,7.3749,120.0289],[-70.5404,7.375,118.1962],[-70.5534,7.3793,123.0206],[-70.5614,7.3786,121.9126],[-70.5693,7.3733,127.4305],[-70.5802,7.3607,120.067],[-70.5893,7.3558,125.0231],[-70.62,7.3451,123.1735],[-70.6331,7.3456,121.9302],[-70.6347,7.3514,123.5643],[-70.639,7.3576,124.6357],[-70.6526,7.3633,130.6015],[-70.665,7.3639,133.4532],[-70.6777,7.359,125.6279],[-70.6901,7.3449,123.9424],[-70.7041,7.3364,125.2145],[-70.7263,7.3293,126.7132],[-70.7396,7.3221,126.5789],[-70.7555,7.3093,130.2341],[-70.7714,7.3038,129.1181],[-70.7874,7.3075,142.4771],[-70.7974,7.3154,137.4882],[-70.8124,7.3232,130.2258],[-70.8268,7.3265,133.0735],[-70.8405,7.3334,131.9732],[-70.8488,7.3416,137.7765],[-70.8609,7.3497,131.7531],[-70.8745,7.353,133.0394],[-70.8845,7.3528,132.6114],[-70.9143,7.334,135.2356],[-70.9296,7.3285,141.7778],[-70.9475,7.326,146.1338],[-70.9701,7.3268,135.5645],[-70.9842,7.3312,136.2516],[-71.0159,7.3493,147.698],[-71.0506,7.3622,142.5125],[-71.0714,7.3713,144.3363],[-71.0856,7.3798,141.3708],[-71.0996,7.3846,142.9926],[-71.1391,7.3924,147.9323],[-71.1552,7.3978,146.4416],[-71.1717,7.3993,155.2019],[-71.1847,7.3973,147.3971],[-71.1982,7.3883,148.0042],[-71.2006,7.3886,149.5761],[-71.2143,7.3946,149.0239],[-71.2378,7.4128,152.2897],[-71.2499,7.4185,152.6951],[-71.2849,7.4217,156.0331],[-71.2937,7.4277,153.9999],[-71.3432,7.424,157.016],[-71.3592,7.4258,157.303],[-71.3901,7.4187,162.5668],[-71.4372,7.4198,162.3959],[-71.4636,7.4259,165.721],[-71.5023,7.4219,168.3739],[-71.5277,7.4173,173.1139],[-71.5719,7.4154,179.1133],[-71.6047,7.4022,189.4615],[-71.6321,7.3971,181.1327],[-71.6656,7.3835,185.4283],[-71.6834,7.3828,185.4487],[-71.704,7.3894,199.8799],[-71.7131,7.3869,189.6358],[-71.7264,7.3767,190.2642],[-71.7316,7.3768,191.2194],[-71.7371,7.3811,192.4378],[-71.7494,7.3994,192.2554],[-71.7504,7.4083,192.6583],[-71.7476,7.4155,192.8424],[-71.7474,7.4249,191.9658],[-71.7779,7.4385,197.9497],[-71.7943,7.4362,200.3893],[-71.8048,7.4365,202.8494],[-71.8231,7.4293,207.7342],[-71.8428,7.4018,210.9826],[-71.8596,7.3851,214.6089],[-71.8877,7.3529,230.5708],[-71.9026,7.3443,249.4109],[-71.947,7.3253,328.0351],[-71.9752,7.3206,394.7082],[-72.0184,7.3296,542.152],[-72.0651,7.3493,556.7368],[-72.1123,7.3785,702.9813],[-72.1649,7.4178,1304.7286],[-72.2481,7.4618,1377.5057],[-72.2865,7.47,1845.9585],[-72.3151,7.4722,2990.0337],[-72.3384,7.4712,2366.0415],[-72.3861,7.4629,2703.842],[-72.4414,7.4367,2311.0132],[-72.4398,7.4248,2426.9714],[-72.4407,7.4194,2492.1724],[-72.4361,7.4105,2633.5371],[-72.4279,7.4008,2926.9958],[-72.3949,7.3993,3162.9592],[-72.3794,7.3968,3106.5874],[-72.3736,7.3929,3107.4688],[-72.3496,7.3921,2839.8853],[-72.3375,7.3867,2747.0969],[-72.3251,7.3747,2558.771],[-72.3111,7.3799,2411.2998],[-72.3099,7.3848,2355.0786],[-72.3032,7.3908,2272.4412],[-72.2924,7.3902,2134.5525],[-72.2911,7.3918,2065.2969],[-72.2886,7.3888,2094.3298],[-72.2789,7.3839,1803.0422],[-72.2691,7.3819,1607.8259],[-72.2659,7.3842,1628.1709],[-72.2622,7.3815,1483.7542],[-72.2513,7.381,1442.0215],[-72.2481,7.3868,1398.9231],[-72.2418,7.3913,1356.9835],[-72.2338,7.3903,1349.4451],[-72.2273,7.3943,1247.7672],[-72.2211,7.3955,1340.5107],[-72.2164,7.3928,1296.0491],[-72.2112,7.3926,1305.2588],[-72.2098,7.3894,1297.8354],[-72.2061,7.387,1297.8313],[-72.2032,7.3886,1226.0509],[-72.2015,7.3854,1241.3116],[-72.1992,7.387,1141.7423],[-72.1954,7.3852,1124.3057],[-72.1937,7.3782,1088.3361],[-72.1874,7.3738,1230.9167],[-72.1804,7.3556,976.335],[-72.177,7.3536,970.4162],[-72.1746,7.3491,932.588],[-72.1719,7.3487,923.7042],[-72.1722,7.3455,901.2673],[-72.1618,7.3381,882.9674],[-72.1616,7.336,835.0057],[-72.1578,7.3344,990.0436],[-72.1536,7.3284,855.4188],[-72.1589,7.3216,845.1823],[-72.1606,7.3178,848.6625],[-72.1587,7.3126,804.866],[-72.1629,7.3049,758.444],[-72.1657,7.3026,748.7859],[-72.1699,7.2923,775.4293],[-72.1709,7.2877,759.4266],[-72.1688,7.285,775.6261],[-72.1697,7.2803,753.1193],[-72.1674,7.2791,727.0694],[-72.1689,7.2742,720.3995],[-72.1674,7.2724,700.8458],[-72.1713,7.2686,736.6995],[-72.1706,7.2657,742.931],[-72.1727,7.2635,721.3869],[-72.1728,7.2605,681.0649],[-72.1743,7.2602,676.9234],[-72.174,7.2575,740.8137],[-72.1703,7.2557,729.0729],[-72.1702,7.2523,668.7237],[-72.1585,7.2332,1007.9291],[-72.085,7.1275,511.8317],[-72.0614,7.0827,822.3082],[-72.0326,7.0377,278.25],[-72.0272,7.0332,275.8438],[-72.0276,7.0273,278.5698],[-72.0204,7.0239,275.3128],[-72.014,7.0168,265.8915],[-72.0123,7.0113,263.4597],[-72.0068,7.0079,260.224],[-72.0039,7.0094,260.6636],[-71.9725,7.0094,239.9576],[-71.9417,7.0127,225.6971],[-71.9246,7.0112,216.5028],[-71.916,7.0136,213.219],[-71.8992,7.0134,213.2154],[-71.8936,7.0157,209.2892],[-71.8864,7.0133,205.2016],[-71.8718,7.0171,200.1689],[-71.8433,7.0172,195.9148],[-71.8401,7.0184,192.1021],[-71.8376,7.0223,191.3093],[-71.831,7.025,189.4691],[-71.8248,7.0309,183.2998],[-71.8244,7.0356,182.0],[-71.8267,7.0435,188.9143],[-71.8266,7.0518,182.0],[-71.8248,7.056,184.3549],[-71.8199,7.0576,180.6608],[-71.811,7.0564,182.4332],[-71.8049,7.0573,183.1571],[-71.7961,7.0635,178.5],[-71.783,7.0678,181.0668],[-71.7683,7.0648,177.5],[-71.7583,7.0657,177.0],[-71.7548,7.0682,177.0],[-71.7539,7.0736,178.1759],[-71.7505,7.0777,181.8606],[-71.7454,7.0811,181.4341],[-71.7421,7.078,180.4514],[-71.739,7.0638,176.0],[-71.7219,7.0567,175.0],[-71.7182,7.0487,174.875],[-71.7171,7.0391,174.5],[-71.7121,7.0337,174.0],[-71.7088,7.0326,174.0],[-71.6965,7.0345,173.0],[-71.6883,7.0378,175.0004],[-71.6772,7.0364,172.0],[-71.6716,7.0336,171.5],[-71.6613,7.0335,171.5],[-71.6514,7.0448,171.0],[-71.6474,7.0527,171.1064],[-71.643,7.0546,170.0],[-71.636,7.0543,170.556],[-71.6211,7.0448,169.1979],[-71.6142,7.0429,168.0],[-71.6038,7.0456,170.1062],[-71.5932,7.0534,167.0],[-71.5868,7.0529,166.5],[-71.5852,7.0458,167.151],[-71.592,7.0312,166.0],[-71.5922,7.0237,166.0],[-71.5891,7.0182,166.0],[-71.5845,7.0187,166.0],[-71.5716,7.0253,163.0],[-71.5575,7.0281,163.5455],[-71.5444,7.0329,163.0],[-71.5295,7.0344,162.5],[-71.5187,7.0255,161.125],[-71.5142,7.0246,160.875],[-71.5099,7.0253,160.5],[-71.5011,7.0337,159.5],[-71.4976,7.0339,161.3251],[-71.4933,7.0306,159.25],[-71.4872,7.0176,160.9853],[-71.4787,7.0153,158.0],[-71.4731,7.0182,160.5105],[-71.4699,7.0241,160.6845],[-71.4711,7.0376,160.6183],[-71.4669,7.0415,159.9983],[-71.4599,7.0389,159.6463],[-71.4578,7.0301,159.4953],[-71.4601,7.0151,157.0],[-71.4578,7.0109,157.8092],[-71.4547,7.0097,158.916],[-71.4505,7.0138,156.5],[-71.45,7.0277,159.1447],[-71.4476,7.0282,157.2627],[-71.4372,7.0247,155.5],[-71.4321,7.0348,158.8513],[-71.4265,7.0386,155.0],[-71.4144,7.0359,157.7487],[-71.3978,7.0368,155.3399],[-71.3924,7.0353,156.7972],[-71.3867,7.0313,157.6579],[-71.3803,7.0193,153.125],[-71.3719,7.0158,153.0],[-71.3666,7.0162,152.5],[-71.3604,7.0192,153.3362],[-71.351,7.019,152.0],[-71.3417,7.0166,151.5],[-71.3265,7.0183,151.0],[-71.2983,7.0289,151.6277],[-71.286,7.0244,149.5],[-71.2833,7.0247,149.5],[-71.2669,7.0327,154.4338],[-71.263,7.0304,155.0188],[-71.2593,7.0201,152.467],[-71.25,7.0187,148.5413],[-71.2414,7.0117,146.5],[-71.2382,7.014,153.5418],[-71.2324,7.0259,150.7495],[-71.2289,7.0274,151.1002],[-71.2252,7.0273,148.1085],[-71.2115,7.0196,145.5],[-71.208,7.02,146.1287],[-71.2031,7.0249,150.9529],[-71.199,7.0254,150.1627],[-71.1915,7.0195,147.8055],[-71.1881,7.0213,147.5721],[-71.1824,7.0212,145.5467],[-71.1689,7.0266,147.4637],[-71.1497,7.0275,144.7965],[-71.1441,7.0334,147.1024],[-71.1305,7.0336,143.9052],[-71.1255,7.0291,145.5693],[-71.1235,7.0238,146.1014],[-71.1245,7.0166,143.1813],[-71.1225,7.0128,150.2668],[-71.1191,7.011,145.4957],[-71.1092,7.0125,144.5251],[-71.1031,7.0083,142.0176],[-71.1034,7.0051,140.5],[-71.1088,7.0024,141.1423],[-71.112,7.0043,151.3644],[-71.1137,7.0074,146.4958],[-71.1157,7.0074,145.4249],[-71.112,7.0016,144.0723],[-71.1118,6.9979,145.6527],[-71.1144,6.9947,143.8211],[-71.1121,6.9907,144.1918],[-71.0952,6.9884,139.2326],[-71.0905,6.9835,139.8664],[-71.084,6.9846,137.0],[-71.0782,6.9811,137.0],[-71.072,6.9837,141.1774],[-71.0665,6.9808,141.5497],[-71.0623,6.9827,142.407],[-71.0547,6.9814,140.44],[-71.0406,6.9822,140.8772],[-71.022,6.9743,137.7253],[-70.9954,6.9836,135.803],[-70.9914,6.9907,139.5422],[-70.9866,6.9951,136.5391],[-70.9849,7.0005,136.452],[-70.9799,7.0,138.5445],[-70.9767,7.0021,136.1224],[-70.9752,7.0113,140.3795],[-70.9706,7.0164,134.0],[-70.952,7.0168,133.5],[-70.94,7.0139,133.5],[-70.9359,7.0201,135.2468],[-70.9224,7.0238,132.5],[-70.9214,7.0285,139.7498],[-70.9263,7.0348,135.1305],[-70.9273,7.0467,133.9529],[-70.9178,7.0534,130.75],[-70.9155,7.0528,130.5],[-70.9127,7.0444,138.8011],[-70.9068,7.0424,135.0721],[-70.9022,7.0462,129.5],[-70.8963,7.0585,129.5],[-70.8883,7.0641,131.8587],[-70.8745,7.0641,129.0],[-70.868,7.0579,129.0],[-70.8616,7.0547,128.625],[-70.8502,7.0572,128.0],[-70.8495,7.0597,128.0],[-70.8527,7.0624,131.3255],[-70.8464,7.0703,127.5],[-70.8479,7.072,129.8103],[-70.8519,7.0692,133.9337],[-70.8576,7.071,127.5],[-70.8575,7.074,131.496],[-70.8536,7.078,128.7726],[-70.8462,7.0749,127.0],[-70.8408,7.0786,130.1834],[-70.8375,7.079,128.8093],[-70.8327,7.0748,128.9871],[-70.8258,7.074,129.1827],[-70.8229,7.0703,134.1032],[-70.8199,7.0735,126.5],[-70.8185,7.0794,136.8353],[-70.8132,7.0789,129.9908],[-70.7974,7.0836,129.1429],[-70.7864,7.0835,126.0],[-70.7806,7.0775,128.017],[-70.7776,7.077,128.5952],[-70.7743,7.08,126.7443],[-70.7702,7.0892,125.0],[-70.7646,7.0906,128.0289],[-70.765,7.0953,130.2802],[-70.7624,7.0975,126.9499],[-70.7582,7.0973,126.8158],[-70.7445,7.0897,125.706],[-70.7382,7.089,128.4734],[-70.7177,7.0942,124.4605],[-70.6988,7.0938,123.2132],[-70.6954,7.0953,122.5],[-70.6895,7.1031,124.61],[-70.686,7.1042,122.8046],[-70.6814,7.0983,121.5],[-70.6794,7.0924,121.5],[-70.6731,7.0856,121.0],[-70.6643,7.0845,122.2089],[-70.6583,7.0807,122.6338],[-70.6467,7.0786,120.0],[-70.6438,7.075,123.7133],[-70.642,7.0693,121.1167],[-70.6355,7.0708,126.0252],[-70.6303,7.0693,122.8904],[-70.6252,7.0705,122.3232],[-70.607,7.0643,121.6168],[-70.5859,7.0691,121.6572],[-70.585,7.076,121.0632],[-70.5761,7.0755,121.1271],[-70.5709,7.0812,119.0],[-70.568,7.0814,119.0],[-70.5627,7.0779,119.0],[-70.5565,7.0797,119.4809],[-70.5542,7.0759,120.2707],[-70.5499,7.0756,121.1198],[-70.5473,7.0713,123.2852],[-70.5439,7.0693,123.9524],[-70.5416,7.0616,122.4011],[-70.5351,7.0552,121.4238],[-70.5374,7.0512,125.0789],[-70.5413,7.0509,121.2404],[-70.5391,7.0454,120.3886],[-70.5342,7.0479,121.6248],[-70.532,7.0473,121.5061],[-70.5333,7.0444,121.0236],[-70.5375,7.0431,120.2144],[-70.5386,7.0404,122.2483],[-70.5304,7.0407,119.8609],[-70.5283,7.0421,119.5415],[-70.5256,7.0359,119.9128],[-70.5216,7.0353,121.7426],[-70.5134,7.0281,120.2204],[-70.5108,7.0276,120.3331],[-70.5112,7.0248,119.8714],[-70.5147,7.0213,119.1602],[-70.5091,7.0192,125.5796],[-70.5095,7.0147,120.4791],[-70.5049,7.0113,120.2062],[-70.5026,7.006,119.4005],[-70.4928,7.0059,121.2131],[-70.4929,7.0086,119.559],[-70.4905,7.0094,120.8876],[-70.4751,7.0021,121.123],[-70.4671,7.0009,121.3232],[-70.4657,7.0036,120.2368],[-70.4589,7.0034,119.8228],[-70.4576,7.0106,120.0707],[-70.4547,7.0126,120.1167],[-70.4513,7.0109,121.9951],[-70.4502,7.0077,121.7809],[-70.4549,7.0056,120.7659],[-70.4549,7.0041,120.0344],[-70.4435,7.0034,120.0494],[-70.4392,7.0085,117.5151],[-70.437,7.0016,120.4138],[-70.4368,7.0069,119.1533],[-70.4306,7.0079,120.6408],[-70.4293,7.0022,118.2714],[-70.4267,6.9991,120.9797],[-70.4273,6.9944,115.4474],[-70.4231,6.9907,119.9831],[-70.4228,6.9871,117.4347],[-70.4172,6.9819,116.2637],[-70.4137,6.9817,118.0623],[-70.4099,6.9854,115.7316],[-70.406,6.9853,117.4933],[-70.4044,6.9885,116.2833],[-70.3976,6.9821,117.3841],[-70.3865,6.9861,115.3278],[-70.3795,6.9812,119.9747],[-70.3723,6.9817,119.4433],[-70.3711,6.9724,116.2475],[-70.3659,6.9678,116.7858],[-70.3611,6.9673,113.3758],[-70.3621,6.9617,115.23],[-70.3599,6.9562,116.6524],[-70.3518,6.9569,115.1981],[-70.3512,6.9551,116.2461],[-70.3547,6.9539,117.4718],[-70.3541,6.952,114.3787],[-70.3485,6.9527,115.0046],[-70.343,6.9443,116.3369],[-70.3385,6.9453,114.8669],[-70.3325,6.9412,114.9647],[-70.3279,6.9412,113.6963],[-70.3238,6.9354,116.9805],[-70.3113,6.9365,112.9281],[-70.3081,6.9381,112.3004],[-70.3016,6.9377,112.7957],[-70.2935,6.9347,114.142],[-70.2878,6.9368,113.541],[-70.2845,6.9414,111.6153],[-70.2775,6.9382,113.9255],[-70.2724,6.9417,112.7119],[-70.265,6.942,113.3947],[-70.2494,6.9541,113.4495],[-70.2498,6.9592,110.2334],[-70.2442,6.9597,115.0269],[-70.2309,6.9656,111.8343],[-70.2285,6.9679,112.7116],[-70.2288,6.9716,113.9386],[-70.224,6.9751,111.73779999999999],[-70.2162,6.9763,110.5045],[-70.2105,6.9749,113.5992],[-70.2063,6.9785,112.5928],[-70.2021,6.9762,112.1215],[-70.1973,6.9793,110.7186],[-70.1928,6.9767,113.4933],[-70.1887,6.9789,108.3971],[-70.1823,6.9772,110.5613],[-70.1797,6.9798,111.9884],[-70.1731,6.9766,114.0208],[-70.1689,6.9788,110.7161],[-70.1659,6.9781,110.9327],[-70.1562,6.9807,115.2964],[-70.1492,6.9847,111.7364],[-70.1455,6.9827,111.1634],[-70.1449,6.9788,115.0445],[-70.1422,6.9791,117.6606],[-70.1403,6.9771,118.9866],[-70.1375,6.9776,117.1748],[-70.1335,6.9755,117.2086],[-70.1262,6.9792,117.9457],[-70.1217,6.9792,113.4758],[-70.0103,6.8442,100.5906],[-69.9919,6.8184,100.4975],[-69.7907,6.5632,101.1611],[-69.7387,6.5003,94.9582],[-69.529,6.2322,91.974]]]]}}