{"type":"Feature","properties":{"ISO3166-1-Alpha-3":"VEN","country":"Venezuela","fill":"#F00","id":"25","name":"Apure"},
"geometry":{"type": "Polygon","coordinates": [[[-69.05431,7.98019,75.8142],[-69.05844,7.98197,72.9341],[-69.06978,7.99057,73.4932],[-69.07477,7.99321,73.1645],[-69.11265,8.00685,73.6323],[-69.11813,8.0123,74.3737],[-69.12769,8.0362,74.1123],[-69.13345,8.04163,75.0386],[-69.15322,8.04705,73.4172],[-69.18869,8.07067,79.9326],[-69.21259,8.07576,80.8999],[-69.33124,8.06194,78.2997],[-69.36961,8.06209,79.9254],[-69.41736,8.07235,81.8906],[-69.44095,8.07165,87.4211],[-69.4624,8.05837,81.8438],[-69.57704,7.95104,90.2689],[-69.7337,7.84443,88.2904],[-69.75168,7.83782,89.3211],[-69.77772,7.83554,89.9163],[-69.79067,7.83234,90.6692],[-69.82447,7.81547,92.2998],[-69.83514,7.80764,92.8675],[-69.84875,7.81399,94.8183],[-69.86299,7.81198,93.4086],[-69.87756,7.80397,94.4288],[-69.89234,7.79221,95.0054],[-69.92151,7.76681,95.0107],[-69.93549,7.75777,101.3801],[-69.94872,7.75426,98.7599],[-69.99787,7.75743,98.0598],[-70.01389,7.75426,98.1924],[-70.05884,7.72418,108.4943],[-70.07223,7.71948,104.7195],[-70.0866,7.71074,105.7009],[-70.10339,7.69028,101.2109],[-70.11732,7.66638,102.2193],[-70.12313,7.64749,102.7766],[-70.13352,7.62933,102.0782],[-70.15719,7.61501,104.0692],[-70.18292,7.60574,104.3982],[-70.19948,7.60279,105.9367],[-70.20661,7.60501,106.5018],[-70.2224,7.61375,105.2326],[-70.23299,7.61646,105.2617],[-70.24299,7.61587,114.6063],[-70.26049,7.61036,113.6663],[-70.27085,7.60899,112.45],[-70.28888,7.60377,114.6772],[-70.29953,7.59039,107.8693],[-70.3209,7.51688,111.1422],[-70.34053,7.48078,111.0705],[-70.36833,7.45045,116.2579],[-70.4043,7.43086,113.949],[-70.42466,7.42823,121.465],[-70.44484,7.42784,115.6615],[-70.46024,7.42306,120.3475],[-70.46637,7.40727,122.9664],[-70.46649,7.39309,119.7516],[-70.46781,7.38609,115.9291],[-70.47184,7.3819,115.9086],[-70.48003,7.37624,117.7789],[-70.48122,7.37865,116.8223],[-70.48747,7.38136,117.2756],[-70.49512,7.38337,117.0329],[-70.50052,7.38368,117.4673],[-70.50734,7.36942,118.9568],[-70.53163,7.34599,118.7598],[-70.54783,7.33371,119.5107],[-70.56569,7.32844,121.3212],[-70.57553,7.32981,124.309],[-70.58274,7.33206,122.8006],[-70.59085,7.33252,121.7552],[-70.60354,7.32844,119.5],[-70.60917,7.32252,123.1962],[-70.62504,7.30033,121.621],[-70.63085,7.29431,122.2846],[-70.6669,7.28741,124.2805],[-70.71286,7.28994,126.2013],[-70.75891,7.29974,128.4814],[-70.79534,7.3148,137.7592],[-70.81053,7.30539,129.2651],[-70.85642,7.29005,136.8842],[-70.87417,7.28749,137.4971],[-70.8936,7.29351,131.8387],[-70.91233,7.30521,132.6409],[-70.93014,7.31317,135.3582],[-70.94678,7.30798,136.2605],[-70.98111,7.33862,140.2921],[-71.01997,7.36188,145.9627],[-71.06137,7.37872,149.4164],[-71.1032,7.38989,143.1669],[-71.1293,7.38585,144.9764],[-71.14475,7.38614,150.5501],[-71.15591,7.39859,146.2246],[-71.16619,7.40185,151.5267],[-71.18916,7.40417,147.7637],[-71.20557,7.41583,149.7684],[-71.22678,7.43867,150.5616],[-71.24885,7.45453,155.0802],[-71.26769,7.44513,154.9485],[-71.30456,7.45642,156.6518],[-71.34042,7.46011,156.4366],[-71.4154,7.4588,162.4626],[-71.45442,7.46389,166.7675],[-71.4722,7.4628,166.9255],[-71.49424,7.45259,168.6518],[-71.49989,7.44735,167.7332],[-71.50323,7.4428,168.279],[-71.50878,7.43955,169.8357],[-71.52093,7.43831,169.3057],[-71.53286,7.44055,172.849],[-71.55258,7.45045,172.5319],[-71.56312,7.45259,172.5991],[-71.57284,7.45029,175.223],[-71.59493,7.44053,180.1534],[-71.6072,7.43831,180.2209],[-71.62027,7.45089,179.669],[-71.62756,7.4534,180.6427],[-71.63079,7.44172,180.6125],[-71.63958,7.43234,183.1134],[-71.66035,7.43216,183.2781],[-71.7034,7.43831,188.9474],[-71.71585,7.44247,189.9733],[-71.72528,7.45221,191.3923],[-71.74065,7.47246,193.715],[-71.74877,7.47828,196.7543],[-71.80938,7.4974,200.7747],[-71.82987,7.4998,203.2073],[-71.84155,7.49476,201.0],[-71.83964,7.49068,206.2438],[-71.85858,7.44528,210.5406],[-71.87501,7.42149,214.8276],[-71.88116,7.41603,221.1974],[-71.88705,7.41239,224.5827],[-71.89217,7.41061,226.0105],[-71.91444,7.40572,238.851],[-71.92452,7.40138,246.6791],[-71.96658,7.3743,299.415],[-71.97656,7.36942,289.2757],[-71.99028,7.36547,302.0783],[-72.01087,7.36338,322.7449],[-72.02332,7.36423,344.7635],[-72.0688,7.375,753.5624],[-72.07787,7.37965,1093.4358],[-72.09448,7.39084,1321.3555],[-72.13611,7.41177,1186.5638],[-72.1443,7.41753,978.0977],[-72.14766,7.42102,1018.5355],[-72.15897,7.43699,1479.9559],[-72.16812,7.44404,1773.323],[-72.18853,7.4498,1585.2363],[-72.22652,7.44055,2403.3342],[-72.24372,7.43993,1816.4751],[-72.29938,7.44887,2326.5259],[-72.31098,7.44918,2365.6355],[-72.31971,7.44841,2692.0728],[-72.32465,7.44647,2930.8911],[-72.33364,7.44179,2653.5229],[-72.35,7.43071,2699.1213],[-72.39578,7.40751,3394.4314],[-72.39581,7.40749,3394.4314],[-72.3708,7.39908,3074.6067],[-72.32181,7.39004,2858.5054],[-72.23969,7.39128,1384.5516],[-72.20621,7.38188,1612.2397],[-72.17169,7.33733,1293.2283],[-72.16631,7.33408,1205.5326],[-72.16404,7.32886,1353.8771],[-72.1735,7.28819,894.9656],[-72.17422,7.27961,783.9227],[-72.17148,7.24989,834.068],[-72.16414,7.2208,1592.5321],[-72.15334,7.19259,1717.3536],[-72.09826,7.08675,397.326],[-72.081,7.0666,531.5852],[-72.06958,7.05921,614.4241],[-72.04208,7.04691,288.7284],[-72.0287,7.03885,277.3789],[-72.00529,7.01911,263.5069],[-71.994,7.01295,257.7946],[-71.99382,7.01285,257.7946],[-71.96402,7.00592,244.2958],[-71.88101,6.9866,208.7168],[-71.84819,6.98386,193.8189],[-71.83264,6.98645,189.6673],[-71.82189,6.99296,186.8046],[-71.81212,7.00118,186.8616],[-71.79962,7.00919,180.1409],[-71.78856,7.0097,181.6166],[-71.77776,7.00753,182.9439],[-71.77151,7.01115,184.2745],[-71.77404,7.02893,184.9859],[-71.74536,7.02934,178.6688],[-71.72169,7.03342,177.9339],[-71.69802,7.03497,173.0],[-71.6696,7.02774,179.2779],[-71.67353,7.04422,176.7524],[-71.66702,7.05151,175.3148],[-71.6543,7.05337,183.5791],[-71.6204,7.05213,170.9199],[-71.61219,7.04634,175.7311],[-71.6065,7.03828,170.1055],[-71.59472,7.03011,168.0678],[-71.5878,7.02929,171.0345],[-71.58061,7.03156,169.9214],[-71.56707,7.03931,170.4926],[-71.55844,7.04123,167.9465],[-71.55359,7.0373,169.4758],[-71.55105,7.03182,163.0],[-71.54935,7.02913,163.0],[-71.54863,7.02831,166.3071],[-71.52883,7.02707,164.626],[-71.52909,7.02831,162.125],[-71.52806,7.02986,162.0],[-71.50992,7.03461,165.0255],[-71.48765,7.02893,159.0],[-71.4677,7.01244,157.5],[-71.45576,7.0157,156.5],[-71.42946,7.02774,161.515],[-71.4139,7.03099,160.9393],[-71.3982,7.02949,161.9292],[-71.366,7.02071,155.99],[-71.34936,7.01947,152.0],[-71.30776,7.02738,155.334],[-71.29252,7.02577,154.1324],[-71.28353,7.01885,151.2979],[-71.28146,7.00722,155.2766],[-71.28068,6.99461,152.016],[-71.27552,6.98438,153.9874],[-71.26203,6.9787,158.4297],[-71.21325,6.97751,148.1726],[-71.20151,6.97188,147.9491],[-71.19382,6.96531,147.0414],[-71.18405,6.96257,146.2903],[-71.16632,6.9681,143.5834],[-71.15361,6.97709,142.8908],[-71.14539,6.98619,145.1342],[-71.13604,6.99213,149.5321],[-71.06548,6.98454,140.9988],[-71.01127,6.99089,137.6697],[-70.96132,7.00944,135.9571],[-70.91882,7.03947,135.8165],[-70.9081,7.05337,133.0175],[-70.90345,7.06319,135.4521],[-70.89554,7.06851,135.7072],[-70.87482,7.06918,131.5871],[-70.83663,7.08189,133.4129],[-70.79306,7.0851,126.0],[-70.73296,7.09931,125.5],[-70.7033,7.09993,127.5455],[-70.69674,7.09667,123.599],[-70.68261,7.08463,127.0272],[-70.67318,7.08117,128.4668],[-70.63928,7.07347,123.8064],[-70.62289,7.07409,128.9845],[-70.59468,7.08298,121.2156],[-70.57861,7.08582,121.6499],[-70.57148,7.07936,122.0579],[-70.52091,7.01559,122.7403],[-70.5107,7.0097,123.5791],[-70.49481,7.00552,119.7735],[-70.48414,7.00531,117.0186],[-70.4613,7.00831,118.098],[-70.45166,7.00769,121.7809],[-70.44701,7.00474,120.6653],[-70.44097,6.99575,115.4195],[-70.43779,6.99301,115.4942],[-70.42293,6.98779,117.4347],[-70.31906,6.93829,111.4087],[-70.28762,6.93694,113.541],[-70.23126,6.96852,109.8558],[-70.19501,6.97756,117.1798],[-70.15778,6.97952,115.9209],[-70.1292,6.97255,110.4565],[-70.09662,6.94444,105.4932],[-70.07941,6.92283,104.0053],[-70.00358,6.82736,100.1059],[-69.92772,6.73184,98.1893],[-69.85183,6.63631,96.0731],[-69.77597,6.54082,90.7392],[-69.70021,6.44529,96.5461],[-69.62435,6.34977,95.8232],[-69.54849,6.2543,89.5923],[-69.47263,6.15875,100.1448],[-69.44364,6.12224,79.6083],[-69.43202,6.12224,80.6501],[-69.43108,6.12224,81.0289],[-69.40615,6.12934,82.7021],[-69.35816,6.15162,83.7766],[-69.3314,6.15637,99.2022],[-69.31135,6.14622,89.2487],[-69.26858,6.09746,83.8684],[-69.2461,6.08066,82.5624],[-69.18916,6.11263,75.4102],[-69.12996,6.16993,77.5056],[-69.10841,6.18257,81.3173],[-69.0802,6.20939,70.0],[-69.06113,6.21784,69.5],[-69.03689,6.21877,69.5],[-69.01617,6.21399,79.4009],[-68.97858,6.19732,68.4492],[-68.9609,6.20236,79.5657],[-68.93835,6.19712,76.8933],[-68.91447,6.18869,71.3974],[-68.89292,6.18433,70.3935],[-68.82913,6.18779,68.8788],[-68.80786,6.18433,68.5186],[-68.74409,6.16492,67.8201],[-68.72161,6.16252,72.6762],[-68.70089,6.15797,79.9114],[-68.65934,6.13867,68.2491],[-68.63531,6.13588,66.1485],[-68.62198,6.14193,66.1671],[-68.59568,6.16492,60.875],[-68.58472,6.17001,60.5],[-68.52251,6.17329,66.096],[-68.44902,6.195,72.2911],[-68.42742,6.19732,63.1479],[-68.4067,6.19489,63.8845],[-68.34112,6.17683,56.5],[-68.30417,6.17699,59.7944],[-68.19028,6.21784,59.0307],[-68.14651,6.22378,56.0009],[-68.01902,6.21161,52.0],[-67.97799,6.21784,59.1892],[-67.94332,6.2297,51.5],[-67.93365,6.23146,51.5],[-67.92414,6.23456,51.5],[-67.91629,6.24223,51.5],[-67.91107,6.25231,51.5],[-67.90916,6.26251,53.5831],[-67.9043,6.27515,51.5],[-67.89283,6.2783,51.5],[-67.87929,6.27794,53.74],[-67.86813,6.27988,55.1643],[-67.85764,6.28845,52.5744],[-67.83914,6.30752,52.6133],[-67.8272,6.31341,51.0],[-67.81852,6.31375,51.7362],[-67.80079,6.30861,52.4271],[-67.73098,6.30269,49.0],[-67.57398,6.26623,46.6767],[-67.54489,6.24807,47.4118],[-67.51828,6.22254,65.3303],[-67.49048,6.20164,46.8472],[-67.45097,6.19804,40.0],[-67.45079,6.19817,40.0],[-67.43508,6.20996,43.6945],[-67.42133,6.23285,40.0],[-67.41239,6.24058,40.0],[-67.39927,6.24505,40.0],[-67.38816,6.24528,47.3329],[-67.36674,6.2422,39.5],[-67.35586,6.24326,47.6652],[-67.33689,6.25419,46.7474],[-67.32235,6.27251,39.5],[-67.29728,6.32336,39.5],[-67.28878,6.35199,45.1629],[-67.28235,6.3622,39.5],[-67.27504,6.36747,47.4617],[-67.2554,6.37418,43.4524],[-67.24553,6.3794,39.5],[-67.22253,6.4008,39.0],[-67.21401,6.40679,39.0],[-67.17024,6.42938,51.9234],[-67.15246,6.44276,53.3152],[-67.13781,6.45862,55.2297],[-67.13114,6.47555,51.921],[-67.13303,6.48692,54.2495],[-67.14447,6.50741,38.5],[-67.14835,6.51836,38.5],[-67.14884,6.52854,46.9084],[-67.12851,6.63825,47.3381],[-67.10339,6.70145,39.8465],[-67.08673,6.72352,44.3917],[-67.06668,6.73853,49.2808],[-67.04955,6.75527,45.2855],[-67.04179,6.78256,37.5],[-67.04288,6.82201,37.0],[-67.04877,6.84196,39.4464],[-67.0619,6.85149,45.9633],[-67.05316,6.87278,42.6313],[-67.04187,6.89276,39.6317],[-67.03438,6.91307,39.8481],[-67.03722,6.93529,35.5],[-67.04355,6.94681,35.5],[-67.05898,6.96833,39.6339],[-67.06544,6.97994,39.6099],[-67.08156,7.02324,33.0],[-67.08983,7.06567,38.9514],[-67.07419,7.09383,32.5],[-66.99516,7.15682,31.5],[-66.95309,7.16246,31.5],[-66.93115,7.16974,34.5324],[-66.92126,7.17716,31.5],[-66.90374,7.19473,39.376],[-66.89361,7.20199,37.3938],[-66.88276,7.20643,35.1465],[-66.85982,7.21245,41.1681],[-66.84876,7.21669,30.0],[-66.79473,7.25896,34.4383],[-66.77168,7.26752,29.0],[-66.73362,7.271,29.0],[-66.72176,7.27503,29.0],[-66.7138,7.28074,29.0],[-66.70042,7.29516,29.0],[-66.69285,7.30134,32.7564],[-66.67352,7.30852,34.3105],[-66.63394,7.31356,29.0],[-66.61453,7.32294,29.0],[-66.59572,7.33955,34.9807],[-66.53451,7.4274,34.8225],[-66.5296,7.43862,30.8452],[-66.52423,7.45725,34.4226],[-66.52056,7.46577,35.3362],[-66.51436,7.47391,29.0],[-66.48896,7.49352,28.5],[-66.48224,7.50189,27.5],[-66.4664,7.53352,35.3804],[-66.45209,7.55282,27.0],[-66.44046,7.58044,27.0],[-66.42728,7.59845,27.0],[-66.40971,7.61468,27.0],[-66.37072,7.63979,27.0],[-66.34375,7.64853,27.0],[-66.33052,7.64842,27.0],[-66.33036,7.64946,27.0],[-66.32476,7.6701,28.5],[-66.3246,7.68759,33.4237],[-66.33005,7.70354,32.2847],[-66.35261,7.73578,41.31],[-66.3614,7.74128,31.3707],[-66.3948,7.72787,35.3884],[-66.42594,7.73322,34.3825],[-66.45653,7.74622,31.942],[-66.47782,7.76046,31.4827],[-66.47041,7.7717,33.2903],[-66.47576,7.77782,34.1849],[-66.48728,7.78229,36.0384],[-66.49831,7.78839,34.0984],[-66.51942,7.81182,33.9156],[-66.52751,7.81634,37.0557],[-66.53989,7.81508,34.6398],[-66.54555,7.81107,34.0839],[-66.54523,7.80565,33.3818],[-66.54376,7.79994,33.6062],[-66.54609,7.79521,34.5429],[-66.55203,7.79384,34.044],[-66.56751,7.79565,33.2862],[-66.57404,7.79521,32.8931],[-66.61577,7.78454,32.553],[-66.62244,7.78092,33.2728],[-66.63954,7.78508,31.9083],[-66.66303,7.78296,33.5331],[-66.76478,7.75511,34.4133],[-66.78631,7.75426,35.0594],[-66.79196,7.75661,35.0999],[-66.80282,7.76534,35.1091],[-66.81052,7.76728,34.9856],[-66.81548,7.76619,35.0611],[-66.82462,7.76154,35.2794],[-66.83067,7.76046,35.9536],[-66.93183,7.77635,36.8373],[-66.93813,7.78123,36.5053],[-66.94317,7.78614,36.9212],[-66.95079,7.78839,36.8225],[-66.97262,7.78257,36.7152],[-66.99428,7.77255,37.4027],[-67.0157,7.76953,37.84],[-67.05675,7.79746,37.6335],[-67.07854,7.79363,37.7291],[-67.11528,7.7741,41.4811],[-67.13969,7.77224,38.4324],[-67.15871,7.78009,37.0995],[-67.17742,7.7902,39.2483],[-67.22649,7.79852,42.4427],[-67.24077,7.80676,42.7972],[-67.25157,7.81766,45.8913],[-67.26672,7.82872,44.7768],[-67.30454,7.84293,41.6884],[-67.32082,7.85626,45.0859],[-67.32754,7.88024,49.5272],[-67.3379,7.88908,44.9388],[-67.39583,7.91127,45.668],[-67.40813,7.91174,43.1675],[-67.41805,7.90903,43.546],[-67.42632,7.90554,42.3126],[-67.43368,7.90383,42.4563],[-67.46812,7.90383,45.3726],[-67.48089,7.90582,47.658],[-67.50567,7.91748,40.0],[-67.51693,7.91737,48.1967],[-67.52794,7.91585,45.9808],[-67.53812,7.91701,41.8973],[-67.54665,7.92494,45.0086],[-67.53551,7.94228,45.2908],[-67.54422,7.95877,45.2236],[-67.54618,7.96251,43.9423],[-67.56825,7.97936,44.937],[-67.59135,7.98639,44.5486],[-67.59507,7.9884,44.9206],[-67.60153,7.99739,45.1922],[-67.6053,7.99941,45.4207],[-67.6114,7.9984,44.5187],[-67.6292,7.99321,45.6857],[-67.64922,7.99869,46.4406],[-67.67015,8.00685,46.0217],[-67.72056,8.01757,46.854],[-67.8166,8.02176,48.7732],[-67.86257,8.03481,55.5548],[-67.88482,8.02672,48.9689],[-67.90712,8.03481,49.177],[-67.93011,8.04783,49.5185],[-67.95443,8.05465,50.2179],[-68.05437,8.04845,53.1192],[-68.07333,8.04204,52.106],[-68.10873,8.0247,52.6957],[-68.13992,8.01786,53.3298],[-68.14968,8.01005,59.0476],[-68.15886,8.00078,55.1568],[-68.17043,7.99321,54.2264],[-68.17992,7.99057,54.7836],[-68.19865,7.98812,54.4696],[-68.20521,7.98639,54.2185],[-68.23464,7.96628,54.9472],[-68.25658,7.95652,55.6068],[-68.26665,7.96218,56.6325],[-68.27559,7.97093,58.3986],[-68.29678,7.97021,57.8359],[-68.32166,7.96636,58.4905],[-68.34174,7.9659,62.9676],[-68.36518,7.98119,65.89],[-68.3697,7.98329,58.3512],[-68.37471,7.99135,62.6889],[-68.38623,7.99158,59.0021],[-68.40693,7.98639,57.7614],[-68.4259,7.97936,61.0798],[-68.46127,7.94734,62.0001],[-68.48514,7.93859,60.6967],[-68.51036,7.94145,61.3344],[-68.54907,7.96117,62.3417],[-68.5717,7.9659,65.5383],[-68.63387,7.96936,69.208],[-68.65025,7.9659,71.8125],[-68.70125,7.9337,64.9728],[-68.71541,7.92122,64.7946],[-68.72983,7.91585,69.3197],[-68.82347,7.90252,70.1132],[-68.88672,7.91127,69.3214],[-68.92457,7.93176,68.6427],[-68.92912,7.93246,68.9094],[-68.94088,7.9307,68.0498],[-68.94506,7.93176,72.5152],[-68.9461,7.93574,74.987799999999993],[-68.94429,7.94799,72.8347],[-68.94506,7.95225,75.2713],[-68.95814,7.97006,72.2114],[-68.96341,7.98034,77.2375],[-68.96555,7.9898,71.5827],[-68.97028,7.99938,70.6752],[-68.98072,7.99954,74.9949],[-68.99126,7.99569,70.7613],[-68.99627,7.99321,73.49],[-69.03382,7.99321,71.9575],[-69.03855,7.99109,75.3504],[-69.04805,7.9823,80.4717],[-69.05431,7.98019,75.8142]]]}}