{"type":"Feature","properties":{"GID_2":"VEN.17.6_1","GID_0":"VEN","country":"Venezuela","GID_1":"VEN.17_1","province":"Monagas","NL_NAME_1":"NA","county":"EzequielZamora","VARNAME_2":"NA","NL_NAME_2":"NA","TYPE_2":"Municipio","ENGTYPE_2":"Municipality","CC_2":"NA","HASC_2":"NA","name":"Ezequiel_Zamora.county"},
"geometry":{"type": "MultiPolygon","coordinates": [[[[-63.6396,9.5001,159.3593],[-63.6355,9.5177,174.4023],[-63.6338,9.5459,180.1791],[-63.6358,9.6081,174.7626],[-63.6345,9.6562,172.9289],[-63.6272,9.6573,174.1534],[-63.604,9.6472,166.3205],[-63.5785,9.6477,156.8672],[-63.5383,9.6409,138.2732],[-63.5249,9.6452,130.6954],[-63.5206,9.6551,151.0472],[-63.5241,9.6612,160.5112],[-63.5436,9.6751,187.3141],[-63.5786,9.7267,236.4857],[-63.5912,9.7371,244.0714],[-63.5986,9.7398,243.2894],[-63.6169,9.7418,252.8295],[-63.6569,9.7426,255.8519],[-63.6712,9.7414,264.4687],[-63.6823,9.7436,270.6301],[-63.687,9.7385,271.183],[-63.6836,9.7146,212.9273],[-63.6864,9.697,197.6666],[-63.6906,9.6895,169.0558],[-63.6984,9.6907,168.561],[-63.7067,9.7024,194.9109],[-63.7111,9.6985,182.7535],[-63.7651,9.625,257.7071],[-63.8339,9.5435,208.6684],[-63.8251,9.5384,208.4064],[-63.8145,9.539,206.8467],[-63.8025,9.5358,198.0611],[-63.7819,9.5247,200.2628],[-63.7675,9.5199,208.2656],[-63.7534,9.5173,185.3673],[-63.727,9.5209,177.5385],[-63.7171,9.5195,188.0966],[-63.6841,9.5115,165.2978],[-63.6534,9.4977,163.3682],[-63.6452,9.4972,158.6084],[-63.6396,9.5001,159.3593]]]]}}