{"type":"Feature","properties":{"GID_2":"VEN.21.19_1","GID_0":"VEN","country":"Venezuela","GID_1":"VEN.21_1","province":"Táchira","NL_NAME_1":"NA","county":"Panamericano","VARNAME_2":"NA","NL_NAME_2":"NA","TYPE_2":"Municipio","ENGTYPE_2":"Municipality","CC_2":"NA","HASC_2":"NA","name":"Panamericano.county"},
"geometry":{"type": "MultiPolygon","coordinates": [[[[-72.1157,8.3452,81.2874],[-72.071,8.3471,125.2973],[-72.0482,8.3566,156.6636],[-72.0231,8.3414,359.8128],[-72.0202,8.3566,422.609],[-71.998,8.3793,339.0988],[-71.9751,8.4096,236.1877],[-71.965,8.4171,200.8358],[-71.9529,8.423,145.9154],[-71.9149,8.4188,284.8969],[-71.9244,8.4297,196.0549],[-71.9271,8.4421,134.5228],[-71.9256,8.4681,74.2474],[-71.929,8.4821,53.4449],[-71.9535,8.5058,37.4193],[-71.9545,8.5124,34.9021],[-71.9474,8.5307,30.3271],[-71.9472,8.5474,25.0413],[-71.9495,8.5565,22.6026],[-71.9904,8.5843,14.6085],[-71.9978,8.5861,13.6976],[-72.0034,8.5743,20.3314],[-72.0176,8.5694,20.2484],[-72.0425,8.5662,21.23],[-72.1255,8.5642,25.5005],[-72.1968,8.5566,28.1345],[-72.2122,8.5563,25.738],[-72.1907,8.5431,26.0244],[-72.1813,8.5332,27.6554],[-72.1765,8.5047,32.9005],[-72.178,8.488,34.899],[-72.1767,8.476,35.6952],[-72.1724,8.4683,38.5693],[-72.1679,8.4638,39.2879],[-72.1447,8.4441,46.6207],[-72.1404,8.4336,49.0248],[-72.1397,8.427,52.1451],[-72.142,8.4085,54.663],[-72.1411,8.4038,57.2351],[-72.1219,8.382,69.717],[-72.1162,8.3701,74.5207],[-72.1157,8.3452,81.2874]]]]}}