{"type": "Feature","bbox": [-69.1734,9.0372,-68.6002,9.5362],"geometry": {"type": "MultiPolygon","coordinates": [[[[-68.6047,9.2353,79.2976],[-68.6164,9.2549,83.359],[-68.6319,9.2692,81.683],[-68.6635,9.2935,84.4754],[-68.7079,9.3187,97.5115],[-68.796,9.3994,108.2626],[-68.8164,9.395,98.0854],[-68.8533,9.4001,109.5416],[-68.8926,9.4084,106.2187],[-68.9108,9.4193,107.5728],[-68.9339,9.4409,113.184],[-68.9594,9.4545,115.1264],[-68.9666,9.4608,116.7804],[-68.9813,9.4918,120.1902],[-68.9899,9.5049,123.94],[-69.0047,9.5173,126.759],[-69.0445,9.5346,137.4087],[-69.0645,9.5362,138.3774],[-69.0809,9.5326,139.2868],[-69.1256,9.5167,149.6202],[-69.1457,9.5144,164.4982],[-69.1734,9.5075,171.241],[-69.1654,9.4874,161.4092],[-69.1515,9.4666,155.2039],[-69.1453,9.4553,149.2975],[-69.1415,9.444,149.7684],[-69.1379,9.4306,145.4973],[-69.135,9.4078,143.4713],[-69.1238,9.3661,132.6039],[-69.1222,9.3553,130.3853],[-69.1132,9.332,129.9509],[-69.104,9.2949,120.1749],[-69.0952,9.2872,118.8247],[-69.0764,9.2748,115.8145],[-69.0714,9.2688,114.6058],[-69.07,9.2645,113.9019],[-69.0349,9.2626,110.8228],[-69.0052,9.2553,105.6172],[-68.9898,9.2436,105.9],[-68.97,9.2217,101.7365],[-68.9469,9.1994,97.8899],[-68.9372,9.1953,97.5876],[-68.8973,9.191,94.1655],[-68.862,9.1936,91.4357],[-68.8402,9.1928,90.4426],[-68.836,9.0508,81.0647],[-68.8089,9.0647,81.0979],[-68.7663,9.0909,78.4506],[-68.757,9.0946,78.1645],[-68.7485,9.0951,78.5794],[-68.7385,9.0922,77.124],[-68.7328,9.0867,76.1641],[-68.7287,9.0675,75.0598],[-68.7014,9.0652,75.5092],[-68.6944,9.0628,75.1135],[-68.6901,9.052,74.7288],[-68.6829,9.0474,73.6595],[-68.6294,9.0372,70.598],[-68.6005,9.1993,84.7574],[-68.6002,9.2228,78.6666],[-68.6047,9.2353,79.2976]]]]}
,"properties": {"GID_2": "VEN.19.14_1","GID_0": "VEN","country": "Venezuela","GID_1": "VEN.19_1","province": "Portuguesa","NL_NAME_1": "NA","county": "Turén","VARNAME_2": "NA","NL_NAME_2": "NA","TYPE_2": "Municipio","ENGTYPE_2": "Municipality","CC_2": "NA","HASC_2": "NA","name": "Turén.county","area_km2": 1627.958,"hist_schema_id": "Elevation0-9000","hist_area_km2": {"75": 483.188,"100": 692.805,"125": 366.973,"150": 80.767,"175": 4.224}}}