{"type":"Feature","properties":{"GID_2":"VEN.21.17_1","GID_0":"VEN","country":"Venezuela","GID_1":"VEN.21_1","province":"Táchira","NL_NAME_1":"NA","county":"Lobatera","VARNAME_2":"NA","NL_NAME_2":"NA","TYPE_2":"Municipio","ENGTYPE_2":"Municipality","CC_2":"NA","HASC_2":"NA","name":"Lobatera.county"},
"geometry":{"type": "MultiPolygon","coordinates": [[[[-72.3564,8.0069,1282.4711],[-72.3641,7.9958,1566.7188],[-72.3711,7.9781,971.7667],[-72.3766,7.9722,769.5966],[-72.3899,7.9503,1144.592],[-72.3952,7.9361,1162.7916],[-72.387,7.9325,1105.2153],[-72.3817,7.9039,1143.8024],[-72.3756,7.8845,1136.3549],[-72.3596,7.8807,1210.3998],[-72.3424,7.8711,1620.3064],[-72.3378,7.8679,1505.637],[-72.332,7.8597,1578.6614],[-72.3326,7.8517,1376.8251],[-72.3106,7.8443,1397.3877],[-72.2906,7.8416,1241.7216],[-72.2815,7.8426,1349.5562],[-72.2641,7.85,1174.7239],[-72.223,7.8627,1576.4109],[-72.2065,7.8699,1565.569],[-72.1897,7.8888,1527.7928],[-72.1767,7.9004,1549.2281],[-72.1822,7.9023,1634.7592],[-72.1394,7.9311,2148.4419],[-72.1301,7.9448,2178.0818],[-72.1468,7.9485,2262.6228],[-72.1742,7.9503,1764.2756],[-72.216,7.9406,1361.6682],[-72.2442,7.9403,1068.0171],[-72.2545,7.9424,1008.2277],[-72.2636,7.9492,1058.2714],[-72.2649,7.9613,1021.549],[-72.2639,7.98,935.4272],[-72.3196,7.9957,1178.0651],[-72.3312,8.0032,1380.1248],[-72.349,8.0051,1658.7939],[-72.3505,8.0033,1658.3698],[-72.3564,8.0069,1282.4711]]]]}}