{"type": "Feature","bbox": [-70.422,8.7501,-70.0237,9.0905],"geometry": {"type": "MultiPolygon","coordinates": [[[[-70.2455,9.0886,907.9249],[-70.2514,9.0905,787.3815],[-70.2732,9.0814,1323.4564],[-70.3182,9.0778,2512.1201],[-70.341,9.0824,1901.3566],[-70.3632,9.0801,2553.8274],[-70.3939,9.067,2726.4751],[-70.4125,9.0649,2767.9629],[-70.422,9.0656,2711.4688],[-70.4173,8.8669,744.1177],[-70.401,8.8554,1267.0288],[-70.3766,8.8448,963.449],[-70.3624,8.8412,848.2856],[-70.3482,8.8411,916.9029],[-70.3392,8.8254,650.964],[-70.3354,8.8148,583.9492],[-70.3332,8.8001,463.9554],[-70.3166,8.7951,470.3255],[-70.3001,8.7842,455.4921],[-70.2696,8.7501,332.5973],[-70.2627,8.7558,354.2775],[-70.2269,8.7992,406.4963],[-70.2215,8.8031,368.8173],[-70.2143,8.8054,331.759],[-70.2072,8.8023,327.2775],[-70.1981,8.794,401.9248],[-70.173,8.7768,492.8279],[-70.1582,8.7711,397.6451],[-70.1454,8.7715,390.7612],[-70.1226,8.7859,260.4442],[-70.1109,8.7878,373.7915],[-70.0951,8.7863,187.2908],[-70.0459,8.7774,163.6914],[-70.0237,8.7775,154.3027],[-70.0384,8.8077,161.8907],[-70.0535,8.8472,419.4103],[-70.0599,8.8597,278.5009],[-70.1027,8.9045,446.9056],[-70.1397,8.9316,314.4218],[-70.1727,8.9676,565.2216],[-70.1848,8.9741,711.5146],[-70.2383,8.9843,769.2447],[-70.2435,8.9922,1004.1285],[-70.2455,9.0886,907.9249]]]]}
,"properties": {"GID_2": "VEN.5.7_1","GID_0": "VEN","country": "Venezuela","GID_1": "VEN.5_1","province": "Barinas","NL_NAME_1": "NA","county": "CruzParedes","VARNAME_2": "NA","NL_NAME_2": "NA","TYPE_2": "Municipio","ENGTYPE_2": "Municipality","CC_2": "NA","HASC_2": "NA","name": "Cruz_Paredes.county","area_km2": 936.4438,"hist_schema_id": "Elevation0-9000","hist_area_km2": {"150": 5.7412,"175": 25.9389,"200": 5.6987,"225": 38.024,"250": 45.2089,"275": 52.6246,"300": 47.5549,"325": 41.8781,"350": 41.2078,"375": 36.3473,"400": 32.073,"425": 25.4948,"450": 21.6402,"475": 20.0897,"500": 17.5548,"525": 13.6165,"550": 9.8035,"575": 8.1694,"600": 7.7083,"625": 5.8649,"650": 5.1944,"675": 5.3411,"700": 5.0688,"725": 5.1315,"750": 5.2991,"775": 6.2625,"800": 6.1788,"825": 7.6031,"850": 6.8909,"875": 7.5192,"900": 7.4564,"925": 7.3306,"950": 8.3359,"975": 7.6656,"1000": 8.1472,"1025": 8.1262,"1050": 8.0005,"1075": 8.6289,"1100": 8.2308,"1125": 7.6864,"1150": 7.8749,"1175": 7.8538,"1200": 7.3303,"1225": 7.6234,"1250": 6.4925,"1275": 6.8694,"1300": 6.5761,"1325": 7.2255,"1350": 6.4296,"1375": 6.3877,"1400": 6.5553,"1425": 6.1783,"1450": 5.9898,"1475": 6.1155,"1500": 6.4087,"1525": 5.6547,"1550": 5.6128,"1575": 5.3614,"1600": 5.8222,"1625": 5.215,"1650": 5.0264,"1675": 4.4401,"1700": 4.1677,"1725": 3.9164,"1750": 3.7488,"1775": 3.2251,"1800": 3.2252,"1825": 2.8063,"1850": 3.288,"1875": 2.5968,"1900": 2.534,"1925": 2.7643,"1950": 2.7434,"1975": 2.513,"2000": 2.7434,"2025": 2.513,"2050": 2.7014,"2075": 2.7014,"2100": 2.6176,"2125": 2.6177,"2150": 2.3035,"2175": 2.0103,"2200": 2.1359,"2225": 2.3872,"2250": 2.1568,"2275": 1.9684,"2300": 1.9893,"2325": 1.9683,"2350": 2.1987,"2375": 1.9683,"2400": 2.094,"2425": 1.9893,"2450": 2.1568,"2475": 2.3871,"2500": 2.2824,"2525": 1.9892,"2550": 2.1777,"2575": 2.1358,"2600": 2.2824,"2625": 1.9892,"2650": 1.8845,"2675": 1.9264,"2700": 2.0939,"2725": 2.073,"2750": 2.2614,"2775": 1.7589,"2800": 2.1148,"2825": 2.2405,"2850": 1.7588,"2875": 1.7379,"2900": 1.9892,"2925": 1.9473,"2950": 2.2614,"2975": 1.5076,"3000": 1.8426,"3025": 2.3242,"3050": 1.6542,"3075": 1.9054,"3100": 2.0729,"3125": 1.696,"3150": 1.8007,"3175": 1.7589,"3200": 1.5495,"3225": 1.6332,"3250": 1.4657,"3275": 1.382,"3300": 1.1307,"3325": 1.4238,"3350": 1.5285,"3375": 1.2145,"3400": 0.9004,"3425": 0.7538,"3450": 1.0051,"3475": 0.7538,"3500": 0.6282,"3525": 0.6491,"3550": 0.335,"3575": 0.0838,"3600": 0.0209}}}