{"type": "Feature","bbox": [-72.1882,7.3206,-71.7581,7.716],"geometry": {"type": "MultiPolygon","coordinates": [[[[-71.8049,7.4365,202.8494],[-71.8112,7.4396,204.1658],[-71.8189,7.4534,205.357],[-71.8267,7.4611,214.4304],[-71.8469,7.4708,207.2369],[-71.8561,7.4718,207.5029],[-71.8677,7.4776,205.5],[-71.8678,7.4811,210.9048],[-71.8615,7.4886,208.3014],[-71.8483,7.4951,204.0401],[-71.8262,7.5013,202.2268],[-71.8114,7.5021,199.2453],[-71.8152,7.5085,198.7817],[-71.8127,7.5174,206.0037],[-71.8036,7.5317,199.6081],[-71.8008,7.5499,201.0696],[-71.7951,7.5588,210.6086],[-71.7854,7.5668,197.106],[-71.7926,7.577,198.758],[-71.7896,7.5899,316.0873],[-71.7813,7.606,453.9046],[-71.7634,7.6335,344.6541],[-71.7596,7.644,199.3856],[-71.7581,7.6564,207.5074],[-71.7593,7.666,302.1265],[-71.7636,7.6716,657.2784],[-71.7652,7.6677,614.0168],[-71.7736,7.6592,509.3863],[-71.787,7.6515,702.6512],[-71.7957,7.6438,367.8417],[-71.8163,7.618,415.6971],[-71.8294,7.6111,505.2206],[-71.84,7.6075,564.6159],[-71.8681,7.5884,501.4581],[-71.877,7.5852,519.1606],[-71.8832,7.5859,492.0221],[-71.8907,7.5921,428.5504],[-71.9187,7.6335,285.1655],[-71.9285,7.6422,279.8486],[-71.9496,7.6464,306.1736],[-71.9548,7.6529,315.3423],[-71.9576,7.6625,339.1986],[-71.9595,7.694,448.9196],[-71.9642,7.7069,721.9896],[-71.9704,7.716,890.6293],[-71.9776,7.703,792.9029],[-71.9855,7.6939,795.2225],[-72.0039,7.6833,592.6069],[-72.0421,7.6694,592.6787],[-72.0603,7.6527,656.0449],[-72.0655,7.6375,652.7592],[-72.0643,7.625,1020.9829],[-72.0588,7.6072,692.2554],[-72.0589,7.6026,558.8928],[-72.0641,7.5961,582.811],[-72.0766,7.5883,620.4015],[-72.0957,7.581,344.4046],[-72.1141,7.5788,372.4103],[-72.146,7.5888,664.1577],[-72.1575,7.5882,576.1871],[-72.1787,7.5806,618.4439],[-72.1882,7.5736,480.9651],[-72.1726,7.5592,1104.5162],[-72.1541,7.5365,1120.3431],[-72.1476,7.5313,934.5021],[-72.1354,7.525,817.7524],[-72.0991,7.5149,360.9031],[-72.0906,7.5074,352.1335],[-72.0847,7.497,416.6024],[-72.08,7.4931,450.1068],[-72.0652,7.488,447.091],[-72.0466,7.4887,371.9204],[-72.0462,7.478,429.4351],[-72.0481,7.4757999999999996,462.6178],[-72.0905,7.4516,682.2245],[-72.0949,7.4466,567.5329],[-72.0978,7.4398,638.6863],[-72.1206,7.4275,821.0925],[-72.1284,7.4208,929.6392],[-72.1414,7.4188,1067.2744],[-72.156,7.4195,1196.0093],[-72.1638,7.417,1342.235],[-72.1123,7.3785,702.9813],[-72.0892,7.3633,633.7667],[-72.0651,7.3493,556.7368],[-72.0184,7.3296,542.152],[-71.9752,7.3206,394.7082],[-71.947,7.3253,328.0351],[-71.9026,7.3443,249.4109],[-71.8877,7.3529,230.5708],[-71.8596,7.3851,214.6089],[-71.8428,7.4018,210.9826],[-71.8231,7.4293,207.7342],[-71.8049,7.4365,202.8494]]]]}
,"properties": {"GID_2": "VEN.21.7_1","GID_0": "VEN","country": "Venezuela","GID_1": "VEN.21_1","province": "Táchira","NL_NAME_1": "NA","county": "FernándezFeo","VARNAME_2": "NA","NL_NAME_2": "NA","TYPE_2": "Municipio","ENGTYPE_2": "Municipality","CC_2": "NA","HASC_2": "NA","name": "Fernández_Feo.county","area_km2": 1072.9189,"hist_schema_id": "Elevation0-9000","hist_area_km2": {"200": 92.7424,"225": 143.7282,"250": 67.8972,"275": 81.7481,"300": 88.4736,"325": 87.3372,"350": 71.4684,"375": 58.5222,"400": 49.588,"425": 41.0114,"450": 30.9423,"475": 22.9117,"500": 19.8423,"525": 17.4882,"550": 15.0294,"575": 12.801,"600": 11.2031,"625": 9.8158,"650": 9.1432,"675": 8.7857,"700": 8.87,"725": 7.8612,"750": 7.3569,"775": 7.0206,"800": 6.411,"825": 6.5794,"850": 5.9067,"875": 6.2432,"900": 5.4866,"925": 5.0451,"950": 5.1714,"975": 5.2346,"1000": 4.7721,"1025": 4.0154,"1050": 4.2048,"1075": 4.289,"1100": 4.226,"1125": 4.1209,"1150": 2.9646,"1175": 3.1748,"1200": 3.6584,"1225": 2.8594,"1250": 2.46,"1275": 2.0605,"1300": 2.0395,"1325": 1.7031,"1350": 1.6189,"1375": 1.3456,"1400": 1.1143,"1425": 0.9672,"1450": 0.6097,"1475": 0.7779,"1500": 0.4205,"1525": 0.3574,"1550": 0.2943,"1575": 0.4205,"1600": 0.2943,"1625": 0.3784,"1650": 0.0841,"1675": 0.021}}}