{"type": "Feature","bbox": [-65.1308,3.8399,-63.367,8.0439],"geometry": {"type": "MultiPolygon","coordinates": [[[[-63.367,3.9671,924.1124],[-63.4073,4.059,728.2907],[-63.419,4.0757,717.1411],[-63.4351,4.0936,1143.6499],[-63.4521,4.1056,1177.8431],[-63.4753,4.1178,1228.7769],[-63.4812,4.1236,1101.2784],[-63.4914,4.1386,1043.4186],[-63.5008,4.1436,963.638],[-63.5181,4.1493,936.1823],[-63.4778,4.1532,1201.9739],[-63.473,4.1549,1158.0886],[-63.4637,4.1757,1013.738],[-63.465,4.2068,866.6723],[-63.4773,4.2205,890.1989],[-63.4898,4.2296,920.2008],[-63.4993,4.2455,953.0872],[-63.5053,4.2619,1052.2362],[-63.5096,4.2797,1077.1604],[-63.5161,4.2889,1079.5957],[-63.5406,4.304,1162.126],[-63.5729,4.3192,1187.3456],[-63.5828,4.332,1098.7157],[-63.5895,4.344,1353.6836],[-63.5938,4.3636,1312.4917],[-63.6202,4.4047,1257.6641],[-63.6223,4.4158,1264.7904],[-63.6191,4.4556,999.0811],[-63.6207,4.481,784.3508],[-63.6349,4.5368,407.1171],[-63.6502,4.5703,388.5624],[-63.6517,4.5779,378.8967],[-63.651,4.6106,404.8423],[-63.6629,4.6424,361.4821],[-63.6657,4.6742,389.6483],[-63.6749,4.6936,414.5522],[-63.695,4.7251,423.5051],[-63.7169,4.7519,384.606],[-63.7216,4.7704,468.6243],[-63.7251,4.7957,679.5284],[-63.7333,4.8292,425.6167],[-63.7269,4.871,1377.1733],[-63.7273,4.891,1203.6779],[-63.7246,4.9074,1156.9659],[-63.7095,4.9404,498.7881],[-63.7009,4.9742,354.7297],[-63.696,4.9861,385.4077],[-63.6742,5.0235,411.2714],[-63.6684,5.0388,369.5612],[-63.6646,5.074,362.483],[-63.6598,5.096,348.002],[-63.6531,5.109,411.9572],[-63.6487,5.1141,354.249],[-63.6403,5.1182,467.7143],[-63.6174,5.1227,466.9412],[-63.6117,5.1259,404.6097],[-63.6013,5.1343,325.8405],[-63.5873,5.1509,333.2685],[-63.5695,5.1755,329.7255],[-63.5621,5.1893,335.1742],[-63.5457,5.2387,500.993],[-63.5367,5.2763,631.2988],[-63.5378,5.2971,637.2015],[-63.5472,5.3185,498.7315],[-63.5628,5.3436,452.1995],[-63.5679,5.3623,344.0119],[-63.5643,5.3939,338.8224],[-63.5681,5.4348,348.0045],[-63.5742,5.4505,327.86],[-63.5831,5.4658,326.7656],[-63.6057,5.4921,331.7145],[-63.6339,5.5174,318.5773],[-63.6496,5.5147,329.6597],[-63.6695,5.5269,350.2762],[-63.6875,5.5354,352.7154],[-63.6906,5.545,330.7812],[-63.6955,5.5532,321.7607],[-63.716,5.5742,327.986],[-63.7403,5.6089,334.0172],[-63.7608,5.653,313.3329],[-63.7939,5.6975,464.025],[-63.8341,5.8015,1157.033],[-63.8466,5.8499,293.5],[-63.8582,5.8849,394.3396],[-63.8972,5.9731,306.3444],[-63.8998,5.9836,317.8604],[-63.9001,6.0001,315.8973],[-63.9062,6.0399,309.4],[-63.9074,6.0887,310.4225],[-63.913,6.1026,310.558],[-63.9279,6.1205,320.6237],[-63.9421,6.1296,322.2098],[-63.9652,6.1411,331.2966],[-63.9788,6.1467,327.5179],[-64.0027,6.153,326.2826],[-64.0219,6.1645,317.7574],[-64.0591,6.1733,325.454],[-64.0682,6.1774,330.7343],[-64.0723,6.1841,325.9203],[-64.0732,6.1912,310.02],[-64.0739,6.1988,314.1727],[-64.0724,6.2062,308.938],[-64.0683,6.2122,305.451],[-64.0487,6.2211,321.4727],[-64.0225,6.2188,325.123],[-64.0005,6.2119,316.1423],[-63.963,6.1945,323.2628],[-63.9357,6.1929,325.1334],[-63.9264,6.1944,326.1331],[-63.8877,6.2109,314.3416],[-63.877,6.2188,292.8601],[-63.8738,6.2244,301.7982],[-63.871,6.2403,311.9725],[-63.8714,6.2495,326.7014],[-63.8751,6.2621,298.8551],[-63.8798,6.268,301.7955],[-63.8885,6.2716,303.5559],[-63.9119,6.2749,315.9706],[-63.9202,6.2775,313.7209],[-63.9268,6.2818,319.155],[-63.9303,6.299,311.5361],[-63.9344,6.3103,324.8236],[-63.9445,6.323,333.366],[-63.9553,6.3452,343.5889],[-63.9606,6.3754,339.305],[-63.9605,6.4125,333.3238],[-63.9583,6.4221,297.827],[-63.9444,6.445,289.1178],[-63.9131,6.4629,338.3428],[-63.8901,6.4688,319.0488],[-63.8656,6.4706,293.488],[-63.859,6.4722,333.0291],[-63.8523,6.4766,334.157],[-63.8451,6.4913,331.3546],[-63.8405,6.5163,342.9528],[-63.8349,6.5277,329.1537],[-63.8286,6.5328,351.4461],[-63.8079,6.5359,330.8524],[-63.7499,6.524,300.2413],[-63.7372,6.5273,286.3898],[-63.7248,6.5343,298.6042],[-63.7182,6.536,293.6949],[-63.6838,6.5374,321.9449],[-63.6339,6.5656,315.6103],[-63.6207,6.5747,290.8945],[-63.6148,6.5802,302.671],[-63.6121,6.5852,305.0233],[-63.613,6.5956,324.9271],[-63.6408,6.6552,339.079],[-63.6608,6.7281,267.5284],[-63.6667,6.776,271.1854],[-63.6711,6.7901,271.4418],[-63.68,6.8088,261.3111],[-63.6827,6.8198,273.5223],[-63.6802,6.8378,289.9356],[-63.683,6.8742,290.6976],[-63.6778,6.9083,297.1452],[-63.6779,6.9227,288.3436],[-63.6812,6.9518,274.362],[-63.697,6.9793,260.5074],[-63.6991,6.9886,272.5204],[-63.6989,6.9972,296.0686],[-63.6954,7.0082,331.13],[-63.6939,7.0193,338.3457],[-63.696,7.0334,352.1495],[-63.6995,7.0456,318.9723],[-63.7087,7.0643,290.5714],[-63.7156,7.1049,251.4644],[-63.7188,7.1163,240.4803],[-63.7338,7.1499,254.9641],[-63.7533,7.1825,283.114],[-63.7745,7.2054,206.3378],[-63.7878,7.2144,262.3365],[-63.7943,7.2201,238.2076],[-63.7984,7.2261,247.574],[-63.8124,7.2639,182.1983],[-63.822,7.2775,216.6802],[-63.8354,7.3033,280.3283],[-63.8639,7.3371,206.4291],[-63.8778,7.3613,126.7178],[-63.8922,7.3823,168.245],[-63.8999,7.4141,121.0954],[-63.9082,7.4283,171.887],[-63.9317,7.4814,140.3239],[-63.9408,7.4932,134.1622],[-63.9769,7.5302,119.303],[-63.993899999999996,7.5379,99.3887],[-64.0171,7.5424,301.5186],[-64.0242,7.5483,239.1636],[-64.0394,7.5699,165.5301],[-64.0505,7.6097,167.4411],[-64.0617,7.6215,137.906],[-64.0922,7.6468,114.2328],[-64.0958,7.6528,129.175],[-64.101,7.6787,147.0766],[-64.1068,7.6914,153.6655],[-64.1136,7.6989,136.0918],[-64.1376,7.7189,125.5705],[-64.1564,7.7319,225.179],[-64.1767,7.7422,80.7485],[-64.1838,7.7501,91.865],[-64.1884,7.76,106.6849],[-64.1935,7.787,130.8713],[-64.1988,7.7961,113.6426],[-64.2068,7.8038,125.0575],[-64.2112,7.8144,143.099],[-64.2088,7.8307,119.1931],[-64.2077,7.8787,105.7928],[-64.2109,7.905,58.9583],[-64.21,7.9191,25.178],[-64.2057,7.9261,25.9282],[-64.1848,7.9302,40.8339],[-64.1232,7.9264,49.1398],[-64.1136,7.9284,63.1353],[-64.0998,7.9363,32.0711],[-64.1107,7.9431,17.9285],[-64.1247,7.9598,19.3574],[-64.1347,7.9691,15.0],[-64.1601,7.986,16.1874],[-64.1814,8.013,15.0],[-64.1961,8.0238,16.0907],[-64.2019,8.0305,15.0],[-64.2094,8.0071,19.1782],[-64.2135,8.001,17.735],[-64.2231,7.9927,26.3787],[-64.2479,8.0439,21.0666],[-64.267,8.0405,19.9613],[-64.2768,8.0373,19.5922],[-64.284,8.0313,17.9969],[-64.3145,7.9909,26.277],[-64.3247,7.9638,42.5539],[-64.3237,7.9499,48.2241],[-64.3255,7.9447,61.629],[-64.3298,7.9365,80.3491],[-64.3389,7.9276,70.7233],[-64.3469,7.9257,65.2876],[-64.3582,7.9298,80.0794],[-64.3679,7.9363,77.5273],[-64.3882,7.9547,150.8909],[-64.4006,7.9606,45.1466],[-64.4131,7.9613,25.0946],[-64.4273,7.9574,13.7613],[-64.4524,7.9551,19.971],[-64.4696,7.9475,15.9852],[-64.4768,7.9408,21.0165],[-64.5115,7.9193,15.0],[-64.5416,7.8861,23.4798],[-64.5459,7.8769,15.0],[-64.5471,7.8662,15.5],[-64.5432,7.844,34.9549],[-64.5434,7.8126,52.0242],[-64.5398,7.7996,32.1068],[-64.534,7.7898,24.1649],[-64.5009,7.768,30.131],[-64.4971,7.7663,30.649],[-64.476,7.7643,90.4425],[-64.4655,7.7618,112.8523],[-64.4571,7.7581,97.9553],[-64.4466,7.7495,110.0946],[-64.4434,7.7424,108.1594],[-64.4469,7.7216,93.3762],[-64.4516,7.715,83.7116],[-64.4579,7.71,73.2833],[-64.4809,7.6996,58.713],[-64.4956,7.6967,67.5297],[-64.5123,7.6969,68.0018],[-64.5347,7.7044,62.5705],[-64.5686,7.7038,32.0799],[-64.5858,7.6999,30.0553],[-64.6127,7.6819,57.1023],[-64.6319,7.6748,40.9445],[-64.641,7.6683,27.7406],[-64.6509,7.6526,53.1125],[-64.6593,7.6446,80.5384],[-64.6803,7.6367,80.474],[-64.702,7.626,61.0219],[-64.7204,7.6113,67.5847],[-64.7285,7.6079,61.3753],[-64.7481,7.6061,58.9662],[-64.78,7.5982,101.4969],[-64.8135,7.5761,64.8336],[-64.8356,7.5697,53.5195],[-64.8347,7.5608,60.1684],[-64.8437,7.5493,47.7264],[-64.8461,7.5419,53.0306],[-64.8476,7.5271,56.2398],[-64.856,7.521,64.569],[-64.8699,7.5143,61.943],[-64.8804,7.4958,67.2887],[-64.8891,7.4905,50.1963],[-64.9001,7.4898,36.8408],[-64.9078,7.4919,37.3112],[-64.9252,7.5008,37.8529],[-64.9363,7.5021,52.5376],[-64.9426,7.4976,50.5745],[-64.9465,7.4913,40.2298],[-64.9596,7.4852,38.1916],[-64.9676,7.483,40.0917],[-64.979,7.4838,39.2645],[-64.984,7.486,40.2699],[-64.9947,7.4958,25.0472],[-65.0048,7.5184,35.0278],[-65.0137,7.5283,34.2909],[-65.0259,7.535,34.292],[-65.0339,7.5354,38.8799],[-65.0562,7.5305,40.7284],[-65.0794,7.5333,26.6428],[-65.0866,7.5326,26.8714],[-65.0949,7.5289,28.4613],[-65.1191,7.5074,25.6779],[-65.1233,7.5006,26.6202],[-65.1292,7.4835,28.0804],[-65.1308,7.4678,31.4738],[-65.1283,7.4484,48.8936],[-65.1299,7.4327,40.0045],[-65.1291,7.4184,55.0073],[-65.1132,7.3894,89.3206],[-65.1127,7.3676,78.4807],[-65.0925,7.3409,61.1193],[-65.0952,7.3264,69.0556],[-65.084,7.3256,64.936],[-65.0885,7.2999,50.6264],[-65.0869,7.2904,57.9977],[-65.0835,7.2828,73.1326],[-65.0756,7.2747,95.6868],[-65.069,7.2706,78.296],[-65.0609,7.2605,91.6529],[-65.035,7.245,84.6624],[-65.0249,7.2291,68.2703],[-65.0179,7.2212,85.689],[-65.0145,7.2143,100.4405],[-65.0135,7.2053,91.1241],[-65.0177,7.1975,74.954],[-65.039,7.193,64.8932],[-65.0436,7.191,62.6731],[-65.0497,7.1841,72.998],[-65.0517,7.1781,52.888],[-65.0512,7.172,31.1567],[-65.0424,7.1523,54.3014],[-65.03,7.1387,61.4212],[-65.02,7.1239,39.3002],[-65.0028,7.1103,52.1832],[-64.9992,7.1092,50.6908],[-64.9767,7.1102,80.8412],[-64.9657,7.1075,58.3392],[-64.9536,7.1011,70.6298],[-64.9273,7.0763,113.7717],[-64.8909,7.0561,60.8142],[-64.8462,7.0477,86.4225],[-64.8339,7.0405,79.2065],[-64.8258,7.0322,89.8948],[-64.8195,7.0188,84.7572],[-64.8194,7.0029,99.3184],[-64.8154,6.9865,85.0728],[-64.8182,6.9722,70.8682],[-64.8179,6.9635,61.318],[-64.811,6.948,81.2625],[-64.7978,6.9355,64.794],[-64.7789,6.921,57.3486],[-64.7722,6.9115,64.7621],[-64.7548,6.8792,72.3948],[-64.7199,6.8514,81.1335],[-64.7088,6.8402,64.5642],[-64.7006,6.8284,68.5055],[-64.6909,6.8063,71.4361],[-64.6877,6.8035,79.6432],[-64.6782,6.8001,85.1784],[-64.6503,6.7931,79.8148],[-64.6436,6.7895,83.7013],[-64.6374,6.7817,84.7877],[-64.6313,6.7517,71.8509],[-64.6281,6.7478,76.9359],[-64.6259,6.7412,78.6816],[-64.6242,6.7289,75.2647],[-64.6235,6.7084,79.1643],[-64.6301,6.6987,77.2613],[-64.6274,6.6793,80.0244],[-64.6021,6.6302,326.8547],[-64.5988,6.6203,245.2131],[-64.5988,6.614,188.8392],[-64.6075,6.6017,212.5379],[-64.6193,6.5783,104.9855],[-64.63,6.5665,80.1241],[-64.6357,6.5552,76.4342],[-64.6385,6.5342,77.1117],[-64.6353,6.5125,77.8007],[-64.6368,6.5024,89.2665],[-64.6426,6.4963,149.2108],[-64.6501,6.4946,115.6026],[-64.6789,6.4957,90.8301],[-64.6975,6.4908,82.7792],[-64.7129,6.4844,79.8569],[-64.7179,6.4808,76.8637],[-64.7519,6.4671,72.458],[-64.7618,6.4578,68.2653],[-64.7675,6.4392,76.8989],[-64.7723,6.4308,68.5337],[-64.7732,6.417,69.1301],[-64.7631,6.3904,132.1668],[-64.7584,6.3723,169.9546],[-64.7576,6.3492,68.4065],[-64.7525,6.3043,78.4401],[-64.7425,6.2759,75.2696],[-64.737,6.2411,148.4948],[-64.7364,6.2152,84.719],[-64.7328,6.2031,72.907],[-64.7314,6.1911,115.8407],[-64.7311,6.1679,87.0284],[-64.7287,6.1545,148.0057],[-64.7188,6.1345,181.3286],[-64.7141,6.1081,318.3574],[-64.7177,6.0681,681.291],[-64.7229,6.0539,606.4104],[-64.7388,6.024,360.2136],[-64.7593,6.0031,318.6367],[-64.787,5.9576,303.4255],[-64.7931,5.9522,304.3495],[-64.816,5.9416,328.8617],[-64.8327,5.9256,264.3835],[-64.8464,5.9025,95.0485],[-64.8502,5.8897,73.9337],[-64.8552,5.8803,97.1246],[-64.8634,5.8729,160.7585],[-64.9033,5.8538,443.305],[-64.9206,5.8406,844.2902],[-64.9319,5.8295,595.1984],[-64.9514,5.8191,706.9317],[-64.968,5.8025,524.3471],[-64.9853,5.7587,682.6473],[-64.9951,5.7388,679.7762],[-64.9857,5.7324,644.6606],[-64.9792,5.7227,689.5392],[-64.9767,5.7151,582.5742],[-64.9764,5.7072,650.7231],[-64.9793,5.699,677.8828],[-65.0009,5.6742,639.9172],[-65.0162,5.661,815.2036],[-65.0212,5.652,809.4301],[-65.0242,5.6368,899.2128],[-65.0218,5.6269,958.2802],[-65.0102,5.607,1090.562],[-64.993,5.5668,519.9204],[-64.977,5.5471,465.7312],[-64.9678,5.5291,398.2103],[-64.9509,5.505,480.6078],[-64.9379,5.4823,443.8015],[-64.924,5.4707,376.6129],[-64.8995,5.456,559.1504],[-64.8957,5.4479,401.0866],[-64.8942,5.4342,339.6652],[-64.8992,5.4184,345.5212],[-64.9108,5.3945,372.9198],[-64.9204,5.3785,346.0581],[-64.9377,5.3531,350.491],[-64.9465,5.3446,345.0351],[-64.9594,5.3394,381.2718],[-64.9766,5.339,502.099],[-64.9975,5.3429,393.3738],[-65.0208,5.3448,573.8547],[-65.0385,5.3433,645.1119],[-65.0594,5.3356,731.8394],[-65.0662,5.3282,730.6117],[-65.0688,5.3159,745.2991],[-65.0681,5.2973,1005.8264],[-65.0631,5.2725,1219.7155],[-65.0524,5.2451,1155.76],[-65.0284,5.1951,622.9846],[-65.0115,5.1503,570.7401],[-64.9945,5.0883,531.9228],[-64.9846,5.0222,688.3862],[-64.9758,4.9947,757.7945],[-64.9643,4.967,661.1373],[-64.9366,4.9108,899.8129],[-64.919,4.8641,884.3379],[-64.9,4.8225,448.823],[-64.8846,4.7983,435.9045],[-64.8692,4.7789,426.162],[-64.8467,4.7437,416.4319],[-64.8157,4.6855,589.4147],[-64.788,4.6414,489.7258],[-64.7697,4.62,1006.3613],[-64.7532,4.6089,747.4596],[-64.7298,4.5984,620.8932],[-64.7009,4.5888,662.4229],[-64.6829,4.5858,589.2523],[-64.629,4.5834,712.3185],[-64.5944,4.579,1230.0933],[-64.5795,4.5745,1044.7455],[-64.5672,4.5673,1134.5558],[-64.5602,4.5564,1142.0701],[-64.5523,4.5139,1006.5552],[-64.5484,4.4706,1150.1287],[-64.5383,4.4401,1026.9835],[-64.5365,4.3933,923.1981],[-64.5296,4.3625,759.4934],[-64.5257,4.3245,965.1945],[-64.5244,4.2844,744.8954],[-64.5264,4.2643,833.2998],[-64.5322,4.2383,793.665],[-64.5366,4.227,748.3451],[-64.567,4.2367,707.7164],[-64.5918,4.2482,738.6313],[-64.6109,4.2514,762.0205],[-64.615,4.2495,718.9107],[-64.6335,4.2329,1002.1548],[-64.6402,4.2216,1333.0012],[-64.6417,4.2127,1277.9426],[-64.6387,4.2005,1430.8126],[-64.6378,4.1878,1054.313],[-64.6386,4.1647,1178.5566],[-64.6275,4.1385,1071.8997],[-64.593,4.114,961.2365],[-64.5605,4.1015,1032.9519],[-64.5444,4.1137,823.7648],[-64.5211,4.1163,957.5546],[-64.5005,4.1104,847.7802],[-64.5002,4.1126,784.9814],[-64.4577,4.1213,826.5037],[-64.4316,4.1346,741.9166],[-64.4038,4.1321,782.8465],[-64.3863,4.1371,822.1949],[-64.3355,4.129,760.2568],[-64.3063,4.1312,739.869],[-64.2897,4.1438,774.1492],[-64.2744,4.1426,812.2435],[-64.2691,4.1279,753.9779],[-64.2641,4.1254,767.6652],[-64.2508,4.1296,727.757],[-64.2322,4.1238,788.8929],[-64.2188,4.1154,763.0482],[-64.1908,4.1165,716.1426],[-64.1719,4.1288,829.7797],[-64.1644,4.1263,702.8457],[-64.1475,4.1101,1023.7952],[-64.1333,4.106,1193.8715],[-64.1127,4.0913,927.8934],[-64.0963,4.0535,1167.234],[-64.0947,4.0426,1162.0125],[-64.1,4.0346,822.1932],[-64.0972,4.0251,791.6268],[-64.0758,3.9996,1143.4056],[-64.0508,3.9501,1058.4763],[-64.0361,3.944,954.6134],[-64.0357,3.9342,912.4264],[-64.0019,3.9329,902.6256],[-63.9972,3.9035,995.073],[-63.9863,3.8968,1008.979],[-63.9788,3.9004,1104.6752],[-63.9641,3.8679,1083.8053],[-63.9613,3.8699,1106.2935],[-63.9594,3.8874,1099.4232],[-63.9566,3.8896,1116.0017],[-63.9499,3.8865,1030.6985],[-63.9463,3.9004,1040.9335],[-63.938,3.9013,939.6237],[-63.9352,3.9176,743.7377],[-63.9261,3.926,741.6429],[-63.9144,3.926,682.4863],[-63.9013,3.9338,744.0486],[-63.891,3.9304,735.7149],[-63.8668,3.9407,745.0078],[-63.8595,3.9476,632.9712],[-63.8544,3.9446,688.5374],[-63.8502,3.9499,677.1328],[-63.8394,3.946,716.6203],[-63.8352,3.9399,693.4012],[-63.8155,3.9396,685.2263],[-63.7966,3.9326,601.0041],[-63.7724,3.9388,633.2383],[-63.7674,3.9354,608.2097],[-63.7552,3.9401,596.5266],[-63.738,3.9285,557.6821],[-63.7438,3.921,614.1514],[-63.7388,3.9151,638.6307],[-63.7233,3.914,607.5993],[-63.713,3.9032,613.1873],[-63.7097,3.9063,566.7018],[-63.7102,3.9132,654.3986],[-63.6969,3.9132,539.4117],[-63.6827,3.9074,640.1605],[-63.6633,3.9213,672.4718],[-63.6752,3.9226,629.245],[-63.6735,3.9268,554.6031],[-63.6785,3.9282,551.5582],[-63.6824,3.9357,589.886],[-63.6933,3.936,530.4189],[-63.7005,3.9443,685.8338],[-63.7008,3.9494,622.7682],[-63.6949,3.9565,636.8996],[-63.6963,3.9663,567.9299],[-63.691,3.986,485.1707],[-63.686,3.9921,609.1351],[-63.6894,3.999,510.9609],[-63.6855,4.009,528.4244],[-63.6894,4.0154,548.5746],[-63.6769,4.019,586.8827],[-63.6758,4.0152,576.3868],[-63.6608,4.0099,761.4984],[-63.6527,4.0018,699.7836],[-63.6435,3.9785,736.5189],[-63.6276,3.9692,570.3171],[-63.5922,3.9282,756.7414],[-63.5883,3.919,756.5807],[-63.5933,3.9054,919.5847],[-63.5847,3.8957,841.5784],[-63.5919,3.8907,911.2273],[-63.5905,3.8846,827.4609],[-63.581,3.8863,802.7532],[-63.5716,3.8832,750.3773],[-63.5546,3.891,701.2693],[-63.5552,3.8743,754.8749],[-63.5519,3.8649,749.8459],[-63.5483,3.8626,684.9592],[-63.5394,3.8651,716.8989],[-63.533,3.8571,655.1689],[-63.5235,3.856,660.4302],[-63.5124,3.8474,722.7872],[-63.5035,3.8496,701.7365],[-63.4974,3.8399,766.9146],[-63.4949,3.8504,753.5073],[-63.503,3.8679,705.8776],[-63.4991,3.8699,776.7062],[-63.4938,3.8671,739.1461],[-63.4913,3.8735,685.0651],[-63.4825,3.8736,709.9141],[-63.4705,3.8674,743.6352],[-63.4691,3.8618,710.0002],[-63.4616,3.8624,811.7902],[-63.4527,3.8582,850.3803],[-63.4347,3.8649,913.5096],[-63.4338,3.876,823.5977],[-63.4385,3.8832,733.0476],[-63.418,3.901,967.6083],[-63.4119,3.9118,820.5174],[-63.4205,3.9238,746.6302],[-63.4163,3.9299,788.7905],[-63.4177,3.9349,787.3259],[-63.433,3.9343,758.8212],[-63.4397,3.9371,714.8595],[-63.4427,3.9396,736.765],[-63.4394,3.9485,751.6838],[-63.4522,3.9554,822.9503],[-63.4288,3.9771,935.4037],[-63.4135,3.9751,1028.6403],[-63.3933,3.9804,1052.7682],[-63.367,3.9671,924.1124]]]]}
,"properties": {"GID_2": "VEN.6.11_1","GID_0": "VEN","country": "Venezuela","GID_1": "VEN.6_1","province": "Bolívar","NL_NAME_1": "NA","county": "Sucre","VARNAME_2": "NA","NL_NAME_2": "NA","TYPE_2": "Municipio","ENGTYPE_2": "Municipality","CC_2": "NA","HASC_2": "NA","name": "Sucre.county","area_km2": 50522.21,"hist_schema_id": "Elevation0-9000","hist_area_km2": {"25": 425.74,"50": 663.71,"75": 1704.4,"100": 2426.64,"125": 2018.44,"150": 910.06,"175": 561.23,"200": 445.15,"225": 525.29,"250": 1232.89,"275": 5078.84,"300": 7192.0,"325": 5607.26,"350": 3352.93,"375": 1933.6,"400": 1707.51,"425": 1431.73,"450": 1145.29,"475": 862.5,"500": 745.58,"525": 646.93,"550": 542.55,"575": 514.17,"600": 539.85,"625": 512.31,"650": 428.91,"675": 385.56,"700": 422.68,"725": 441.24,"750": 390.02,"775": 358.51,"800": 324.07,"825": 293.43,"850": 272.91,"875": 268.24,"900": 230.17,"925": 205.35,"950": 190.47,"975": 183.79,"1000": 178.1,"1025": 160.98,"1050": 158.74,"1075": 132.58,"1100": 131.97,"1125": 127.7,"1150": 122.56,"1175": 118.43,"1200": 132.95,"1225": 141.87,"1250": 142.76,"1275": 137.41,"1300": 143.16,"1325": 133.47,"1350": 134.15,"1375": 124.11,"1400": 104.24,"1425": 84.78,"1450": 73.37,"1475": 70.02,"1500": 60.85,"1525": 59.82,"1550": 55.28,"1575": 44.94,"1600": 42.89,"1625": 38.22,"1650": 34.36,"1675": 31.29,"1700": 30.62,"1725": 32.39,"1750": 42.51,"1775": 39.19,"1800": 33.57,"1825": 29.79,"1850": 25.52,"1875": 28.02,"1900": 23.18,"1925": 22.74,"1950": 21.28,"1975": 21.74,"2000": 18.11,"2025": 16.69,"2050": 14.92,"2075": 15.17,"2100": 14.54,"2125": 11.79,"2150": 9.53,"2175": 6.23,"2200": 5.81,"2225": 4.56,"2250": 2.89,"2275": 2.85,"2300": 2.9,"2325": 1.73,"2350": 0.59}}}