{"type": "Feature","bbox": [-68.9895,10.0485,-68.871,10.2236],"geometry": {"type": "MultiPolygon","coordinates": [[[[-68.9064,10.0485,606.5669],[-68.9008,10.0513,781.0776],[-68.8903,10.0625,809.4543],[-68.8854,10.0794,905.6642],[-68.8825,10.1125,434.6275],[-68.8795,10.1263,229.437],[-68.871,10.1522,253.89],[-68.8778,10.1641,276.3485],[-68.8829,10.1681,291.4375],[-68.9026,10.1712,333.8928],[-68.9132,10.1767,367.8167],[-68.9216,10.1853,403.957],[-68.9275,10.197,457.1522],[-68.928,10.2044,497.6691],[-68.9226,10.2178,508.9404],[-68.925,10.2223,558.0166],[-68.9356,10.2236,632.303],[-68.9597,10.2198,934.6495],[-68.9717,10.2137,946.5766],[-68.9895,10.2005,1074.3505],[-68.9646,10.1598,402.665],[-68.9609,10.1443,349.2035],[-68.9582,10.1211,311.7296],[-68.9589,10.0582,380.9864],[-68.9414,10.0684,719.783],[-68.931,10.0706,950.5139],[-68.9173,10.0662,984.0544],[-68.9064,10.0485,606.5669]]]]}
,"properties": {"GID_2": "VEN.24.6_1","GID_0": "VEN","country": "Venezuela","GID_1": "VEN.24_1","province": "Yaracuy","NL_NAME_1": "NA","county": "JoséAntonioPáez","VARNAME_2": "NA","NL_NAME_2": "NA","TYPE_2": "Municipio","ENGTYPE_2": "Municipality","CC_2": "NA","HASC_2": "NA","name": "José_Antonio_Páez.county","area_km2": 139.1064,"hist_schema_id": "Elevation0-9000","hist_area_km2": {"225": 1.628,"250": 13.8382,"275": 19.077,"300": 14.0673,"325": 9.7049,"350": 6.8037,"375": 5.8019,"400": 5.2592,"425": 4.5704,"450": 4.2157,"475": 3.9443,"500": 4.0486,"525": 4.0694,"550": 3.4433,"575": 3.3181,"600": 2.0035,"625": 1.8574,"650": 1.774,"675": 1.5653,"700": 1.5863,"725": 1.8993,"750": 1.6279,"775": 1.5236,"800": 1.6071,"825": 1.3985,"850": 1.6698,"875": 1.3985,"900": 1.2524,"925": 1.1898,"950": 1.4194,"975": 1.2524,"1000": 1.3777,"1025": 1.7534,"1050": 1.503,"1075": 1.5238,"1100": 1.3568,"1125": 1.2734,"1150": 0.9602,"1175": 0.4384,"1200": 0.1044}}}