{"type":"Feature","properties":{"featurecla":"River","scalerank":9,"rivernum":1017,"dissolve":"1017River","name":"null12","name_alt":null,"note":null,"min_zoom":7.1,"strokeweig":0.25,"name_en":null,"min_label":8.1},
"geometry":{"type": "LineString","coordinates": [[-72.659423828125,9.11725494999412,22.3511],[-72.639257812499991,9.1342959656191169,20.3985],[-72.632080078125,9.1377139343691169,19.9227],[-72.621386718749989,9.1390322937441084,18.6756],[-72.594580078124991,9.1396670593691169,23.9977],[-72.587695312499989,9.1411319031191169,18.4941],[-72.574023437499989,9.14728424686912,19.7249],[-72.561376953124991,9.1411319031191169,16.6403],[-72.547216796874991,9.13068268436912,16.2557],[-72.529052734375,9.1240420593691169,15.4958],[-72.487158203124991,9.12677643436912,14.0242],[-72.472998046874991,9.11920807499412,14.2419],[-72.460742187499989,9.07013580936912,13.0784],[-72.4453125,9.0767764343691084,10.4914],[-72.428881835937489,9.0874209656191169,10.8296],[-72.419189453125,9.07623932499412,10.8074],[-72.412353515625,9.07623932499412,10.5905],[-72.408789062499991,9.08038971561912,10.3406],[-72.402270507812489,9.08576080936912,9.3453],[-72.398681640625,9.08991119999412,10.3512],[-72.391845703125,9.08991119999412,10.425],[-72.378857421875,9.0849795593691169,9.9125],[-72.342944335937489,9.10736725468162,8.8318],[-72.323583984374991,9.10358307499412,10.5971],[-72.317919921874989,9.1125674499941169,22.9578],[-72.312597656249991,9.11603424686912,6.6869],[-72.3076171875,9.1132998718691169,6.8681],[-72.303076171874991,9.10358307499412,12.5416],[-72.296240234374991,9.10358307499412,11.2895],[-72.281909179687489,9.1514834656191084,12.2715],[-72.268164062499991,9.18024323124412,5.7949],[-72.2515625,9.19293854374412,5.5413],[-72.237231445312489,9.19476959843162,4.621],[-72.22021484375,9.20038483280662,4.7718],[-72.205981445312489,9.20978424686912,6.786],[-72.200048828124991,9.2230166687441084,4.9238],[-72.196386718749991,9.24127838749412,4.4554],[-72.187255859375,9.24762604374412,4.4239],[-72.175097656249989,9.25018952030662,4.1707],[-72.150195312499989,9.2644229187441169,3.7974],[-72.136767578124989,9.26544830936912,3.8535],[-72.110693359374991,9.26056549686912,3.5457],[-72.106298828124991,9.2584170593691084,3.029],[-72.097119140625,9.2500186218691169,2.744],[-72.090185546874991,9.2469424499941084,2.4742],[-72.082812499999989,9.2478213562441169,3.105],[-72.070361328124989,9.2578311218691169,3.3677],[-72.062939453125,9.26056549686912,3.5165],[-72.057910156249989,9.2575869812441169,3.1766],[-72.055419921875,9.2510928406191084,4.4507],[-72.051684570312489,9.24591705936912,3.0667],[-72.043017578124989,9.2469424499941084,3.0888],[-72.035009765624991,9.2510928406191084,2.8158],[-72.0322265625,9.2544131531191169,2.4219],[-72.026171874999989,9.2811221374941084,3.4973],[-72.026464843749991,9.3055361999941084,2.5172],[-72.02197265625,9.31586334843162,2.6052],[-72.01328125,9.3017764343691169,1.0],[-72.0,9.29157135624412,1.0],[-71.987402343749991,9.29010651249412,1.7997],[-71.98095703125,9.30219147343162,1.9569],[-71.974169921874989,9.30219147343162,1.7027],[-71.9677734375,9.2961611999941169,1.7462],[-71.959399414062489,9.2947940124941084,1.3494],[-71.949877929687489,9.2971377624941169,1.9029],[-71.939990234374989,9.30219147343162,1.3652],[-71.942626953125,9.2951846374941169,1.8301],[-71.946826171874989,9.28851959843162,2.3024],[-71.930761718749991,9.2913760437441084,1.0611],[-71.92431640625,9.29865143436912,3.4793],[-71.920507812499991,9.3094424499941084,5.7632],[-71.912109375,9.3226260437441084,2.5402],[-71.901049804687489,9.33136627811912,1.9092],[-71.845996093749989,9.36212799686912,4.2813],[-71.840380859374989,9.3670596374941084,7.2315],[-71.831958007812489,9.3708682312441169,8.1907],[-71.826708984374989,9.36554596561912,3.7209],[-71.822314453124989,9.35846588749412,4.8957],[-71.816503906249991,9.3568057312441084,3.8633],[-71.806396484375,9.36579010624412,0.0],[-71.802978515625,9.38764069218162,0.0],[-71.795996093749991,9.39777252811912,0.0]]}}