{"type":"Feature","properties":{"ISO3166-1-Alpha-3":"VEN","country":"Venezuela","fill":"#F00","id":"31","name":"Zulia"},
"geometry":{"type": "MultiPolygon","coordinates": [[[[-71.25611,10.92644,7.9419],[-71.28107,10.98928,0.0],[-71.282,10.99145,0.0],[-71.28201,10.99144,0.0],[-71.29393,10.98664,0.0],[-71.33605,10.98054,0.0],[-71.41845,10.98005,0.0],[-71.45832,10.97492,0.0],[-71.50113,10.96003,0.0],[-71.4886,10.9538,0.0],[-71.46959,10.93403,15.753],[-71.45958,10.92593,11.4144],[-71.44766,10.9204,11.6506],[-71.43822,10.91869,4.2077],[-71.41246,10.91909,4.4672],[-71.42203,10.90278,0.0],[-71.4464,10.88691,0.0],[-71.45336,10.87189,0.0],[-71.44937,10.85639,0.0],[-71.43985,10.83885,0.0],[-71.43529,10.81892,0.0],[-71.44591,10.79621,0.0],[-71.47814,10.80939,0.0],[-71.51,10.81265,0.0],[-71.58312,10.80923,0.0],[-71.58312,10.80296,0.0],[-71.57307,10.7993,0.0],[-71.56648,10.79222,5.5045],[-71.55578,10.7757,11.0148],[-71.53795,10.76048,4.7176],[-71.53136,10.75267,5.5288],[-71.5279,10.74095,15.7615],[-71.52798,10.7259,0.0],[-71.53384,10.69977,0.0],[-71.53531,10.68635,0.0],[-71.53287,10.6765,0.0],[-71.50475,10.6306,7.9108],[-71.50011,10.628,9.6939],[-71.50284,10.62694,3.5761],[-71.53746,10.59797,0.0],[-71.54214,10.59007,0.0],[-71.54157,10.56489,0.0],[-71.52648,10.54475,2.7195],[-71.48131,10.51504,12.7603],[-71.4663,10.50214,0.5],[-71.46276,10.48908,0.0],[-71.46886,10.43749,0.0],[-71.47509,10.42158,0.0],[-71.47387,10.41201,0.0],[-71.46935,10.4018,8.0784],[-71.46451,10.39525,6.9599],[-71.45336,10.38467,2.443],[-71.4322,10.35952,6.1316],[-71.4226,10.34317,1.6561],[-71.41442,10.31346,0.0],[-71.39318,10.28864,1.0787],[-71.38443,10.27538,0.0],[-71.3732,10.23623,0.0],[-71.36388,10.21996,0.0],[-71.32844,10.20673,7.1765],[-71.30598,10.1905,8.6199],[-71.26781,10.15192,-0.9976],[-71.24568,10.11457,-2.7802],[-71.22851,10.07005,1.7578],[-71.20694,9.98062,1.9734],[-71.18391,9.9853,-0.3003],[-71.16246,9.97093,-2.5757],[-71.10847,9.90534,-0.457],[-71.09024,9.87759,2.8564],[-71.07242,9.85786,1.274],[-71.06981,9.85025,0.926],[-71.07282,9.84162,1.5088],[-71.07974,9.83812,0.0],[-71.09024,9.83662,0.0],[-71.08617,9.812,1.3019],[-71.07185,9.79279,2.2563],[-71.05455,9.77652,2.8918],[-71.04186,9.76089,3.6012],[-71.03563,9.74409,-0.1068],[-71.03506,9.74038,0.1615],[-71.03759,9.73281,0.0],[-71.04214,9.72651,0.0],[-71.0487,9.71992,0.0],[-71.0487,9.67276,0.0],[-71.06245,9.6174,0.0],[-71.06235,9.6174,0.0],[-71.06103,9.61732,1.8083],[-71.04643,9.61662,0.139],[-71.01196,9.60934,4.621],[-71.00623,9.60895,4.5976],[-71.0014,9.60949,5.6054],[-70.97755,9.61461,7.6072],[-70.97034,9.61375,8.4556],[-70.96517,9.61135,8.879],[-70.95897,9.60407,9.8757],[-70.9552,9.60164,11.6991],[-70.9498,9.60179,12.1899],[-70.9289,9.60624,13.8742],[-70.92251,9.60662,14.9448],[-70.91667,9.60593,15.0524],[-70.90613,9.60251,17.3056],[-70.90133,9.6004,17.3506],[-70.89577,9.59892,17.8603],[-70.88996,9.59823,20.3362],[-70.8721,9.60001,24.2805],[-70.86572,9.60009,25.2957],[-70.85962,9.59947,25.2479],[-70.85135,9.6022,28.8904],[-70.84223,9.60802,28.0137],[-70.81671,9.63882,28.1275],[-70.79405,9.67861,27.9643],[-70.78952,9.68272,26.4669],[-70.78314,9.68628,25.7067],[-70.76291,9.69042,33.4936],[-70.75689,9.69243,31.693],[-70.75617,9.69755,35.3427],[-70.75756,9.70197,34.3621],[-70.76004,9.70592,41.0145],[-70.76167,9.70941,44.8214],[-70.76214,9.71212,47.1399],[-70.76154,9.71646,50.45],[-70.7411,9.75767,178.2593],[-70.73769,9.7617,208.5414],[-70.73335,9.76488,321.844],[-70.72614,9.76511,556.6189],[-70.72046,9.76201,515.4484],[-70.71464,9.75426,488.3446],[-70.70992,9.74946,566.5356],[-70.70612,9.74636,500.7217],[-70.69493,9.74674,529.9996],[-70.68268,9.75388,836.8453],[-70.67441,9.76713,675.6026],[-70.65617,9.77708,513.0736],[-70.64129,9.79196,452.3362],[-70.63633,9.81183,500.0264],[-70.63633,9.83994,639.7914],[-70.66116,9.90451,601.8784],[-70.681,9.90779,778.6482],[-70.69591,9.91611,761.3579],[-70.74557,9.94919,492.6687],[-70.77374,9.96079,444.3556],[-70.80681,9.98394,225.493],[-70.83828,10.01872,311.9639],[-70.85482,10.04355,234.518],[-70.85815,10.07003,312.3079],[-70.8482,10.09982,535.8977],[-70.825,10.12132,395.1519],[-70.7257,10.1809,1313.324],[-70.71079,10.19416,1217.6222],[-70.70421,10.20573,1324.239],[-70.69924,10.21899,1041.6575],[-70.69428,10.23886,1282.9976],[-70.68434,10.26201,1037.5278],[-70.67604,10.2786,1461.104],[-70.66449,10.29679,1683.3158],[-70.65808,10.30477,1748.3868],[-70.67938,10.31087,1563.8231],[-70.69428,10.31211,1172.5859],[-70.71291,10.32079,1241.511],[-70.72904,10.33198,1045.818],[-70.73772,10.34438,935.2402],[-70.7402,10.3605,1163.2577],[-70.73896,10.38534,1286.3414],[-70.74519,10.41513,1181.8597],[-70.76503,10.4412,1245.54],[-70.7787,10.45363,800.6876],[-70.80275,10.4606,1274.7268],[-70.85497,10.4568,633.1525],[-70.88936,10.44789,326.1313],[-70.89825,10.44401,325.2184],[-70.90313,10.4429,344.7919],[-70.91218,10.44727,275.388],[-70.92706,10.45758,248.2639],[-70.94174,10.45828,228.9],[-70.95197,10.45781,245.0907],[-70.95734,10.46029,275.3382],[-70.96608,10.46835,269.3127],[-70.97654,10.48132,208.6267],[-71.01483,10.51887,109.9091],[-71.02212,10.52773,112.935],[-71.02685,10.55013,116.6087],[-71.02752,10.5562,106.3034],[-71.03243,10.57388,90.6651],[-71.03966,10.58956,96.5713],[-71.04716,10.59941,83.7917],[-71.0561,10.60894,96.987799999999993],[-71.07178,10.62292,88.7761],[-71.07814,10.63129,76.6998],[-71.081,10.63858,69.299],[-71.07876,10.64907,71.0387],[-71.0786,10.65488,68.2715],[-71.07982,10.66015,64.1652],[-71.0848,10.67521,61.923],[-71.08651,10.68343,58.5348],[-71.08705,10.69312,54.089],[-71.08635,10.70508,52.4167],[-71.07705,10.74208,43.0415],[-71.08046,10.75676,39.7027],[-71.08842,10.76699,38.6294],[-71.13353,10.80593,35.4552],[-71.14227,10.81112,34.5074],[-71.16121,10.82828,26.7658],[-71.20033,10.87135,19.4984],[-71.21588,10.88104,20.1404],[-71.23536,10.89665,14.0253],[-71.24601,10.90835,9.1657],[-71.25611,10.92644,7.9419]]],
[[[-71.85692,11.21699,0.0],[-71.93932,11.38076,0.0],[-71.97012,11.51138,2.3661],[-71.9713,11.55484,2.733],[-71.96052,11.59125,5.5704],[-71.94758,11.60179,3.2824],[-71.92516,11.61278,7.9257],[-71.90071,11.62132,9.1974],[-71.86181,11.62816,9.2854],[-71.67443,11.68472,7.8205],[-71.50707,11.70978,1.7486],[-71.46711,11.72163,3.4258],[-71.40998,11.75117,10.002],[-71.38785,11.75511,7.1444],[-71.37816,11.75845,0.0],[-71.37584,11.76634,0.0],[-71.37548,11.77558,5.306],[-71.37145,11.78311,1.709],[-71.3636,11.7862,11.1591],[-71.33605,11.78925,0.0],[-71.34386,11.80752,0.6062],[-71.34065,11.82551,0.0],[-71.32751,11.85,2.8039],[-71.35763,11.8508,13.0819],[-71.37546,11.84109,17.6522],[-71.40967,11.8123,26.2755],[-71.44946,11.79546,26.4685],[-71.47649,11.78858,28.6778],[-71.53509,11.77355,30.0726],[-71.59364,11.75851,28.1709],[-71.65229,11.74357,33.6362],[-71.71089,11.72854,33.6204],[-71.76944,11.71355,96.0482],[-71.82804,11.69856,47.3284],[-71.88664,11.68353,20.5483],[-71.94524,11.66854,29.8041],[-71.97108,11.66192,26.0648],[-71.99061,11.64906,22.8361],[-72.00793,11.62461,15.614],[-72.018,11.60611,11.4536],[-72.04782,11.55131,5.3294],[-72.07764,11.49653,11.8511],[-72.10745,11.44176,17.4058],[-72.13727,11.38698,30.5939],[-72.16709,11.3322,41.4805],[-72.19691,11.2774,64.8012],[-72.22678,11.22257,86.4069],[-72.25659,11.16779,144.4992],[-72.26708,11.1549,217.828],[-72.28465,11.15046,324.8885],[-72.32186,11.1601,297.516],[-72.34134,11.16211,281.349],[-72.36144,11.158,608.7379],[-72.417,11.13762,461.7257],[-72.45999,11.13581,382.1956],[-72.48149,11.13253,205.5488],[-72.49932,11.1208,172.9691],[-72.50381,11.11178,179.8362],[-72.50469,11.09271,330.9345],[-72.50748,11.08299,387.8989],[-72.51503,11.07248,531.6258],[-72.53394,11.05238,431.1881],[-72.54205,11.04108,368.2844],[-72.57647,10.95737,463.1994],[-72.5945,10.93298,678.4834],[-72.61311,10.91525,1055.8154],[-72.65672,10.8852,1351.4208],[-72.68297,10.85562,784.4813],[-72.70613,10.81125,925.0649],[-72.75439,10.67485,1394.9587],[-72.78142,10.63132,1459.3326],[-72.84302,10.5606,1859.7275],[-72.86141,10.50809,1999.0764],[-72.87542,10.48965,1657.1426],[-72.89201,10.47293,2099.3196],[-72.90756,10.45246,2551.3],[-72.9149,10.4329,3051.5352],[-72.91523,10.42817,2671.5076],[-72.91624,10.41384,2144.5017],[-72.91552,10.39428,2285.1431],[-72.93562,10.17519,2876.9753],[-72.98771,9.99942,3030.2932],[-72.98787,9.96043,2652.7339],[-72.99619,9.92128,2815.5222],[-72.99696,9.90071,2549.9802],[-72.99045,9.87498,2476.9062],[-72.98161,9.85656,1857.8853],[-72.97763,9.83806,1817.0938],[-72.98554,9.81217,1795.3564],[-73.01691,9.74861,2012.6401],[-73.07189,9.66409,1645.301],[-73.09716,9.59637,1577.125],[-73.10765,9.578,1002.2978],[-73.12362,9.56125,1820.8943],[-73.16372,9.53634,1654.1887],[-73.17845,9.52304,1740.09],[-73.19741,9.47867,2765.4875],[-73.27741,9.36181,1730.8779],[-73.31177,9.27623,1646.1649],[-73.32438,9.25592,1361.1819],[-73.34216,9.23918,1407.6467],[-73.37911,9.21388,915.59],[-73.39084,9.1945,1371.3011],[-73.39115,9.17277,1819.6077],[-73.37782,9.16469,1705.3262],[-73.36364,9.16503,1548.3136],[-73.25384,9.16771,581.8289],[-73.21224,9.17345,601.9218],[-73.17617,9.19094,600.1774],[-73.14186,9.22303,439.2476],[-73.12434,9.23448,478.1874],[-73.09876,9.24158,690.6537],[-73.07603,9.25427,142.413],[-73.03267,9.2946,140.4703],[-73.00972,9.29538,85.0804],[-73.00358,9.28791,75.4397],[-72.99112,9.25168,85.5837],[-72.99143,9.24794,91.2177],[-72.99546,9.2391,86.1419],[-72.99562,9.23535,70.9297],[-72.99221,9.23034,65.3484],[-72.98285,9.22096,65.5484],[-72.98006,9.21652,58.3137],[-72.97603,9.19213,72.9984],[-72.97867,9.15014,54.8855],[-72.97319,9.12844,89.5187],[-72.95531,9.10399,102.7998],[-72.9364,9.09919,142.453],[-72.91619,9.10696,218.141],[-72.88198,9.12937,78.679],[-72.87402,9.13342,48.8585],[-72.86172,9.13704,161.4441],[-72.85025,9.13673,68.4262],[-72.84152,9.13378,61.9965],[-72.83413,9.13363,40.2763],[-72.82669,9.14169,64.532],[-72.80767,9.12373,33.4613],[-72.79103,9.11394,29.4917],[-72.7856,9.10244,38.2337],[-72.80002,9.07945,39.4916],[-72.78307,9.05994,37.7919],[-72.77806,9.04105,46.7971],[-72.76659,8.99738,65.6299],[-72.75506,8.95374,59.526],[-72.74354,8.91005,77.7799],[-72.73207,8.86638,55.9854],[-72.72049,8.82274,46.6953],[-72.70902,8.77905,41.4171],[-72.6975,8.73539,53.6975],[-72.68602,8.69169,63.7844],[-72.67543,8.65151,53.2823],[-72.65543,8.6179,36.9728],[-72.63709,8.59818,51.3058],[-72.61735,8.57705,54.1014],[-72.59776,8.55596,49.6174],[-72.57807,8.53485,73.4793],[-72.55854,8.51372,76.4594],[-72.53885,8.49261,276.5907],[-72.51921,8.47153,217.1154],[-72.49952,8.45044,119.7675],[-72.47994,8.42933,65.0813],[-72.45627,8.40393,64.9087],[-72.44454,8.39411,52.2169],[-72.43441,8.39019,50.2296],[-72.42495,8.38771,51.217],[-72.41561,8.38269,55.7932],[-72.40994,8.38897,47.5723],[-72.40328,8.39737,46.4904],[-72.40141,8.40807,42.6214],[-72.40105,8.41403,45.1929],[-72.39955,8.41915,43.9302],[-72.39718,8.42365,44.0345],[-72.38811,8.43545,43.3896],[-72.3849,8.43832,49.8665],[-72.38131,8.4391,53.0221],[-72.37348,8.43251,43.7091],[-72.36909,8.43228,43.0617],[-72.35297,8.45401,35.5],[-72.35064,8.45858,42.0],[-72.34899,8.46377,40.4227],[-72.3479,8.46943,38.7528],[-72.34674,8.48721,39.7386],[-72.3448,8.49178,44.7267],[-72.34196,8.4955,41.6956],[-72.33922,8.49829,37.588],[-72.33328,8.50302,36.9393],[-72.31408,8.52235,32.5404],[-72.30152,8.53072,30.6663],[-72.28119,8.54168,28.82],[-72.27695,8.54284,28.998],[-72.27129,8.54361,29.8174],[-72.26287,8.5416,30.2253],[-72.25737,8.537,31.0519],[-72.25318,8.52731,30.0787],[-72.25189,8.51979,30.1845],[-72.25194,8.49318,35.9325],[-72.25011,8.48186,38.8261],[-72.24546,8.46563,38.6444],[-72.24073,8.42987,48.3561],[-72.24326,8.40512,50.0975],[-72.24248,8.39913,49.8673],[-72.23533,8.39944,48.7752],[-72.22636,8.40148,48.0443],[-72.17967,8.44344,42.9021],[-72.17882,8.45088,41.0603],[-72.17644,8.45437,40.0138],[-72.17272,8.45804,40.5595],[-72.16562,8.45912,41.062],[-72.13513,8.45587,43.654],[-72.12983,8.4568,43.5681],[-72.11583,8.46323,43.5018],[-72.092,8.47765,41.235],[-72.08575,8.48067,41.0953],[-72.07965,8.48284,41.2494],[-72.07361,8.48357,41.7867],[-72.05467,8.48279,42.0519],[-72.04859,8.48326,41.4027],[-72.04219,8.48682,40.4478],[-72.03469,8.49341,38.2182],[-72.02418,8.50837,31.9665],[-72.00705,8.5225,28.6603],[-72.00224,8.52483,26.6061],[-71.99963,8.52653,27.8792],[-71.99384,8.53212,23.8785],[-71.94493,8.61141,17.5793],[-71.93757,8.62087,14.4843],[-71.92457,8.62741,16.961],[-71.9108,8.6302,18.2024],[-71.90129,8.63376,20.4351],[-71.89222,8.63826,21.0844],[-71.88077,8.64694,27.0725],[-71.86974,8.65751,23.4969],[-71.86643,8.66123,22.8357],[-71.86269,8.66472,23.2517],[-71.8568,8.66813,24.9635],[-71.84881,8.67107,27.0308],[-71.83331,8.67317,34.4875],[-71.82437,8.67286,33.4262],[-71.81742,8.67131,34.2072],[-71.81279,8.6689,35.77],[-71.80871,8.66603,35.8514],[-71.8053,8.66255,37.6029],[-71.80264,8.65828,39.3271],[-71.80093,8.65332,39.3244],[-71.80042,8.64764,40.5608],[-71.80117,8.64198,41.3663],[-71.80303,8.6371,41.5334],[-71.80778,8.62826,40.9842],[-71.80907,8.62382,41.2035],[-71.80807,8.61963,42.2532],[-71.80233,8.61916,43.2457],[-71.79331,8.62133,45.6227],[-71.77696,8.62772,49.3707],[-71.76683,8.62973,52.0248],[-71.75853,8.6302,54.2392],[-71.75267,8.62896,55.5881],[-71.74755,8.62694,55.5045],[-71.74316,8.62438,57.4819],[-71.73518,8.61847,63.788],[-71.73086,8.61622,66.5996],[-71.72603,8.61723,68.3736],[-71.72133,8.62195,67.7823],[-71.70709,8.67169,58.3253],[-71.70508,8.67658,56.7304],[-71.69309,8.69629,52.7808],[-71.67353,8.7188,54.6625],[-71.61077,8.77226,39.9842],[-71.34497,8.96615,40.0396],[-71.31621,8.99625,42.1977],[-71.29634,9.01361,38.4554],[-71.28022,9.02108,34.9744],[-71.26407,9.03224,30.6492],[-71.24172,9.04591,26.8927],[-71.2256,9.04839,23.8304],[-71.21815,9.04092,31.7031],[-71.20821,9.031,50.9646],[-71.20076,9.0186,160.7822],[-71.19952,9.00741,186.1069],[-71.19456,8.99625,385.3835],[-71.1871,8.99253,571.1276],[-71.17345,8.99873,586.7155],[-71.1573,9.01113,597.8701],[-71.14862,9.03348,230.2572],[-71.14614,9.06079,87.4961],[-71.14614,9.07446,78.7825],[-71.14242,9.08934,59.2192],[-71.14242,9.11293,39.7746],[-71.14738,9.12782,30.7515],[-71.16229,9.14148,19.619],[-71.18214,9.15887,14.7304],[-71.19206,9.16631,9.1685],[-71.20697,9.17996,2.7908],[-71.21846,9.18696,0.4433],[-71.21853,9.187,0.4433],[-71.22061,9.17927,1.9033],[-71.24104,9.15575,0.0],[-71.27355,9.13508,0.0],[-71.37141,9.09333,0.0],[-71.5148,9.04898,0.0],[-71.55769,9.04157,0.0],[-71.6022,9.0423,0.0],[-71.6459,9.04963,2.3736],[-71.68615,9.06196,0.3608],[-71.70857,9.07673,0.0],[-71.71837,9.08584,1.201],[-71.71687,9.08991,3.0173],[-71.71349,9.09325,0.0],[-71.72252,9.10025,0.0],[-71.73473,9.10635,0.0],[-71.74079,9.10692,0.0],[-71.74413,9.11298,0.0],[-71.75154,9.11571,0.0],[-71.75886,9.12006,1.8311],[-71.76187,9.13085,8.3331],[-71.75817,9.13898,8.3205],[-71.73453,9.16503,0.0],[-71.75182,9.19074,1.6005],[-71.75324,9.20425,3.82],[-71.73453,9.206,0.0],[-71.74938,9.21629,0.0],[-71.74787,9.2272,0.0],[-71.7447,9.23762,0.0],[-71.75447,9.24698,0.0],[-71.75792,9.23896,0.0],[-71.76212,9.23383,0.0],[-71.76773,9.23013,0.0],[-71.7755,9.22647,0.0],[-71.78506,9.2403,0.0],[-71.79613,9.23387,0.0],[-71.80704,9.22549,4.991],[-71.81652,9.2333,5.7985],[-71.77807,9.26887,3.6967],[-71.75821,9.28339,0.0],[-71.7482,9.27485,0.0],[-71.73998,9.28937,11.9124],[-71.73449,9.3076,1.1758],[-71.73583,9.32486,1.1099],[-71.7482,9.33633,3.0005],[-71.7482,9.34317,2.0018],[-71.73396,9.34345,2.8051],[-71.72802,9.34809,0.0],[-71.73038,9.35541,0.0],[-71.74079,9.36359,4.4247],[-71.73815,9.36811,1.908],[-71.73453,9.38471,0.0],[-71.76085,9.36473,0.0],[-71.78474,9.38178,0.0],[-71.80826,9.41047,0.0],[-71.83357,9.42573,0.0],[-71.89159,9.42573,1.4103],[-71.89476,9.41885,4.4137],[-71.90526,9.38471,2.7581],[-71.91381,9.41258,4.9727],[-71.90075,9.43456,0.6164],[-71.87475,9.44526,0.7346],[-71.84439,9.43936,0.0],[-71.85277,9.44986,0.0],[-71.86172,9.4536,0.0],[-71.87141,9.4562,0.0],[-71.88166,9.46296,0.0],[-71.90856,9.49335,0.0],[-71.91893,9.50019,0.0],[-71.91893,9.48029,0.0],[-71.92638,9.48029,0.0],[-71.93639,9.50019,0.4221],[-71.95726,9.4903,1.8654],[-71.97985,9.47012,0.0],[-71.99523,9.45921,0.0],[-72.01098,9.48334,5.7665],[-72.01928,9.50288,9.1228],[-72.01513,9.52131,9.9063],[-72.00202,9.50776,3.7058],[-71.98371,9.49746,1.4561],[-71.96752,9.49824,2.1679],[-71.96052,9.51789,0.4595],[-71.96548,9.53815,0.0],[-71.97789,9.55589,1.42],[-71.99352,9.56924,0.0],[-72.00829,9.57587,3.7896],[-72.00353,9.58128,13.1147],[-72.00097,9.58515,12.7833],[-71.99698,9.58771,16.0059],[-71.98786,9.58954,7.8336],[-71.99039,9.59675,8.8287],[-71.99205,9.59984,12.4873],[-71.99523,9.60383,13.6809],[-71.98786,9.61005,0.5629],[-71.97867,9.59125,0.9482],[-71.97322,9.56973,2.044],[-71.96483,9.55109,0.0],[-71.94685,9.54116,0.0],[-71.99893,9.65473,0.0],[-72.02196,9.68574,0.0],[-72.09024,9.75462,0.0],[-72.10245,9.77277,0.0],[-72.12133,9.8122,0.0],[-72.12438,9.82608,0.0],[-72.10945,9.85615,1.0419],[-72.04369,9.92959,1.3017],[-72.02355,9.98542,1.1928],[-72.00048,10.0253,0.0],[-71.99181,10.06745,3.5938],[-71.98249,10.08828,11.732],[-71.96906,10.1057,1.4909],[-71.95303,10.11774,1.2513],[-71.91291,10.12897,10.0076],[-71.89769,10.13923,1.0],[-71.89159,10.16218,1.4781],[-71.83698,10.23444,0.2965],[-71.77904,10.34174,0.7644],[-71.75447,10.371,0.3893],[-71.72973,10.39151,5.3027],[-71.713,10.40107,4.6522],[-71.69669,10.40518,3.5934],[-71.69416,10.40937,5.0775],[-71.67186,10.43305,6.6914],[-71.64468,10.44233,5.8972],[-71.63777,10.44611,5.2684],[-71.62955,10.45401,0.0],[-71.628,10.45771,0.0],[-71.62955,10.46353,0.3085],[-71.63093,10.51846,0.0],[-71.62499,10.53897,8.4155],[-71.61343,10.56122,0.0],[-71.60558,10.58185,0.0],[-71.61042,10.59756,0.0],[-71.60538,10.60838,0.0],[-71.60367,10.61978,0.0],[-71.60534,10.63007,0.0],[-71.61042,10.63788,0.7517],[-71.59496,10.65961,5.2545],[-71.5865,10.69888,0.0],[-71.57628,10.7211,0.0],[-71.61832,10.74348,0.0],[-71.64997,10.77082,0.0],[-71.67406,10.80239,0.0],[-71.69359,10.83714,0.0],[-71.71044,10.87861,0.0],[-71.72033,10.91909,2.8881],[-71.71947,10.93317,1.893],[-71.71605,10.94562,0.179],[-71.71569,10.95775,0.0],[-71.7237,10.97089,0.0],[-71.75988,11.00381,0.0],[-71.76867,11.01529,5.3855],[-71.7567,11.02261,15.3612],[-71.7508,11.02778,9.6451],[-71.7482,11.03238,6.6416],[-71.74421,11.03596,7.1461],[-71.73477,11.03437,1.1575],[-71.72427,11.03083,2.9283],[-71.69713,11.02558,7.7837],[-71.68224,11.01667,2.716],[-71.67528,11.00361,10.6379],[-71.67931,10.98798,0.0],[-71.63248,10.99824,2.6383],[-71.62466,11.00096,1.3551],[-71.62645,11.01496,0.0],[-71.63781,11.02904,0.0],[-71.6529,11.04121,0.0],[-71.76976,11.10635,0.0],[-71.79601,11.13198,0.0],[-71.85692,11.21699,0.0]]]]}}