{"type":"Feature","properties":{"GID_1":"VEN.25_1","GID_0":"VEN","country":"Venezuela","province":"Zulia","VARNAME_1":"NA","NL_NAME_1":"NA","TYPE_1":"Estado","ENGTYPE_1":"State","CC_1":"NA","HASC_1":"NA","ISO_1":"VE-V","name":"Zulia.province"},
"geometry":{"type": "MultiPolygon","coordinates": [[[[-71.7564,8.6578,49.3829],[-71.7436,8.6609,52.3325],[-71.7324,8.6676,55.5225],[-71.6992,8.6947,52.8477],[-71.593,8.7673,41.5627],[-71.5619,8.7912,38.4005],[-71.502,8.8421,23.2945],[-71.4507,8.8777,22.2237],[-71.4141,8.9091,22.5173],[-71.4057,8.9215,23.886],[-71.3933,8.9525,25.0546],[-71.3889,8.9595,24.7928],[-71.3672,8.9788,27.8966],[-71.3459,8.9941,28.603],[-71.2788,9.0212,35.0961],[-71.2334,9.0466,25.872],[-71.2275,9.0468,24.5033],[-71.2152,9.0354,35.7399],[-71.1994,9.0167,175.8657],[-71.1954,9.0049,215.8632],[-71.1939,8.9923,515.521],[-71.1886,8.9882,661.4766],[-71.1827,8.9896,733.93],[-71.1738,8.9945,672.3081],[-71.1618,9.0074,547.6635],[-71.1486,9.0291,290.0623],[-71.1453,9.0799,73.8391],[-71.1419,9.0952,48.9749],[-71.1412,9.1142,41.4166],[-71.1447,9.1222,33.5308],[-71.1952,9.1597,10.3953],[-71.2144,9.1729,1.6273],[-71.2196,9.1746,0.0],[-71.2193,9.1732,2.2154],[-71.2265,9.1651,1.5245],[-71.2271,9.1601,2.5463],[-71.2371,9.1488,3.6732],[-71.2415,9.1482,1.3684],[-71.2485,9.1412,1.9351],[-71.2593,9.1424,0.0],[-71.261,9.1393,0.0],[-71.259,9.1388,0.5647],[-71.259,9.1362,1.2613],[-71.2663,9.1313,0.761],[-71.2688,9.1313,0.8921],[-71.2707,9.1351,0.0],[-71.2738,9.1318,2.6139],[-71.2868,9.1324,0.6074],[-71.2865,9.1285,1.6825],[-71.2893,9.1246,2.8291],[-71.339,9.0912,0.0],[-71.3593,9.0835,1.0232],[-71.3776,9.0815,0.9869],[-71.4693,9.0515,3.25],[-71.4801,9.0501,2.548],[-71.5007,9.0438,0.373],[-71.5251,9.0407,0.7304],[-71.5454,9.0363,0.7763],[-71.5518,9.0371,0.5309],[-71.5537,9.0401,0.6011],[-71.556,9.0407,0.2491],[-71.5596,9.0368,1.7268],[-71.5646,9.036,1.3673],[-71.5732,9.036,1.268],[-71.5774,9.0379,0.0],[-71.5854,9.0374,0.0],[-71.5876,9.0357,0.8147],[-71.6124,9.0374,0.0],[-71.6185,9.0399,0.3989],[-71.6162,9.0435,0.0],[-71.6179,9.0488,0.0],[-71.6176,9.0593,0.8358],[-71.621,9.0596,1.5932],[-71.6246,9.0624,2.7019],[-71.6246,9.0654,1.9314],[-71.6221,9.0676,1.5489],[-71.624,9.0724,0.0],[-71.6268,9.0704,1.0813],[-71.6301,9.0713,0.0],[-71.6343,9.0699,0.0],[-71.6354,9.066,0.0],[-71.6404,9.0635,0.6892],[-71.654,9.0654,0.8836],[-71.6593,9.0704,0.0],[-71.6668,9.0704,0.0],[-71.671,9.0671,0.0],[-71.6871,9.0635,0.0],[-71.6926,9.0599,0.3529],[-71.6929,9.0579,0.204],[-71.691,9.0571,0.2054],[-71.6985,9.0596,0.3702],[-71.7021,9.0629,0.2922],[-71.701,9.0671,0.1457],[-71.7032,9.069,0.0783],[-71.7074,9.0685,2.6591],[-71.7065,9.0718,0.0],[-71.711,9.0726,0.1334],[-71.7176,9.0796,2.1051],[-71.7174,9.0843,0.0],[-71.7124,9.0907,0.5302],[-71.7143,9.0924,0.0],[-71.7151,9.0971,0.0],[-71.7171,9.096,0.0],[-71.7154,9.0924,0.0],[-71.7213,9.0915,4.6672],[-71.7376,9.0971,0.0],[-71.7454,9.1038,0.4774],[-71.7524,9.1168,0.0],[-71.7593,9.111,0.0],[-71.7596,9.1082,0.3671],[-71.7618,9.1113,0.3483],[-71.7679,9.1096,0.688],[-71.7607,9.1132,0.0],[-71.7596,9.1193,1.8311],[-71.756,9.1238,2.2271],[-71.7565,9.1462,0.3429],[-71.754,9.1474,5.6991],[-71.7529,9.1443,2.6321],[-71.7549,9.1338,2.3316],[-71.7524,9.1282,0.0],[-71.746,9.1368,0.0],[-71.7471,9.1388,6.4416],[-71.7457,9.1429,0.0],[-71.7407,9.1474,2.8347],[-71.7396,9.1518,0.0],[-71.7393,9.1599,0.0],[-71.7499,9.181,0.0],[-71.7551,9.1874,4.1632],[-71.7549,9.1899,0.963],[-71.7535,9.1901,0.5386],[-71.7529,9.1854,1.8288],[-71.7493,9.1868,0.976],[-71.7479,9.1915,0.0],[-71.749,9.1915,2.4285],[-71.7496,9.1962,1.081],[-71.7465,9.1985,3.0282],[-71.7471,9.1999,1.3252],[-71.7501,9.1993,0.0],[-71.7524,9.2129,0.0],[-71.7518,9.2201,0.0],[-71.7476,9.2251,0.0],[-71.749,9.236,0.0],[-71.7549,9.236,0.0],[-71.7557,9.2332,0.0],[-71.7593,9.2318,0.0],[-71.7635,9.226,0.0],[-71.7685,9.2262,0.0],[-71.774,9.2238,0.0],[-71.7738,9.2199,0.0],[-71.7676,9.2157,0.8465],[-71.7676,9.2104,0.0],[-71.7765,9.219,0.0],[-71.784,9.2363,0.4335],[-71.7901,9.2399,0.5161],[-71.7929,9.2385,0.5877],[-71.8015,9.2251,1.5522],[-71.809,9.2271,0.1443],[-71.8135,9.2221,2.3743],[-71.8185,9.2235,0.0],[-71.8218,9.2157,0.9368],[-71.8274,9.2121,0.1906],[-71.8285,9.2143,0.3205],[-71.8218,9.2176,0.1334],[-71.8199,9.2229,0.0],[-71.8201,9.229,2.4378],[-71.8132,9.2379,0.1839],[-71.8135,9.2404,0.0],[-71.8107,9.2407,1.6632],[-71.8076,9.2454,0.0],[-71.794,9.2526,5.9749],[-71.7721,9.2576,0.0],[-71.7696,9.2632,0.0],[-71.7699,9.2815,0.0],[-71.7732,9.286,3.1124],[-71.7704,9.2835,0.0],[-71.7674,9.2846,6.0209],[-71.7674,9.2935,5.4348],[-71.7601,9.2835,0.0],[-71.7576,9.2837,0.0],[-71.756,9.286,4.1693],[-71.7532,9.2849,3.4956],[-71.7487,9.2757,0.0],[-71.7421,9.2693,0.0],[-71.7385,9.2699,0.0],[-71.7351,9.2726,0.0],[-71.7379,9.2752,0.0],[-71.7412,9.286,3.6072],[-71.734,9.2876,4.2363],[-71.7321,9.2863,0.0],[-71.7329,9.2829,0.0],[-71.729,9.2857,5.3087],[-71.7301,9.294,0.5647],[-71.734,9.3021,1.1695],[-71.7326,9.3082,0.0],[-71.7335,9.3215,0.0],[-71.7346,9.3251,1.1099],[-71.7443,9.3304,8.3058],[-71.7451,9.3332,0.0],[-71.7415,9.3365,0.0],[-71.7412,9.3415,0.3379],[-71.7399,9.3426,0.5556],[-71.7363,9.3418,0.0],[-71.7337,9.3382,0.3748],[-71.7401,9.3349,1.9264],[-71.7401,9.3329,0.4684],[-71.7307,9.3307,2.3732],[-71.7271,9.3313,0.0],[-71.7237,9.3374,9.0617],[-71.7196,9.3407,1.0047],[-71.7154,9.341,0.0],[-71.7138,9.3446,0.3048],[-71.7113,9.3457,0.3574],[-71.7038,9.3449,0.0],[-71.7049,9.3479,0.0],[-71.7099,9.3501,0.3517],[-71.716,9.3479,0.0],[-71.716,9.3462,0.3464],[-71.7179,9.3474,0.0],[-71.7187,9.3451,0.7644],[-71.7243,9.3451,1.9485],[-71.7276,9.3471,0.0],[-71.734,9.3476,1.4591],[-71.7365,9.3518,1.2723],[-71.7335,9.3601,0.0],[-71.7285,9.3663,0.6314],[-71.7268,9.3721,1.1054],[-71.719,9.3801,0.0],[-71.7099,9.3999,0.0],[-71.7068,9.401,0.0],[-71.7074,9.4035,0.0],[-71.7096,9.4046,0.0],[-71.7118,9.4021,0.0],[-71.7193,9.386,0.0],[-71.7268,9.3779,0.8931],[-71.7393,9.3699,1.5749],[-71.7515,9.3654,1.2136],[-71.7529,9.3621,0.3652],[-71.7621,9.3599,3.1708],[-71.7696,9.3615,2.7216],[-71.786,9.3804,2.3356],[-71.7868,9.3782,1.8952],[-71.789,9.3793,0.062],[-71.7915,9.3849,0.0],[-71.7876,9.381,0.7344],[-71.7862,9.3813,0.3398],[-71.7865,9.3826,0.0],[-71.7915,9.3915,0.0],[-71.7999,9.3988,0.0],[-71.8012,9.3946,0.0],[-71.7996,9.3882,0.1902],[-71.8015,9.3876,0.0],[-71.8018,9.3849,0.0],[-71.7996,9.3754,0.0],[-71.8018,9.3774,0.1244],[-71.8037,9.376,0.3451],[-71.8074,9.3771,0.2403],[-71.8085,9.3799,0.3207],[-71.809,9.3751,0.0619],[-71.8074,9.3718,0.6342],[-71.809,9.3737,0.2333],[-71.8104,9.3729,4.6171],[-71.8107,9.3851,2.984],[-71.8085,9.3949,3.5467],[-71.8051,9.3985,0.0],[-71.8057,9.4032,0.0],[-71.8149,9.4171,0.0],[-71.8193,9.4207,0.0],[-71.8246,9.4207,0.8655],[-71.8293,9.4235,0.8305],[-71.831,9.4232,0.0],[-71.8343,9.4163,0.0],[-71.839,9.4174,0.0],[-71.8421,9.4154,3.8487],[-71.8571,9.414,0.0],[-71.8607,9.419,0.0],[-71.8654,9.4187,0.9407],[-71.8732,9.4224,0.0],[-71.8763,9.4268,0.0],[-71.8815,9.4251,4.2987],[-71.8874,9.4274,0.0],[-71.8871,9.4238,0.0],[-71.8838,9.4201,4.6197],[-71.8854,9.4118,2.6516],[-71.8824,9.406,0.0],[-71.8904,9.4063,0.0],[-71.8907,9.3993,0.0],[-71.8946,9.3951,0.0],[-71.8924,9.3918,0.0],[-71.8943,9.3865,8.6845],[-71.8968,9.386,0.4334],[-71.8979,9.3882,0.0],[-71.8996,9.3876,0.0],[-71.9021,9.3901,0.0],[-71.9054,9.3849,2.7581],[-71.9085,9.3868,1.2004],[-71.9051,9.389,0.0],[-71.9104,9.3921,0.0],[-71.9104,9.3946,0.0],[-71.9071,9.3946,0.0],[-71.9054,9.3974,0.0],[-71.9057,9.4004,0.0],[-71.9085,9.399,0.0],[-71.9082,9.4007,1.8872],[-71.9043,9.4071,0.2065],[-71.8976,9.4093,0.5736],[-71.8982,9.4154,0.0],[-71.891,9.4235,0.0],[-71.8893,9.4304,0.7081],[-71.8812,9.434,1.2054],[-71.8585,9.436,0.6038],[-71.8529,9.4343,0.5928],[-71.8515,9.4318,0.0],[-71.8365,9.4321,0.0],[-71.8265,9.4251,0.0],[-71.8215,9.4235,0.0],[-71.8201,9.4243,0.0],[-71.8429,9.4368,0.0],[-71.8818,9.4546,0.9598],[-71.9049,9.4718,0.0],[-71.9068,9.4715,0.0],[-71.904,9.4696,0.0],[-71.9088,9.4712,0.1115],[-71.9146,9.4701,0.925],[-71.9226,9.4732,0.6937],[-71.9315,9.4829,0.743],[-71.9332,9.4893,0.0],[-71.9362,9.4918,0.6818],[-71.9368,9.4946,0.0943],[-71.939,9.4932,2.2237],[-71.9393,9.4957,0.0],[-71.9368,9.4996,0.4221],[-71.9393,9.5024,0.0],[-71.9432,9.5032,0.5743],[-71.9493,9.4993,0.0],[-71.9504,9.4915,1.3048],[-71.9549,9.4924,0.0],[-71.9574,9.4913,1.4499],[-71.9576,9.5021,1.9444],[-71.9474,9.5024,0.0],[-71.9413,9.5057,0.5645],[-71.9426,9.5076,0.0],[-71.9476,9.5088,0.0],[-71.9468,9.5171,0.0],[-71.951,9.519,0.1831],[-71.9538,9.5179,0.6721],[-71.954,9.5221,0.1052],[-71.956,9.5218,0.7396],[-71.9546,9.5149,2.0234],[-71.956,9.5118,3.29],[-71.9635,9.5085,0.9372],[-71.9635,9.506,0.7426],[-71.9657,9.5038,0.219],[-71.9668,9.5043,2.3676],[-71.9662,9.5074,0.5487],[-71.9726,9.504,0.2583],[-71.969,9.5087,0.4318],[-71.9718,9.5101,0.0704],[-71.9682,9.5188,2.2505],[-71.9657,9.5188,2.4012],[-71.9651,9.5165,0.1002],[-71.9629,9.5157,1.1667],[-71.9613,9.5179,0.4595],[-71.9635,9.5263,0.0],[-71.9674,9.5285,3.4292],[-71.9668,9.5349,3.2972],[-71.9718,9.5393,0.0],[-71.9718,9.5451,0.0],[-71.9754,9.5496,6.3642],[-71.9774,9.556,1.42],[-71.9796,9.5574,0.6439],[-71.976,9.5618,1.0445],[-71.9765,9.5638,0.0],[-71.9815,9.5654,5.3933],[-71.9846,9.5632,0.8709],[-71.9863,9.5579,2.5395],[-71.9912,9.5582,0.0],[-71.9957,9.5535,4.0631],[-72.0007,9.5538,0.0],[-72.0076,9.5585,1.3408],[-72.0065,9.5618,0.0],[-72.0079,9.5718,1.2205],[-72.0038,9.5743,1.8959],[-72.0038,9.5757,1.5108],[-72.0051,9.5754,1.8959],[-72.004,9.5771,3.8331],[-72.001,9.5771,2.3863],[-71.9982,9.5796,0.0],[-71.9912,9.5729,0.0],[-71.9846,9.5782,1.002],[-71.9826,9.5879,2.5625],[-71.9854,9.5918,1.9621],[-71.9915,9.5951,2.9858],[-71.9879,9.5946,2.7703],[-71.9804,9.5871,7.05],[-71.9729,9.5651,0.0],[-71.9679,9.5593,0.536],[-71.966,9.5596,0.8348],[-71.9654,9.586,2.6936],[-71.9704,9.6007,0.0],[-71.9818,9.6176,0.0],[-71.9949,9.6304,3.0409],[-72.0049,9.6429,2.7745],[-72.016,9.6618,0.7093],[-72.0921,9.7504,2.2575],[-72.1085,9.7751,1.915],[-72.1188,9.7926,6.5397],[-72.1204,9.7985,0.0],[-72.1249,9.8043,0.7872],[-72.1271,9.8124,0.4606],[-72.1251,9.8229,2.3638],[-72.1271,9.826,3.9734],[-72.1271,9.834,4.8152],[-72.1124,9.8343,0.3796],[-72.1071,9.8368,0.5771],[-72.1079,9.841,1.7338],[-72.106,9.8479,0.0],[-72.0837,9.8657,0.0],[-72.0796,9.8782,0.0],[-72.0771,9.8793,0.0],[-72.0746,9.8849,0.0],[-72.0721,9.8862,0.9176],[-72.0687,9.8929,0.0],[-72.0615,9.901,1.4633],[-72.0604,9.9046,0.0],[-72.0515,9.9143,0.0],[-72.0429,9.929,1.3017],[-72.0371,9.9412,1.7295],[-72.0279,9.9701,0.0],[-72.0237,9.9788,0.1725],[-72.0201,9.9807,1.4862],[-72.0143,9.9985,0.3637],[-72.0126,9.9993,0.6355],[-72.0126,10.0043,1.4416],[-72.011,10.0038,1.5881],[-72.0101,10.0076,1.0581],[-72.0082,10.0088,0.0],[-72.0076,10.0176,0.0],[-72.0046,10.0201,0.0],[-72.0032,10.0268,0.9158],[-71.9996,10.0335,0.985],[-71.9979,10.051,5.5435],[-71.9935,10.0654,1.4068],[-71.9882,10.076,2.5623],[-71.9788,10.0863,0.0],[-71.9729,10.0888,4.4892],[-71.9671,10.0949,6.7062],[-71.9632,10.0957,1.3051],[-71.9571,10.1015,0.619],[-71.961,10.1065,4.6286],[-71.9507,10.1026,1.3247],[-71.9454,10.1062,0.4345],[-71.9404,10.1054,0.0],[-71.9235,10.1104,0.0],[-71.9021,10.1207,0.0],[-71.9015,10.1226,0.0],[-71.9032,10.121,1.6643],[-71.9071,10.1218,12.1775],[-71.9018,10.1271,13.1037],[-71.8993,10.1268,0.0],[-71.8932,10.1454,0.0],[-71.8851,10.1565,0.0],[-71.8771,10.1618,0.0],[-71.8671,10.1585,0.0],[-71.8679,10.1696,2.9371],[-71.8657,10.1746,2.4434],[-71.8624,10.1774,3.4254],[-71.8596,10.1893,0.0],[-71.8549,10.1968,0.0],[-71.8396,10.2074,0.0],[-71.8354,10.2176,0.9497],[-71.8351,10.231,1.2032],[-71.8315,10.2357,0.0],[-71.8293,10.2465,1.5502],[-71.8268,10.2474,2.3168],[-71.8249,10.2585,2.4446],[-71.8201,10.2712,0.3759],[-71.809,10.2818,0.0],[-71.8104,10.2835,5.9125],[-71.8093,10.2863,5.1835],[-71.8079,10.2865,0.4611],[-71.8085,10.2835,1.8815],[-71.8065,10.2851,0.0],[-71.8024,10.2999,2.3128],[-71.7971,10.3107,0.0],[-71.7968,10.3149,0.0],[-71.7921,10.3196,0.0],[-71.7921,10.3246,4.4269],[-71.7901,10.3279,1.4356],[-71.7854,10.3307,2.4314],[-71.781,10.3371,0.53],[-71.7679,10.3471,1.1286],[-71.7624,10.3543,0.0],[-71.7574,10.3571,2.7621],[-71.7343,10.3793,1.0726],[-71.7124,10.3888,0.4726],[-71.6974,10.3985,0.0],[-71.6851,10.4121,2.901],[-71.6646,10.4276,0.9414],[-71.6618,10.4288,2.6029],[-71.6601,10.4265,0.0],[-71.6582,10.4285,1.1867],[-71.6593,10.4304,2.4709],[-71.6557,10.4332,0.0],[-71.6435,10.4382,1.1762],[-71.6413,10.4368,0.0],[-71.6396,10.4396,0.2046],[-71.6363,10.4393,0.0],[-71.634,10.4365,0.0],[-71.6312,10.4371,0.0],[-71.6301,10.4407,0.0],[-71.6326,10.4487,2.863],[-71.6318,10.4579,6.0309],[-71.634,10.4621,5.1753],[-71.6282,10.4638,1.4068],[-71.6268,10.4704,0.0],[-71.6279,10.4843,1.3563],[-71.634,10.4946,2.1378],[-71.634,10.5024,1.6785],[-71.631,10.5096,0.0],[-71.6332,10.5149,6.5057],[-71.6307,10.5185,0.0],[-71.6285,10.5276,0.8721],[-71.6249,10.5293,0.5586],[-71.624,10.5321,0.0],[-71.6254,10.534,3.5196],[-71.6237,10.5329,0.0],[-71.6232,10.5363,3.1],[-71.6193,10.5349,0.0],[-71.619,10.5365,0.0],[-71.6215,10.5387,1.1289],[-71.621,10.5429,2.7455],[-71.6185,10.5451,0.0],[-71.6179,10.5524,1.8216],[-71.6157,10.554,2.098],[-71.6174,10.5579,1.3699],[-71.6101,10.5718,0.0],[-71.6118,10.5785,0.0],[-71.6101,10.5824,0.0],[-71.6129,10.5854,0.9635],[-71.6124,10.5907,0.0],[-71.6151,10.5957,1.2905],[-71.6124,10.5962,0.0],[-71.6099,10.6024,0.0],[-71.6082,10.6026,0.0],[-71.6093,10.6068,0.9291],[-71.6076,10.6082,0.4852],[-71.6054,10.6076,0.0],[-71.6054,10.6168,0.0],[-71.6085,10.6176,2.423],[-71.6096,10.6207,0.0],[-71.6121,10.6218,0.6816],[-71.611,10.6257,0.0],[-71.6157,10.6338,1.8142],[-71.6129,10.6388,4.4151],[-71.6093,10.636,0.0],[-71.6071,10.6374,1.5167],[-71.6032,10.6365,0.0],[-71.5965,10.6482,3.165],[-71.5929,10.6504,0.0],[-71.5904,10.6549,1.8242],[-71.5882,10.664,2.7208],[-71.5899,10.6637,2.987],[-71.5885,10.6665,2.1389],[-71.5904,10.666,3.7069],[-71.5904,10.6676,5.2936],[-71.5868,10.6687,0.0],[-71.5876,10.6746,0.0],[-71.5901,10.6765,6.843],[-71.5907,10.6821,0.0],[-71.5935,10.6835,2.8547],[-71.5965,10.6901,5.2394],[-71.5957,10.6921,0.3147],[-71.5904,10.6946,0.0],[-71.5918,10.6982,0.0],[-71.5896,10.7015,2.0471],[-71.5835,10.6999,0.0],[-71.5815,10.7007,0.0],[-71.586,10.7051,3.2547],[-71.594,10.7096,0.0],[-71.5951,10.714,0.0],[-71.6007,10.7157,1.8705],[-71.621,10.7304,5.7179],[-71.6196,10.7315,0.0],[-71.6207,10.7354,0.0],[-71.6168,10.7351,0.0],[-71.6171,10.7368,2.2296],[-71.6215,10.7374,0.0],[-71.6249,10.7354,5.1264],[-71.6354,10.7424,1.8739],[-71.6457,10.7524,6.9786],[-71.649,10.7593,0.0],[-71.6674,10.7771,0.0],[-71.6787,10.8001,6.7853],[-71.6774,10.8032,0.6864],[-71.6785,10.8065,1.0526],[-71.6837,10.8138,0.0],[-71.7049,10.856,3.6604],[-71.7135,10.8821,16.465],[-71.7149,10.8988,0.0],[-71.7185,10.9146,0.0],[-71.7162,10.9188,0.0],[-71.7204,10.9238,15.5002],[-71.7182,10.9282,0.0],[-71.7154,10.9299,0.0],[-71.7157,10.9335,1.2979],[-71.7124,10.9387,0.8615],[-71.7149,10.9407,0.4132],[-71.7207,10.9543,0.8742],[-71.7271,10.9632,0.3609],[-71.7304,10.9637,3.5288],[-71.7429,10.9751,11.7159],[-71.7549,10.991,6.392],[-71.7599,10.9932,0.0],[-71.7724,10.9912,7.4396],[-71.7771,10.9935,13.0197],[-71.7807,10.9982,0.0],[-71.779,11.0021,0.0],[-71.7721,11.0013,0.0],[-71.769,11.0029,2.3399],[-71.7637,11.0135,11.5644],[-71.7582,11.0115,0.0],[-71.7538,11.0146,3.2324],[-71.7396,11.0187,0.0],[-71.7115,11.0051,0.0],[-71.7074,11.0051,0.2276],[-71.7024,10.9999,2.7565],[-71.6957,10.9965,0.0],[-71.6835,10.9976,10.551],[-71.6676,10.9954,16.1789],[-71.6676,10.9888,15.2151],[-71.6735,10.9815,7.4541],[-71.6743,10.9774,2.0967],[-71.6665,10.979,15.7374],[-71.6612,10.976,1.6746],[-71.6518,10.9812,12.7275],[-71.6515,10.9857,5.2645],[-71.649,10.9882,4.8999],[-71.6471,10.9874,5.4097],[-71.6468,10.9824,6.113],[-71.6432,10.9743,2.2673],[-71.639,10.9735,0.0],[-71.6326,10.9743,0.0],[-71.6293,10.9768,2.0344],[-71.6279,10.9826,2.1936],[-71.6326,10.9793,6.4461],[-71.6338,10.9804,19.8252],[-71.6318,10.981,12.4073],[-71.6293,10.986,14.9388],[-71.6224,10.9932,1.414],[-71.619,10.9929,0.444],[-71.6151,10.9901,0.0],[-71.6135,10.9843,0.6874],[-71.6076,10.9846,0.3177],[-71.6071,10.9868,1.462],[-71.6093,10.9862,1.3172],[-71.6118,10.9893,0.0],[-71.6121,10.9943,0.0],[-71.6065,10.9982,0.9572],[-71.6032,10.9974,0.0],[-71.6029,10.9993,0.2832],[-71.6146,10.999,0.1654],[-71.6279,11.0046,0.3302],[-71.6518,11.0196,0.0],[-71.674,11.0293,0.4636],[-71.706,11.0462,1.8619],[-71.7346,11.0638,1.4298],[-71.7574,11.0807,2.4033],[-71.7935,11.114,0.4256],[-71.8132,11.1357,0.0],[-71.8138,11.1349,1.309],[-71.8129,11.1315,1.591],[-71.8143,11.1315,1.9503],[-71.8187,11.136,2.6347],[-71.8179,11.1376,1.79],[-71.8154,11.136,1.3164],[-71.8146,11.1374,0.0],[-71.8351,11.1604,2.8713],[-71.8682,11.2071,0.0],[-71.886,11.2379,0.0],[-71.8962,11.2526,2.0498],[-71.9118,11.2837,1.5376],[-71.9332,11.3343,0.869],[-71.9365,11.3471,0.0],[-71.9493,11.3807,0.6778],[-71.949,11.3838,0.6012],[-71.9604,11.4254,0.3922],[-71.9665,11.4688,3.3321],[-71.969,11.521,1.7378],[-71.9654,11.5574,2.0909],[-71.9579,11.5835,1.0779],[-71.9463,11.5988,2.3726],[-71.9415,11.6013,0.0],[-71.9246,11.6018,0.0],[-71.9085,11.6051,0.0],[-71.9026,11.6088,3.702],[-71.8985,11.6088,2.439],[-71.8949,11.6107,3.0983],[-71.8932,11.614,3.574],[-71.8876,11.6176,3.8849],[-71.874,11.624,3.6874],[-71.864,11.6246,1.7066],[-71.8538,11.6293,8.068],[-71.8476,11.6299,0.8245],[-71.8451,11.6329,1.218],[-71.8421,11.6321,1.3849],[-71.839,11.6371,7.9342],[-71.8238,11.6399,0.9812],[-71.8187,11.6382,0.0],[-71.8171,11.6421,7.0728],[-71.8096,11.646,4.0363],[-71.7893,11.6468,0.0],[-71.7651,11.6554,0.0],[-71.7613,11.659,3.8991],[-71.7274,11.6599,0.0],[-71.7082,11.6643,0.8622],[-71.6951,11.6701,1.1855],[-71.6885,11.6704,0.0],[-71.6826,11.6751,4.5595],[-71.6762,11.676,0.0],[-71.6707,11.6793,1.9495],[-71.6604,11.6824,3.343],[-71.6443,11.6826,0.6782],[-71.6376,11.6871,6.1012],[-71.6299,11.6879,0.0],[-71.6293,11.6893,0.5108],[-71.6335,11.6888,4.4295],[-71.629,11.6915,2.1117],[-71.6274,11.691,2.1117],[-71.6279,11.6888,0.6115],[-71.6226,11.6896,1.5367],[-71.6135,11.6882,0.0],[-71.6068,11.6915,0.7791],[-71.601,11.6899,0.0],[-71.5946,11.6929,0.4411],[-71.5862,11.6943,0.7479],[-71.5757,11.6932,0.0],[-71.5704,11.6957,0.4649],[-71.554,11.6976,1.1416],[-71.5474,11.7013,0.6518],[-71.5426,11.7004,0.0],[-71.5312,11.7051,0.1564],[-71.5276,11.7043,0.0],[-71.5126,11.7068,0.6658],[-71.5082,11.7054,0.0],[-71.501,11.7088,0.6167],[-71.4982,11.7082,0.0],[-71.4985,11.7099,0.5938],[-71.4885,11.7096,0.0],[-71.4874,11.7143,1.3392],[-71.4779,11.7151,0.717],[-71.4846,11.7129,0.3419],[-71.4818,11.7118,0.0],[-71.4746,11.7151,0.0],[-71.4687,11.7143,0.0763],[-71.4699,11.7163,-0.1939],[-71.4624,11.7165,0.4331],[-71.4665,11.7154,0.1489],[-71.4626,11.7143,0.1191],[-71.4479,11.7207,0.9145],[-71.4393,11.7187,0.0],[-71.4382,11.7224,2.1592],[-71.441,11.7235,4.9399],[-71.439,11.7243,3.7861],[-71.4407,11.7265,6.9048],[-71.4343,11.7276,1.4164],[-71.4337,11.7332,5.2248],[-71.4315,11.7357,6.2018],[-71.4346,11.736,7.333],[-71.4285,11.7399,0.0],[-71.4279,11.7432,0.758],[-71.4151,11.7457,2.4372],[-71.4112,11.7424,1.1168],[-71.4079,11.7432,2.112],[-71.4079,11.741,0.0],[-71.3999,11.7499,0.241],[-71.3968,11.7482,0.0],[-71.3896,11.7501,0.3999],[-71.3871,11.7518,3.2916],[-71.3876,11.7565,7.5951],[-71.384,11.7582,0.4061],[-71.3851,11.761,6.8888],[-71.379,11.7651,2.9904],[-71.3821,11.7665,8.9307],[-71.3771,11.7729,0.7749],[-71.3782,11.7749,6.4082],[-71.366,11.7801,0.0],[-71.3568,11.781,0.0],[-71.3382,11.794,0.0],[-71.3407,11.799,0.0],[-71.3426,11.8096,0.0],[-71.3421,11.8185,0.0],[-71.3385,11.831,0.0],[-71.339,11.8343,0.2191],[-71.341,11.8343,0.4003],[-71.3429,11.8318,0.4042],[-71.3474,11.8118,0.6237],[-71.3515,11.8054,-0.1026],[-71.3493,11.7999,0.1023],[-71.3457,11.8001,0.5382],[-71.3449,11.7937,3.1703],[-71.3482,11.794,1.0315],[-71.3482,11.7954,1.0315],[-71.3463,11.7954,0.6485],[-71.349,11.7979,0.2623],[-71.3557,11.7968,11.375],[-71.3604,11.8001,4.9882],[-71.3662,11.801,0.8073],[-71.3665,11.8046,0.8461],[-71.3701,11.8063,0.4702],[-71.3718,11.804,3.6407],[-71.3743,11.8076,2.484],[-71.3793,11.8074,1.2978],[-71.3779,11.8124,0.0],[-71.3863,11.8141,17.169],[-71.4957,11.7784,24.67],[-71.4997,11.7787,26.3617],[-71.6107,11.7473,26.1837],[-71.7292,11.7076,22.0018],[-71.7775,11.6945,44.1045],[-71.9661,11.6501,21.3933],[-71.9695,11.6441,20.5899],[-71.9718,11.6435,19.8275],[-72.1259,11.3629,34.9407],[-72.1324,11.3621,34.9936],[-72.1328,11.3602,31.3482],[-72.1281,11.3588,30.4879],[-72.249,11.1397,576.0551],[-72.2541,11.1404,611.8831],[-72.2595,11.1381,702.3926],[-72.2731,11.138,716.4268],[-72.2869,11.1429,723.062],[-72.2997,11.1445,760.5271],[-72.3146,11.1437,704.8029],[-72.3216,11.1465,573.3149],[-72.3315,11.1439,505.9096],[-72.3343,11.145,503.9756],[-72.3335,11.1476,499.1514],[-72.3438,11.151,507.7424],[-72.3491,11.1509,522.4678],[-72.3578,11.1456,621.8136],[-72.3604,11.1414,618.8337],[-72.3655,11.139099999999999,549.715],[-72.3739,11.1358,567.355],[-72.3875,11.1335,562.7269],[-72.4076,11.1261,566.6266],[-72.4236,11.1249,573.5693],[-72.4252,11.1214,488.6476],[-72.4295,11.1216,562.259],[-72.4375,11.1151,527.7714],[-72.439,11.1158,563.4004],[-72.442,11.1224,735.7919],[-72.4419,11.1268,812.8377],[-72.4432,11.1272,821.4631],[-72.4563,11.1194,760.5317],[-72.4579,11.1143,802.3133],[-72.464,11.1131,833.4167],[-72.4777,11.1019,824.0302],[-72.485,11.0983,826.7419],[-72.4899,11.0892,615.4462],[-72.4978,11.0851,550.7373],[-72.4966,11.0816,569.041],[-72.4905,11.0785,569.3826],[-72.4851,11.0618,974.8891],[-72.4812,11.0592,996.5565],[-72.4987,11.0405,967.0889],[-72.5049,11.0372,928.232],[-72.5071,11.0336,894.6514],[-72.5083,11.0224,1014.7824],[-72.5171,11.0188,997.907],[-72.5191,11.0133,1036.5636],[-72.5254,11.0116,955.6941],[-72.5251,11.0068,897.283],[-72.5181,11.001,895.1252],[-72.5228,10.9954,1024.7422],[-72.5259,10.996,1011.3669],[-72.5295,10.9932,1039.1316],[-72.5357,10.9848,1210.6085],[-72.5379,10.9793,1104.1737],[-72.5366,10.9745,1097.4916],[-72.5503,10.9507,1206.401],[-72.5533,10.9433,1165.24],[-72.5531,10.9401,1357.1334],[-72.56,10.9336,1375.5509],[-72.5636,10.9269,1329.0325],[-72.571,10.9228,1381.4102],[-72.5759,10.9138,1493.6429],[-72.6029,10.8986,1644.4888],[-72.6061,10.8937,1608.1844],[-72.607,10.8873,1759.7477],[-72.6098,10.8862,1707.8285],[-72.6121,10.8822,1750.2615],[-72.6144,10.8855,1660.5811],[-72.6204,10.8866,1603.4459],[-72.6293,10.8841,1522.8386],[-72.6379,10.8847,1590.627],[-72.6478,10.8797,1586.5024],[-72.6491,10.8764,1586.3226],[-72.6478,10.8728,1600.2982],[-72.6505,10.8632,1537.4629],[-72.6543,10.8576,1592.4519],[-72.6581,10.8556,1471.5891],[-72.6581,10.85,1374.5884],[-72.6634,10.8363,1863.3944],[-72.6616,10.8303,1945.0153],[-72.6676,10.8232,2124.3181],[-72.6749,10.82,2131.3462],[-72.675,10.8063,2148.479],[-72.6821,10.7959,1884.4666],[-72.6779,10.7839,1497.9427],[-72.6809,10.7778,1478.5465],[-72.6822,10.7696,1384.6616],[-72.6821,10.7661,1389.5632],[-72.6795,10.764,1403.5505],[-72.6894,10.7569,1514.801],[-72.706,10.7589,1757.0536],[-72.7122,10.7511,1802.97],[-72.7114,10.7494,1767.1577],[-72.7135,10.7412,1544.7012],[-72.7172,10.7394,1553.8998],[-72.7147,10.7345,1489.437],[-72.7195,10.72,1537.5109],[-72.7173,10.7091,1791.0474],[-72.7142,10.705,1712.5227],[-72.7273,10.6967,1667.7532],[-72.7298,10.6934,1785.939],[-72.733,10.6835,1843.7119],[-72.7331,10.6777,1726.4573],[-72.739,10.6677,1784.1978],[-72.7382,10.6539,2033.8098],[-72.7485,10.6481,1961.9596],[-72.7482,10.6375,1924.9801],[-72.7499,10.6356,1942.9108],[-72.7603,10.6257,1938.387],[-72.7805,10.6132,1925.649],[-72.7885,10.5966,2135.0808],[-72.7915,10.5864,2379.6204],[-72.8039,10.5783,2022.3242],[-72.8139,10.5741,2158.6477],[-72.8215,10.5677,2309.6284],[-72.8286,10.557,2191.1704],[-72.8264,10.5496,2190.8567],[-72.828,10.5472,2187.4004],[-72.8326,10.5443,2155.5371],[-72.8367,10.539,2184.4661],[-72.8429,10.5378,2240.1228],[-72.8396,10.5345,2176.8638],[-72.8387,10.5276,2265.5356],[-72.8345,10.5184,2372.8191],[-72.8363,10.5168,2538.8459],[-72.8366,10.5115,2449.3098],[-72.8437,10.5049,2316.188],[-72.842,10.497,2589.9343],[-72.8467,10.4922,2557.6436],[-72.8443,10.4869,2472.0515],[-72.8534,10.4806,2426.7812],[-72.8548,10.4735,2609.0815],[-72.8601,10.4736,2541.9509],[-72.8617,10.4634,2605.1985],[-72.8886,10.4518,3246.3132],[-72.8952,10.4506,3320.4312],[-72.897,10.4483,3322.8823],[-72.8961,10.4401,3215.8796],[-72.8989,10.4342,3249.4771],[-72.9018,10.4331,3239.408],[-72.8969,10.4309,3246.6108],[-72.8962,10.4289,3286.8047],[-72.8962,10.4177,2867.3274],[-72.8942,10.4114,2808.177],[-72.899,10.4077,2824.79],[-72.8993,10.4039,2926.748],[-72.8964,10.3984,2996.4346],[-72.8869,10.3936,2984.1167],[-72.8832,10.3842,2620.47],[-72.907,10.3511,3367.7671],[-72.9046,10.3344,3547.1692],[-72.9064,10.3237,3404.843],[-72.8995,10.3129,3410.4487],[-72.9034,10.2959,3084.9321],[-72.9034,10.2893,3190.8979],[-72.9062,10.2852,3224.8911],[-72.9038,10.2788,3322.9983],[-72.9071,10.2673,3398.1802],[-72.9015,10.2475,3327.7505],[-72.9033,10.2354,3297.7188],[-72.9008,10.2243,3316.4238],[-72.8973,10.217,3422.2437],[-72.8998,10.209,3432.5012],[-72.9103,10.2065,3380.481],[-72.9075,10.19,3250.8843],[-72.9079,10.1761,3347.5308],[-72.9162,10.1631,3373.7322],[-72.9191,10.1437,3061.9575],[-72.9219,10.1372,3252.6553],[-72.9114,10.1127,3520.5881],[-72.9136,10.1096,3499.9604],[-72.922,10.1089,3406.217],[-72.9259,10.0918,3423.9412],[-72.9326,10.0875,3356.3062],[-72.933,10.0846,3395.948],[-72.9361,10.0817,3399.3923],[-72.94,10.0828,3224.2729],[-72.9443,10.0726,3198.9062],[-72.9488,10.0701,3106.2773],[-72.9509,10.0661,3264.9441],[-72.9549,10.0661,3289.8706],[-72.9545,10.0597,3139.1885],[-72.9578,10.0517,2879.7654],[-72.9568,10.0472,2839.9302],[-72.9545,10.0456,2930.3496],[-72.9528,10.0273,3377.5071],[-72.9561,10.0226,3246.5342],[-72.9629,10.0179,3291.3247],[-72.9611,10.0066,3259.0503],[-72.9671,9.9955,3218.3191],[-72.9698,9.9956,3190.2356],[-72.9755,9.992,3213.2664],[-72.9756,9.9874,3270.9487],[-72.9845,9.9731,3228.2419],[-72.985,9.9702,3123.5183],[-72.98,9.963,3012.8232],[-72.9802,9.9589,3183.5427],[-72.9832,9.9579,3119.4951],[-72.9867,9.9531,2818.8813],[-72.9885,9.9467,2633.3386],[-72.9878,9.9426,2486.8843],[-72.9938,9.9364,2938.1655],[-72.994,9.9326,3051.6707],[-72.9984,9.9222,2859.7979],[-72.995,9.9194,2846.8992],[-72.9928,9.9146,2768.5942],[-72.9858,9.9153,2714.5068],[-72.9858,9.9106,2654.1184],[-72.9838,9.9072,2661.5908],[-72.9882,9.8986,2304.1575],[-72.9849,9.8939,2450.6292],[-72.9774,9.8893,2523.4409],[-72.9834,9.8844,2370.6187],[-72.9891,9.8821,2420.8608],[-72.9933,9.8771,2385.3787],[-72.9928,9.875,2461.1787],[-72.9724,9.8685,2422.6179],[-72.9713,9.8587,2385.9924],[-72.9592,9.8515,1975.4896],[-72.9486,9.8484,2064.614],[-72.9447,9.8428,2290.7554],[-72.9463,9.8374,2361.3564],[-72.9495,9.8353,2238.3423],[-72.9502,9.8305,2240.5879],[-72.9563,9.8265,2206.8174],[-72.9571,9.8212,2291.4209],[-72.9638,9.8194,2175.5332],[-72.9728,9.8062,2331.5688],[-72.9877,9.7926,2130.2534],[-72.9995,9.7712,2228.7974],[-73.0109,9.7605,2077.3125],[-73.0134,9.7508,2061.2036],[-73.0218,9.7372,2075.688],[-73.0282,9.723,1954.6912],[-73.0306,9.7155,2110.1182],[-73.0332,9.6897,1397.0776],[-73.0473,9.6649,1535.5127],[-73.0477,9.656,1291.113],[-73.052,9.6524,1535.0024],[-73.0621,9.6494,1842.7313],[-73.0674,9.6452,1783.6586],[-73.0709,9.6237,1928.2458],[-73.079,9.6159,2115.749],[-73.0815,9.6104,2178.4446],[-73.0902,9.5892,1296.3118],[-73.0944,9.5717,1265.1614],[-73.1069,9.5645,1195.4788],[-73.1179,9.5553,1806.373],[-73.1289,9.5541,1972.649],[-73.1325,9.5503,2018.9218],[-73.1364,9.5501,2005.8038],[-73.1393,9.546,1864.4827],[-73.1445,9.5431,1793.2372],[-73.1463,9.5378,1737.9084],[-73.1504,9.535,1689.8062],[-73.1582,9.5194,2086.4863],[-73.165,9.5146,2400.4739],[-73.1677,9.5091,2418.103],[-73.1768,9.5007,2539.7766],[-73.1764,9.4963,2525.3816],[-73.1722,9.4867,2633.2793],[-73.1744,9.4791,2579.4204],[-73.19,9.4755,2723.8159],[-73.197,9.4765,2811.8076],[-73.2014,9.4714,2666.1975],[-73.2005,9.4616,2647.26],[-73.1939,9.4588,2565.4246],[-73.1914,9.4528,2539.7258],[-73.1867,9.448,2589.2764],[-73.2005,9.4368,2626.1863],[-73.2071,9.4243,2522.7634],[-73.2133,9.4225,2561.9094],[-73.2212,9.4244,2812.2632],[-73.2232,9.4172,2764.3228],[-73.24,9.4045,2575.4766],[-73.2412,9.3924,2603.8506],[-73.2456,9.383,2726.5847],[-73.2514,9.377,2626.033],[-73.2596,9.3732,2389.6675],[-73.261,9.3704,2376.6826],[-73.2626,9.3596,2353.6536],[-73.2595,9.3462,2365.5916],[-73.2651,9.3275,1991.6956],[-73.2701,9.3239,1951.8615],[-73.2723,9.3195,2061.9951],[-73.2784,9.3241,1986.0205],[-73.284,9.3214,2089.145],[-73.2894,9.3115,2177.2075],[-73.2897,9.3022,2171.4629],[-73.2921,9.2977,2515.1704],[-73.2913,9.2929,2434.2175],[-73.2955,9.2868,2353.821],[-73.2971,9.2763,2141.8164],[-73.3156,9.2474,1784.348],[-73.3223,9.2328,1925.1156],[-73.3264,9.2297,2028.1224],[-73.3283,9.2231,1892.166],[-73.3387,9.2167,1974.041],[-73.3521,9.2178,2068.9456],[-73.347,9.2116,1622.0663],[-73.3464,9.2068,1497.2876],[-73.3497,9.2002,1398.9581],[-73.3512,9.1898,1361.8154],[-73.3479,9.1854,1271.5081],[-73.3484,9.1774,1196.4017],[-73.347,9.1737,1159.6853],[-73.3428,9.1721,1132.3508],[-73.3413,9.1741,1144.2271],[-73.3381,9.1743,1163.0581],[-73.33,9.1701,968.053],[-73.3211,9.1712,923.2457],[-73.3166,9.1683,850.7463],[-73.3142,9.1704,796.9889],[-73.3029,9.1721,827.6019],[-73.2951,9.1687,670.1441],[-73.2903,9.1684,668.0316],[-73.2812,9.1621,575.0486],[-73.2793,9.1634,556.2476],[-73.2773,9.1621,556.2476],[-73.2753,9.1659,604.3071],[-73.274,9.1645,534.8853],[-73.2666,9.165,555.1241],[-73.2626,9.1619,507.2551],[-73.2568,9.1634,499.2784],[-73.2552,9.1611,493.6385],[-73.2525,9.1641,546.0306],[-73.2525,9.1603,479.139],[-73.2504,9.1588,479.5132],[-73.2433,9.1673,476.5078],[-73.2416,9.1657,487.134],[-73.2393,9.1662,489.0119],[-73.2395,9.168,490.1502],[-73.2346,9.1741,496.9396],[-73.2286,9.1766,494.4754],[-73.2247,9.1759,451.4686],[-73.2226,9.1797,436.0167],[-73.2199,9.1795,418.8812],[-73.219,9.1811,439.3405],[-73.2146,9.1808,412.1047],[-73.2136,9.1844,471.9559],[-73.2096,9.181,454.6217],[-73.2091,9.1786,437.536],[-73.2065,9.1795,427.5191],[-73.2067,9.182,413.0063],[-73.2041,9.1805,437.8506],[-73.2044,9.1781,401.5345],[-73.2025,9.1809,476.6248],[-73.2011,9.1792,435.4744],[-73.1957,9.1783,426.8966],[-73.1931,9.1752,389.5808],[-73.1884,9.1769,374.8255],[-73.1848,9.1761,377.4279],[-73.1809,9.1779,418.8834],[-73.1769,9.1776,366.3249],[-73.1721,9.1807,363.6642],[-73.1719,9.1837,357.7698],[-73.1688,9.1852,360.2739],[-73.1681,9.1875,386.8441],[-73.1664,9.1871,386.8441],[-73.1624,9.1931,388.2444],[-73.1575,9.1923,362.7239],[-73.1585,9.1953,355.9303],[-73.1499,9.2011,331.7046],[-73.1526,9.2053,325.7352],[-73.1529,9.2111,407.9179],[-73.1482,9.2101,334.2773],[-73.1472,9.2127,379.3757],[-73.1445,9.212,345.4314],[-73.1441,9.2142,403.3002],[-73.1415,9.2136,330.3864],[-73.1399,9.2165,350.9933],[-73.1373,9.2156,330.6483],[-73.1358,9.2185,348.4062],[-73.1324,9.22,309.2525],[-73.1332,9.2237,312.2761],[-73.1296,9.2259,319.4228],[-73.1314,9.2272,333.4296],[-73.1311,9.2292,311.974],[-73.1228,9.2278,305.5063],[-73.117,9.2322,377.4927],[-73.1137,9.2295,289.9787],[-73.1086,9.2289,295.1548],[-73.105,9.2318,290.3748],[-73.0992,9.2272,264.5059],[-73.0897,9.2262,265.1491],[-73.088,9.2276,283.174],[-73.0883,9.231,331.1129],[-73.0859,9.2366,241.4077],[-73.0819,9.2411,246.9498],[-73.0787,9.2397,198.982],[-73.0733,9.2433,216.6048],[-73.0735,9.2452,228.1287],[-73.0771,9.2471,170.0043],[-73.0775,9.2514,147.772],[-73.0762,9.2576,136.7007],[-73.0717,9.2647,168.6739],[-73.0698,9.2649,138.1026],[-73.0641,9.26,116.486],[-73.063,9.2637,129.1485],[-73.0573,9.2637,121.8451],[-73.0535,9.2614,114.4232],[-73.0527,9.259,114.7832],[-73.0462,9.2634,115.3205],[-73.0435,9.2625,113.8802],[-73.0442,9.2699,129.7535],[-73.0413,9.2704,115.4736],[-73.0394,9.2728,103.6104],[-73.0357,9.2834,99.1843],[-73.0321,9.2846,94.6856],[-73.0313,9.2867,98.1266],[-73.0289,9.2817,84.4842],[-73.0265,9.2809,92.4268],[-73.0252,9.2866,88.785],[-73.0098,9.2921,80.2792],[-73.0033,9.2872,75.4397],[-73.0036,9.2826,77.1935],[-73.0059,9.2787,74.2318],[-73.0053,9.2757,79.269],[-72.9964,9.2746,85.8532],[-72.9939,9.2723,70.2935],[-72.9942,9.2658,70.6876],[-72.9971,9.2597,76.9258],[-72.9925,9.2554,70.6821],[-72.9863,9.2554,70.3277],[-72.9853,9.2541,70.3277],[-72.9857,9.2505,67.3544],[-72.9889,9.2455,63.0],[-72.9875,9.2306,62.0],[-72.9892,9.2287,66.4423],[-72.9954,9.2272,63.6999],[-72.9961,9.2223,63.9476],[-72.9933,9.2208,65.0703],[-72.9852,9.2236,62.5779],[-72.9787,9.2164,66.1985],[-72.9704,9.2137,68.5645],[-72.9689,9.2076,56.0],[-72.964,9.2001,75.3406],[-72.9619,9.1858,62.53],[-72.9557,9.181,73.5624],[-72.9581,9.1762,54.4937],[-72.9626,9.173,58.1434],[-72.9648,9.1569,54.5476],[-72.9725,9.1551,49.7794],[-72.9864,9.146,54.9771],[-72.9868,9.1437,51.4164],[-72.9719,9.1365,96.6963],[-72.9693,9.1293,45.0138],[-72.9649,9.1258,44.524],[-72.96,9.1143,66.7742],[-72.9528,9.1076,56.3455],[-72.9472,9.1063,69.5051],[-72.9467,9.1027,44.8729],[-72.9509,9.0976,39.5],[-72.9473,9.0926,95.728],[-72.9376,9.0908,116.1246],[-72.9358,9.0857,57.3899],[-72.932,9.0835,55.235],[-72.9209,9.0889,64.2944],[-72.9195,9.0944,70.1276],[-72.9148,9.094,60.0],[-72.9067,9.0982,64.907],[-72.8976,9.0982,55.3427],[-72.8955,9.0993,47.079],[-72.8939,9.1042,52.4484],[-72.8866,9.1042,64.115],[-72.8834,9.1121,77.2515],[-72.8866,9.1149,70.2419],[-72.8843,9.1183,42.6663],[-72.8829,9.1306,39.9788],[-72.8803,9.1338,89.1293],[-72.8677,9.13,49.0628],[-72.8452,9.1314,45.0841],[-72.8332,9.1224,32.3305],[-72.8217,9.1229,32.5468],[-72.8207,9.1262,32.4566],[-72.8243,9.1357,32.2585],[-72.8238,9.1406,47.4492],[-72.8221,9.142,42.8174],[-72.8194,9.1413,56.2277],[-72.816,9.1367,32.3611],[-72.8117,9.1362,41.8967],[-72.8094,9.1337,37.8133],[-72.8068,9.1276,38.4706],[-72.8077,9.1248,30.9321],[-72.8114,9.1228,32.1501],[-72.8107,9.1203,33.1583],[-72.8043,9.1231,31.3234],[-72.7953,9.1222,32.9301],[-72.7971,9.1188,30.1349],[-72.7956,9.1164,32.7107],[-72.7983,9.1085,29.2709],[-72.7952,9.1041,31.88],[-72.7898,9.1072,27.1394],[-72.7886,9.1125,26.35],[-72.7857,9.116,29.968],[-72.7758,9.115,34.1081],[-72.7744,9.1046,32.0013],[-72.7665,9.1069,25.0],[-72.7623,9.0931,33.5518],[-72.7723,9.0905,42.1249],[-72.7725,9.0872,31.6667],[-72.7686,9.085,33.8525],[-72.764,9.0869,32.3637],[-72.7606,9.0818,26.0],[-72.7286,8.9344,35.6469],[-72.7044,8.8349,39.6987],[-72.7012,8.8137,35.6335],[-72.6836,8.7614,73.0324],[-72.6794,8.7532,63.5547],[-72.6745,8.704,68.4259],[-72.6561,8.6231,41.6194],[-72.659,8.6248,41.4971],[-72.6583,8.6216,38.7725],[-72.657,8.6223,41.6194],[-72.6555,8.6205,37.3502],[-72.6538,8.6137,38.4636],[-72.6498,8.613,37.8912],[-72.6425,8.6083,39.6041],[-72.6387,8.6081,38.7639],[-72.6346,8.6005,37.7227],[-72.6332,8.6013,37.7227],[-72.6341,8.6039,38.3108],[-72.6328,8.6067,40.5275],[-72.6282,8.6059,40.0071],[-72.6257,8.6012,39.7355],[-72.6319,8.5997,40.5376],[-72.6314,8.5972,41.9768],[-72.6166,8.5947,39.4087],[-72.6106,8.5848,44.5998],[-72.4274,8.3823,48.8575],[-72.4098,8.4359,45.4143],[-72.3825,8.4607,39.6924],[-72.3761,8.4696,41.8652],[-72.3751,8.4806,38.5195],[-72.3779,8.513,40.7288],[-72.3741,8.5251,38.0649],[-72.3625,8.5396,34.1347],[-72.3473,8.5505,39.2478],[-72.3324,8.5587,29.87],[-72.3149,8.5652,29.181],[-72.2893,8.5694,29.2271],[-72.2725,8.5694,27.2688],[-72.2395,8.559,27.188],[-72.2236,8.556,25.9562],[-72.1968,8.5566,28.1345],[-72.1255,8.5642,25.5005],[-72.0425,8.5662,21.23],[-72.0176,8.5694,20.2484],[-72.0034,8.5743,20.3314],[-71.9975,8.5868,13.6976],[-71.9961,8.6285,10.3972],[-72.0038,8.6567,10.4898],[-72.0016,8.6638,12.1938],[-71.9966,8.6654,10.7567],[-71.9909,8.665,9.641],[-71.9827,8.6591,10.5058],[-71.9705,8.6356,13.221],[-71.969,8.6459,12.039],[-71.9588,8.6588,10.8433],[-71.9505,8.6633,11.0809],[-71.9367,8.6675,15.2646],[-71.898,8.6734,19.5148],[-71.8814,8.6826,22.4604],[-71.8709,8.6922,25.0887],[-71.8542,8.7001,28.0972],[-71.8326,8.7031,30.1123],[-71.8184,8.7024,33.6835],[-71.8067,8.6951,37.0545],[-71.7864,8.6719,41.6179],[-71.776,8.6631,43.7311],[-71.7645,8.6584,46.9679],[-71.7564,8.6578,49.3829]]],
[[[-72.0001,10.0001,0.0],[-72.0001,9.9999,0.0],[-71.9999,9.9999,0.0],[-71.9999,10.0001,0.0],[-72.0001,10.0001,0.0]]],
[[[-71.5485,10.6213,0.0],[-71.5496,10.6226,0.0],[-71.5515,10.6201,1.33],[-71.5471,10.6113,0.0],[-71.5446,10.6132,1.0489],[-71.541,10.6121,0.3725],[-71.5407,10.6132,0.3725],[-71.5435,10.614,0.5257],[-71.5485,10.6213,0.0]]],
[[[-71.6326,10.8557,0.0],[-71.6335,10.8574,0.0],[-71.6346,10.8571,0.0],[-71.634,10.8549,0.0],[-71.6326,10.8557,0.0]]],
[[[-71.6312,10.8643,2.7141],[-71.6321,10.8662,0.0],[-71.634,10.8662,0.0],[-71.6346,10.8632,0.0],[-71.6321,10.8626,0.0],[-71.6312,10.8643,2.7141]]],
[[[-71.5951,10.9438,0.0],[-71.5985,10.944,0.0],[-71.601,10.9421,0.0],[-71.6021,10.9351,2.3925],[-71.5999,10.9307,3.1194],[-71.5996,10.9185,0.0],[-71.5968,10.9199,0.7134],[-71.5957,10.9276,0.6139],[-71.5935,10.9285,0.0],[-71.5912,10.9351,0.0],[-71.5951,10.9438,0.0]]],
[[[-71.6596,10.9649,2.3007],[-71.6674,10.9649,10.9059],[-71.6699,10.9599,20.6783],[-71.6718,10.9599,12.8786],[-71.6732,10.9624,0.0],[-71.6813,10.9613,2.2403],[-71.681,10.9582,0.0],[-71.6749,10.9546,4.1302],[-71.6762,10.9521,2.107],[-71.6726,10.9538,6.478],[-71.6693,10.9515,0.0],[-71.6637,10.9515,1.8644],[-71.6624,10.9496,0.0],[-71.6588,10.9493,0.0],[-71.6501,10.9496,0.0],[-71.6465,10.9535,0.0],[-71.639,10.9538,9.7716],[-71.6349,10.9515,0.0],[-71.631,10.9518,0.0],[-71.6249,10.9554,5.2438],[-71.6407,10.9601,0.0],[-71.6449,10.9596,0.322],[-71.6462,10.9613,0.0],[-71.6596,10.9649,2.3007]]],
[[[-71.5851,10.9985,1.7053],[-71.5865,10.9999,0.3917],[-71.5896,10.9793,0.2853],[-71.584,10.9796,0.3854],[-71.5813,10.9826,0.694],[-71.5788,10.9829,0.9043],[-71.5732,10.9765,1.2063],[-71.5765,10.9726,0.1655],[-71.566,10.9704,0.4855],[-71.5651,10.9682,0.0],[-71.5604,10.9688,0.7977],[-71.5576,10.966,0.991],[-71.5576,10.9635,0.0],[-71.5557,10.964,1.1167],[-71.554,10.9624,0.3608],[-71.5457,10.9654,2.6905],[-71.546,10.9626,1.2222],[-71.5432,10.961,6.7064],[-71.5449,10.9563,0.0],[-71.5418,10.9526,7.2377],[-71.5407,10.9482,1.2758],[-71.5349,10.9476,7.3862],[-71.5354,10.9457,9.3159],[-71.5338,10.9446,10.2581],[-71.5379,10.9443,3.5868],[-71.5376,10.9393,1.7602],[-71.5293,10.9371,8.3102],[-71.5271,10.9301,0.0],[-71.5224,10.9301,3.1904],[-71.5282,10.9385,8.3102],[-71.5304,10.9454,6.3841],[-71.529,10.9543,0.0],[-71.5354,10.9629,0.0],[-71.5515,10.9765,0.0],[-71.5851,10.9985,1.7053]]],
[[[-70.9916,9.3254,11.7725],[-70.9918,9.3465,9.8919],[-70.998,9.3491,7.9814],[-71.0133,9.352,4.5359],[-71.0227,9.3509,6.9376],[-71.0521,9.3391,2.0917],[-71.0526,9.336,1.7175],[-71.0568,9.3313,0.9813],[-71.0554,9.3249,0.0],[-71.0568,9.3207,1.2077],[-71.0626,9.3135,2.014],[-71.0685,9.3146,1.5944],[-71.0735,9.3063,0.0],[-71.0876,9.3004,2.0056],[-71.0976,9.291,1.3036],[-71.1004,9.2896,1.64],[-71.1046,9.2901,3.3658],[-71.1121,9.2826,0.857],[-71.1221,9.2801,3.5028],[-71.1321,9.2735,3.2563],[-71.1346,9.2738,0.0],[-71.1476,9.2638,0.6191],[-71.1521,9.2649,0.0],[-71.1529,9.2601,2.9663],[-71.1582,9.254,0.0],[-71.1715,9.244,0.4006],[-71.1765,9.2429,0.0],[-71.186,9.2349,0.3048],[-71.1935,9.2254,0.0],[-71.1507,9.1916,16.7849],[-71.1206,9.1736,27.2406],[-71.104,9.1655,37.9673],[-71.051,9.1491,116.445],[-71.0337,9.1485,145.4566],[-71.0129,9.1532,250.4827],[-70.9997,9.1622,250.7805],[-70.9908,9.1732,294.0597],[-70.9895,9.1857,147.649],[-70.9954,9.2569,35.3138],[-70.9916,9.3254,11.7725]]],
[[[-70.6914,10.3073,1326.8416],[-70.7161,10.3171,1260.1561],[-70.7281,10.327,1106.6196],[-70.739,10.3447,970.9732],[-70.7425,10.3922,1491.7773],[-70.7487,10.4121,1442.709],[-70.7583,10.4267,1144.5032],[-70.7762,10.4426,926.8951],[-70.7889,10.4493,944.5718],[-70.8121,10.4535,1223.1282],[-70.8499,10.451,813.1504],[-70.9125,10.4594,273.7325],[-70.9257,10.4642,254.3514],[-70.9499,10.4872,229.8742],[-70.9865,10.5015,156.5437],[-70.9973,10.5099,157.4862],[-71.003,10.5225,165.632],[-71.0145,10.5683,119.1028],[-71.0267,10.6005,133.276],[-71.0356,10.619,125.8346],[-71.062,10.6592,125.7671],[-71.0664,10.6723,85.0462],[-71.0735,10.732,47.4793],[-71.0817,10.7562,39.7001],[-71.0987,10.7832,36.6988],[-71.1153,10.8035,33.1427],[-71.1709,10.8604,22.444],[-71.1831,10.8768,20.1241],[-71.1934,10.8945,16.9231],[-71.2356,10.9523,8.9683],[-71.2549,10.9826,0.0],[-71.2615,10.9799,0.0],[-71.2799,10.9779,0.0],[-71.2899,10.9732,2.5555],[-71.3074,10.9707,0.0],[-71.3185,10.966,0.4659],[-71.3207,10.9635,0.8285],[-71.3274,10.9626,0.0],[-71.3329,10.9599,0.0],[-71.3674,10.9618,0.6551],[-71.3712,10.9635,0.0],[-71.4137,10.9682,0.0],[-71.4279,10.9668,3.973],[-71.4362,10.9682,0.0],[-71.4499,10.9632,1.1083],[-71.4474,10.9626,1.1356],[-71.4399,10.9651,1.2062],[-71.4463,10.9621,1.1356],[-71.4512,10.9624,1.2868],[-71.4538,10.9604,-0.8048],[-71.4507,10.9607,-0.1301],[-71.4571,10.9587,1.9613],[-71.4604,10.956,0.0],[-71.4549,10.9546,0.0],[-71.4501,10.9563,1.072],[-71.4518,10.9546,0.0],[-71.4576,10.9538,0.0],[-71.4612,10.9551,0.8856],[-71.4807,10.9507,0.0],[-71.4849,10.9468,7.1512],[-71.4885,10.946,4.8629],[-71.4851,10.9379,0.0],[-71.4801,10.9326,4.3462],[-71.4771,10.9332,4.5201],[-71.4762,10.9315,2.091],[-71.4726,10.9312,15.3966],[-71.4707,10.9271,7.2785],[-71.459,10.9201,5.1717],[-71.4585,10.9171,0.0],[-71.4512,10.911,2.9118],[-71.4451,10.9074,8.4795],[-71.441,10.9074,10.161],[-71.4413,10.9035,0.0],[-71.4362,10.9013,1.8695],[-71.4262,10.901,3.9789],[-71.4207,10.9063,0.0],[-71.4126,10.9093,0.0],[-71.411,10.9132,6.8811],[-71.4085,10.9138,12.3723],[-71.4115,10.9057,11.5691],[-71.4165,10.9038,0.0],[-71.4168,10.8932,15.2121],[-71.424,10.8837,18.068],[-71.4293,10.8824,3.7949],[-71.4371,10.8829,7.9415],[-71.4421,10.8796,6.2305],[-71.4454,10.8796,7.2139],[-71.4476,10.8751,20.1869],[-71.4476,10.8643,12.2236],[-71.4449,10.8526,3.3482],[-71.4379,10.8376,7.7749],[-71.4332,10.8226,7.0633],[-71.4337,10.8165,0.0],[-71.4318,10.8063,0.0],[-71.4329,10.7949,1.7445],[-71.4426,10.7915,1.3054],[-71.4496,10.791,1.4472],[-71.479,10.7971,0.0],[-71.514,10.7993,0.0],[-71.5329,10.7965,12.4068],[-71.5368,10.7976,0.0],[-71.5393,10.796,6.9738],[-71.5476,10.7971,0.0],[-71.5529,10.7951,5.0543],[-71.5571,10.7965,2.0869],[-71.564,10.796,0.0],[-71.5693,10.7932,2.8483],[-71.579,10.794,0.0],[-71.5857,10.7979,0.0],[-71.5874,10.7946,4.5099],[-71.591,10.7924,0.0],[-71.5915,10.7862,0.4013],[-71.5904,10.7851,0.0],[-71.566,10.7779,0.6695],[-71.5621,10.7732,0.5761],[-71.5612,10.7632,0.0],[-71.5537,10.7626,1.1483],[-71.554,10.7585,0.0],[-71.5488,10.7624,3.2317],[-71.539,10.7596,0.6451],[-71.536,10.7546,2.9712],[-71.5429,10.7488,0.0],[-71.544,10.7446,3.6557],[-71.5407,10.7404,0.0],[-71.5329,10.7379,2.1541],[-71.5326,10.734,0.0],[-71.529,10.7324,0.851],[-71.5232,10.7243,5.7493],[-71.5257,10.7151,5.6568],[-71.5304,10.709,0.0],[-71.5304,10.7046,0.0],[-71.5229,10.699,4.5626],[-71.5218,10.6935,4.3321],[-71.526,10.6857,7.7728],[-71.5307,10.6818,0.0],[-71.5304,10.6735,0.0],[-71.5332,10.6685,0.6638],[-71.5229,10.659,1.3733],[-71.5212,10.6532,1.7256],[-71.5268,10.6412,0.0],[-71.5318,10.6365,1.6965],[-71.5321,10.634,1.8223],[-71.5151,10.6276,5.8444],[-71.5099,10.6226,0.0],[-71.5049,10.6207,8.9338],[-71.5004,10.6163,10.4021],[-71.4965,10.6057,5.7136],[-71.4987,10.6021,0.0],[-71.509,10.6007,0.0],[-71.5193,10.5951,2.7739],[-71.5254,10.5938,0.0],[-71.5307,10.5893,0.0],[-71.5312,10.5837,2.6971],[-71.5335,10.5799,1.6985],[-71.5318,10.5593,3.9684],[-71.5407,10.5499,0.0],[-71.5396,10.5476,0.0],[-71.5312,10.546,1.6153],[-71.5237,10.5407,2.6816],[-71.5124,10.5238,0.9602],[-71.504,10.5154,0.0],[-71.4696,10.4985,0.9558],[-71.4624,10.4915,0.8355],[-71.4585,10.4849,0.0],[-71.4571,10.4801,0.0],[-71.4579,10.4738,2.1324],[-71.454,10.4682,8.4929],[-71.4512,10.4563,1.1801],[-71.4524,10.4479,0.5701],[-71.4674,10.4282,0.0],[-71.4685,10.4137,8.0073],[-71.471,10.4121,0.0],[-71.4707,10.4087,2.3556],[-71.4779,10.3974,0.0],[-71.4799,10.3915,0.6237],[-71.4768,10.3896,0.0],[-71.4732,10.3901,1.3609],[-71.471,10.3871,0.5053],[-71.4679,10.3874,2.1388],[-71.4629,10.3843,2.2429],[-71.4604,10.3815,0.0],[-71.4615,10.3768,0.0],[-71.459,10.3737,0.0],[-71.4574,10.3746,0.0],[-71.4571,10.3712,0.0],[-71.4532,10.3746,1.2779],[-71.4512,10.3743,3.4542],[-71.4413,10.3657,0.6569],[-71.4421,10.3618,0.0],[-71.4396,10.3604,0.0],[-71.4371,10.3629,3.3683],[-71.4326,10.3585,1.3784],[-71.4207,10.3382,3.2875],[-71.4218,10.334,0.0],[-71.4168,10.3296,5.3864],[-71.4168,10.321,1.7766],[-71.4124,10.3124,7.588],[-71.414,10.3043,0.0],[-71.406,10.2999,0.751],[-71.4054,10.2924,0.0],[-71.3882,10.2807,0.9211],[-71.3771,10.2688,-0.5771],[-71.3735,10.2607,-1.7642],[-71.3737,10.2568,0.3183],[-71.3699,10.2493,0.0],[-71.3704,10.2374,0.0],[-71.3688,10.236,0.0793],[-71.3665,10.2263,0.0],[-71.3596,10.2188,0.0],[-71.3585,10.2104,0.0],[-71.354,10.2121,4.3842],[-71.3482,10.2074,1.6224],[-71.349,10.2046,1.9667],[-71.3451,10.2051,0.4162],[-71.3432,10.2037,0.0],[-71.3421,10.201,1.494],[-71.3437,10.1962,0.0],[-71.3426,10.1954,0.0],[-71.3407,10.1954,0.0],[-71.339,10.1987,1.1147],[-71.3351,10.1982,0.3394],[-71.3335,10.1949,0.3142],[-71.3268,10.1907,0.3905],[-71.3196,10.1832,0.0],[-71.3151,10.184,3.9983],[-71.3129,10.1812,0.0],[-71.3032,10.1754,0.0],[-71.2996,10.1749,1.5119],[-71.2918,10.1687,0.0],[-71.2793,10.1535,-0.0565],[-71.2729,10.1415,-1.6103],[-71.2724,10.1362,0.0],[-71.2665,10.1351,-0.4413],[-71.2665,10.1318,-0.0019],[-71.2613,10.1226,-0.6186],[-71.2615,10.119,0.0],[-71.2568,10.1151,0.0],[-71.2538,10.1093,-1.5789],[-71.2401,10.0749,0.0],[-71.2376,10.0546,1.4684],[-71.2404,10.0487,0.0],[-71.2376,10.0374,7.1724],[-71.2282,10.021,0.0],[-71.2296,10.016,2.1509],[-71.2329,10.0138,0.0],[-71.2337,10.0113,2.1681],[-71.2315,10.0071,4.8707],[-71.2293,10.0079,1.7692],[-71.2288,10.0118,5.0205],[-71.2243,10.0113,0.9145],[-71.2199,10.0071,0.0],[-71.2171,10.0013,2.3151],[-71.2113,9.974,0.0],[-71.1999,9.9679,0.0],[-71.1963,9.9701,0.0],[-71.1907,9.9699,0.0],[-71.1893,9.9685,0.0],[-71.1862,9.9704,0.0],[-71.179,9.9693,0.0287],[-71.1654,9.9626,-2.4479],[-71.1535,9.9532,-0.3854],[-71.1521,9.9493,0.0],[-71.1582,9.9424,0.0],[-71.1532,9.9474,0.0],[-71.1501,9.9479,0.0],[-71.1476,9.9463,0.0],[-71.1488,9.9437,0.5278],[-71.1468,9.9432,0.0],[-71.1454,9.9401,0.0],[-71.1432,9.9412,0.9856],[-71.139,9.9371,0.2715],[-71.1043,9.8921,1.3906],[-71.0837,9.8562,1.0633],[-71.0779,9.8413,0.0],[-71.0779,9.8235,2.3184],[-71.0821,9.8215,4.4943],[-71.0832,9.8249,0.0],[-71.0804,9.8304,7.382],[-71.0813,9.8321,0.0],[-71.0835,9.8315,2.5907],[-71.0885,9.8204,0.0],[-71.0868,9.8099,1.7103],[-71.0885,9.8068,0.4133],[-71.0915,9.806,0.0],[-71.0896,9.8015,0.0],[-71.0915,9.7988,0.0],[-71.0857,9.7996,1.9546],[-71.079,9.7949,1.0018],[-71.0751,9.7868,0.0],[-71.0685,9.7804,0.5176],[-71.069,9.7776,0.0],[-71.066,9.7771,0.6226],[-71.0657,9.7735,0.0],[-71.0638,9.7738,0.0],[-71.0574,9.7657,0.5135],[-71.051,9.7526,0.0],[-71.0382,9.7415,0.4697],[-71.031,9.7279,0.0],[-71.0265,9.7104,1.3367],[-71.0312,9.7093,0.8912],[-71.036,9.7115,1.6657],[-71.0393,9.7043,0.0],[-71.0424,9.7018,3.2036],[-71.0449,9.7018,0.0],[-71.0485,9.6946,3.1124],[-71.0501,9.6838,0.6683],[-71.046,9.6701,0.8679],[-71.0499,9.6587,8.1212],[-71.0515,9.6385,0.7807],[-71.0551,9.6304,0.0],[-71.061,9.6232,1.9825],[-71.0607,9.6131,1.2959],[-70.9991,9.601,7.2978],[-70.9764,9.5991,7.9686],[-70.9454,9.599,12.5731],[-70.9027,9.5928,18.0469],[-70.8761,9.5963,24.3882],[-70.858,9.6015,26.8671],[-70.8401,9.6136,26.7542],[-70.7867,9.6679,28.5474],[-70.765,9.6908,29.7277],[-70.736,9.7258,249.466],[-70.7163,9.7457,371.9001],[-70.6973,9.7619,701.1609],[-70.646,9.783,441.9602],[-70.6349,9.7959,484.1496],[-70.6329,9.8099,515.5142],[-70.64,9.8321,605.6891],[-70.6552,9.8688,705.1681],[-70.662,9.9007,622.0124],[-70.6805,9.9016,875.3075],[-70.6957,9.9098,825.4392],[-70.712,9.9237,643.8486],[-70.7217,9.9345,626.5038],[-70.7331,9.9427,497.45],[-70.7699,9.9549,545.4628],[-70.7899,9.9647,329.2535],[-70.8082,9.9809,228.7979],[-70.843,10.0207,346.0982],[-70.855,10.038,296.9418],[-70.8611,10.0566,215.1186],[-70.8608,10.0779,244.4401],[-70.8544,10.092,430.321],[-70.838,10.108,596.3786],[-70.7744,10.1474,558.6105],[-70.7329,10.1698,1258.8795],[-70.7159,10.1828,1046.0007],[-70.7032,10.1989,1281.0929],[-70.6863,10.2532,1156.6685],[-70.6686,10.2847,1597.7574],[-70.657,10.3018,1773.7505],[-70.6577,10.3051,1857.4917],[-70.6914,10.3073,1326.8416]]],
[[[-71.5312,10.9299,1.078],[-71.5301,10.9332,0.0],[-71.5346,10.9332,3.9017],[-71.5368,10.9315,0.0],[-71.5343,10.929,3.5244],[-71.5312,10.9299,1.078]]],
[[[-71.4863,10.9338,0.0],[-71.4868,10.9385,0.0],[-71.4918,10.9382,2.4174],[-71.4943,10.9343,0.0],[-71.4943,10.9279,0.0],[-71.4871,10.9265,0.0],[-71.4837,10.9318,6.4269],[-71.4863,10.9338,0.0]]],
[[[-71.5046,10.9429,0.929],[-71.5071,10.9451,1.2377],[-71.5104,10.9438,0.0],[-71.5135,10.9376,3.9011],[-71.5121,10.9332,4.4584],[-71.5135,10.934,5.0375],[-71.5135,10.9315,0.0],[-71.5101,10.931,1.1923],[-71.5088,10.9332,0.8543],[-71.5024,10.9332,0.0],[-71.4996,10.9349,0.0],[-71.499,10.9396,2.1283],[-71.5107,10.941,4.3575],[-71.5101,10.9426,1.3154],[-71.5068,10.9429,3.1831],[-71.5015,10.9407,4.8432],[-71.5046,10.9429,0.929]]],
[[[-71.4893,10.9401,5.3314],[-71.4899,10.9418,8.4308],[-71.4938,10.9418,7.2751],[-71.4918,10.9393,4.6368],[-71.4893,10.9401,5.3314]]],
[[[-71.4901,10.9463,1.3463],[-71.4946,10.9465,4.2725],[-71.4971,10.9435,2.3549],[-71.4887,10.9424,1.7845],[-71.4882,10.9443,0.0],[-71.4901,10.9463,1.3463]]],
[[[-71.4837,10.9507,0.0],[-71.4837,10.9521,0.0],[-71.4943,10.9515,0.0],[-71.5021,10.9493,2.3085],[-71.5032,10.9465,0.9157],[-71.5004,10.9443,2.8795],[-71.4921,10.9479,0.8262],[-71.4879,10.9465,4.8629],[-71.4832,10.9496,3.6989],[-71.4896,10.9496,2.6014],[-71.4938,10.9476,1.6508],[-71.4999,10.9482,3.8448],[-71.4938,10.9501,0.7387],[-71.4921,10.949,1.6307],[-71.4874,10.9513,0.0],[-71.4837,10.9507,0.0]]],
[[[-71.6301,10.9718,4.237],[-71.6307,10.9732,0.0],[-71.6335,10.9729,0.0],[-71.6346,10.9707,0.0],[-71.6338,10.9671,0.0],[-71.6299,10.9688,4.6752],[-71.6301,10.9718,4.237]]],
[[[-71.6188,10.9904,13.6306],[-71.6224,10.991,3.7885],[-71.6243,10.9882,0.0],[-71.629,10.9682,8.7578],[-71.6249,10.9599,0.0],[-71.621,10.956,0.0],[-71.6193,10.9546,0.0],[-71.6137,10.9546,0.0],[-71.6068,10.9582,0.4808],[-71.6065,10.9665,2.9426],[-71.6043,10.9696,0.0],[-71.6076,10.9765,0.5004],[-71.616,10.9835,2.9553],[-71.6168,10.9888,6.7468],[-71.6188,10.9904,13.6306]]],
[[[-71.6843,10.991,0.0],[-71.6876,10.9907,0.0],[-71.6849,10.9857,0.0],[-71.6826,10.9885,2.3731],[-71.6843,10.991,0.0]]],
[[[-71.3524,11.8282,0.412],[-71.3546,11.8293,1.332],[-71.3554,11.8268,0.5303],[-71.3549,11.8268,0.0039],[-71.3524,11.8282,0.412]]],
[[[-71.3654,11.8424,0.8326],[-71.3784,11.8375,10.4009],[-71.3834,11.8335,2.001],[-71.3849,11.8296,0.0],[-71.381,11.8301,0.0],[-71.381,11.8338,3.4097],[-71.3763,11.8324,0.853],[-71.371,11.8332,1.0057],[-71.3654,11.8424,0.8326]]],
[[[-71.344,11.8504,1.109],[-71.3454,11.8462,0.8218],[-71.3479,11.8443,0.6755],[-71.3476,11.8421,1.435],[-71.3579,11.8379,1.0497],[-71.3626,11.8415,0.6095],[-71.3654,11.8401,1.2778],[-71.3649,11.8385,3.1437],[-71.3671,11.8376,0.825],[-71.3693,11.8326,1.8135],[-71.3768,11.8318,0.6732],[-71.3796,11.8329,1.0865],[-71.3796,11.8321,1.0865],[-71.3749,11.8307,0.5434],[-71.3693,11.8315,3.8357],[-71.3701,11.8279,0.0],[-71.3674,11.8282,0.4377],[-71.3607,11.8251,0.0],[-71.3615,11.8285,0.9302],[-71.3651,11.8296,1.5348],[-71.3654,11.8315,0.0],[-71.3587,11.8329,1.7714],[-71.3604,11.8304,0.0],[-71.3587,11.8271,1.8424],[-71.356,11.8262,0.5303],[-71.3551,11.8296,1.332],[-71.3512,11.8296,0.4217],[-71.354,11.836,0.8925],[-71.3574,11.834,0.3601],[-71.3621,11.834,4.3906],[-71.3635,11.8354,4.3906],[-71.3635,11.8399,0.0],[-71.3613,11.8396,0.5112],[-71.3599,11.8346,0.5896],[-71.354,11.8374,1.2937],[-71.3521,11.8368,0.0],[-71.3524,11.8335,0.8001],[-71.3504,11.8304,0.4217],[-71.3451,11.8363,2.3268],[-71.3521,11.8374,1.5971],[-71.3482,11.8376,0.2588],[-71.3449,11.8368,0.5427],[-71.3424,11.8396,0.0],[-71.3388,11.8396,0.6084],[-71.3393,11.8429,1.4258],[-71.3415,11.8429,1.2889],[-71.3424,11.841,1.4972],[-71.3463,11.841,2.89],[-71.3421,11.849,0.9469],[-71.3335,11.8501,0.536],[-71.3326,11.8465,1.0898],[-71.3301,11.8476,2.5136],[-71.3253,11.8468,0.6084],[-71.331,11.8515,-0.2594],[-71.3365,11.8535,0.5157],[-71.344,11.8504,1.109]]],
[[[-71.3493,11.8474,2.3489],[-71.3534,11.8474,8.3968],[-71.3604,11.8446,0.6923],[-71.3596,11.8418,1.1112],[-71.3487,11.8432,1.435],[-71.3493,11.8474,2.3489]]],
[[[-71.3379,11.8401,0.6084],[-71.3382,11.8396,0.6084],[-71.3415,11.8379,0.6409],[-71.3432,11.8379,0.7079],[-71.3432,11.8365,0.5427],[-71.3335,11.8418,0.5775],[-71.3379,11.8401,0.6084]]],
[[[-71.3315,11.8432,0.0],[-71.3299,11.8443,1.763],[-71.3304,11.8465,0.7202],[-71.3346,11.8446,2.6182],[-71.3315,11.8432,0.0]]],
[[[-70.9021,12.3582,29.9443],[-70.9043,12.359,20.8598],[-70.9024,12.3565,0.0],[-70.8985,12.3568,0.0],[-70.899,12.3582,12.1867],[-70.9021,12.3582,29.9443]]]]}}