{"type": "Feature","bbox": [-67.8412,10.1102,-67.5533,10.2876],"geometry": {"type": "MultiPolygon","coordinates": [[[[-67.5587,10.2118,432.7888],[-67.5746,10.2199,428.7712],[-67.5843,10.2286,435.3331],[-67.611,10.2386,433.4811],[-67.6273,10.2563,441.1463],[-67.6592,10.2596,427.9244],[-67.6675,10.263,540.193],[-67.6693,10.271,412.4645],[-67.6656,10.2757,508.5075],[-67.6644,10.2808,511.1996],[-67.6664,10.2835,462.6793],[-67.6933,10.2876,435.8772],[-67.7059,10.2836,431.7987],[-67.7315,10.2654,411.5],[-67.7445,10.2602,419.1313],[-67.7661,10.2583,430.0026],[-67.7721,10.2554,423.1175],[-67.7805,10.2474,413.1847],[-67.7977,10.2407,423.3129],[-67.8026,10.2303,412.6555],[-67.8123,10.1972,411.5],[-67.8175,10.1922,411.5],[-67.828,10.1866,411.5],[-67.8386,10.1783,411.5],[-67.8411,10.1721,411.5],[-67.8412,10.167,411.5],[-67.8355,10.1498,411.5],[-67.8321,10.1321,411.5],[-67.8242,10.1201,411.5],[-67.8171,10.1152,411.5],[-67.8084,10.114,412.0593],[-67.7988,10.1148,423.9114],[-67.7657,10.1251,411.5],[-67.7495,10.1276,411.5],[-67.7291,10.1242,411.5],[-67.7124,10.1244,421.2746],[-67.7088,10.1226,411.5],[-67.7015,10.1136,474.9455],[-67.6955,10.1102,453.9014],[-67.688,10.1102,521.0107],[-67.6823,10.1152,563.433],[-67.6822,10.1233,449.161],[-67.6888,10.1413,411.5],[-67.6874,10.1541,411.5],[-67.6817,10.1568,411.5],[-67.6706,10.1576,411.5],[-67.6572,10.1527,411.5],[-67.6357,10.1489,411.5],[-67.6186,10.1545,411.5],[-67.6066,10.1615,411.5],[-67.6039,10.1615,411.5],[-67.6016,10.1561,415.1448],[-67.6031,10.1362,414.1686],[-67.602,10.1299,413.7279],[-67.6005,10.1254,414.458],[-67.5949,10.1224,422.1814],[-67.5904,10.1235,422.0415],[-67.586,10.1375,421.7844],[-67.5825,10.1369,421.7374],[-67.5769,10.1306,423.9307],[-67.5715,10.1282,423.4],[-67.567,10.1293,424.221],[-67.5649,10.1338,425.8427],[-67.5619,10.1546,429.0876],[-67.5654,10.1871,425.5288],[-67.5551,10.198,431.6025],[-67.5533,10.2039,433.8277],[-67.5559,10.2096,434.2778],[-67.5587,10.2118,432.7888]]]]}
,"properties": {"GID_2": "VEN.7.6_1","GID_0": "VEN","country": "Venezuela","GID_1": "VEN.7_1","province": "Carabobo","NL_NAME_1": "NA","county": "LagoValencia","VARNAME_2": "NA","NL_NAME_2": "NA","TYPE_2": "WaterBody","ENGTYPE_2": "WaterBody","CC_2": "NA","HASC_2": "NA","name": "Lago_Valencia.county","area_km2": 388.9092,"hist_schema_id": "Elevation0-9000","hist_area_km2": {"400": 299.4736,"425": 76.0379,"450": 4.1106,"475": 2.6294,"500": 2.1287,"525": 1.8574,"550": 1.3566,"575": 0.9601,"600": 0.3548}}}