{"type": "Feature","bbox": [-62.3242,6.0667,-61.3424,7.7539],"geometry": {"type": "MultiPolygon","coordinates": [[[[-61.4483,7.4841,210.0038],[-61.4301,7.5144,195.0807],[-61.4075,7.5406,203.1785],[-61.3883,7.56,203.0458],[-61.3785,7.5736,227.475],[-61.3514,7.6015,226.5288],[-61.3424,7.615,214.1821],[-61.3621,7.6224,211.8614],[-61.3684,7.6264,206.7892],[-61.3856,7.6378,218.8606],[-61.4038,7.6539,265.6413],[-61.4386,7.6891,547.5344],[-61.4637,7.7221,597.3175],[-61.4912,7.7476,591.9382],[-61.4938,7.7523,480.4723],[-61.5414,7.7539,365.1082],[-61.5617,7.7465,494.0652],[-61.5797,7.7437,458.4193],[-61.587,7.7345,516.0022],[-61.5953,7.7273,452.2856],[-61.6139,7.7223,439.416],[-61.6239,7.7134,445.0192],[-61.6375,7.6913,441.2446],[-61.6495,7.6636,263.0802],[-61.662,7.6455,248.576],[-61.6668,7.6323,234.0475],[-61.6724,7.6246,231.1761],[-61.6765,7.6137,222.4506],[-61.6756,7.5978,237.4323],[-61.6701,7.5634,212.2304],[-61.6624,7.5294,214.8638],[-61.6566,7.5123,215.6805],[-61.6538,7.4744,187.4111],[-61.651,7.4611,252.062],[-61.6436,7.4449,185.3502],[-61.622,7.4094,183.255],[-61.607,7.3751,186.5705],[-61.6022,7.3678,170.5975],[-61.6643,7.3726,167.4524],[-61.6757,7.3754,158.9718],[-61.6956,7.3875,161.9747],[-61.7187,7.4103,183.4546],[-61.7296,7.4252,170.1613],[-61.733,7.435,182.7319],[-61.7333,7.4591,177.8088],[-61.735,7.4708,208.9906],[-61.738,7.4797,196.5496],[-61.7428,7.4867,192.398],[-61.7556,7.4968,193.4622],[-61.7669,7.5034,184.5878],[-61.774,7.5107,183.9334],[-61.7779,7.5174,200.4297],[-61.7849,7.5227,191.5829],[-61.8009,7.5316,186.019],[-61.8305,7.5424,216.1173],[-61.8388,7.5475,220.0173],[-61.8526,7.5599,199.4226],[-61.8632,7.5641,206.5609],[-61.9105,7.5701,212.7432],[-61.9195,7.5696,207.199],[-61.9267,7.5646,217.1651],[-61.9335,7.549,203.709],[-61.9389,7.5419,205.0721],[-61.9651,7.5169,199.1471],[-61.9756,7.4902,204.5182],[-61.9831,7.4859,199.942],[-61.9928,7.484,198.0056],[-62.0199,7.4828,227.3882],[-62.0321,7.484,204.0577],[-62.0498,7.4911,185.0915],[-62.0657,7.5009,184.9928],[-62.0753,7.5015,197.0508],[-62.0834,7.4996,186.2904],[-62.0938,7.4927,178.7263],[-62.1052,7.476,177.0908],[-62.1118,7.4716,181.6151],[-62.1249,7.4662,193.177],[-62.1341,7.4547,199.9593],[-62.1358,7.4433,200.4389],[-62.0852,7.2041,263.4582],[-62.0873,7.1918,326.6971],[-62.0655,7.038,186.1586],[-62.062,6.9938,188.2924],[-62.0558,6.9578,302.076],[-62.0472,6.9259,335.7022],[-62.0351,6.8481,337.9962],[-62.0363,6.8186,191.9336],[-62.0344,6.806,182.7662],[-62.0214,6.7853,174.3701],[-62.0017,6.7647,172.8912],[-61.9937,6.7594,174.7388],[-61.9819,6.7561,338.7221],[-61.9612,6.7568,261.7077],[-61.9541,6.7554,230.3548],[-61.9445,6.7506,162.7254],[-61.9142,6.7254,147.7315],[-61.9033,6.7117,161.2371],[-61.8979,6.7015,195.4224],[-61.8953,6.6911,212.0541],[-61.8938,6.6405,192.991],[-61.8858,6.6145,213.9104],[-61.8853,6.6006,267.3743],[-61.8884,6.5928,300.4479],[-61.896,6.5834,263.2855],[-61.9024,6.5781,183.2795],[-61.9416,6.5603,171.7484],[-61.9671,6.5426,179.3185],[-62.028,6.5118,172.1423],[-62.0534,6.4903,164.8507],[-62.0765,6.4807,157.9831],[-62.1206,6.4563,179.4438],[-62.1436,6.4401,161.6847],[-62.1609,6.4234,173.4065],[-62.1856,6.4076,164.9486],[-62.197,6.4075,196.3451],[-62.228,6.4139,228.9231],[-62.2337,6.4219,234.3644],[-62.2552,6.4441,305.7751],[-62.2741,6.4538,293.4236],[-62.302,6.457,253.0094],[-62.316,6.4549,315.9797],[-62.3219,6.449,344.9818],[-62.3242,6.432,240.4344],[-62.3175,6.3975,457.8774],[-62.3211,6.3717,566.5123],[-62.3209,6.3619,624.0779],[-62.3168,6.3423,647.1181],[-62.3095,6.3257,611.1882],[-62.2874,6.2834,1044.7965],[-62.2822,6.2789,1023.1871],[-62.2723,6.2744,689.0206],[-62.2558,6.2717,833.8369],[-62.2428,6.2677,855.8417],[-62.2287,6.2535,866.1685],[-62.2212,6.2411,707.9684],[-62.2181,6.228,646.3032],[-62.2161,6.1958,876.6085],[-62.2174,6.184,781.0204],[-62.2222,6.1648,719.6323],[-62.2316,6.1435,774.4415],[-62.232,6.1366,889.5754],[-62.2076,6.1023,941.6236],[-62.184,6.085,560.2335],[-62.165,6.0748,504.6978],[-62.1534,6.0667,508.2874],[-62.1388,6.086,503.9739],[-62.1229,6.1005,821.1427],[-62.0876,6.1249,802.2361],[-62.0665,6.1344,188.3008],[-62.0565,6.141,154.1951],[-62.035,6.1627,158.3049],[-62.0314,6.1721,148.7311],[-62.0311,6.1792,160.3215],[-62.0336,6.1938,150.9559],[-62.0326,6.2009,143.3651],[-62.0264,6.2165,151.3932],[-62.0192,6.2256,145.3355],[-62.0034,6.2391,146.6858],[-61.9967,6.2486,144.7015],[-61.9811,6.281,156.0149],[-61.973,6.2924,211.3819],[-61.9473,6.3128,549.2894],[-61.8962,6.3772,182.1833],[-61.8866,6.3859,168.9769],[-61.8779,6.3914,172.3182],[-61.8419,6.4015,333.8838],[-61.8333,6.4055,169.0335],[-61.8154,6.4222,141.3414],[-61.7783,6.4623,147.5188],[-61.7463,6.4868,135.6108],[-61.7325,6.4942,142.936],[-61.7057,6.5146,130.3713],[-61.6689,6.5474,137.8052],[-61.6418,6.5751,139.6393],[-61.6256,6.5971,150.128],[-61.6188,6.6116,158.9974],[-61.6147,6.6248,178.8686],[-61.611,6.6304,152.2863],[-61.5979,6.6367,152.348],[-61.605,6.6463,158.3316],[-61.6108,6.6578,144.551],[-61.6291,6.7061,118.9428],[-61.658,6.7541,157.9942],[-61.6714,6.7913,146.9827],[-61.6735,6.8082,154.2606],[-61.6732,6.8646,208.1027],[-61.6633,6.9245,158.9509],[-61.664,6.9362,149.5878],[-61.6688,6.9489,129.1997],[-61.6764,6.9579,167.425],[-61.6791,6.9652,149.0849],[-61.6776,6.9734,157.8887],[-61.6696,6.9952,159.3116],[-61.6684,7.0179,157.6084],[-61.6725,7.035,147.1198],[-61.6999,7.0765,160.4167],[-61.7075,7.0977,159.5649],[-61.7085,7.1053,164.4482],[-61.7063,7.1179,172.8164],[-61.6981,7.1395,179.8791],[-61.6841,7.1617,170.6256],[-61.6504,7.1975,158.213],[-61.6344,7.212,145.6337],[-61.6048,7.2341,157.1199],[-61.5899,7.2401,160.6953],[-61.5663,7.2468,174.3011],[-61.5549,7.2538,169.3597],[-61.5499,7.2599,168.4078],[-61.5424,7.2788,203.1838],[-61.5383,7.2977,198.3456],[-61.5284,7.3665,168.2926],[-61.5204,7.4083,169.2254],[-61.5032,7.4541,176.5723],[-61.4985,7.4626,175.076],[-61.4894,7.4721,180.3449],[-61.4807,7.4771,180.7669],[-61.4599,7.485,196.2364],[-61.4483,7.4841,210.0038]]]]}
,"properties": {"GID_2": "VEN.6.9_1","GID_0": "VEN","country": "Venezuela","GID_1": "VEN.6_1","province": "Bolívar","NL_NAME_1": "NA","county": "Roscio","VARNAME_2": "NA","NL_NAME_2": "NA","TYPE_2": "Municipio","ENGTYPE_2": "Municipality","CC_2": "NA","HASC_2": "NA","name": "Roscio.county","area_km2": 7230.984,"hist_schema_id": "Elevation0-9000","hist_area_km2": {"100": 0.484,"125": 168.54,"150": 1204.275,"175": 2193.796,"200": 1138.509,"225": 547.651,"250": 243.128,"275": 159.096,"300": 110.429,"325": 91.078,"350": 86.432,"375": 85.196,"400": 77.285,"425": 69.773,"450": 91.542,"475": 202.117,"500": 82.219,"525": 65.298,"550": 49.545,"575": 43.192,"600": 41.07,"625": 49.865,"650": 53.667,"675": 32.327,"700": 23.335,"725": 24.877,"750": 23.394,"775": 27.104,"800": 30.141,"825": 30.099,"850": 32.186,"875": 27.591,"900": 24.176,"925": 22.68,"950": 16.461,"975": 16.797,"1000": 19.769,"1025": 10.032,"1050": 9.188,"1075": 4.973,"1100": 1.454,"1125": 0.211}}}