{"type":"Feature","properties":{"GID_2":"VEN.12.15_1","GID_0":"VEN","country":"Venezuela","GID_1":"VEN.12_1","province":"Falcón","NL_NAME_1":"NA","county":"MonseñorIturriza","VARNAME_2":"NA","NL_NAME_2":"NA","TYPE_2":"Municipio","ENGTYPE_2":"Municipality","CC_2":"NA","HASC_2":"NA","name":"Monseñor_Iturriza.county"},
"geometry":{"type": "MultiPolygon","coordinates": [[[[-68.4187,10.9978,8.9643],[-68.4413,10.9891,13.4229],[-68.4592,10.9712,11.2725],[-68.48,10.9446,17.2458],[-68.4991,10.9258,18.3456],[-68.5705,10.9309,25.1404],[-68.5995,10.9264,28.8265],[-68.6311,10.9261,29.6693],[-68.6923,10.913,45.3561],[-68.7,10.9096,40.1761],[-68.7149,10.8967,44.0644],[-68.7406,10.8901,105.5473],[-68.7555,10.8844,86.2489],[-68.7839,10.8679,105.0879],[-68.7985,10.8569,136.5623],[-68.8107,10.8454,72.5883],[-68.8243,10.8273,81.6559],[-68.8572,10.8019,61.4325],[-68.8722,10.7964,72.2621],[-68.8797,10.7889,56.8142],[-68.8893,10.772,61.3906],[-68.9016,10.7567,61.2286],[-68.9058,10.7445,86.6235],[-68.9058,10.7395,79.8985],[-68.901,10.73,100.2247],[-68.8883,10.7299,198.1673],[-68.8807,10.7248,128.5861],[-68.8674,10.7078,113.8403],[-68.866,10.7076,113.8403],[-68.8407,10.7111,129.0399],[-68.8247,10.7159,149.2364],[-68.8051,10.725,332.6023],[-68.7864,10.7392,302.0747],[-68.7641,10.7601,189.355],[-68.7502,10.7638,151.0315],[-68.7098,10.7566,201.3329],[-68.69,10.7549,174.1617],[-68.6475,10.7571,361.2883],[-68.6328,10.76,399.5359],[-68.6091,10.7679,445.2087],[-68.6022,10.7687,371.7736],[-68.5993,10.7633,266.7416],[-68.6013,10.781,502.8481],[-68.5988,10.8006,291.2377],[-68.5901,10.8298,363.3839],[-68.5835,10.8411,412.7656],[-68.5629,10.8565,420.9763],[-68.5423,10.8786,132.2776],[-68.5342,10.8834,107.4547],[-68.5205,10.8831,63.8247],[-68.5053,10.8801,44.2325],[-68.4593,10.8592,396.8776],[-68.4438,10.8577,298.5949],[-68.3911,10.8633,157.2983],[-68.3646,10.8751,25.1339],[-68.3497,10.8848,32.572],[-68.3447,10.8841,61.1538],[-68.3316,10.8774,157.7927],[-68.2962,10.8746,181.1191],[-68.2729,10.8706,187.7555],[-68.2607,10.8663,136.8599],[-68.2476,10.8593,72.7792],[-68.2399,10.8493,0.7158],[-68.236,10.8524,1.1604],[-68.2282,10.8529,3.2995],[-68.2274,10.8587,0.0],[-68.224,10.8585,0.5975],[-68.2246,10.8546,0.7927],[-68.2268,10.854,0.0],[-68.2268,10.8524,3.935],[-68.2229,10.8546,1.9708],[-68.2213,10.8515,0.0],[-68.2185,10.8549,0.0],[-68.2179,10.8604,2.3339],[-68.2207,10.8571,1.4398],[-68.2229,10.8571,2.2715],[-68.2207,10.859,0.0],[-68.2215,10.8638,0.7367],[-68.2185,10.8665,0.0],[-68.219,10.8707,1.1979],[-68.2201,10.8707,0.0],[-68.2193,10.8674,0.3419],[-68.2207,10.866,0.6615],[-68.2243,10.8676,0.6875],[-68.2276,10.8635,15.1231],[-68.2315,10.8629,1.0286],[-68.2315,10.8643,1.3841],[-68.2296,10.8679,0.8397],[-68.2274,10.8662,0.0],[-68.2218,10.869,0.8351],[-68.2218,10.8718,0.6887],[-68.2262,10.8785,0.5107],[-68.2226,10.8776,0.384],[-68.2235,10.8751,1.4973],[-68.2213,10.8726,0.7997],[-68.2185,10.8724,1.258],[-68.2176,10.8671,0.3419],[-68.2157,10.8654,0.6458],[-68.2162,10.8782,1.3224],[-68.2207,10.879,0.0],[-68.2221,10.8779,0.384],[-68.2249,10.8793,0.0],[-68.2271,10.8785,0.5107],[-68.2271,10.8824,1.2751],[-68.2237,10.8837,0.0],[-68.2246,10.8865,0.7685],[-68.2321,10.8857,5.3445],[-68.2404,10.8904,6.7658],[-68.2457,10.901,0.0],[-68.2507,10.9054,1.5466],[-68.2513,10.9093,1.478],[-68.2474,10.9121,1.6575],[-68.2471,10.9146,1.7471],[-68.2535,10.919,0.0],[-68.2585,10.921,0.0],[-68.261,10.9185,0.0],[-68.2554,10.9143,1.6373],[-68.2532,10.9104,1.0829],[-68.2551,10.9046,0.554],[-68.251,10.9035,0.8344],[-68.2532,10.9024,0.3127],[-68.2549,10.8979,1.2125],[-68.2571,10.8979,0.0],[-68.2579,10.894,0.3648],[-68.2637,10.894,1.8462],[-68.2838,10.899,8.2844],[-68.2932,10.9035,11.5318],[-68.3007,10.9046,40.5164],[-68.3115,10.9087,12.7835],[-68.3151,10.9085,49.4253],[-68.3163,10.9121,0.0],[-68.319,10.9129,7.5187],[-68.3204,10.9157,0.0],[-68.3324,10.9129,3.3664],[-68.3418,10.9074,1.5906],[-68.3487,10.9065,2.8254],[-68.3487,10.9099,0.0],[-68.3565,10.9143,0.0],[-68.3571,10.9182,0.0],[-68.364,10.919,0.4515],[-68.3646,10.9224,3.2209],[-68.3626,10.9276,1.6005],[-68.364,10.9301,4.9011],[-68.3629,10.9312,1.2127],[-68.3487,10.9324,3.2393],[-68.3432,10.9301,0.0],[-68.3399,10.9329,3.0376],[-68.3368,10.9324,1.7312],[-68.334,10.934,5.1543],[-68.3321,10.9321,3.9063],[-68.3246,10.9332,0.0],[-68.3201,10.9368,0.869],[-68.3171,10.9371,4.8531],[-68.3154,10.9338,2.5379],[-68.3107,10.9326,0.9113],[-68.309,10.9301,0.0],[-68.3043,10.9312,1.4365],[-68.3001,10.9288,0.5264],[-68.294,10.9288,1.587],[-68.294,10.926,0.0],[-68.2901,10.9265,1.0844],[-68.2874,10.9249,0.0],[-68.2887,10.9179,0.6681],[-68.2937,10.9188,0.0],[-68.296,10.9163,0.0],[-68.2926,10.9157,0.5128],[-68.2826,10.909,1.6298],[-68.2793,10.9038,0.5813],[-68.2679,10.9035,0.0],[-68.2629,10.9049,0.0],[-68.2618,10.9068,0.0],[-68.2643,10.9101,0.1991],[-68.269,10.9079,0.9749],[-68.2718,10.9107,0.0],[-68.2749,10.9207,2.2658],[-68.2735,10.9235,1.2837],[-68.2679,10.9263,0.2077],[-68.2704,10.9346,0.0],[-68.2807,10.9432,0.0],[-68.2832,10.9482,0.9701],[-68.2857,10.949,0.5778],[-68.2935,10.9632,1.853],[-68.3037,10.9763,2.7778],[-68.3174,11.0015,0.177],[-68.3299,11.0332,1.5854],[-68.3337,11.0535,0.0],[-68.3362,11.0591,0.248],[-68.384,11.047,3.6516],[-68.3974,11.0462,6.8048],[-68.3992,11.0392,6.674],[-68.3908,11.0176,6.7849],[-68.394,11.0068,9.2753],[-68.4187,10.9978,8.9643]]],
[[[-68.2601,10.9304,2.7856],[-68.2618,10.931,0.9445],[-68.2621,10.9293,4.5648],[-68.2593,10.929,2.7856],[-68.2601,10.9304,2.7856]]],
[[[-68.2601,10.9454,0.0],[-68.2604,10.9465,0.0],[-68.2665,10.9457,0.0],[-68.2654,10.9424,0.0],[-68.2643,10.9429,0.6389],[-68.2596,10.9385,0.0],[-68.2574,10.9387,0.0],[-68.2543,10.9443,0.0],[-68.2601,10.9454,0.0]]],
[[[-68.2465,10.9715,0.0],[-68.2429,10.9749,0.0],[-68.2426,10.9771,0.0],[-68.2476,10.9729,0.5966],[-68.2465,10.9715,0.0]]],
[[[-68.216,10.8638,0.6458],[-68.2176,10.864,0.0],[-68.2174,10.8615,0.0],[-68.2165,10.8618,0.0],[-68.216,10.8638,0.6458]]],
[[[-68.2115,10.8718,2.5854],[-68.2135,10.8724,0.0],[-68.2149,10.8712,0.0],[-68.2118,10.8699,0.0],[-68.2115,10.8718,2.5854]]],
[[[-68.2082,10.8868,1.1498],[-68.2099,10.8874,0.0],[-68.2115,10.8829,0.0],[-68.2076,10.8785,1.9511],[-68.2074,10.8757,0.0],[-68.2051,10.8746,0.0],[-68.2068,10.8776,2.3544],[-68.2057,10.881,0.0],[-68.2074,10.8821,0.0],[-68.2068,10.8854,0.0],[-68.2082,10.8868,1.1498]]],
[[[-67.9999,11.0001,0.0],[-68.0001,11.0001,0.0],[-68.0001,10.9999,0.0],[-67.9999,10.9999,0.0],[-67.9999,11.0001,0.0]]]]}}