{"type": "Feature","bbox": [-67.4443,10.1174,-67.3172,10.208],"geometry": {"type": "MultiPolygon","coordinates": [[[[-67.3936,10.208,538.3448],[-67.4054,10.1976,556.257],[-67.4128,10.1938,580.488],[-67.4295,10.1893,574.2423],[-67.4443,10.1904,587.8282],[-67.4443,10.1419,446.7974],[-67.4375,10.1407,458.9374],[-67.4104,10.1279,872.1597],[-67.3697,10.1175,936.7498],[-67.3623,10.1174,833.9518],[-67.3549,10.1185,967.7585],[-67.331,10.1384,1148.3972],[-67.3172,10.1426,953.4424],[-67.3203,10.1454,922.2005],[-67.3291,10.1484,896.7722],[-67.3387,10.1589,798.6178],[-67.3526,10.1641,949.9421],[-67.3587,10.168,957.2436],[-67.3631,10.1725,826.643],[-67.3668,10.1829,593.5669],[-67.3743,10.1951,533.0008],[-67.3743,10.1987,528.3141],[-67.3881,10.2036,516.5],[-67.3936,10.208,538.3448]]]]}
,"properties": {"GID_2": "VEN.4.15_1","GID_0": "VEN","country": "Venezuela","GID_1": "VEN.4_1","province": "Aragua","NL_NAME_1": "NA","county": "Sucre","VARNAME_2": "NA","NL_NAME_2": "NA","TYPE_2": "Municipio","ENGTYPE_2": "Municipality","CC_2": "NA","HASC_2": "NA","name": "Sucre.county","area_km2": 81.24639,"hist_schema_id": "Elevation0-9000","hist_area_km2": {"450": 6.86615,"475": 2.08702,"500": 0.98088,"525": 15.79719,"550": 6.53199,"575": 3.8817,"600": 3.40176,"625": 2.46263,"650": 2.12872,"675": 1.98263,"700": 1.54438,"725": 1.66961,"750": 2.0244,"775": 1.64874,"800": 1.46091,"825": 1.48179,"850": 1.35658,"875": 1.12702,"900": 1.35659,"925": 1.46096,"950": 1.81578,"975": 1.79491,"1000": 1.83667,"1025": 2.04539,"1050": 2.21238,"1075": 2.62981,"1100": 2.275,"1125": 1.44012,"1150": 1.21054,"1175": 1.02269,"1200": 0.77224,"1225": 0.25046,"1250": 0.22959,"1275": 0.25046,"1300": 0.10436,"1325": 0.06262,"1350": 0.04174}}}