{"type": "Feature","id": "36","bbox": [-69.23771,9.85108,-68.25174,10.7365],"geometry": {"type": "Polygon","coordinates": [[[-68.65464,10.73255,378.5271],[-68.66777,10.73588,329.6418],[-68.70815,10.7365,227.2921],[-68.71534,10.73495,290.5595],[-68.72373,10.73232,232.47],[-68.7352,10.72679,296.028],[-68.74652,10.72617,305.1881],[-68.75324,10.72774,296.4366],[-68.76295,10.73278,447.1043],[-68.76921,10.73247,405.1122],[-68.7766,10.72937,452.1347],[-68.7867,10.71973,319.5681],[-68.79202,10.71345,348.762],[-68.80339,10.69428,435.2558],[-68.80928,10.68622,311.0745],[-68.82654,10.67715,246.4708],[-68.88551,10.65953,133.9503],[-68.88463,10.64643,137.7808],[-68.88656,10.62121,194.4992],[-68.88817,10.61571,187.9283],[-68.89246,10.60615,173.7443],[-68.90114,10.59801,305.4007],[-68.94827,10.56504,546.4524],[-68.96439,10.55688,675.2202],[-68.97638,10.553,742.8497],[-68.9972,10.55874,748.3245],[-69.00082,10.5593,720.7953],[-69.00519,10.55938,736.3074],[-69.01005,10.55827,739.3493],[-69.0201,10.55478,704.671],[-69.02591,10.5485,769.8751],[-69.03172,10.53796,718.7161],[-69.04361,10.49993,545.8911],[-69.04614,10.48318,726.3412],[-69.04857,10.47768,712.699],[-69.05291,10.47347,659.7767],[-69.06686,10.46882,733.251],[-69.07022,10.46145,818.5629],[-69.07208,10.43794,829.8462],[-69.07146,10.43042,800.016],[-69.06841,10.42461,667.9645],[-69.06056,10.41926,909.4304],[-69.05363,10.41776,737.2542],[-69.04749,10.41823,729.3915],[-69.03405,10.42492,650.8553],[-69.02979,10.426,590.7086],[-69.02718,10.42306,508.3451],[-69.0257,10.41683,472.9964],[-69.03273,10.36735,501.4942],[-69.03157,10.35717,544.2974],[-69.0287,10.34399,696.9611],[-69.0134,10.29457,1070.7556],[-69.01325,10.2609,1331.2092],[-69.01498,10.24842,1490.8206],[-69.02914,10.24204,1301.9294],[-69.03513,10.23367,1167.2729],[-69.03767,10.23111,1227.584],[-69.04201,10.22909,1307.3887],[-69.048,10.23157,1327.3877],[-69.05503,10.23227,1329.2073],[-69.06655,10.2318,1350.6108],[-69.07622,10.22894,1313.1288],[-69.118,10.20271,1024.0687],[-69.12327,10.19759,1036.5258],[-69.1264,10.19178,890.8182],[-69.12831,10.17966,938.9912],[-69.13136,10.16873,779.9164],[-69.13337,10.16377,690.1471],[-69.13828,10.15468,590.3925],[-69.14443,10.147,586.2549],[-69.15458,10.13669,579.6472],[-69.15916,10.13062,564.0087],[-69.16208,10.12806,546.2635],[-69.16681,10.12636,528.1777],[-69.1751,10.12791,564.9153],[-69.1819,10.13303,507.3583],[-69.19985,10.15964,583.7424],[-69.21957,10.17183,578.1901],[-69.22732,10.16615,559.6183],[-69.23342,10.15879,555.6001],[-69.23561,10.15468,530.1],[-69.23709,10.15034,521.3896],[-69.23755,10.14708,514.2349],[-69.23771,10.14243,507.8998],[-69.23623,10.12977,493.425],[-69.23466,10.1252,496.209],[-69.22747,10.11013,426.3211],[-69.21094,10.08703,378.1924],[-69.20851,10.08261,378.4188],[-69.20288,10.07445,372.3782],[-69.17084,10.04419,381.0536],[-69.14647,10.01355,374.4123],[-69.14151,10.00533,388.6018],[-69.13911,10.00029,348.0897],[-69.13756,9.9943,344.2794],[-69.13701,9.9888,317.3863],[-69.14092,9.94497,417.4514],[-69.14043,9.93883,359.4535],[-69.13921,9.9334,358.4977],[-69.13727,9.92852,361.3957],[-69.13472,9.92417,361.1922],[-69.12859,9.9165,367.9612],[-69.11428,9.90307,357.8132],[-69.11141,9.89896,378.3417],[-69.10901,9.89446,383.1824],[-69.1066,9.88493,383.3265],[-69.10531,9.88203,354.3937],[-69.10237,9.87909,356.4861],[-69.09782,9.87668,358.1919],[-69.09066,9.87575,365.9811],[-69.08472,9.8794,364.4804],[-69.07947,9.88601,348.4764],[-69.07343,9.89996,337.2904],[-69.07118,9.9088,316.8015],[-69.07056,9.91658,330.7025],[-69.07353,9.94234,355.2461],[-69.07307,9.95242,484.2421],[-69.07195,9.95815,384.5544],[-69.05376,9.97337,272.6745],[-68.97912,10.00983,262.6378],[-68.95881,10.00022,261.2581],[-68.95209,9.9826,265.4246],[-68.93331,9.94567,331.0304],[-68.92643,9.93877,320.0981],[-68.92447,9.93503,365.8648],[-68.92488,9.93076,339.3416],[-68.95266,9.90345,237.277],[-68.96258,9.88911,235.3762],[-68.97772,9.85728,231.5077],[-68.88501,9.85108,429.2073],[-68.85889,9.85317,526.0969],[-68.85478,9.85604,455.4956],[-68.85179,9.86002,463.6788],[-68.8499,9.86351,418.4578],[-68.84827,9.87033,414.4071],[-68.8407,9.88601,402.1943],[-68.82504,9.90361,635.7867],[-68.82143,9.91159,693.7272],[-68.81913,9.92138,707.4863],[-68.81794,9.93162,654.9369],[-68.81386,9.9487,839.3452],[-68.80941,9.95621,732.6195],[-68.80432,9.96087,742.4206],[-68.79326,9.96358,606.4682],[-68.74931,9.96709,624.6038],[-68.7435,9.96694,747.2084],[-68.72712,9.96156,900.9065],[-68.70813,9.96544,751.0282],[-68.70149,9.96583,845.4431],[-68.6964,9.96474,992.9434],[-68.68926,9.96459,1150.8101],[-68.68123,9.9659,1207.9829],[-68.6697,9.9688,1363.6113],[-68.66175,9.97322,1475.187],[-68.65671,9.97748,1412.05],[-68.65108,9.98918,1293.3934],[-68.64673,9.9965,1293.4529],[-68.63736,10.00681,1430.6631],[-68.62994,10.01037,1485.2109],[-68.62302,10.01138,1463.3501],[-68.59056,10.00952,1190.9753],[-68.58576,10.00758,1272.6785],[-68.58224,10.00502,1257.3328],[-68.58054,10.002,1203.1167],[-68.57979,10.00006,1143.9143],[-68.57979,9.99789,1174.1567],[-68.58018,9.99368,1319.2576],[-68.58555,9.97918,1373.9606],[-68.58682,9.9736,1229.9518],[-68.58692,9.96745,1139.8513],[-68.58599,9.96187,1138.1268],[-68.58428,9.95683,1173.3252],[-68.58211,9.95211,1024.3455],[-68.5794,9.94784,794.577],[-68.57622,9.9442,935.1617],[-68.57258,9.94094,915.5673],[-68.56834,9.93813,905.8715],[-68.55834,9.93417,566.2065],[-68.53648,9.92774,718.1664],[-68.53157,9.9258,550.0958],[-68.52829,9.92301,417.328],[-68.52757,9.91968,638.512],[-68.53018,9.91681,395.5506],[-68.53382,9.91392,390.5116],[-68.53801,9.91123,401.7558],[-68.54162,9.90803,569.5624],[-68.54297,9.90438,599.806],[-68.54064,9.9002,497.1575],[-68.53013,9.89655,429.8604],[-68.52256,9.89586,450.6283],[-68.51553,9.89648,613.2808],[-68.50395,9.90051,533.9925],[-68.48716,9.90927,411.7359],[-68.40603,9.96988,631.5836],[-68.3705,9.99004,516.0633],[-68.39055,10.00681,718.137],[-68.3968,10.01843,729.1252],[-68.39972,10.04102,638.0812],[-68.40318,10.05453,614.502],[-68.40747,10.06182,778.3812],[-68.41313,10.06825,725.7626],[-68.41515,10.07391,715.0751],[-68.41577,10.08006,720.4506],[-68.41311,10.09835,723.3901],[-68.42318,10.17292,627.5538],[-68.42251,10.18315,640.7216],[-68.41988,10.18757,655.8796],[-68.38365,10.23467,1325.6257],[-68.36988,10.24925,1585.4254],[-68.36161,10.2609,1508.9749],[-68.39411,10.35818,367.1848],[-68.38954,10.49349,12.9978],[-68.38528,10.5098,9.2338],[-68.37729,10.5299,6.9578],[-68.36985,10.54199,6.2289],[-68.36642,10.54548,5.5384],[-68.36267,10.54858,5.3408],[-68.35835,10.55106,6.6637],[-68.35324,10.55277,5.7751],[-68.3473,10.55331,3.9761],[-68.34125,10.55284,6.0018],[-68.33608,10.55106,3.9783],[-68.319,10.54067,10.9206],[-68.31435,10.53943,12.9918],[-68.3096,10.54036,12.0492],[-68.29182,10.54912,3.9817],[-68.28169,10.55858,1.8279],[-68.25523,10.59398,4.3815],[-68.25174,10.59512,5.3169],[-68.27375,10.63421,4.0391],[-68.51938,10.63858,39.1674],[-68.59139,10.67831,69.8338],[-68.59635,10.70315,88.628],[-68.59635,10.72051,120.8364],[-68.61371,10.72798,124.6962],[-68.63358,10.73294,218.6917],[-68.65464,10.73255,378.5271]]]}
,"properties": {"ISO3166-1-Alpha-3": "VEN","country": "Venezuela","fill": "#F00","name": "Yaracuy","area_km2": 6187.339,"hist_schema_id": "Elevation0-9000","hist_area_km2": {"0": 161.819,"25": 393.39,"50": 212.509,"75": 221.509,"100": 202.098,"125": 179.336,"150": 155.846,"175": 135.19,"200": 140.889,"225": 139.634,"250": 138.968,"275": 215.466,"300": 201.796,"325": 196.126,"350": 205.967,"375": 182.329,"400": 151.156,"425": 132.148,"450": 122.233,"475": 115.096,"500": 109.526,"525": 106.105,"550": 99.885,"575": 98.761,"600": 98.511,"625": 106.57,"650": 103.147,"675": 96.511,"700": 93.632,"725": 89.582,"750": 114.127,"775": 106.302,"800": 105.425,"825": 95.327,"850": 91.969,"875": 88.696,"900": 81.286,"925": 78.154,"950": 71.456,"975": 65.967,"1000": 60.854,"1025": 60.417,"1050": 54.197,"1075": 53.028,"1100": 46.578,"1125": 41.38,"1150": 38.646,"1175": 33.992,"1200": 31.485,"1225": 27.855,"1250": 25.747,"1275": 25.288,"1300": 21.469,"1325": 19.069,"1350": 17.253,"1375": 16.606,"1400": 13.727,"1425": 13.769,"1450": 12.768,"1475": 11.181,"1500": 8.949,"1525": 7.426,"1550": 5.882,"1575": 5.882,"1600": 4.818,"1625": 4.734,"1650": 3.858,"1675": 2.607,"1700": 2.565,"1725": 3.17,"1750": 2.419,"1775": 1.564,"1800": 1.022,"1825": 0.855,"1850": 0.959,"1875": 0.542,"1900": 0.167,"1925": 0.104,"1950": 0.063}}}