{"type": "Feature","bbox": [-69.181,9.8949,-68.2399,10.7687],"geometry": {"type": "MultiPolygon","coordinates": [[[[-69.0688,10.2916,839.8596],[-69.0804,10.2735,1077.8723],[-69.1029,10.2596,1001.7032],[-69.1504,10.2453,764.5922],[-69.1689,10.2363,702.5004],[-69.1773,10.2264,688.0524],[-69.181,10.2115,703.7928],[-69.1806,10.1992,664.2965],[-69.1725,10.1583,545.8],[-69.1519,10.1186,439.2821],[-69.1429,10.1115,399.8171],[-69.1108,10.0955,447.5551],[-69.1,10.0847,427.5704],[-69.0969,10.0689,366.2967],[-69.0991,10.0513,321.1596],[-69.104,10.0323,303.5853],[-69.1019,10.0157,433.6628],[-69.0877,9.9932,302.1754],[-69.0821,9.9823,282.571],[-69.0716,9.9541,462.3239],[-69.0621,9.9389,314.2132],[-69.0557,9.9359,313.3267],[-69.0498,9.9422,285.3654],[-69.0471,10.0033,274.9395],[-69.0454,10.0124,276.2397],[-69.0385,10.021,274.7181],[-69.0267,10.0276,283.7718],[-69.0065,10.0332,271.9477],[-68.9932,10.0389,272.4907],[-68.9414,10.0684,719.783],[-68.931,10.0706,950.5139],[-68.9173,10.0662,984.0544],[-68.898,10.0343,604.8414],[-68.889,10.0257,422.1358],[-68.8697,10.0133,297.3448],[-68.862,10.0023,463.9866],[-68.8642,9.9932,411.7224],[-68.8714,9.9864,520.4878],[-68.9015,9.9707,319.0824],[-68.9121,9.9608,377.4386],[-68.9193,9.9498,334.8923],[-68.9286,9.9259,321.6853],[-68.9301,9.9105,303.7935],[-68.9287,9.9027,262.5652],[-68.9218,9.8976,310.4773],[-68.9219,9.8949,276.6019],[-68.9111,9.8966,267.4028],[-68.8873,9.9101,429.9932],[-68.872,9.9124,548.3994],[-68.858,9.9109,518.6663],[-68.8495,9.9073,616.1607],[-68.8289,9.9022,595.0727],[-68.7887,9.9,635.1779],[-68.7533,9.9042,616.9631],[-68.7299,9.9092,735.2815],[-68.7021,9.9183,671.2921],[-68.6737,9.9306,1010.5549],[-68.6538,9.9448,788.3253],[-68.6183,9.9912,1357.7234],[-68.6006,10.0067,1170.8492],[-68.5809,10.0159,1244.6584],[-68.5601,10.0197,1230.6882],[-68.5405,10.0179,1084.1691],[-68.5139,10.007,876.978],[-68.4993,9.9976,570.0201],[-68.4925,9.9894,625.4946],[-68.4905,9.958,1004.0462],[-68.4852,9.9509,884.7993],[-68.4763,9.9468,849.7474],[-68.4675,9.9493,797.2391],[-68.4302,9.9659,541.2374],[-68.4143,9.976,846.6926],[-68.3823,10.0045,531.4087],[-68.3586,10.016,728.2587],[-68.3369,10.0197,560.3943],[-68.3217,10.026,803.4658],[-68.3195,10.0323,843.4899],[-68.3228,10.0517,662.2486],[-68.3415,10.1081,772.8137],[-68.3544,10.1566,767.155],[-68.3587,10.176,687.5712],[-68.3603,10.1977,715.0308],[-68.3592,10.2227,1244.392],[-68.3417,10.2565,1464.422],[-68.3224,10.2841,1276.8763],[-68.3155,10.2978,916.7534],[-68.3122,10.3114,723.8124],[-68.3139,10.3224,483.256],[-68.3406,10.3668,667.8157],[-68.3452,10.3876,229.7155],[-68.3405,10.4385,260.7791],[-68.3345,10.452,87.5243],[-68.329,10.4794,23.0137],[-68.3326,10.545,4.9883],[-68.3159,10.5759,6.4601],[-68.3076,10.5789,4.6912],[-68.2669,10.5816,11.0425],[-68.2536,10.584,6.0107],[-68.2399,10.5827,0.0],[-68.266,10.6224,0.0],[-68.4262,10.626,16.4111],[-68.4895,10.6321,26.5025],[-68.5466,10.6446,51.1832],[-68.581,10.6599,74.9331],[-68.5888,10.6671,66.2538],[-68.5929,10.6761,68.9464],[-68.5946,10.7211,124.5447],[-68.5993,10.7633,266.7416],[-68.6022,10.7687,371.7736],[-68.6091,10.7679,445.2087],[-68.6328,10.76,399.5359],[-68.6702,10.755,194.8159],[-68.7098,10.7566,201.3329],[-68.7502,10.7638,151.0315],[-68.7641,10.7601,189.355],[-68.7864,10.7392,302.0747],[-68.8051,10.725,332.6023],[-68.8247,10.7159,149.2364],[-68.8407,10.7111,129.0399],[-68.8674,10.7078,113.8403],[-68.8672,10.6998,108.6051],[-68.8703,10.6902,113.018],[-68.8831,10.6794,126.7983],[-68.9009,10.6694,116.0189],[-68.9179,10.6564,121.0843],[-68.9271,10.6405,181.3748],[-68.9352,10.62,195.9164],[-68.9429,10.6059,286.3326],[-68.9569,10.594,318.4845],[-68.9721,10.5874,411.5321],[-68.9846,10.5784,395.6483],[-68.9982,10.5534,809.4437],[-69.0078,10.5408,835.6483],[-69.016,10.5361,821.4046],[-69.0262,10.5235,618.5549],[-69.0327,10.4906,695.0764],[-69.0326,10.4772,803.7675],[-69.0299,10.4686,804.2368],[-69.0231,10.4622,717.5656],[-68.9972,10.471,486.5245],[-68.9832,10.47,543.4814],[-68.981,10.4564,346.42],[-68.983,10.443,273.8029],[-68.9897,10.4206,320.1618],[-68.991,10.4089,482.601],[-68.9886,10.3842,684.9244],[-68.984,10.3716,936.4675],[-68.9757,10.3573,1174.6956],[-68.9737,10.3475,1247.9407],[-68.9784,10.3332,744.7056],[-69.0028,10.3091,772.3758],[-69.0106,10.2991,936.7789],[-69.0179,10.2959,1149.7986],[-69.0279,10.2971,969.1956],[-69.0374,10.3119,957.5234],[-69.0478,10.314,851.0391],[-69.0576,10.3091,836.4263],[-69.0688,10.2916,839.8596]]]]}
,"properties": {"GID_1": "VEN.24_1","GID_0": "VEN","country": "Venezuela","province": "Yaracuy","VARNAME_1": "NA","NL_NAME_1": "NA","TYPE_1": "Estado","ENGTYPE_1": "State","CC_1": "NA","HASC_1": "NA","ISO_1": "VE-U","name": "Yaracuy.province","area_km2": 6244.975,"hist_schema_id": "Elevation0-9000","hist_area_km2": {"0": 155.343,"25": 419.666,"50": 214.388,"75": 218.927,"100": 212.35,"125": 201.651,"150": 173.89,"175": 153.92,"200": 155.988,"225": 148.681,"250": 135.408,"275": 176.124,"300": 170.201,"325": 145.199,"350": 139.902,"375": 132.14,"400": 126.696,"425": 116.917,"450": 112.811,"475": 106.638,"500": 99.359,"525": 95.627,"550": 94.856,"575": 99.243,"600": 108.532,"625": 136.839,"650": 123.523,"675": 111.875,"700": 107.576,"725": 100.855,"750": 122.291,"775": 115.112,"800": 111.773,"825": 100.421,"850": 96.602,"875": 92.64,"900": 86.127,"925": 82.848,"950": 77.486,"975": 71.12,"1000": 65.465,"1025": 64.463,"1050": 58.808,"1075": 58.411,"1100": 51.983,"1125": 48.225,"1150": 44.259,"1175": 39.793,"1200": 37.578,"1225": 34.261,"1250": 31.194,"1275": 31.089,"1300": 27.646,"1325": 24.307,"1350": 22.283,"1375": 20.738,"1400": 17.379,"1425": 16.92,"1450": 15.356,"1475": 14.249,"1500": 10.41,"1525": 9.22,"1550": 7.634,"1575": 7.843,"1600": 6.174,"1625": 5.611,"1650": 4.818,"1675": 3.024,"1700": 2.983,"1725": 3.379,"1750": 2.586,"1775": 1.627,"1800": 1.022,"1825": 0.855,"1850": 0.959,"1875": 0.542,"1900": 0.167,"1925": 0.104,"1950": 0.063}}}