{"type":"Feature","properties":{"GID_2":"VEN.15.5_1","GID_0":"VEN","country":"Venezuela","GID_1":"VEN.15_1","province":"Mérida","NL_NAME_1":"NA","county":"ArzobispoChacón","VARNAME_2":"NA","NL_NAME_2":"NA","TYPE_2":"Municipio","ENGTYPE_2":"Municipality","CC_2":"NA","HASC_2":"NA","name":"Arzobispo_Chacón.county"},
"geometry":{"type": "MultiPolygon","coordinates": [[[[-71.3335,7.9001,496.0122],[-71.3322,7.9225,519.6228],[-71.3383,7.9449,1017.8884],[-71.335,7.9544,805.2737],[-71.3277,7.9656,899.7316],[-71.3119,7.9748,523.2318],[-71.2962,7.9872,639.5676],[-71.2791,7.9941,445.0258],[-71.2589,8.007,491.085],[-71.2513,8.0169,702.7819],[-71.246,8.0359,713.5892],[-71.2438,8.0505,501.6791],[-71.2345,8.0691,574.7084],[-71.2314,8.0813,615.4681],[-71.232,8.0949,703.5015],[-71.2469,8.1171,1213.5496],[-71.2676,8.1368,2178.0],[-71.2788,8.1428,2345.9646],[-71.2607,8.1566,2498.0923],[-71.2437,8.1905,2681.2781],[-71.2382,8.1977,2646.6238],[-71.2319,8.2056,2451.9622],[-71.2044,8.2279,2276.6914],[-71.1935,8.2396,2485.3623],[-71.1849,8.2494,1936.9563],[-71.1671,8.2759,1727.9294],[-71.1771,8.2826,2341.03],[-71.1924,8.3068,3052.2498],[-71.1992,8.3124,2569.6006],[-71.2253,8.3206,1988.0743],[-71.2518,8.3243,2544.1299],[-71.3328,8.3113,2960.7878],[-71.3579,8.3045,2979.2974],[-71.3493,8.288,3474.4106],[-71.3489,8.2746,2804.1748],[-71.3531,8.2666,2632.9019],[-71.3611,8.2598,2786.7097],[-71.3708,8.2537,2949.3823],[-71.3802,8.2526,3085.4158],[-71.3855,8.2543,2981.9709],[-71.3935,8.2683,2593.8413],[-71.4005,8.272,2348.106],[-71.4139,8.2747,2228.175],[-71.4246,8.274,2255.937],[-71.4327,8.2673,2227.7202],[-71.4343,8.263,2305.0959],[-71.4495,8.241,2273.0073],[-71.4741,8.2262,2298.999],[-71.4833,8.2184,2716.676],[-71.4914,8.2156,2993.4282],[-71.5044,8.2192,2608.3521],[-71.5414,8.2375,2359.8384],[-71.5518,8.2383,2051.4631],[-71.5654,8.2364,2439.3076],[-71.5741,8.2288,2614.5083],[-71.5771,8.2162,2400.8547],[-71.5709,8.1889,2230.4229],[-71.5705,8.1797,2335.5781],[-71.5728,8.17,2351.2656],[-71.5792,8.161,2340.2695],[-71.5896,8.1553,1864.6713],[-71.5933,8.1477,1799.3501],[-71.5864,8.0945,1704.75],[-71.5814,8.0843,1868.2507],[-71.5771,8.0794,2080.5239],[-71.5625,8.0751,2612.6709],[-71.5451,8.0745,2675.5222],[-71.5437,8.0732,2757.512],[-71.5432,8.06,2790.6221],[-71.5601,8.0213,2556.5071],[-71.5673,7.9879,2251.7351],[-71.5614,7.9576,1598.6493],[-71.5525,7.942,1070.8602],[-71.5251,7.915,1804.8936],[-71.519,7.8967,1320.3362],[-71.5178,7.8731,1664.3489],[-71.5075,7.8698,1392.9264],[-71.4844,7.8676,678.7863],[-71.4798,7.8641,536.331],[-71.481,7.8442,398.9385],[-71.4946,7.8137,304.5],[-71.4959,7.801,401.4797],[-71.4942,7.7976,386.0653],[-71.4913,7.7948,453.7167],[-71.4834,7.7949,612.9633],[-71.4707,7.8074,845.2995],[-71.4651,7.826,600.6161],[-71.4528,7.844,352.2684],[-71.4486,7.8641,797.7219],[-71.4452,7.8705,769.01],[-71.441,7.874,844.343],[-71.429,7.8798,717.0394],[-71.4204,7.8664,498.4044],[-71.4171,7.8403,472.5031],[-71.4117,7.8362,487.4251],[-71.4085,7.8361,513.9424],[-71.4019,7.8421,515.6249],[-71.3971,7.8498,653.0319],[-71.3858,7.859,585.6218],[-71.381,7.8597,518.6318],[-71.3737,7.8575,380.3893],[-71.3618,7.8512,302.0],[-71.3327,7.8739,302.0],[-71.3274,7.8918,419.508],[-71.3335,7.9001,496.0122]]]]}}