{"type":"Feature","properties":{"GID_2":"VEN.17.12_1","GID_0":"VEN","country":"Venezuela","GID_1":"VEN.17_1","province":"Monagas","NL_NAME_1":"NA","county":"Sotillo","VARNAME_2":"NA","NL_NAME_2":"NA","TYPE_2":"Municipio","ENGTYPE_2":"Municipality","CC_2":"NA","HASC_2":"NA","name":"Sotillo.county"},
"geometry":{"type": "MultiPolygon","coordinates": [[[[-62.6494,8.3225,75.4402],[-62.6339,8.3222,54.1259],[-62.6266,8.3237,39.3379],[-62.6167,8.3284,32.8449],[-62.581,8.3574,26.2977],[-62.5617,8.388,110.7722],[-62.5481,8.3971,96.6576],[-62.5355,8.391,114.1612],[-62.5285,8.3903,225.4352],[-62.4847,8.4217,41.3905],[-62.4666,8.4253,101.0746],[-62.443,8.4271,70.3655],[-62.4244,8.432,57.598],[-62.3521,8.4457,94.6276],[-62.3348,8.4508,120.8949],[-62.3187,8.4603,86.974],[-62.3088,8.4608,95.4482],[-62.277,8.488,40.6198],[-62.2334,8.5006,53.0892],[-62.2169,8.5068,25.0469],[-62.2025,8.5165,30.155],[-62.189,8.5308,24.7649],[-62.1788,8.5457,11.7941],[-62.1713,8.5618,4.1524],[-62.1593,8.5979,3.0],[-62.1545,8.6048,3.0],[-62.1333,8.6242,8.7087],[-62.1061,8.6449,9.3672],[-62.0995,8.652,2.5],[-62.0933,8.6627,5.5234],[-62.0949,8.6777,6.6995],[-62.0691,8.7022,6.6886],[-62.0552,8.7214,4.0],[-62.0476,8.7411,7.6986],[-62.0465,8.7576,5.4527],[-62.0479,8.7682,5.4856],[-62.0455,8.7859,5.3885],[-62.1911,8.7802,10.0127],[-62.3981,8.6701,22.3537],[-62.4303,8.71,37.1367],[-62.4417,8.6967,25.3389],[-62.4645,8.6929,27.5658],[-62.4873,8.6701,34.418],[-62.4892,8.672,38.0768],[-62.4968,8.672,35.9216],[-62.5025,8.6625,43.3338],[-62.5215,8.6511,47.8678],[-62.5348,8.634,53.7802],[-62.5556,8.617,62.2142],[-62.5632,8.6151,60.7589],[-62.5784,8.6037,63.1739],[-62.5841,8.5923,59.3532],[-62.624,8.5904,78.0514],[-62.6398,8.5921,82.0072],[-62.6852,8.3917,18.6707],[-62.681399999999996,8.3837,3.0],[-62.6789,8.3683,3.0],[-62.674,8.3528,41.9912],[-62.666,8.3416,100.005],[-62.6574,8.3345,88.241],[-62.6494,8.3225,75.4402]]]]}}