{"type":"Feature","properties":{"GID_1":"VEN.15_1","GID_0":"VEN","country":"Venezuela","province":"Mérida","VARNAME_1":"NA","NL_NAME_1":"NA","TYPE_1":"Estado","ENGTYPE_1":"State","CC_1":"NA","HASC_1":"NA","ISO_1":"NA","name":"Mérida.province"},
"geometry":{"type": "MultiPolygon","coordinates": [[[[-71.417,7.7848,411.3165],[-71.4034,7.7972,332.5176],[-71.39,7.8133,348.9884],[-71.3754,7.8376,302.0],[-71.3565,7.8564,302.0],[-71.3327,7.8739,302.0],[-71.3274,7.8918,419.508],[-71.3335,7.9001,496.0122],[-71.3136,7.9139,611.9603],[-71.2784,7.925,417.7458],[-71.2428,7.944,486.2991],[-71.2143,7.9538,514.4706],[-71.1897,7.9661,392.8618],[-71.1528,7.9944,449.2083],[-71.1397,8.0013,546.5287],[-71.1205,8.0037,579.4536],[-71.1056,8.0109,595.5914],[-71.0654,8.0457,875.2199],[-71.0483,8.0634,788.9766],[-71.0363,8.0807,968.2171],[-71.0262,8.1078,908.5892],[-71.0159,8.1444,1633.3893],[-71.0011,8.1755,1372.309],[-70.9958,8.1942,1559.8193],[-70.9971,8.2084,1549.7007],[-71.0057,8.2316,1947.1097],[-71.0046,8.2408,1750.4106],[-71.0013,8.2463,1515.8342],[-70.9949,8.2526,1460.6259],[-70.9758,8.2605,1386.1841],[-70.9647,8.2572,1550.5471],[-70.9535,8.248,1312.5197],[-70.9424,8.2438,1235.9836],[-70.9206,8.2507,839.7771],[-70.902,8.2685,874.0161],[-70.8924,8.283,852.571],[-70.8699,8.3611,1178.6799],[-70.8574,8.3904,1346.3535],[-70.8543,8.4168,871.1616],[-70.8548,8.4583,1422.9062],[-70.8517,8.4918,1416.9927],[-70.8531,8.5124,1940.9642],[-70.8566,8.5308,1973.2432],[-70.8561,8.557,2169.9897],[-70.8505,8.5666,2437.825],[-70.8437,8.5737,2970.7747],[-70.8329,8.5788,2723.459],[-70.8058,8.5845,2595.3889],[-70.7684,8.5875,2273.3831],[-70.7441,8.5924,1643.562],[-70.7293,8.5976,1403.1229],[-70.712,8.6076,831.0365],[-70.7048,8.6142,930.1956],[-70.7006,8.6294,1232.27],[-70.704,8.6457,1466.6045],[-70.7143,8.6592,2124.7793],[-70.7234,8.6754,1819.9885],[-70.7269,8.6923,2913.6035],[-70.7255,8.7041,2963.418],[-70.7199,8.7136,2626.6052],[-70.7117,8.7199,2119.4746],[-70.6866,8.7301,2476.1821],[-70.6703,8.7406,2965.0186],[-70.6607,8.7476,2384.062],[-70.6494,8.7615,2029.3689],[-70.6416,8.7792,2184.6929],[-70.635,8.8064,2757.1628],[-70.6236,8.8288,2639.439],[-70.6128,8.8571,2080.1646],[-70.5887,8.8854,1908.9724],[-70.5772,8.9021,1697.399],[-70.5606,8.9704,3359.1274],[-70.5498,8.9915,3412.4438],[-70.5404,8.9988,3476.8418],[-70.547,9.0083,3556.6086],[-70.5565,9.0298,3441.8777],[-70.5641,9.0384,3456.8804],[-70.5737,9.0443,3544.6958],[-70.5845,9.0549,3209.8325],[-70.5903,9.0633,2918.8477],[-70.5999,9.0682,2897.3992],[-70.6094,9.0672,2963.4526],[-70.6176,9.0623,2850.2383],[-70.6303,9.0538,2576.8306],[-70.6428,9.0411,2212.4863],[-70.6646,9.0258,2256.5762],[-70.6787,9.0211,2541.0645],[-70.6943,9.0215,2090.7705],[-70.713,9.0329,1894.5703],[-70.7416,9.0739,2173.6582],[-70.752,9.0857,2930.6455],[-70.7697,9.094,3479.5261],[-70.7817,9.0972,3711.7141],[-70.8036,9.1124,2962.1624],[-70.8173,9.1144,2666.4561],[-70.8305,9.1126,2599.3208],[-70.8458,9.1223,2321.0364],[-70.872,9.1201,1696.5012],[-70.879,9.1249,1682.9475],[-70.882,9.1305,1646.4141],[-70.8842,9.1415,1085.0121],[-70.887,9.1774,657.8624],[-70.8899,9.1916,545.9291],[-70.9198,9.3023,39.085],[-70.9279,9.3133,30.0658],[-70.952,9.3264,23.7756],[-70.9739,9.3492,12.7215],[-70.9815,9.3499,12.1968],[-70.9941,9.3475,8.9816],[-70.9918,9.3465,9.8919],[-70.9915,9.3224,12.1442],[-70.9954,9.2569,35.3138],[-70.9895,9.1857,147.649],[-70.9908,9.1732,294.0597],[-70.9997,9.1622,250.7805],[-71.0129,9.1532,250.4827],[-71.0337,9.1485,145.4566],[-71.051,9.1491,116.445],[-71.104,9.1655,37.9673],[-71.1206,9.1736,27.2406],[-71.1507,9.1916,16.7849],[-71.1935,9.2254,0.0],[-71.1999,9.2182,1.0508],[-71.2071,9.2201,0.8127],[-71.2051,9.2174,1.2402],[-71.2054,9.2104,0.6932],[-71.2096,9.2035,1.6842],[-71.2174,9.1976,1.5983],[-71.221,9.1871,0.0],[-71.2224,9.1765,0.0],[-71.2144,9.1729,1.6273],[-71.1952,9.1597,10.3953],[-71.1447,9.1222,33.5308],[-71.1412,9.1142,41.4166],[-71.1419,9.0952,48.9749],[-71.1453,9.0799,73.8391],[-71.1486,9.0291,290.0623],[-71.1618,9.0074,547.6635],[-71.1738,8.9945,672.3081],[-71.1827,8.9896,733.93],[-71.1886,8.9882,661.4766],[-71.1939,8.9923,515.521],[-71.1954,9.0049,215.8632],[-71.1994,9.0167,175.8657],[-71.2152,9.0354,35.7399],[-71.2275,9.0468,24.5033],[-71.2334,9.0466,25.872],[-71.2788,9.0212,35.0961],[-71.3459,8.9941,28.603],[-71.3672,8.9788,27.8966],[-71.3889,8.9595,24.7928],[-71.3933,8.9525,25.0546],[-71.4057,8.9215,23.886],[-71.4141,8.9091,22.5173],[-71.4507,8.8777,22.2237],[-71.502,8.8421,23.2945],[-71.5619,8.7912,38.4005],[-71.593,8.7673,41.5627],[-71.6992,8.6947,52.8477],[-71.7324,8.6676,55.5225],[-71.7436,8.6609,52.3325],[-71.7564,8.6578,49.3829],[-71.7645,8.6584,46.9679],[-71.776,8.6631,43.7311],[-71.7864,8.6719,41.6179],[-71.8067,8.6951,37.0545],[-71.8184,8.7024,33.6835],[-71.8326,8.7031,30.1123],[-71.8542,8.7001,28.0972],[-71.8709,8.6922,25.0887],[-71.8814,8.6826,22.4604],[-71.898,8.6734,19.5148],[-71.9367,8.6675,15.2646],[-71.9505,8.6633,11.0809],[-71.9588,8.6588,10.8433],[-71.969,8.6459,12.039],[-71.9698,8.635,11.8681],[-71.9549,8.6268,13.3062],[-71.9244,8.617,15.4721],[-71.8497,8.6122,32.9101],[-71.8277,8.6053,41.2047],[-71.8174,8.5961,46.2742],[-71.8011,8.5764,59.7662],[-71.7907,8.5598,72.1217],[-71.7744,8.5274,185.9542],[-71.768,8.5114,248.7393],[-71.7628,8.492,310.1043],[-71.7644,8.4756,346.3602],[-71.7726,8.4565,401.8283],[-71.792,8.4342,415.6555],[-71.7979,8.4127,584.749],[-71.8003,8.397,891.4062],[-71.805,8.3836,1377.8157],[-71.8201,8.3573,1268.1361],[-71.8227,8.3227,1871.3168],[-71.8273,8.3037,2340.7012],[-71.8354,8.2862,2476.7727],[-71.8472,8.2681,2442.0264],[-71.8927,8.2204,3223.8901],[-71.9,8.2073,3173.8779],[-71.9015,8.1924,3140.8882],[-71.8985,8.1774,2995.1648],[-71.8904,8.1653,3152.2078],[-71.8723,8.1525,2659.9033],[-71.7946,8.1313,2379.6787],[-71.7804,8.1216,2335.8125],[-71.7689,8.1085,1788.344],[-71.7556,8.0871,1578.4365],[-71.7416,8.069,1713.415],[-71.6914,8.0242,1398.436],[-71.6778,7.9941,1471.0057],[-71.6693,7.9832,1666.2972],[-71.6567,7.975,1394.6044],[-71.6377,7.9718,1344.4],[-71.6257,7.9738,1483.5089],[-71.5808,7.9879,2222.0349],[-71.5713,7.9898,2348.8799],[-71.5667,7.9876,2166.6631],[-71.5614,7.9576,1598.6493],[-71.5525,7.942,1070.8602],[-71.5251,7.915,1804.8936],[-71.519,7.8967,1320.3362],[-71.5177,7.8617,1530.1962],[-71.519,7.7706,716.6582],[-71.5181,7.7014,312.0593],[-71.5141,7.6711,184.2374],[-71.5073,7.6502,181.4258],[-71.4976,7.6319,177.5603],[-71.5003,7.6213,175.8835],[-71.4886,7.6218,187.7594],[-71.4739,7.6267,233.8636],[-71.4648,7.6388,246.8708],[-71.4603,7.6611,189.4305],[-71.4619,7.7163,201.3849],[-71.4586,7.7366,240.668],[-71.4538,7.7487,384.4208],[-71.4379,7.7672,544.9264],[-71.417,7.7848,411.3165]]]]}}