{"type":"Feature","properties":{"ISO3166-1-Alpha-3":"VEN","country":"Venezuela","fill":"#FF0","id":"27","name":"Mérida"},
"geometry":{"type": "Polygon","coordinates": [[[-70.76317,9.06079,2715.7207],[-70.76707,9.06157,3017.219],[-70.77663,9.06676,3002.3706],[-70.78906,9.0912,3698.6021],[-70.7996,9.09882,3341.1853],[-70.80534,9.10012,3339.4814],[-70.8105,9.102,2899.5698],[-70.81978,9.10627,2663.5825],[-70.85438,9.12869,1753.4436],[-70.86306,9.139,1351.3328],[-70.88417,9.17492,664.8022],[-70.8905,9.19068,530.881],[-70.8929,9.20727,331.1248],[-70.89786,9.22714,239.3356],[-70.91151,9.28424,57.6626],[-70.91773,9.30287,40.4898],[-70.92765,9.31279,30.0658],[-70.9438,9.32398,28.6526],[-70.96365,9.34258,18.7927],[-70.9736,9.35126,12.41],[-70.98352,9.3525,11.8752],[-70.99967,9.35377,7.0506],[-71.01455,9.35501,3.1397],[-71.03318,9.3525,1.1183],[-71.04809,9.34382,-0.4084],[-71.05858,9.33798,0.0],[-71.05867,9.33793,0.0],[-71.06241,9.32665,0.0],[-71.07282,9.31354,0.0],[-71.08658,9.30842,0.0],[-71.09569,9.30671,0.0],[-71.10302,9.30288,0.0],[-71.10973,9.29829,0.0],[-71.11701,9.29475,0.0],[-71.14306,9.29125,0.0],[-71.15172,9.28852,0.0],[-71.16185,9.27875,0.0],[-71.18749,9.24649,0.0],[-71.20641,9.23216,0.0],[-71.21853,9.187,0.4433],[-71.21846,9.18696,0.4433],[-71.20697,9.17996,2.7908],[-71.19206,9.16631,9.1685],[-71.18214,9.15887,14.7304],[-71.16229,9.14148,19.619],[-71.14738,9.12782,30.7515],[-71.14242,9.11293,39.7746],[-71.14242,9.08934,59.2192],[-71.14614,9.07446,78.7825],[-71.14614,9.06079,87.4961],[-71.14862,9.03348,230.2572],[-71.1573,9.01113,597.8701],[-71.17345,8.99873,586.7155],[-71.1871,8.99253,571.1276],[-71.19456,8.99625,385.3835],[-71.19952,9.00741,186.1069],[-71.20076,9.0186,160.7822],[-71.20821,9.031,50.9646],[-71.21815,9.04092,31.7031],[-71.2256,9.04839,23.8304],[-71.24172,9.04591,26.8927],[-71.26407,9.03224,30.6492],[-71.28022,9.02108,34.9744],[-71.29634,9.01361,38.4554],[-71.31621,8.99625,42.1977],[-71.34497,8.96615,40.0396],[-71.61077,8.77226,39.9842],[-71.67353,8.7188,54.6625],[-71.69309,8.69629,52.7808],[-71.70508,8.67658,56.7304],[-71.70709,8.67169,58.3253],[-71.72133,8.62195,67.7823],[-71.72603,8.61723,68.3736],[-71.73086,8.61622,66.5996],[-71.73518,8.61847,63.788],[-71.74316,8.62438,57.4819],[-71.74755,8.62694,55.5045],[-71.75267,8.62896,55.5881],[-71.75853,8.6302,54.2392],[-71.76683,8.62973,52.0248],[-71.77696,8.62772,49.3707],[-71.79331,8.62133,45.6227],[-71.80233,8.61916,43.2457],[-71.80807,8.61963,42.2532],[-71.80907,8.62382,41.2035],[-71.80778,8.62826,40.9842],[-71.80303,8.6371,41.5334],[-71.80117,8.64198,41.3663],[-71.80042,8.64764,40.5608],[-71.80093,8.65332,39.3244],[-71.80264,8.65828,39.3271],[-71.8053,8.66255,37.6029],[-71.80871,8.66603,35.8514],[-71.81279,8.6689,35.77],[-71.81742,8.67131,34.2072],[-71.82437,8.67286,33.4262],[-71.83331,8.67317,34.4875],[-71.84881,8.67107,27.0308],[-71.8568,8.66813,24.9635],[-71.86269,8.66472,23.2517],[-71.86643,8.66123,22.8357],[-71.86974,8.65751,23.4969],[-71.88077,8.64694,27.0725],[-71.89222,8.63826,21.0844],[-71.90129,8.63376,20.4351],[-71.9108,8.6302,18.2024],[-71.92457,8.62741,16.961],[-71.93757,8.62087,14.4843],[-71.94493,8.61141,17.5793],[-71.82313,8.5903,44.7248],[-71.81714,8.58705,47.0676],[-71.80946,8.58123,52.5373],[-71.80525,8.5762,55.9389],[-71.80267,8.57069,59.3066],[-71.80119,8.56542,63.4935],[-71.79876,8.53553,98.6301],[-71.79693,8.53041,111.4712],[-71.79471,8.52576,118.5358],[-71.77688,8.50356,228.508],[-71.77548,8.50108,210.7312],[-71.77471,8.4993,251.8771],[-71.77107,8.48093,222.7127],[-71.77225,8.46897,272.9548],[-71.77796,8.45943,304.4957],[-71.82964,8.39541,888.0406],[-71.81078,8.33923,1790.3925],[-71.81853,8.31037,2276.8962],[-71.82199,8.30572,2287.0264],[-71.82788,8.30014,2292.6802],[-71.84279,8.29262,2692.3809],[-71.84806,8.28601,2925.1848],[-71.86083,8.2626,2973.2612],[-71.88646,8.23211,3163.6184],[-71.88992,8.22534,3289.2417],[-71.89605,8.20353,2960.658],[-71.89889,8.18686,2943.8994],[-71.89897,8.18299,2902.385],[-71.89829,8.1788,2993.1743],[-71.8971,8.17547,3057.0164],[-71.89248,8.17172,2879.7329],[-71.85093,8.17756,3077.2932],[-71.83142,8.17532,2657.3401],[-71.82132,8.17048,2961.7668],[-71.80039,8.15583,2580.5117],[-71.79621,8.15172,2587.6003],[-71.75313,8.08467,1632.713],[-71.74463,8.07491,1688.0642],[-71.72091,8.05403,1503.8463],[-71.71135,8.04907,1326.2242],[-71.70355,8.04752,1448.0729],[-71.69898,8.04969,1518.1104],[-71.69513,8.05271,1492.8669],[-71.69167,8.0562,1480.311],[-71.6873,8.05977,1196.5745],[-71.68076,8.06116,1241.5732],[-71.66957,8.06065,1476.5586],[-71.6603,8.05628,1780.6816],[-71.65386,8.05636,1810.9049],[-71.6434,8.05953,1828.5447],[-71.63637,8.06065,1718.4634],[-71.62247,8.05853,2019.618],[-71.61503,8.05891,2156.2588],[-71.58885,8.05729,2225.832],[-71.50772,8.0054,1221.2246],[-71.49827,7.98925,985.7949],[-71.4978,7.98453,948.4002],[-71.49995,7.96993,1581.833],[-71.51969,7.94401,1276.5568],[-71.52224,7.9299,1731.5338],[-71.52033,7.92494,1702.0149],[-71.51214,7.91236,1949.1189],[-71.50739,7.88482,1544.8228],[-71.50609,7.82996,725.7242],[-71.50754,7.81833,696.7221],[-71.51519,7.79815,937.6089],[-71.53186,7.76565,864.5106],[-71.53279,7.75829,819.8621],[-71.53147,7.75271,688.8972],[-71.52832,7.74896,576.7732],[-71.52465,7.74578,402.5953],[-71.50726,7.73524,364.5806],[-71.50367,7.73253,378.715],[-71.50075,7.72989,341.6518],[-71.49648,7.7247,340.5366],[-71.49121,7.71266,288.6979],[-71.48356,7.68449,188.2005],[-71.46909,7.68976,187.6306],[-71.46214,7.69364,189.1021],[-71.45669,7.70242,194.4096],[-71.4547,7.71428,194.4839],[-71.46274,7.74508,278.2787],[-71.46214,7.76953,302.0],[-71.42967,7.80226,309.9616],[-71.28967,7.90205,302.0],[-71.26381,7.916,318.9366],[-71.25378,7.92277,395.4381],[-71.24123,7.93386,328.6028],[-71.21728,7.96574,356.7724],[-71.20741,7.97605,448.2165],[-71.16849,7.99879,356.2695],[-71.09046,8.06754,552.5778],[-71.05995,8.11005,653.5494],[-71.04827,8.14653,806.8309],[-71.02876,8.17842,1217.922],[-71.02251,8.1857,1044.64],[-71.01548,8.19679,1056.0992],[-71.01181,8.20666,1286.5103],[-71.01184,8.21976,1790.1499],[-71.01336,8.22743,1853.9502],[-71.02075,8.24218,2193.9729],[-71.02266,8.24707,2361.3716],[-71.02755,8.26926,2051.6182],[-71.0315,8.27895,2005.9042],[-71.03687,8.28735,2293.3594],[-71.04028,8.29076,2513.4802],[-71.04431,8.29371,2559.499],[-71.05475,8.29743,2750.7888],[-71.05927,8.29983,2995.5098],[-71.06276,8.30332,3143.3975],[-71.06514,8.30781,3159.6648],[-71.0724,8.32792,3405.0999],[-71.07506,8.33877,3320.0017],[-71.07687,8.35042,3360.0117],[-71.07754,8.37634,3456.5449],[-71.07537,8.38386,3521.9229],[-71.07111,8.39114,3398.7007],[-71.04571,8.41372,3206.2158],[-71.04194,8.41845,3232.189],[-71.03837,8.42434,3395.1624],[-71.03579,8.43607,3382.418],[-71.0347,8.45158,2944.5342],[-71.0322,8.4585,2707.9204],[-71.02736,8.46532,2806.407],[-71.01677,8.47463,2880.0918],[-70.99181,8.49147,3664.3794],[-70.98646,8.4976,3707.97],[-70.98044,8.50666,3664.6174],[-70.97168,8.52723,3052.6313],[-70.96905,8.53834,3250.762],[-70.96892,8.54679,3650.9968],[-70.97277,8.55648,3628.0781],[-70.97584,8.56718,3729.3604],[-70.97636,8.57309,3874.6245],[-70.97602,8.57906,3554.437],[-70.97352,8.58534,3860.5791],[-70.96967,8.59193,4201.4937],[-70.96238,8.60141,3985.8169],[-70.95703,8.60723,4158.0483],[-70.93437,8.62679,4140.0049],[-70.92995,8.62927,4072.3223],[-70.92567,8.62989,3938.9082],[-70.9199,8.62601,3968.3179],[-70.91512,8.62431,3912.6807],[-70.91006,8.62413,3908.1987],[-70.89409,8.64399,3886.0352],[-70.85159,8.7021,3570.1211],[-70.8474,8.71182,3929.0364],[-70.83771,8.72546,3885.5645],[-70.8267,8.7365,4324.02],[-70.80446,8.75146,4289.5449],[-70.76857,8.78148,4161.1133],[-70.75229,8.78404,3952.7485],[-70.74901,8.7814,3966.2461],[-70.74568,8.77729,3839.2107],[-70.74397,8.77233,3961.4634],[-70.74154,8.76791,3834.083],[-70.73785,8.76497,3807.9023],[-70.73281,8.76396,3823.3579],[-70.72769,8.76474,3530.3608],[-70.72294,8.76683,3506.0901],[-70.71852,8.7704,3474.3306],[-70.714,8.77528,3341.6599],[-70.70627,8.79032,3131.344],[-70.70036,8.80662,3451.9998],[-70.69578,8.81592,3578.6133],[-70.69188,8.82019,3321.9189],[-70.68695,8.82362,3194.1743],[-70.6778,8.82571,3101.1282],[-70.67157,8.82494,3311.9915],[-70.66584,8.82362,3358.3447],[-70.65814,8.82509,3293.4409],[-70.64917,8.82944,3105.1729],[-70.63294,8.83951,3083.4492],[-70.6155,8.84664,2459.6587],[-70.59504,8.85086,2419.9116],[-70.57747,8.85667,1414.8479],[-70.57251,8.86186,1047.0271],[-70.5677,8.87,1482.6251],[-70.56106,8.91013,2468.5833],[-70.55558,8.92563,2909.5281],[-70.53468,8.95535,3367.0337],[-70.54254,8.97018,3498.104],[-70.54212,8.98622,3318.4033],[-70.54047,8.99857,3469.1675],[-70.54186,9.00532,3520.4561],[-70.54504,9.00981,3527.7056],[-70.55047,9.01191,3505.1528],[-70.55558,9.01284,3508.8931],[-70.56607,9.01671,3679.0176],[-70.57075,9.03519,3569.3848],[-70.57458,9.03782,3666.2664],[-70.58003,9.04022,3706.874],[-70.58553,9.03937,3577.6626],[-70.59618,9.03588,3393.5771],[-70.60584,9.0317,3252.501],[-70.61013,9.02922,3281.6167],[-70.64413,9.00036,3552.8013],[-70.67726,8.98586,3633.9448],[-70.68749,8.98428,3196.0068],[-70.69516,8.98506,2882.8037],[-70.70247,8.9916,2687.7617],[-70.70806,8.9978,2549.7769],[-70.71364,9.00772,2525.6221],[-70.72154,9.02736,1793.8843],[-70.72501,9.04436,1653.0869],[-70.73149,9.0535,1828.0442],[-70.74746,9.06343,2116.9336],[-70.76317,9.06079,2715.7207]]]}}