{"type":"Feature","properties":{"GID_2":"VEN.17.13_1","GID_0":"VEN","country":"Venezuela","GID_1":"VEN.17_1","province":"Monagas","NL_NAME_1":"NA","county":"Uracoa","VARNAME_2":"NA","NL_NAME_2":"NA","TYPE_2":"Municipio","ENGTYPE_2":"Municipality","CC_2":"NA","HASC_2":"NA","name":"Uracoa.county"},
"geometry":{"type": "MultiPolygon","coordinates": [[[[-62.2754,9.1001,1.0826],[-62.2935,9.0931,1.0851],[-62.297,9.026,2.0303],[-62.303,9.0201,5.7416],[-62.3169,9.0133,1.6759],[-62.3167,8.9981,4.8814],[-62.3193,8.9909,5.9689],[-62.338,8.969,17.2521],[-62.3473,8.9657,9.7793],[-62.3616,8.9666,11.3553],[-62.3683,8.9636,11.7886],[-62.3721,8.9447,11.9471],[-62.3785,8.9398,11.8233],[-62.4118,8.9353,14.9364],[-62.4235,8.9353,11.5085],[-62.4458,8.9411,11.5676],[-62.4535,8.9415,13.7607],[-62.4762,8.9274,21.534],[-62.5073,8.9219,20.2357],[-62.5292,8.9068,28.0707],[-62.5359,8.8998,30.0916],[-62.5453,8.8777,34.7274],[-62.5503,8.8702,36.1529],[-62.5647,8.8618,39.9745],[-62.5903,8.8535,43.2616],[-62.5952,8.8481,44.8329],[-62.5977,8.8319,40.7733],[-62.5972,8.8172,37.9078],[-62.5936,8.7953,40.6816],[-62.5958,8.7788,49.9484],[-62.6398,8.5921,82.0072],[-62.624,8.5904,78.0514],[-62.5841,8.5923,59.3532],[-62.5784,8.6037,63.1739],[-62.5632,8.6151,60.7589],[-62.5556,8.617,62.2142],[-62.5348,8.634,53.7802],[-62.5215,8.6511,47.8678],[-62.5025,8.6625,43.3338],[-62.4968,8.672,35.9216],[-62.4892,8.672,38.0768],[-62.4873,8.6701,34.418],[-62.4645,8.6929,27.5658],[-62.4417,8.6967,25.3389],[-62.4303,8.71,37.1367],[-62.3981,8.6701,22.3537],[-62.1911,8.7802,10.0127],[-62.0455,8.7859,5.3885],[-62.0387,8.799,5.3168],[-62.0251,8.807,7.7331],[-62.0061,8.8326,3.0],[-62.003,8.8399,9.0423],[-62.0035,8.8481,3.0],[-62.0182,8.8494,6.3731],[-62.0257,8.847,4.9029],[-62.0373,8.8399,6.1232],[-62.0469,8.8394,3.3944],[-62.056399999999996,8.8448,4.6528],[-62.0613,8.8509,3.2597],[-62.0733,8.8823,4.7409],[-62.0795,8.9043,3.1591],[-62.0879,8.9243,6.4101],[-62.094,8.9593,2.6665],[-62.0925,8.9668,5.9797],[-62.0889,8.9733,0.0],[-62.0833,8.977,4.5601],[-62.0739,8.9788,3.5164],[-62.0671,8.984,5.0138],[-62.0589,8.998,15.6411],[-62.0576,9.0061,9.2126],[-62.0572,9.0148,6.8876],[-62.0614,9.0242,4.419],[-62.0769,9.0464,3.1966],[-62.0842,9.0487,1.2373],[-62.0907,9.0463,2.1544],[-62.1051,9.0344,1.9238],[-62.1261,9.0256,0.6109],[-62.1409,9.0136,1.0005],[-62.1477,9.0112,2.2207],[-62.155,9.0119,5.0746],[-62.1643,9.0151,1.1254],[-62.1733,9.0271,1.6185],[-62.1798,9.0306,0.5981],[-62.1871,9.0332,0.9298],[-62.2079,9.0363,0.9148],[-62.2201,9.043,1.3299],[-62.2254,9.0487,1.4669],[-62.2376,9.0746,1.1889],[-62.2426,9.0819,0.7585],[-62.2496,9.0848,1.137],[-62.2682,9.0867,1.0877],[-62.2731,9.0926,1.9389],[-62.2754,9.1001,1.0826]]]]}}