{"type":"Feature","properties":{"GID_2":"VEN.13.13_1","GID_0":"VEN","country":"Venezuela","GID_1":"VEN.13_1","province":"Guárico","NL_NAME_1":"NA","county":"SanJosédeGuaribe","VARNAME_2":"NA","NL_NAME_2":"NA","TYPE_2":"Municipio","ENGTYPE_2":"Municipality","CC_2":"NA","HASC_2":"NA","name":"San_Joséde_Guaribe.county"},
"geometry":{"type": "MultiPolygon","coordinates": [[[[-65.6885,9.7894,198.2425],[-65.6811,9.8203,235.2148],[-65.6815,9.8334,259.8521],[-65.6983,9.8752,482.2885],[-65.7021,9.8943,447.0968],[-65.7207,9.9272,515.0343],[-65.7223,9.9358,498.1625],[-65.7219,9.948,629.7633],[-65.7266,9.9679,506.5558],[-65.7732,9.9729,446.9786],[-65.9218,9.9745,665.4337],[-65.9226,9.96,684.9304],[-65.9276,9.9298,433.9612],[-65.9336,9.9049,374.9449],[-65.9419,9.8833,292.6204],[-65.9694,9.8554,243.7571],[-65.9749,9.8481,246.7757],[-65.9775,9.8365,240.1794],[-65.9772,9.7477,214.9567],[-65.9749,9.7393,204.1223],[-65.9617,9.7235,236.1485],[-65.9591,9.7175,217.3803],[-65.9602,9.7085,230.9896],[-65.9644,9.7035,222.797],[-65.9732,9.698,252.1064],[-65.9799,9.6894,261.2984],[-65.9786,9.6654,183.6893],[-65.9613,9.6094,212.7877],[-65.9164,9.608,219.8121],[-65.8682,9.6143,166.2509],[-65.8319,9.6241,221.9283],[-65.821,9.6303,217.093],[-65.8039,9.649,209.1969],[-65.7848,9.6656,195.7227],[-65.7508,9.6781,188.1056],[-65.701,9.7218,161.4864],[-65.7019,9.7423,172.172],[-65.6885,9.7894,198.2425]]]]}}