{"type": "Feature","bbox": [-67.1254,0.6488,-64.0552,2.7478],"geometry": {"type": "MultiPolygon","coordinates": [[[[-64.3353,1.3708,659.2446],[-64.3419,1.3754,612.0348],[-64.3427,1.3843,613.5477],[-64.3374,1.3915,611.5255],[-64.3297,1.3949,641.0928],[-64.3261,1.4019,627.8253],[-64.325,1.4107,686.9048],[-64.3291,1.4193,610.1874],[-64.3261,1.436,594.042],[-64.318,1.4401,603.645],[-64.313,1.4479,610.3338],[-64.313,1.4563,617.998],[-64.3044,1.4605,603.6504],[-64.3022,1.4683,603.6647],[-64.2788,1.4785,603.5056],[-64.2758,1.4855,613.9631],[-64.2674,1.4846,662.7439],[-64.2616,1.4998,841.3933],[-64.2474,1.5082,805.1302],[-64.2402,1.5113,883.714],[-64.2233,1.5071,753.1111],[-64.2155,1.5085,1149.8613],[-64.1949,1.5249,1459.2496],[-64.1938,1.5427,1137.3043],[-64.1749,1.5629,805.5883],[-64.1738,1.571,872.8703],[-64.1677,1.576,931.3257],[-64.1599,1.5743,813.9034],[-64.1441,1.5824,742.6459],[-64.1355,1.5768,754.0293],[-64.1261,1.5776,867.6746],[-64.1122,1.5893,724.0717],[-64.1092,1.6031,949.4937],[-64.0952,1.6171,953.6461],[-64.0874,1.6401,960.6802],[-64.0755,1.6526,645.5107],[-64.0652,1.676,669.6146],[-64.0666,1.6838,643.8108],[-64.0613,1.7016,609.6089],[-64.0669,1.7079,617.5525],[-64.0722,1.7257,632.366],[-64.0663,1.7307,607.7896],[-64.0652,1.7398,618.0474],[-64.0688,1.7476,618.6837],[-64.0766,1.7512,623.8931],[-64.078,1.759,618.7148],[-64.0624,1.7896,611.8617],[-64.0619,1.8054,582.1138],[-64.058,1.8129,577.9155],[-64.0627,1.8207,597.0811],[-64.0552,1.8254,582.8694],[-64.0561,1.841,582.6135],[-64.0652,1.8446,604.6169],[-64.0711,1.8524,611.5947],[-64.0619,1.8827,588.2596],[-64.0641,1.8985,596.4354],[-64.0605,1.9138,592.6946],[-64.0614,1.9249,676.3844],[-64.1041,1.9471,596.2604],[-64.144,1.95,568.5038],[-64.2038,1.9614,595.4352],[-64.2352,1.9614,589.1104],[-64.315,1.9671,586.1833],[-64.3777,1.9671,630.7671],[-64.4005,1.9557,599.6969],[-64.4603,1.9329,601.7026],[-64.4831,1.93,706.4933],[-64.5059,1.9357,773.5416],[-64.5201,1.95,695.0236],[-64.5287,1.9614,543.1086],[-64.56,1.9956,748.7489],[-64.5828,2.0013,554.6651],[-64.6028,1.9984,769.5686],[-64.617,1.9642,599.3257],[-64.654,1.9186,873.3273],[-65.0159,1.6964,555.2714],[-65.0843,1.6593,515.5895],[-65.147,1.5824,538.7053],[-65.1783,1.5254,523.9557],[-65.2524,1.5055,612.4626],[-65.3037,1.4941,512.2993],[-65.3664,1.4941,545.7547],[-65.392,1.5083,592.063],[-65.4063,1.5226,596.4011],[-65.4262,1.5511,579.9774],[-65.449,1.571,775.7891],[-65.4604,1.6024,810.2994],[-65.3778,1.8702,596.4186],[-65.3322,1.9728,201.918],[-65.3094,2.195,270.773],[-65.2752,2.3945,236.8551],[-65.3379,2.4458,237.8633],[-65.3892,2.5028,487.9943],[-65.4177,2.5882,261.6794],[-65.4177,2.6281,220.6874],[-65.4348,2.6737,168.9668],[-65.4462,2.7136,169.9743],[-65.5032,2.7478,155.8879],[-65.5601,2.7478,146.784],[-65.6215,2.7454,156.7355],[-65.6202,2.7369,147.0518],[-65.6281,2.7221,158.9487],[-65.6391,2.7122,172.197],[-65.6574,2.7027,133.827],[-65.6864,2.6955,133.719],[-65.7182,2.6995,126.5427],[-65.7515,2.7064,128.7191],[-65.7733,2.7069,147.3646],[-65.7961,2.7034,121.6299],[-65.8178,2.6949,135.6101],[-65.8324,2.6851,132.1769],[-65.8451,2.6795,139.0548],[-65.8766,2.6758,157.1848],[-65.9113,2.6751,137.8757],[-65.9258,2.6712,139.0002],[-65.9333,2.6635,150.4192],[-65.94,2.6503,179.7181],[-65.9439,2.6305,255.6027],[-65.9358,2.582,136.1845],[-65.9403,2.5705,139.2334],[-65.9464,2.5662,152.0957],[-65.9614,2.564,144.2126],[-65.9971,2.5687,123.5036],[-66.0249,2.5683,122.9157],[-66.0457,2.5577,118.6693],[-66.0804,2.5493,117.0634],[-66.0944,2.5487,110.9469],[-66.149,2.5533,115.2653],[-66.1737,2.5509,114.7887],[-66.2246,2.5353,116.8494],[-66.3295,2.4965,97.537],[-66.336,2.4841,89.8024],[-66.3336,2.4771,99.844],[-66.304,2.4542,105.0589],[-66.2837,2.4318,98.5536],[-66.277,2.4044,121.4118],[-66.2766,2.3972,129.7325],[-66.2785,2.3765,121.0182],[-66.284,2.3678,138.9063],[-66.301,2.3547,146.8305],[-66.3786,2.3415,114.8811],[-66.3885,2.3337,96.8536],[-66.3934,2.3189,103.9423],[-66.407,2.3049,118.4315],[-66.4321,2.2929,110.2331],[-66.477,2.2766,109.4457],[-66.4925,2.2648,93.2661],[-66.4944,2.2545,94.007],[-66.4913,2.2472,98.5574],[-66.4847,2.2384,99.5413],[-66.4566,2.2085,97.5008],[-66.4341,2.189,85.8264],[-66.4182,2.1797,101.6586],[-66.3893,2.1703,103.5773],[-66.373,2.1633,101.8748],[-66.3624,2.1561,104.3516],[-66.3551,2.1487,105.7938],[-66.3513,2.144,89.9883],[-66.3424,2.1236,103.0039],[-66.3403,2.1037,105.4038],[-66.3417,2.0877,99.6319],[-66.3447,2.0771,107.7535],[-66.3507,2.0629,109.4153],[-66.3586,2.0531,105.3335],[-66.3677,2.047,102.6398],[-66.3822,2.04,97.6505],[-66.4421,2.0219,104.9935],[-66.4561,2.0104,111.3124],[-66.4755,1.9766,110.4977],[-66.4965,1.9278,105.4339],[-66.5062,1.916,103.0033],[-66.5257,1.9005,106.5076],[-66.5346,1.8975,101.7976],[-66.5423,1.8974,101.6822],[-66.5545,1.8993,85.7283],[-66.572,1.9053,91.0218],[-66.6348,1.9308,99.7267],[-66.656,1.9444,98.9503],[-66.6832,1.9582,99.5238],[-66.6978,1.9603,102.4329],[-66.7491,1.966,104.3191],[-66.7749,1.9668,106.6384],[-66.8824,1.9561,93.8925],[-66.904,1.9547,102.9946],[-66.9282,1.956,112.2958],[-66.9583,1.9615,113.8511],[-67.0319,1.9935,93.9077],[-67.0495,1.9965,111.0712],[-67.0588,1.9951,101.7371],[-67.1018,1.9804,88.4025],[-67.1057,1.9741,90.4548],[-67.1251,1.9734,104.9435],[-67.1254,1.9648,96.3779],[-67.1143,1.9615,94.2182],[-67.0922,1.9449,95.655],[-67.0862,1.9368,97.3835],[-67.0792,1.9176,87.6353],[-67.0701,1.9123,85.7379],[-67.0666,1.9076,85.094],[-67.0588,1.8691,91.3894],[-67.0514,1.8483,100.5498],[-67.0418,1.8327,86.1908],[-67.0421,1.8004,99.4886],[-67.0359,1.7723,98.2371],[-67.0216,1.7566,87.0219],[-67.0171,1.7304,100.9881],[-67.0087,1.7207,99.5195],[-66.9995,1.7032,95.7538],[-66.9888,1.6651,94.5387],[-66.9761,1.6531,93.6625],[-66.9627,1.6279,92.2737],[-66.9612,1.6216,77.0],[-66.9614,1.6065,77.0],[-66.9665,1.5842,98.4422],[-66.961,1.5784,95.7399],[-66.9564,1.5778,95.5823],[-66.9452,1.5725,86.0277],[-66.9205,1.5236,77.0],[-66.9093,1.4847,77.0],[-66.9105,1.4425,77.0],[-66.9077,1.4229,77.0],[-66.9014,1.4124,77.0],[-66.8984,1.41,77.0],[-66.8718,1.404,93.6679],[-66.8566,1.3852,96.1535],[-66.8496,1.373,92.2395],[-66.8457,1.3602,95.6887],[-66.8439,1.3453,92.5524],[-66.8453,1.3322,77.0],[-66.8495,1.3168,77.0],[-66.8541,1.3064,95.0324],[-66.8586,1.3018,87.2872],[-66.8676,1.2835,97.685],[-66.8687,1.2644,87.1065],[-66.864,1.2425,92.8331],[-66.8596,1.2335,92.4061],[-66.5994,0.9997,113.0185],[-66.3185,0.755,111.9274],[-66.213,0.7806,641.35],[-66.1882,0.7787,989.1845],[-66.1827,0.7671,882.0128],[-66.1634,0.7561,1018.7903],[-66.1611,0.7463,1026.5984],[-66.1511,0.7444,1255.0719],[-66.1212,0.752,1312.1384],[-66.1146,0.7634,1296.51],[-66.1023,0.7637,1551.2455],[-66.0886,0.759,1537.3901],[-66.0763,0.7683,1891.2838],[-66.0784,0.779,1855.9705],[-66.0745,0.7987,1963.892],[-66.0701,0.805,1917.8447],[-66.0557,0.8023,1945.9216],[-66.038,0.812,2158.927],[-66.0173,0.8,2220.6711],[-66.0007,0.8026,2387.4219],[-65.9931,0.807,2108.4468],[-65.9834,0.8062,1638.2947],[-65.9778,0.8118,1850.959],[-65.9714,0.806,1832.7581],[-65.9645,0.8095,2366.4824],[-65.9647,0.8197,2352.45],[-65.9519,0.8363,2321.5266],[-65.946,0.8526,2308.8586],[-65.9334,0.8625,1857.3218],[-65.9366,0.8821,1909.3311],[-65.9254,0.8913,2124.325],[-65.9084,0.8888,2048.4709],[-65.9012,0.8836,1357.512],[-65.8972,0.8922,1504.4883],[-65.8816,0.9016,1352.2986],[-65.8737,0.922,1361.8608],[-65.8798,0.9327,2016.0669],[-65.8623,0.9309,1154.2704],[-65.8317,0.94,632.2651],[-65.8164,0.9521,603.504],[-65.8092,0.949,611.5635],[-65.7939,0.9541,626.6974],[-65.7878,0.9618,595.3976],[-65.78,0.964,580.2624],[-65.7742,0.959,602.6041],[-65.7672,0.964,569.9592],[-65.7611,0.981,599.8569],[-65.7508,0.9824,571.192],[-65.7394,0.9996,562.7571],[-65.7217,1.0016,548.8133],[-65.7122,0.9974,559.1435],[-65.7058,1.0029,564.5696],[-65.6956,1.004,568.7036],[-65.6886,0.9996,568.6072],[-65.6867,0.9907,574.5972],[-65.6786,0.9888,561.7108],[-65.6694,1.0023,571.1342],[-65.6528,1.0117,570.9525],[-65.625,0.989,620.6124],[-65.6272,1.0092,563.4474],[-65.6175,1.0098,612.4442],[-65.6103,1.0142,598.6412],[-65.6067,1.0045,606.7891],[-65.5911,1.0022,618.2581],[-65.5856,1.0089,596.5347],[-65.5722,0.985,581.1208],[-65.5673,0.9942,594.8788],[-65.5578,0.9933,616.9341],[-65.5614,0.9858,627.1859],[-65.5581,0.9758,628.7338],[-65.5419,0.9755,603.3098],[-65.5372,0.961,611.3857],[-65.5309,0.9561,592.9607],[-65.5364,0.948,590.4591],[-65.5245,0.9375,605.4117],[-65.522,0.9293,609.4386],[-65.5084,0.9155,606.847],[-65.5139,0.8954,581.7371],[-65.5123,0.8852,596.4683],[-65.4962,0.8893,607.0829],[-65.4937,0.8821,623.2853],[-65.5053,0.8685,621.7348],[-65.5003,0.8424,600.6577],[-65.5089,0.8435,601.5377],[-65.5144,0.8371,564.4969],[-65.5214,0.8401,600.1957],[-65.5278,0.8332,611.4012],[-65.5242,0.8246,610.6416],[-65.5311,0.8051,630.6599],[-65.5408,0.8051,642.4648],[-65.5397,0.7968,611.8801],[-65.5486,0.7746,628.2477],[-65.5564,0.7776,589.831],[-65.5736,0.7643,684.2634],[-65.5758,0.7446,982.1777],[-65.5914,0.7216,1336.2273],[-65.585,0.7146,1500.5663],[-65.5764,0.7116,1234.4305],[-65.5642,0.6757,755.2602],[-65.5581,0.6699,774.8608],[-65.5536,0.6582,758.4196],[-65.5458,0.6555,641.3289],[-65.5406,0.6488,690.3469],[-65.5306,0.6679,917.0039],[-65.5005,0.6721,690.0609],[-65.495,0.6782,736.2125],[-65.4847,0.6788,741.5399],[-65.4803,0.6869,689.1455],[-65.4722,0.6827,665.761],[-65.4528,0.6854,637.7372],[-65.443,0.6898,623.5228],[-65.4386,0.7002,646.7046],[-65.4236,0.7079,611.9309],[-65.4214,0.7321,598.3159],[-65.4106,0.7396,590.7485],[-65.4158,0.7476,590.4848],[-65.4139,0.7551,595.9052],[-65.3975,0.7499,623.0468],[-65.3955,0.7582,632.6799],[-65.3997,0.7671,602.722],[-65.395,0.7743,614.9904],[-65.4003,0.7815,619.3693],[-65.3967,0.7905,603.4536],[-65.413,0.8157,608.9809],[-65.398,0.8213,594.0478],[-65.3917,0.8441,575.8785],[-65.3847,0.8491,578.0256],[-65.3769,0.8493,578.9136],[-65.3736,0.8646,575.7701],[-65.3519,0.873,576.4892],[-65.3564,0.8846,579.7715],[-65.3433,0.8935,562.1959],[-65.3292,0.9315,569.9811],[-65.3219,0.9279,570.2274],[-65.3028,0.9421,669.539],[-65.2775,0.9382,585.5847],[-65.27,0.9432,559.9495],[-65.2641,0.934,566.6779],[-65.2694,0.9268,607.6918],[-65.2636,0.9196,580.6873],[-65.2569,0.9252,594.1476],[-65.2408,0.921,629.6245],[-65.2213,0.9277,845.2132],[-65.2089,0.9287,621.9874],[-65.2053,0.9171,755.7933],[-65.2075,0.9068,832.8784],[-65.1972,0.9107,874.269],[-65.1825,0.9224,684.4751],[-65.165,0.9505,588.8634],[-65.1616,0.9785,632.4257],[-65.155,0.9868,562.2457],[-65.1473,1.0093,733.5228],[-65.1669,1.0113,669.3242],[-65.1695,1.0184,680.3118],[-65.1671,1.0269,860.6473],[-65.159,1.0334,758.8086],[-65.154,1.0563,687.7739],[-65.1542,1.0885,724.9499],[-65.1504,1.1073,652.9036],[-65.1551,1.1249,808.5177],[-65.1389,1.1275,623.1915],[-65.1225,1.1351,661.4462],[-65.1191,1.1464,830.6214],[-65.1031,1.1566,644.2726],[-65.0882,1.146,1151.8223],[-65.0787,1.1474,868.3364],[-65.0713,1.1534,780.7457],[-65.0609,1.1377,677.9518],[-65.0661,1.119,584.165],[-65.0613,1.1117,583.588],[-65.0458,1.1169,579.692],[-65.0222,1.1149,992.1594],[-65.0164,1.1244,1053.4646],[-65.0067,1.1288,1298.7124],[-64.9916,1.1505,1519.1295],[-64.9703,1.1729,1344.3383],[-64.9608,1.1896,1301.5952],[-64.9614,1.1982,1769.9783],[-64.9697,1.2171,1411.1771],[-64.9608,1.2302,1291.54],[-64.9516,1.2315,1555.9556],[-64.9458,1.2252,1703.6068],[-64.9436,1.2157,1131.9572],[-64.9352,1.2113,795.8475],[-64.9264,1.2146,611.8392],[-64.9144,1.2279,573.2413],[-64.9066,1.2416,589.538],[-64.9072,1.2513,588.4272],[-64.8983,1.2526,647.0631],[-64.8911,1.2482,584.4896],[-64.8866,1.2318,615.2263],[-64.8781,1.2286,676.2951],[-64.8707,1.2386,591.3612],[-64.8639,1.2621,606.109],[-64.8604,1.2685,592.2539],[-64.8616,1.2693,571.1837],[-64.8251,1.2951,819.083],[-64.8105,1.3144,870.1561],[-64.8033,1.3105,1239.3206],[-64.7891,1.2857,1454.7806],[-64.7905,1.2841,1509.7563],[-64.7829,1.2624,1898.5742],[-64.7836,1.2608,1842.9739],[-64.7805,1.2582,1569.2847],[-64.7639,1.2307,1372.4711],[-64.7575,1.2262,1441.6008],[-64.7466,1.2254,1826.0439],[-64.7225,1.2385,909.4962],[-64.7213,1.2471,785.0131],[-64.7144,1.251,935.0598],[-64.7097,1.2693,761.467],[-64.7044,1.276,812.2101],[-64.7052,1.2838,598.0004],[-64.7019,1.2912,689.1332],[-64.6847,1.2838,828.3455],[-64.6766,1.2854,1304.416],[-64.6686,1.2918,1721.2817],[-64.6602,1.2913,1710.139],[-64.6447,1.3049,1517.6019],[-64.635,1.3202,1189.7157],[-64.6241,1.3241,779.8212],[-64.6114,1.3357,713.3956],[-64.5908,1.3374,976.5349],[-64.5761,1.354,1071.339],[-64.5822,1.359,959.595],[-64.58,1.3674,872.6177],[-64.5827,1.3755,982.3507],[-64.5738,1.3835,1036.4987],[-64.5533,1.4168,607.415],[-64.5305,1.426,610.4175],[-64.5313,1.4352,602.4108],[-64.528,1.4441,598.8268],[-64.5219,1.4376,633.9633],[-64.5005,1.4426,597.5654],[-64.4872,1.4535,596.4001],[-64.4766,1.468,593.6916],[-64.4536,1.4802,619.8486],[-64.4494,1.4732,810.3942],[-64.4386,1.4718,795.7477],[-64.4247,1.4852,788.7839],[-64.4219,1.4935,692.5294],[-64.4108,1.506,764.9734],[-64.4091,1.5138,674.1974],[-64.3974,1.5268,705.5598],[-64.3836,1.5204,618.8002],[-64.3749,1.5237,590.7471],[-64.3513,1.5182,628.907],[-64.3488,1.5021,813.8895],[-64.3572,1.4838,882.5514],[-64.3788,1.4635,755.0397],[-64.3747,1.4565,804.4114],[-64.3774,1.4482,628.8271],[-64.3975,1.4243,608.0849],[-64.3936,1.4176,621.0178],[-64.4,1.3948,634.6078],[-64.3936,1.3885,620.2056],[-64.3774,1.3865,613.0018],[-64.3594,1.3899,608.5847],[-64.3569,1.3813,619.4821],[-64.3458,1.366,642.3624],[-64.338,1.3635,807.6643],[-64.3353,1.3708,659.2446]]]]}
,"properties": {"GID_2": "VEN.1.7_1","GID_0": "VEN","country": "Venezuela","GID_1": "VEN.1_1","province": "Amazonas","NL_NAME_1": "NA","county": "RíoNegro","VARNAME_2": "NA","NL_NAME_2": "NA","TYPE_2": "Municipio","ENGTYPE_2": "Municipality","CC_2": "NA","HASC_2": "NA","name": "Río_Negro.county","area_km2": 37327.07,"hist_schema_id": "Elevation0-9000","hist_area_km2": {"75": 352.5,"100": 9819.3,"125": 7648.26,"150": 1918.22,"175": 904.08,"200": 545.4,"225": 336.03,"250": 226.44,"275": 163.97,"300": 141.64,"325": 127.32,"350": 118.86,"375": 110.03,"400": 110.3,"425": 116.66,"450": 135.17,"475": 170.07,"500": 393.98,"525": 1129.05,"550": 2595.27,"575": 3624.0,"600": 2584.5,"625": 908.15,"650": 384.42,"675": 274.26,"700": 229.92,"725": 194.78,"750": 178.07,"775": 173.79,"800": 155.23,"825": 135.05,"850": 121.83,"875": 111.08,"900": 98.7,"925": 87.47,"950": 75.39,"975": 67.72,"1000": 64.65,"1025": 56.44,"1050": 52.67,"1075": 48.5,"1100": 43.05,"1125": 38.81,"1150": 33.38,"1175": 29.99,"1200": 27.49,"1225": 24.86,"1250": 22.81,"1275": 21.85,"1300": 20.2,"1325": 20.37,"1350": 19.33,"1375": 15.71,"1400": 15.07,"1425": 13.65,"1450": 13.84,"1475": 11.51,"1500": 9.5,"1525": 9.03,"1550": 9.65,"1575": 8.39,"1600": 7.63,"1625": 7.02,"1650": 7.27,"1675": 7.08,"1700": 6.19,"1725": 7.14,"1750": 8.39,"1775": 8.35,"1800": 7.33,"1825": 7.99,"1850": 10.75,"1875": 15.2,"1900": 18.95,"1925": 16.54,"1950": 14.16,"1975": 11.0,"2000": 10.73,"2025": 8.25,"2050": 6.38,"2075": 4.96,"2100": 3.54,"2125": 4.09,"2150": 4.54,"2175": 4.24,"2200": 2.73,"2225": 2.61,"2250": 2.18,"2275": 1.59,"2300": 1.7,"2325": 3.24,"2350": 1.99,"2375": 1.38,"2400": 1.8,"2425": 0.76,"2450": 0.45,"2475": 0.32}}}