{"type":"Feature","properties":{"GID_2":"VEN.6.1_1","GID_0":"VEN","country":"Venezuela","GID_1":"VEN.6_1","province":"Bolívar","NL_NAME_1":"NA","county":"Angostura","VARNAME_2":"NA","NL_NAME_2":"NA","TYPE_2":"Municipio","ENGTYPE_2":"Municipality","CC_2":"NA","HASC_2":"NA","name":"Angostura.county"},
"geometry":{"type": "MultiPolygon","coordinates": [[[[-62.1664,4.0951,603.0861],[-62.1603,4.0993,572.1074],[-62.1556,4.1068,510.1392],[-62.1548,4.1156,513.8188],[-62.1576,4.13,515.2419],[-62.1627,4.141,508.1508],[-62.1847,4.1719,501.2653],[-62.2006,4.1974,506.7136],[-62.2107,4.2383,604.3019],[-62.216,4.2512,713.8875],[-62.2259,4.2672,597.3425],[-62.2314,4.2797,483.2517],[-62.232,4.2963,550.0656],[-62.2302,4.3101,495.7224],[-62.2316,4.3185,529.5518],[-62.25,4.3395,544.5321],[-62.2565,4.3533,551.64],[-62.258,4.3605,548.2216],[-62.2554,4.3702,495.172],[-62.243,4.3974,458.6254],[-62.2398,4.421,512.3457],[-62.247,4.445,512.3712],[-62.2608,4.4684,525.0721],[-62.264,4.4777,542.5104],[-62.2643,4.4916,527.1727],[-62.2556,4.5179,511.2279],[-62.2541,4.5321,504.0652],[-62.256,4.5568,627.1545],[-62.2616,4.5727,647.0216],[-62.2753,4.6013,699.8732],[-62.3055,4.6503,684.6161],[-62.3037,4.679,504.1885],[-62.3106,4.7022,440.1778],[-62.3187,4.7131,487.563],[-62.3267,4.7203,552.7507],[-62.3713,4.7442,428.2944],[-62.3904,4.759,426.8908],[-62.3982,4.7691,446.8514],[-62.4063,4.7984,423.8185],[-62.4158,4.8096,413.2835],[-62.4222,4.8208,435.981],[-62.4288,4.8563,416.2769],[-62.4368,4.8878,405.5226],[-62.4415,4.9198,512.0964],[-62.4398,4.9517,668.2892],[-62.4322,4.977,416.4008],[-62.4141,5.0239,536.0132],[-62.3952,5.0624,438.9062],[-62.3876,5.0819,417.8336],[-62.3853,5.0986,400.0811],[-62.3875,5.1164,492.0791],[-62.3958,5.1245,572.6494],[-62.4187,5.1404,394.3962],[-62.4254,5.1503,400.5635],[-62.4403,5.1885,403.2339],[-62.4501,5.2014,404.4723],[-62.454,5.204,401.5733],[-62.5018,5.225,461.5058],[-62.5349,5.2482,428.9744],[-62.5479,5.2519,454.626],[-62.5619,5.25,628.4339],[-62.5745,5.2459,760.1443],[-62.5835,5.2476,743.8676],[-62.6317,5.3058,456.2886],[-62.6424,5.3227,481.4377],[-62.6516,5.3518,374.891],[-62.6554,5.3722,381.5196],[-62.6625,5.3848,395.4775],[-62.659,5.3994,411.3492],[-62.6593,5.4181,405.4216],[-62.6502,5.4466,412.575],[-62.6398,5.5012,578.6024],[-62.6366,5.5323,1016.2341],[-62.6207,5.6004,1050.1399],[-62.6032,5.657,1360.9485],[-62.5839,5.6984,970.2795],[-62.5472,5.7904,1830.4781],[-62.5415,5.8155,1588.7974],[-62.5396,5.8595,1631.7826],[-62.5472,5.9274,1591.6471],[-62.5525,5.9509,1542.8702],[-62.579,6.0007,1422.3818],[-62.594,6.0338,1392.4641],[-62.6098,6.0581,494.2065],[-62.6363,6.0938,539.6592],[-62.6493,6.115,670.3248],[-62.6595,6.1419,1014.4423],[-62.6596,6.1578,495.0961],[-62.6562,6.1892,488.0934],[-62.6518,6.1983,500.2159],[-62.6382,6.2051,526.0242],[-62.6299,6.2112,592.8368],[-62.62,6.2261,637.6244],[-62.5921,6.2587,924.2436],[-62.585,6.2869,1197.9349],[-62.5708,6.3172,1037.4741],[-62.5619,6.3931,903.0733],[-62.5493,6.4336,473.9383],[-62.5873,6.5071,474.451],[-62.61,6.5691,520.0316],[-62.6265,6.6881,343.089],[-62.6505,6.7298,355.356],[-62.6911,6.7425,352.848],[-62.724,6.7627,339.8177],[-62.7392,6.8033,413.5892],[-62.7467,6.8602,330.8497],[-62.7581,6.9109,323.7585],[-62.7354,6.9665,362.5996],[-62.6974,7.0045,419.514],[-62.6404,7.0881,321.4117],[-62.6316,7.1665,317.7953],[-62.6581,7.2902,276.1282],[-62.6594,7.3421,266.0],[-62.6936,7.4471,269.2958],[-62.7784,7.5345,266.0],[-62.8316,7.5864,266.0],[-62.929,7.7978,284.0357],[-62.9391,7.8762,133.18],[-62.9189,7.9395,209.1932],[-62.8771,7.9813,88.736],[-62.8172,8.0366,105.3449],[-62.8345,8.0366,88.0],[-62.8857,7.9927,88.0],[-62.9045,7.9867,139.2899],[-62.9102,7.9815,122.7714],[-62.9185,7.9699,139.3886],[-62.9431,8.1051,118.6092],[-63.7447,7.5681,174.496],[-63.7574,7.5539,179.939],[-63.7581,7.5409,195.0842],[-63.7529,7.5175,154.2685],[-63.7515,7.4916,170.2794],[-63.7481,7.4815,137.768],[-63.7359,7.4595,173.2973],[-63.7333,7.4483,112.7464],[-63.7346,7.4362,118.4444],[-63.7391,7.4296,112.194],[-63.7451,7.4269,112.0813],[-63.7552,7.427,123.0164],[-63.7704,7.4291,110.3716],[-63.7988,7.436,115.9855],[-63.812,7.436,110.3361],[-63.8342,7.4273,109.8671],[-63.8428,7.4269,112.7815],[-63.8534,7.4302,194.4673],[-63.8733,7.4427,129.7128],[-63.9014,7.4544,103.763],[-63.9138,7.4568,101.9423],[-63.92,7.4555,97.716],[-63.9082,7.4283,171.887],[-63.8999,7.4141,121.0954],[-63.8922,7.3823,168.245],[-63.8778,7.3613,126.7178],[-63.8639,7.3371,206.4291],[-63.8354,7.3033,280.3283],[-63.822,7.2775,216.6802],[-63.8124,7.2639,182.1983],[-63.8013,7.2326,253.3047],[-63.7943,7.2201,238.2076],[-63.7745,7.2054,206.3378],[-63.7533,7.1825,283.114],[-63.7338,7.1499,254.9641],[-63.7188,7.1163,240.4803],[-63.7156,7.1049,251.4644],[-63.7087,7.0643,290.5714],[-63.6995,7.0456,318.9723],[-63.696,7.0334,352.1495],[-63.6939,7.0193,338.3457],[-63.6954,7.0082,331.13],[-63.6989,6.9972,296.0686],[-63.6991,6.9886,272.5204],[-63.697,6.9793,260.5074],[-63.6812,6.9518,274.362],[-63.6795,6.9437,277.9445],[-63.6778,6.9083,297.1452],[-63.683,6.8742,290.6976],[-63.6802,6.8378,289.9356],[-63.6827,6.8198,273.5223],[-63.68,6.8088,261.3111],[-63.6711,6.7901,271.4418],[-63.6667,6.776,271.1854],[-63.6608,6.7281,267.5284],[-63.6408,6.6552,339.079],[-63.613,6.5956,324.9271],[-63.6121,6.5852,305.0233],[-63.6148,6.5802,302.671],[-63.6207,6.5747,290.8945],[-63.6339,6.5656,315.6103],[-63.6838,6.5374,321.9449],[-63.7182,6.536,293.6949],[-63.7248,6.5343,298.6042],[-63.7372,6.5273,286.3898],[-63.7499,6.524,300.2413],[-63.8079,6.5359,330.8524],[-63.8286,6.5328,351.4461],[-63.8349,6.5277,329.1537],[-63.8405,6.5163,342.9528],[-63.8451,6.4913,331.3546],[-63.8523,6.4766,334.157],[-63.859,6.4722,333.0291],[-63.8656,6.4706,293.488],[-63.8901,6.4688,319.0488],[-63.9131,6.4629,338.3428],[-63.9444,6.445,289.1178],[-63.9583,6.4221,297.827],[-63.9605,6.4125,333.3238],[-63.9606,6.3754,339.305],[-63.9553,6.3452,343.5889],[-63.9445,6.323,333.366],[-63.9344,6.3103,324.8236],[-63.9303,6.299,311.5361],[-63.9268,6.2818,319.155],[-63.9202,6.2775,313.7209],[-63.9119,6.2749,315.9706],[-63.8885,6.2716,303.5559],[-63.8798,6.268,301.7955],[-63.8751,6.2621,298.8551],[-63.8714,6.2495,326.7014],[-63.871,6.2403,311.9725],[-63.8738,6.2244,301.7982],[-63.877,6.2188,292.8601],[-63.8877,6.2109,314.3416],[-63.9264,6.1944,326.1331],[-63.9357,6.1929,325.1334],[-63.963,6.1945,323.2628],[-64.0005,6.2119,316.1423],[-64.0225,6.2188,325.123],[-64.0487,6.2211,321.4727],[-64.0683,6.2122,305.451],[-64.0724,6.2062,308.938],[-64.0739,6.1988,314.1727],[-64.0723,6.1841,325.9203],[-64.0682,6.1774,330.7343],[-64.0591,6.1733,325.454],[-64.0219,6.1645,317.7574],[-64.0027,6.153,326.2826],[-63.9788,6.1467,327.5179],[-63.9488,6.133,322.1762],[-63.9279,6.1205,320.6237],[-63.913,6.1026,310.558],[-63.9074,6.0887,310.4225],[-63.9062,6.0399,309.4],[-63.9001,6.0001,315.8973],[-63.8998,5.9836,317.8604],[-63.8972,5.9731,306.3444],[-63.8582,5.8849,394.3396],[-63.8466,5.8499,293.5],[-63.8341,5.8015,1157.033],[-63.7939,5.6975,464.025],[-63.7608,5.653,313.3329],[-63.7403,5.6089,334.0172],[-63.716,5.5742,327.986],[-63.6955,5.5532,321.7607],[-63.6906,5.545,330.7812],[-63.6875,5.5354,352.7154],[-63.6695,5.5269,350.2762],[-63.6496,5.5147,329.6597],[-63.6339,5.5174,318.5773],[-63.6057,5.4921,331.7145],[-63.5831,5.4658,326.7656],[-63.5742,5.4505,327.86],[-63.5681,5.4348,348.0045],[-63.5643,5.3939,338.8224],[-63.5679,5.3623,344.0119],[-63.5628,5.3436,452.1995],[-63.5472,5.3185,498.7315],[-63.5378,5.2971,637.2015],[-63.5367,5.2763,631.2988],[-63.5457,5.2387,500.993],[-63.5621,5.1893,335.1742],[-63.5695,5.1755,329.7255],[-63.5873,5.1509,333.2685],[-63.6013,5.1343,325.8405],[-63.6117,5.1259,404.6097],[-63.6174,5.1227,466.9412],[-63.6403,5.1182,467.7143],[-63.6487,5.1141,354.249],[-63.6531,5.109,411.9572],[-63.6598,5.096,348.002],[-63.6646,5.074,362.483],[-63.6684,5.0388,369.5612],[-63.6742,5.0235,411.2714],[-63.696,4.9861,385.4077],[-63.7009,4.9742,354.7297],[-63.7095,4.9404,498.7881],[-63.7246,4.9074,1156.9659],[-63.7273,4.891,1203.6779],[-63.7269,4.871,1377.1733],[-63.7333,4.8292,425.6167],[-63.7251,4.7957,679.5284],[-63.7216,4.7704,468.6243],[-63.7169,4.7519,384.606],[-63.695,4.7251,423.5051],[-63.6749,4.6936,414.5522],[-63.6657,4.6742,389.6483],[-63.6629,4.6424,361.4821],[-63.651,4.6106,404.8423],[-63.6517,4.5779,378.8967],[-63.6502,4.5703,388.5624],[-63.6349,4.5368,407.1171],[-63.6207,4.481,784.3508],[-63.6191,4.4556,999.0811],[-63.6223,4.4158,1264.7904],[-63.6202,4.4047,1257.6641],[-63.5938,4.3636,1312.4917],[-63.5895,4.344,1353.6836],[-63.5828,4.332,1098.7157],[-63.5729,4.3192,1187.3456],[-63.5406,4.304,1162.126],[-63.5161,4.2889,1079.5957],[-63.5096,4.2797,1077.1604],[-63.5053,4.2619,1052.2362],[-63.4993,4.2455,953.0872],[-63.4898,4.2296,920.2008],[-63.4773,4.2205,890.1989],[-63.465,4.2068,866.6723],[-63.4637,4.1757,1013.738],[-63.473,4.1549,1158.0886],[-63.4778,4.1532,1201.9739],[-63.5181,4.1493,936.1823],[-63.5008,4.1436,963.638],[-63.4914,4.1386,1043.4186],[-63.4812,4.1236,1101.2784],[-63.4753,4.1178,1228.7769],[-63.4521,4.1056,1177.8431],[-63.4351,4.0936,1143.6499],[-63.419,4.0757,717.1411],[-63.4073,4.059,728.2907],[-63.367,3.9671,924.1124],[-63.3534,3.9602,981.2128],[-63.3311,3.9605,688.7383],[-63.3246,3.9638,880.0859],[-63.3127,3.9604,941.1133],[-63.3149,3.9685,939.6564],[-63.311,3.9818,914.1277],[-63.2983,3.9765,830.2977],[-63.2924,3.9704,763.3456],[-63.2866,3.9726,727.5312],[-63.2808,3.9551,613.3194],[-63.2541,3.9615,708.8923],[-63.2475,3.9545,694.423],[-63.2049,3.9513,1186.9167],[-63.2221,3.8985,949.6363],[-63.2335,3.8815,1095.3722],[-63.2322,3.8507,1178.8827],[-63.2271,3.8446,1134.3151],[-63.2266,3.8354,1169.957],[-63.2044,3.8115,1013.5571],[-63.1958,3.8151,889.9724],[-63.1796,3.8129,952.5435],[-63.1646,3.8049,991.1752],[-63.1513,3.806,863.5215],[-63.1357,3.8024,969.3583],[-63.1233,3.8046,1005.7377],[-63.1033,3.7932,1030.6464],[-63.0869,3.7785,1052.5688],[-63.0824,3.7671,1139.5952],[-63.0696,3.7529,1174.4583],[-63.0608,3.7518,1256.7137],[-63.0591,3.7474,1254.0598],[-63.0591,3.7404,1226.0132],[-63.0635,3.7338,1211.9321],[-63.0635,3.7049,1266.5697],[-63.0705,3.6963,1254.3469],[-63.0813,3.6932,1290.0674],[-63.073,3.6854,1245.0479],[-63.0324,3.6657,1325.1162],[-63.0269,3.6501,1355.5552],[-63.0155,3.6451,1357.4604],[-63.0032,3.6246,1286.5293],[-62.9908,3.6121,1374.145],[-62.9849,3.6096,1341.7993],[-62.9656,3.6106,1364.4404],[-62.9602,3.6076,1366.967],[-62.9525,3.6118,1389.0842],[-62.9291,3.6393,1409.5541],[-62.9221,3.6526,1392.6342],[-62.9191,3.6724,1328.1163],[-62.9088,3.671,1357.9576],[-62.8869,3.6835,1441.4078],[-62.8724,3.699,1483.4978],[-62.853,3.7118,1516.6931],[-62.8358,3.7385,1449.3721],[-62.8194,3.7315,1425.3071],[-62.8102,3.7326,1430.1613],[-62.8044,3.7296,1259.7472],[-62.798,3.7207,1161.1542],[-62.7899,3.7176,1202.0259],[-62.7849,3.6996,1284.2341],[-62.776,3.6971,1313.8164],[-62.7707,3.6882,1349.467],[-62.7485,3.6726,1423.0594],[-62.7438,3.6732,1356.6304],[-62.7441,3.6838,1438.3367],[-62.7369,3.689,1342.9771],[-62.7366,3.699,1370.2239],[-62.731,3.7076,1172.4712],[-62.7349,3.7193,1333.4316],[-62.7344,3.7376,1331.1387],[-62.7399,3.7563,1325.6472],[-62.7357,3.779,1384.7327],[-62.7435,3.7871,1273.87],[-62.7383,3.7912,1359.8827],[-62.7354,3.8002,1385.9591],[-62.7499,3.8174,1393.2323],[-62.7713,3.834,1188.0051],[-62.7716,3.8396,993.9348],[-62.7538,3.8496,777.1915],[-62.7585,3.8543,932.8658],[-62.7574,3.8596,939.6506],[-62.7691,3.8671,658.5334],[-62.776,3.8751,766.6475],[-62.7763,3.8813,558.0392],[-62.7888,3.8932,579.6172],[-62.7874,3.9146,631.462],[-62.7832,3.9168,634.4451],[-62.7827,3.9218,624.7527],[-62.7866,3.9293,715.9446],[-62.783,3.9343,860.613],[-62.7619,3.9415,744.9581],[-62.7432,3.9743,764.8735],[-62.7624,3.984,864.2117],[-62.7688,4.0062,798.2587],[-62.7666,4.0124,815.3997],[-62.7496,4.0207,961.1595],[-62.7535,4.0313,759.6672],[-62.7485,4.0349,675.6217],[-62.736,4.0399,641.0959],[-62.7322,4.0358,616.1755],[-62.7157,4.0356,960.1718],[-62.7047,4.0328,978.0306],[-62.6866,4.0323,1010.0482],[-62.6765,4.0342,921.1641],[-62.6628,4.0395,880.9703],[-62.6414,4.0516,729.0289],[-62.626,4.0544,741.8843],[-62.6068,4.0502,662.1249],[-62.5882,4.038,730.7433],[-62.5782,4.0348,767.248],[-62.5562,4.0292,744.324],[-62.544,4.0303,626.5945],[-62.5353,4.0342,591.3332],[-62.5272,4.0561,712.611],[-62.5245,4.0593,704.059],[-62.5201,4.0764,673.4535],[-62.5146,4.0839,574.2111],[-62.5098,4.0872,567.785],[-62.4967,4.0904,569.3115],[-62.4589,4.106,562.8816],[-62.4224,4.1181,596.9861],[-62.4018,4.1223,525.1089],[-62.3878,4.1287,540.1535],[-62.3619,4.1475,518.8199],[-62.3555,4.1503,520.5681],[-62.3321,4.141,566.493],[-62.2697,4.1419,528.8027],[-62.2489,4.1386,573.6041],[-62.2331,4.1319,511.4604],[-62.2038,4.1158,508.2439],[-62.1912,4.107,511.1046],[-62.1664,4.0951,603.0861]]]]}}