{"type":"Feature","properties":{"GID_2":"VEN.12.2_1","GID_0":"VEN","country":"Venezuela","GID_1":"VEN.12_1","province":"Falcón","NL_NAME_1":"NA","county":"Bolívar","VARNAME_2":"NA","NL_NAME_2":"NA","TYPE_2":"Municipio","ENGTYPE_2":"Municipality","CC_2":"NA","HASC_2":"NA","name":"Bolívar.county"},
"geometry":{"type": "MultiPolygon","coordinates": [[[[-69.8546,10.9121,311.5827],[-69.8472,10.9305,260.7307],[-69.8383,10.9469,225.7884],[-69.8326,10.9539,210.7659],[-69.8255,10.9586,207.5997],[-69.8172,10.9612,233.4196],[-69.806,10.9624,263.1754],[-69.7928,10.9614,311.8031],[-69.7807,10.9741,253.6548],[-69.757,10.9845,421.5344],[-69.7399,10.9978,378.9664],[-69.7219,11.0063,328.5665],[-69.7095,11.0149,280.7243],[-69.6991,11.0177,310.5591],[-69.6886,11.0301,329.7845],[-69.6791,11.0244,384.2786],[-69.6744,11.0263,447.8517],[-69.6611,11.0405,285.0186],[-69.6611,11.0472,280.3603],[-69.6469,11.0595,325.9924],[-69.6412,11.069,306.5337],[-69.6488,11.0737,296.6075],[-69.6649,11.076599999999999,303.737],[-69.6687,11.0794,304.912],[-69.6716,11.0927,346.5046],[-69.681,11.0984,397.8784],[-69.7019,11.0984,419.7839],[-69.7114,11.0965,496.7851],[-69.7124,11.0946,476.8709],[-69.7304,11.0956,645.8846],[-69.7352,11.0994,749.163],[-69.7636,11.1136,1027.4521],[-69.7703,11.1183,1067.4321],[-69.7798,11.1288,1088.0481],[-69.7931,11.1345,967.3352],[-69.8035,11.1411,934.1495],[-69.8244,11.1582,934.7657],[-69.8405,11.1639,1233.8042],[-69.8557,11.1734,883.1882],[-69.883,11.1828,565.1052],[-69.9006,11.1698,1028.7611],[-69.9691,11.1271,95.3604],[-69.9791,11.1189,124.5482],[-69.9865,11.1101,144.0699],[-69.9965,11.0753,134.015],[-69.9952,11.0578,144.4274],[-69.989,11.0438,150.6479],[-69.9902,11.0336,156.6953],[-69.9967,11.0149,165.8229],[-70.0054,10.9671,219.3412],[-70.0111,10.9063,400.2844],[-70.0113,10.8847,421.5677],[-69.8546,10.9121,311.5827]]]]}}